<?xml version="1.0" encoding="UTF-8"?>
<gpx xmlns="Amud Anan http://amudanan.co.il/" version="1.0" xmlns:xsi="http://www.w3.org/2001/XMLSchema-instance" xsi:schemaLocation="http://www.topografix.com/GPX/1/0 http://www.topografix.com/GPX/1/0/gpx.xsd"><trk><name>Amud Anan</name><trkseg><trkpt lon="35.368249067173" lat="31.17793830977"/><trkpt lon="35.366489538059" lat="31.177754725547"/><trkpt lon="35.364944585667" lat="31.178232043788"/><trkpt lon="35.364086278782" lat="31.17793830977"/><trkpt lon="35.363485463963" lat="31.177387556032"/><trkpt lon="35.362805871914" lat="31.177150880241"/><trkpt lon="35.361496953914" lat="31.177793427563"/><trkpt lon="35.360195804087" lat="31.177625210149"/><trkpt lon="35.35931603953" lat="31.177992378742"/><trkpt lon="35.358779597727" lat="31.177863869896"/><trkpt lon="35.358151223814" lat="31.177267339506"/><trkpt lon="35.356777932799" lat="31.176753299141"/><trkpt lon="35.35669210211" lat="31.17611074476"/><trkpt lon="35.355919625914" lat="31.175541621525"/><trkpt lon="35.355533387816" lat="31.175211161303"/><trkpt lon="35.355554845488" lat="31.174550237399"/><trkpt lon="35.356091287291" lat="31.173962745612"/><trkpt lon="35.356670644438" lat="31.173485405851"/><trkpt lon="35.356799390471" lat="31.172842829297"/><trkpt lon="35.356055773486" lat="31.171969824554"/><trkpt lon="35.355412043323" lat="31.171180360114"/><trkpt lon="35.354897059192" lat="31.170592847423"/><trkpt lon="35.354489363422" lat="31.16958305147"/><trkpt lon="35.353888548602" lat="31.168665045807"/><trkpt lon="35.353373564472" lat="31.168095877828"/><trkpt lon="35.353201903095" lat="31.167618508499"/><trkpt lon="35.353437937488" lat="31.167067694746"/><trkpt lon="35.351129399834" lat="31.162998279287"/><trkpt lon="35.351107942162" lat="31.162539245662"/><trkpt lon="35.350678788719" lat="31.16219037862"/><trkpt lon="35.350635873375" lat="31.160188958659"/><trkpt lon="35.350066480611" lat="31.159788213946"/><trkpt lon="35.349615869496" lat="31.159127182427"/><trkpt lon="35.349594411824" lat="31.158429421932"/><trkpt lon="35.349294004414" lat="31.158043815244"/><trkpt lon="35.348802564373" lat="31.157532154653"/><trkpt lon="35.348802564373" lat="31.156999644724"/><trkpt lon="35.348824022045" lat="31.156393681509"/><trkpt lon="35.349124429455" lat="31.155897890543"/><trkpt lon="35.349617955913" lat="31.155548999049"/><trkpt lon="35.350025651684" lat="31.15520010627"/><trkpt lon="35.350240228405" lat="31.154906300829"/><trkpt lon="35.349961278667" lat="31.154539042746"/><trkpt lon="35.349811074962" lat="31.15419014625"/><trkpt lon="35.350368974438" lat="31.153657617542"/><trkpt lon="35.350519178142" lat="31.153327080977"/><trkpt lon="35.350132940044" lat="31.153014906496"/><trkpt lon="35.350068567028" lat="31.152702730987"/><trkpt lon="35.350647924175" lat="31.152151830522"/><trkpt lon="35.35106077218" lat="31.151587040149"/><trkpt lon="35.351275348901" lat="31.151274859937"/><trkpt lon="35.352198028802" lat="31.151072860429"/><trkpt lon="35.352841758966" lat="31.150760678524"/><trkpt lon="35.353549862146" lat="31.150595405334"/><trkpt lon="35.354086303949" lat="31.150632132735"/><trkpt lon="35.354451084375" lat="31.150044492621"/><trkpt lon="35.35470857644" lat="31.149291573402"/><trkpt lon="35.355159187555" lat="31.148630468669"/><trkpt lon="35.355373764276" lat="31.148281550423"/><trkpt lon="35.355996036768" lat="31.148208093787"/><trkpt lon="35.356768512964" lat="31.148097908726"/><trkpt lon="35.357283497095" lat="31.148281550423"/><trkpt lon="35.35794868493" lat="31.14831827872"/><trkpt lon="35.358270550012" lat="31.147620438647"/><trkpt lon="35.35824909234" lat="31.147142966163"/><trkpt lon="35.358678245782" lat="31.14740006703"/><trkpt lon="35.358764076471" lat="31.147987723536"/><trkpt lon="35.359150314569" lat="31.148042816147"/><trkpt lon="35.360180282831" lat="31.148024451947"/><trkpt lon="35.360351944208" lat="31.148501919991"/><trkpt lon="35.361145878076" lat="31.14831827872"/><trkpt lon="35.362175846338" lat="31.148501919991"/><trkpt lon="35.36290540719" lat="31.149016113657"/><trkpt lon="35.363636622189" lat="31.149506133906"/><trkpt lon="35.364344725369" lat="31.14987341149"/><trkpt lon="35.365031370876" lat="31.150093777357"/></trkseg></trk></gpx>
