<?xml version="1.0" encoding="UTF-8"?><gpx creator="Wikiloc - https://www.wikiloc.com" version="1.1" xmlns="http://www.topografix.com/GPX/1/1" xmlns:xsi="http://www.w3.org/2001/XMLSchema-instance" xsi:schemaLocation="http://www.topografix.com/GPX/1/1 http://www.topografix.com/GPX/1/1/gpx.xsd"><metadata><name>Wikiloc - הר אדיר, נחל פער</name><author><name>shemesh</name><link href="https://www.wikiloc.com/wikiloc/user.do?id=460874"><text>shemesh on Wikiloc</text></link></author><link href="https://www.wikiloc.com/hiking-trails/hr-adyr-nkhl-pr-6606022"><text>הר אדיר, נחל פער on Wikiloc</text></link><time>2014-04-16T15:33:17Z</time></metadata><trk><name>הר אדיר, נחל פער</name><cmt></cmt><desc></desc><trkseg><trkpt lat="33.029102" lon="35.377894"><ele>818.527</ele><time>2014-04-16T12:25:43Z</time></trkpt><trkpt lat="33.029467" lon="35.378034"><ele>836.568</ele><time>2014-04-16T12:30:25Z</time></trkpt><trkpt lat="33.030368" lon="35.378149"><ele>827.814</ele><time>2014-04-16T12:32:04Z</time></trkpt><trkpt lat="33.030493" lon="35.377827"><ele>824.107</ele><time>2014-04-16T12:32:52Z</time></trkpt><trkpt lat="33.030403" lon="35.377382"><ele>831.088</ele><time>2014-04-16T12:33:37Z</time></trkpt><trkpt lat="33.030621" lon="35.377008"><ele>838.348</ele><time>2014-04-16T12:35:19Z</time></trkpt><trkpt lat="33.031171" lon="35.376593"><ele>866.592</ele><time>2014-04-16T12:39:53Z</time></trkpt><trkpt lat="33.031284" lon="35.375946"><ele>880.588</ele><time>2014-04-16T12:41:38Z</time></trkpt><trkpt lat="33.031790" lon="35.375497"><ele>900.532</ele><time>2014-04-16T12:44:23Z</time></trkpt><trkpt lat="33.032164" lon="35.375477"><ele>907.864</ele><time>2014-04-16T12:45:05Z</time></trkpt><trkpt lat="33.032144" lon="35.375342"><ele>909.524</ele><time>2014-04-16T12:46:02Z</time></trkpt><trkpt lat="33.032167" lon="35.375451"><ele>898.711</ele><time>2014-04-16T12:47:26Z</time></trkpt><trkpt lat="33.032616" lon="35.375286"><ele>918.721</ele><time>2014-04-16T12:49:05Z</time></trkpt><trkpt lat="33.032257" lon="35.375071"><ele>910.403</ele><time>2014-04-16T12:49:47Z</time></trkpt><trkpt lat="33.031941" lon="35.374677"><ele>932.307</ele><time>2014-04-16T12:50:38Z</time></trkpt><trkpt lat="33.031474" lon="35.374275"><ele>940.287</ele><time>2014-04-16T12:52:08Z</time></trkpt><trkpt lat="33.031268" lon="35.374272"><ele>943.737</ele><time>2014-04-16T12:53:02Z</time></trkpt><trkpt lat="33.031092" lon="35.373965"><ele>959.381</ele><time>2014-04-16T12:54:02Z</time></trkpt><trkpt lat="33.031252" lon="35.373569"><ele>960.177</ele><time>2014-04-16T12:55:11Z</time></trkpt><trkpt lat="33.031215" lon="35.373586"><ele>969.921</ele><time>2014-04-16T12:57:11Z</time></trkpt><trkpt lat="33.031511" lon="35.373282"><ele>967.543</ele><time>2014-04-16T12:58:11Z</time></trkpt><trkpt lat="33.031370" lon="35.373057"><ele>974.343</ele><time>2014-04-16T12:58:29Z</time></trkpt><trkpt lat="33.031351" lon="35.372290"><ele>974.286</ele><time>2014-04-16T12:59:38Z</time></trkpt><trkpt lat="33.031509" lon="35.371480"><ele>966.760</ele><time>2014-04-16T13:01:35Z</time></trkpt><trkpt lat="33.031587" lon="35.371237"><ele>949.626</ele><time>2014-04-16T13:01:53Z</time></trkpt><trkpt lat="33.031878" lon="35.370412"><ele>955.507</ele><time>2014-04-16T13:02:47Z</time></trkpt><trkpt lat="33.032027" lon="35.370225"><ele>969.064</ele><time>2014-04-16T13:03:05Z</time></trkpt><trkpt lat="33.031923" lon="35.370093"><ele>964.184</ele><time>2014-04-16T13:03:11Z</time></trkpt><trkpt lat="33.032058" lon="35.369546"><ele>953.848</ele><time>2014-04-16T13:03:44Z</time></trkpt><trkpt lat="33.032312" lon="35.368930"><ele>946.914</ele><time>2014-04-16T13:04:29Z</time></trkpt><trkpt lat="33.032380" lon="35.369508"><ele>950.788</ele><time>2014-04-16T13:05:11Z</time></trkpt><trkpt lat="33.033027" lon="35.369421"><ele>965.920</ele><time>2014-04-16T13:06:05Z</time></trkpt><trkpt lat="33.033230" lon="35.369501"><ele>951.690</ele><time>2014-04-16T13:06:23Z</time></trkpt><trkpt lat="33.033253" lon="35.369603"><ele>965.993</ele><time>2014-04-16T13:06:35Z</time></trkpt><trkpt lat="33.033527" lon="35.369762"><ele>974.865</ele><time>2014-04-16T13:07:02Z</time></trkpt><trkpt lat="33.033733" lon="35.369766"><ele>970.221</ele><time>2014-04-16T13:08:11Z</time></trkpt><trkpt lat="33.033723" lon="35.369665"><ele>962.407</ele><time>2014-04-16T13:09:35Z</time></trkpt><trkpt lat="33.033783" lon="35.369708"><ele>970.835</ele><time>2014-04-16T13:10:20Z</time></trkpt><trkpt lat="33.033234" lon="35.369489"><ele>969.455</ele><time>2014-04-16T13:16:51Z</time></trkpt><trkpt lat="33.033144" lon="35.369087"><ele>964.169</ele><time>2014-04-16T13:17:21Z</time></trkpt><trkpt lat="33.033633" lon="35.368817"><ele>954.815</ele><time>2014-04-16T13:18:30Z</time></trkpt><trkpt lat="33.034076" lon="35.368969"><ele>942.659</ele><time>2014-04-16T13:19:24Z</time></trkpt><trkpt lat="33.034567" lon="35.367575"><ele>914.191</ele><time>2014-04-16T13:22:45Z</time></trkpt><trkpt lat="33.034206" lon="35.367188"><ele>917.511</ele><time>2014-04-16T13:23:48Z</time></trkpt><trkpt lat="33.034123" lon="35.367008"><ele>907.172</ele><time>2014-04-16T13:24:24Z</time></trkpt><trkpt lat="33.034084" lon="35.367110"><ele>900.013</ele><time>2014-04-16T13:27:09Z</time></trkpt><trkpt lat="33.033768" lon="35.366797"><ele>890.514</ele><time>2014-04-16T13:28:36Z</time></trkpt><trkpt lat="33.033663" lon="35.366059"><ele>875.207</ele><time>2014-04-16T13:30:18Z</time></trkpt><trkpt lat="33.033794" lon="35.365670"><ele>867.983</ele><time>2014-04-16T13:31:03Z</time></trkpt><trkpt lat="33.034382" lon="35.364629"><ele>860.313</ele><time>2014-04-16T13:33:42Z</time></trkpt><trkpt lat="33.034566" lon="35.363922"><ele>861.617</ele><time>2014-04-16T13:34:39Z</time></trkpt><trkpt lat="33.034754" lon="35.363314"><ele>845.633</ele><time>2014-04-16T13:36:00Z</time></trkpt><trkpt lat="33.034972" lon="35.363203"><ele>832.677</ele><time>2014-04-16T13:36:51Z</time></trkpt><trkpt lat="33.035014" lon="35.362763"><ele>823.169</ele><time>2014-04-16T13:38:15Z</time></trkpt><trkpt lat="33.035495" lon="35.361776"><ele>803.359</ele><time>2014-04-16T13:41:39Z</time></trkpt><trkpt lat="33.035506" lon="35.361897"><ele>804.258</ele><time>2014-04-16T13:42:33Z</time></trkpt><trkpt lat="33.036213" lon="35.361845"><ele>797.352</ele><time>2014-04-16T13:45:39Z</time></trkpt><trkpt lat="33.036949" lon="35.361569"><ele>789.017</ele><time>2014-04-16T13:46:42Z</time></trkpt><trkpt lat="33.037080" lon="35.361345"><ele>784.207</ele><time>2014-04-16T13:46:57Z</time></trkpt><trkpt lat="33.037073" lon="35.360937"><ele>776.011</ele><time>2014-04-16T13:47:21Z</time></trkpt><trkpt lat="33.036302" lon="35.360513"><ele>774.881</ele><time>2014-04-16T13:50:12Z</time></trkpt><trkpt lat="33.036068" lon="35.359657"><ele>749.385</ele><time>2014-04-16T13:51:09Z</time></trkpt><trkpt lat="33.035694" lon="35.358690"><ele>735.691</ele><time>2014-04-16T13:52:15Z</time></trkpt><trkpt lat="33.035515" lon="35.358534"><ele>735.835</ele><time>2014-04-16T13:52:30Z</time></trkpt><trkpt lat="33.035470" lon="35.357956"><ele>711.057</ele><time>2014-04-16T13:53:06Z</time></trkpt><trkpt lat="33.035064" lon="35.357574"><ele>710.397</ele><time>2014-04-16T13:53:45Z</time></trkpt><trkpt lat="33.034949" lon="35.357568"><ele>729.245</ele><time>2014-04-16T13:54:26Z</time></trkpt><trkpt lat="33.034408" lon="35.357300"><ele>735.647</ele><time>2014-04-16T13:55:54Z</time></trkpt><trkpt lat="33.034191" lon="35.356987"><ele>722.611</ele><time>2014-04-16T13:56:21Z</time></trkpt><trkpt lat="33.033327" lon="35.356455"><ele>714.907</ele><time>2014-04-16T13:57:48Z</time></trkpt><trkpt lat="33.033085" lon="35.356375"><ele>726.370</ele><time>2014-04-16T13:58:03Z</time></trkpt><trkpt lat="33.032265" lon="35.356655"><ele>706.310</ele><time>2014-04-16T13:59:15Z</time></trkpt><trkpt lat="33.032288" lon="35.356821"><ele>715.574</ele><time>2014-04-16T14:00:39Z</time></trkpt><trkpt lat="33.032360" lon="35.356731"><ele>713.710</ele><time>2014-04-16T14:01:21Z</time></trkpt><trkpt lat="33.032182" lon="35.356447"><ele>705.384</ele><time>2014-04-16T14:01:51Z</time></trkpt><trkpt lat="33.031940" lon="35.356169"><ele>712.946</ele><time>2014-04-16T14:02:15Z</time></trkpt><trkpt lat="33.031588" lon="35.356222"><ele>729.466</ele><time>2014-04-16T14:02:57Z</time></trkpt><trkpt lat="33.031246" lon="35.356254"><ele>706.912</ele><time>2014-04-16T14:03:54Z</time></trkpt><trkpt lat="33.030486" lon="35.356587"><ele>717.332</ele><time>2014-04-16T14:04:57Z</time></trkpt><trkpt lat="33.029894" lon="35.356495"><ele>714.305</ele><time>2014-04-16T14:05:51Z</time></trkpt><trkpt lat="33.029510" lon="35.356382"><ele>735.407</ele><time>2014-04-16T14:06:18Z</time></trkpt><trkpt lat="33.029029" lon="35.356380"><ele>732.137</ele><time>2014-04-16T14:06:54Z</time></trkpt><trkpt lat="33.028959" lon="35.356256"><ele>724.497</ele><time>2014-04-16T14:07:03Z</time></trkpt><trkpt lat="33.029097" lon="35.356270"><ele>712.621</ele><time>2014-04-16T14:07:27Z</time></trkpt><trkpt lat="33.023002" lon="35.357864"><ele>671.347</ele><time>2014-04-16T14:34:39Z</time></trkpt><trkpt lat="33.023619" lon="35.358454"><ele>685.811</ele><time>2014-04-16T14:35:59Z</time></trkpt><trkpt lat="33.023760" lon="35.358972"><ele>685.433</ele><time>2014-04-16T14:36:47Z</time></trkpt><trkpt lat="33.024337" lon="35.359213"><ele>678.523</ele><time>2014-04-16T14:37:41Z</time></trkpt><trkpt lat="33.024484" lon="35.359421"><ele>685.727</ele><time>2014-04-16T14:37:59Z</time></trkpt><trkpt lat="33.024526" lon="35.359921"><ele>693.068</ele><time>2014-04-16T14:38:35Z</time></trkpt><trkpt lat="33.024940" lon="35.361159"><ele>690.014</ele><time>2014-04-16T14:40:38Z</time></trkpt><trkpt lat="33.025550" lon="35.362308"><ele>703.407</ele><time>2014-04-16T14:42:17Z</time></trkpt><trkpt lat="33.026563" lon="35.363411"><ele>708.298</ele><time>2014-04-16T14:44:29Z</time></trkpt><trkpt lat="33.027687" lon="35.365097"><ele>719.968</ele><time>2014-04-16T14:50:23Z</time></trkpt><trkpt lat="33.027771" lon="35.365595"><ele>727.142</ele><time>2014-04-16T14:53:30Z</time></trkpt><trkpt lat="33.027768" lon="35.365579"><ele>737.698</ele><time>2014-04-16T14:55:03Z</time></trkpt><trkpt lat="33.027901" lon="35.366405"><ele>713.442</ele><time>2014-04-16T14:57:32Z</time></trkpt><trkpt lat="33.028087" lon="35.367126"><ele>729.964</ele><time>2014-04-16T14:59:05Z</time></trkpt><trkpt lat="33.027926" lon="35.368110"><ele>727.424</ele><time>2014-04-16T15:01:26Z</time></trkpt><trkpt lat="33.027918" lon="35.368895"><ele>748.867</ele><time>2014-04-16T15:03:35Z</time></trkpt><trkpt lat="33.027715" lon="35.369309"><ele>750.781</ele><time>2014-04-16T15:04:35Z</time></trkpt><trkpt lat="33.027623" lon="35.370572"><ele>754.019</ele><time>2014-04-16T15:06:50Z</time></trkpt><trkpt lat="33.027704" lon="35.370872"><ele>768.907</ele><time>2014-04-16T15:07:23Z</time></trkpt><trkpt lat="33.027609" lon="35.370941"><ele>763.342</ele><time>2014-04-16T15:17:05Z</time></trkpt><trkpt lat="33.027685" lon="35.370879"><ele>763.622</ele><time>2014-04-16T15:18:26Z</time></trkpt><trkpt lat="33.027692" lon="35.371202"><ele>764.896</ele><time>2014-04-16T15:19:02Z</time></trkpt><trkpt lat="33.027497" lon="35.372333"><ele>769.852</ele><time>2014-04-16T15:20:50Z</time></trkpt><trkpt lat="33.027613" lon="35.373149"><ele>780.696</ele><time>2014-04-16T15:22:23Z</time></trkpt><trkpt lat="33.027776" lon="35.373352"><ele>779.878</ele><time>2014-04-16T15:23:17Z</time></trkpt><trkpt lat="33.027866" lon="35.374551"><ele>794.518</ele><time>2014-04-16T15:25:38Z</time></trkpt><trkpt lat="33.027762" lon="35.374789"><ele>787.744</ele><time>2014-04-16T15:26:11Z</time></trkpt><trkpt lat="33.027767" lon="35.376119"><ele>810.905</ele><time>2014-04-16T15:28:32Z</time></trkpt><trkpt lat="33.028529" lon="35.377187"><ele>830.015</ele><time>2014-04-16T15:31:11Z</time></trkpt><trkpt lat="33.028872" lon="35.377891"><ele>816.107</ele><time>2014-04-16T15:32:20Z</time></trkpt><trkpt lat="33.029316" lon="35.377907"><ele>817.130</ele><time>2014-04-16T15:33:17Z</time></trkpt></trkseg></trk></gpx>