<?xml version="1.0" encoding="UTF-8"?>
<gpx xmlns="Amud Anan http://amudanan.co.il/" version="1.0" xmlns:xsi="http://www.w3.org/2001/XMLSchema-instance" xsi:schemaLocation="http://www.topografix.com/GPX/1/0 http://www.topografix.com/GPX/1/0/gpx.xsd"><trk><name>Amud Anan</name><trkseg><trkpt lon="34.926581425699" lat="32.532339820119"/><trkpt lon="34.925594372781" lat="32.532448364294"/><trkpt lon="34.924778981241" lat="32.531688552315"/><trkpt lon="34.923276944192" lat="32.53103727979"/><trkpt lon="34.921860737832" lat="32.530747823819"/><trkpt lon="34.920487446817" lat="32.531507643754"/><trkpt lon="34.919586224588" lat="32.531760915638"/><trkpt lon="34.919242901834" lat="32.532954902042"/><trkpt lon="34.91778378013" lat="32.533171988774"/><trkpt lon="34.916925473245" lat="32.53331671297"/><trkpt lon="34.915852589639" lat="32.533606160663"/><trkpt lon="34.91606716636" lat="32.535523728072"/><trkpt lon="34.915337605508" lat="32.535451367781"/><trkpt lon="34.914135975869" lat="32.535270466799"/><trkpt lon="34.913792653116" lat="32.53512574575"/><trkpt lon="34.912934346231" lat="32.535089565452"/><trkpt lon="34.911861462625" lat="32.535342827235"/><trkpt lon="34.911561055215" lat="32.535668448479"/><trkpt lon="34.910359425576" lat="32.535632268399"/><trkpt lon="34.908127827676" lat="32.535921708631"/><trkpt lon="34.906067891153" lat="32.536717664457"/><trkpt lon="34.904909176858" lat="32.537839226602"/><trkpt lon="34.903278393777" lat="32.538418091906"/><trkpt lon="34.90199093345" lat="32.539539632815"/><trkpt lon="34.901175541909" lat="32.539720525199"/><trkpt lon="34.900960965188" lat="32.539358740068"/><trkpt lon="34.901561780008" lat="32.537803047397"/><trkpt lon="34.901905102762" lat="32.537405075175"/><trkpt lon="34.90169052604" lat="32.536826203341"/><trkpt lon="34.901475949319" lat="32.53385942663"/><trkpt lon="34.90169052604" lat="32.532701633525"/><trkpt lon="34.901261372598" lat="32.531326734829"/><trkpt lon="34.900254867258" lat="32.528590399684"/><trkpt lon="34.90009110926" lat="32.527718193749"/><trkpt lon="34.899962363228" lat="32.527501093837"/><trkpt lon="34.899747786506" lat="32.526777423675"/><trkpt lon="34.899876532539" lat="32.526270851094"/><trkpt lon="34.899490294441" lat="32.525438618509"/><trkpt lon="34.899146971687" lat="32.525040591504"/><trkpt lon="34.898803648933" lat="32.524425455392"/><trkpt lon="34.89897531031" lat="32.523303725758"/><trkpt lon="34.898374495491" lat="32.522507651071"/><trkpt lon="34.898460326179" lat="32.521132596363"/><trkpt lon="34.898460326179" lat="32.519902266421"/><trkpt lon="34.898202834114" lat="32.51888904088"/><trkpt lon="34.897925864778" lat="32.517937971427"/><trkpt lon="34.897453795992" lat="32.515839088542"/><trkpt lon="34.896895896517" lat="32.514463931801"/><trkpt lon="34.896252166353" lat="32.513740156644"/><trkpt lon="34.896037589632" lat="32.512763050938"/><trkpt lon="34.896509658419" lat="32.512256399354"/><trkpt lon="34.89642382773" lat="32.510772617573"/><trkpt lon="34.895393859468" lat="32.509035476076"/><trkpt lon="34.895050536714" lat="32.508239275006"/><trkpt lon="34.894535552584" lat="32.507696406597"/><trkpt lon="34.894578467928" lat="32.50726210951"/><trkpt lon="34.894793044649" lat="32.506791618631"/><trkpt lon="34.894235145174" lat="32.506610659946"/><trkpt lon="34.893677245699" lat="32.506755426923"/><trkpt lon="34.892518531404" lat="32.505814437402"/><trkpt lon="34.892733108126" lat="32.505162977349"/><trkpt lon="34.893805991731" lat="32.504801053058"/><trkpt lon="34.894106399141" lat="32.504547705188"/><trkpt lon="34.893677245699" lat="32.503244762007"/><trkpt lon="34.89359141501" lat="32.502267542233"/><trkpt lon="34.893462668978" lat="32.502014187225"/></trkseg></trk></gpx>
