<?xml version="1.0" encoding="UTF-8"?>
<gpx xmlns="Amud Anan http://amudanan.co.il/" version="1.0" xmlns:xsi="http://www.w3.org/2001/XMLSchema-instance" xsi:schemaLocation="http://www.topografix.com/GPX/1/0 http://www.topografix.com/GPX/1/0/gpx.xsd"><trk><name>Amud Anan</name><trkseg><trkpt lon="35.258631064889" lat="33.030560342594"/><trkpt lon="35.258373572824" lat="33.031963526624"/><trkpt lon="35.257858588693" lat="33.032575163953"/><trkpt lon="35.258759810922" lat="33.033510601067"/><trkpt lon="35.259832694528" lat="33.034589939244"/><trkpt lon="35.260433509347" lat="33.03570524147"/><trkpt lon="35.260433509347" lat="33.036532714644"/><trkpt lon="35.260519340036" lat="33.037576039308"/><trkpt lon="35.259789779184" lat="33.037504086279"/><trkpt lon="35.258888556955" lat="33.0376120158"/></trkseg></trk></gpx>
