<?xml version="1.0" encoding="UTF-8" standalone="yes"?>
<gpx xmlns="http://www.topografix.com/GPX/1/1" xmlns:xsi="http://www.w3.org/2001/XMLSchema-instance" version="1.1" creator="IsraelHikingMap" xsi:schemaLocation="http://www.topografix.com/GPX/1/1 http://www.topografix.com/GPX/1/1/gpx.xsd">
  <metadata>
    <bounds maxlat="33.049913" maxlon="35.2479" minlat="33.03729" minlon="35.176511"></bounds>
  </metadata>
  <trk>
    <name>מסלול</name>
    <desc></desc>
    <extensions>
      <Color xmlns="">#0000FF</Color>
      <Opacity xmlns="">0.4</Opacity>
      <Weight xmlns="">9</Weight>
    </extensions>
    <trkseg>
      <trkpt lat="33.03731518566869" lon="35.24108528919615">
        <ele>452.01071586056077</ele>
      </trkpt>
      <trkpt lat="33.03731518566869" lon="35.24108528919615">
        <ele>452.01071586056077</ele>
      </trkpt>
      <extensions>
        <RoutingType xmlns="">Hike</RoutingType>
      </extensions>
    </trkseg>
    <trkseg>
      <trkpt lat="33.03729" lon="35.241045">
        <ele>455</ele>
      </trkpt>
      <trkpt lat="33.037446" lon="35.240898">
        <ele>452</ele>
      </trkpt>
      <trkpt lat="33.037482" lon="35.24083">
        <ele>451</ele>
      </trkpt>
      <trkpt lat="33.037507" lon="35.240673">
        <ele>449</ele>
      </trkpt>
      <trkpt lat="33.037547" lon="35.240589">
        <ele>447</ele>
      </trkpt>
      <trkpt lat="33.03761" lon="35.240827">
        <ele>449</ele>
      </trkpt>
      <extensions>
        <RoutingType xmlns="">Hike</RoutingType>
      </extensions>
    </trkseg>
    <trkseg>
      <trkpt lat="33.03761" lon="35.240827">
        <ele>449</ele>
      </trkpt>
      <trkpt lat="33.037657" lon="35.240976">
        <ele>449</ele>
      </trkpt>
      <trkpt lat="33.037742" lon="35.241174">
        <ele>449</ele>
      </trkpt>
      <trkpt lat="33.037908" lon="35.241775">
        <ele>449</ele>
      </trkpt>
      <trkpt lat="33.038052" lon="35.242022">
        <ele>450</ele>
      </trkpt>
      <trkpt lat="33.038088" lon="35.242023">
        <ele>449</ele>
      </trkpt>
      <trkpt lat="33.038118" lon="35.241987">
        <ele>449</ele>
      </trkpt>
      <trkpt lat="33.038167" lon="35.241961">
        <ele>448</ele>
      </trkpt>
      <trkpt lat="33.038238" lon="35.241968">
        <ele>446</ele>
      </trkpt>
      <trkpt lat="33.038342" lon="35.242011">
        <ele>446</ele>
      </trkpt>
      <trkpt lat="33.038545" lon="35.2422">
        <ele>442</ele>
      </trkpt>
      <trkpt lat="33.038676" lon="35.2422">
        <ele>440</ele>
      </trkpt>
      <trkpt lat="33.038775" lon="35.242316">
        <ele>439</ele>
      </trkpt>
      <trkpt lat="33.038807" lon="35.24248">
        <ele>439</ele>
      </trkpt>
      <trkpt lat="33.038821" lon="35.242668">
        <ele>440</ele>
      </trkpt>
      <trkpt lat="33.038879" lon="35.242858">
        <ele>441</ele>
      </trkpt>
      <extensions>
        <RoutingType xmlns="">Hike</RoutingType>
      </extensions>
    </trkseg>
    <trkseg>
      <trkpt lat="33.038879" lon="35.242858">
        <ele>441</ele>
      </trkpt>
      <trkpt lat="33.03892" lon="35.242941">
        <ele>441</ele>
      </trkpt>
      <trkpt lat="33.038979" lon="35.242982">
        <ele>442</ele>
      </trkpt>
      <trkpt lat="33.039128" lon="35.243005">
        <ele>439</ele>
      </trkpt>
      <trkpt lat="33.039633" lon="35.242834">
        <ele>435</ele>
      </trkpt>
      <trkpt lat="33.039824" lon="35.242742">
        <ele>434</ele>
      </trkpt>
      <trkpt lat="33.040315" lon="35.242338">
        <ele>429</ele>
      </trkpt>
      <trkpt lat="33.040424" lon="35.242199">
        <ele>430</ele>
      </trkpt>
      <trkpt lat="33.040563" lon="35.241991">
        <ele>428</ele>
      </trkpt>
      <trkpt lat="33.040856" lon="35.24184">
        <ele>429</ele>
      </trkpt>
      <trkpt lat="33.041012" lon="35.241796">
        <ele>429</ele>
      </trkpt>
      <trkpt lat="33.041279" lon="35.241641">
        <ele>427</ele>
      </trkpt>
      <trkpt lat="33.041868" lon="35.241525">
        <ele>422</ele>
      </trkpt>
      <trkpt lat="33.042004" lon="35.241479">
        <ele>421</ele>
      </trkpt>
      <trkpt lat="33.042262" lon="35.241339">
        <ele>418</ele>
      </trkpt>
      <trkpt lat="33.042426" lon="35.241339">
        <ele>416</ele>
      </trkpt>
      <trkpt lat="33.042585" lon="35.241266">
        <ele>414</ele>
      </trkpt>
      <trkpt lat="33.042685" lon="35.241262">
        <ele>413</ele>
      </trkpt>
      <trkpt lat="33.042736" lon="35.241289">
        <ele>413</ele>
      </trkpt>
      <trkpt lat="33.042832" lon="35.241438">
        <ele>412</ele>
      </trkpt>
      <trkpt lat="33.043017" lon="35.241535">
        <ele>409</ele>
      </trkpt>
      <trkpt lat="33.043042" lon="35.241623">
        <ele>407.5</ele>
      </trkpt>
      <extensions>
        <RoutingType xmlns="">Hike</RoutingType>
      </extensions>
    </trkseg>
    <trkseg>
      <trkpt lat="33.043042" lon="35.241623">
        <ele>407.5</ele>
      </trkpt>
      <trkpt lat="33.043056" lon="35.241674">
        <ele>406</ele>
      </trkpt>
      <trkpt lat="33.043063" lon="35.241931">
        <ele>398</ele>
      </trkpt>
      <trkpt lat="33.043032" lon="35.242005">
        <ele>394</ele>
      </trkpt>
      <trkpt lat="33.042834" lon="35.242134">
        <ele>400</ele>
      </trkpt>
      <trkpt lat="33.042667" lon="35.242275">
        <ele>398</ele>
      </trkpt>
      <trkpt lat="33.042506" lon="35.242605">
        <ele>393</ele>
      </trkpt>
      <trkpt lat="33.042312" lon="35.242862">
        <ele>387</ele>
      </trkpt>
      <trkpt lat="33.042194" lon="35.24299">
        <ele>389</ele>
      </trkpt>
      <trkpt lat="33.042163" lon="35.243101">
        <ele>385</ele>
      </trkpt>
      <trkpt lat="33.042096" lon="35.24327">
        <ele>382</ele>
      </trkpt>
      <trkpt lat="33.041657" lon="35.243986">
        <ele>376</ele>
      </trkpt>
      <trkpt lat="33.041463" lon="35.2444">
        <ele>368</ele>
      </trkpt>
      <trkpt lat="33.041281" lon="35.244677">
        <ele>366</ele>
      </trkpt>
      <trkpt lat="33.041202" lon="35.244866">
        <ele>361</ele>
      </trkpt>
      <trkpt lat="33.041034" lon="35.245471">
        <ele>355</ele>
      </trkpt>
      <trkpt lat="33.040999" lon="35.245699">
        <ele>347</ele>
      </trkpt>
      <trkpt lat="33.040946" lon="35.24592">
        <ele>347</ele>
      </trkpt>
      <trkpt lat="33.040952" lon="35.246495">
        <ele>336</ele>
      </trkpt>
      <trkpt lat="33.041033" lon="35.246817">
        <ele>329</ele>
      </trkpt>
      <trkpt lat="33.041062" lon="35.246868">
        <ele>323</ele>
      </trkpt>
      <trkpt lat="33.041148" lon="35.24691">
        <ele>318</ele>
      </trkpt>
      <extensions>
        <RoutingType xmlns="">Hike</RoutingType>
      </extensions>
    </trkseg>
    <trkseg>
      <trkpt lat="33.041148" lon="35.24691">
        <ele>318</ele>
      </trkpt>
      <trkpt lat="33.04121" lon="35.246878">
        <ele>318</ele>
      </trkpt>
      <trkpt lat="33.041348" lon="35.246672">
        <ele>311</ele>
      </trkpt>
      <trkpt lat="33.041481" lon="35.246553">
        <ele>310</ele>
      </trkpt>
      <trkpt lat="33.041917" lon="35.246267">
        <ele>292</ele>
      </trkpt>
      <trkpt lat="33.042135" lon="35.246104">
        <ele>283</ele>
      </trkpt>
      <trkpt lat="33.042435" lon="35.245937">
        <ele>271</ele>
      </trkpt>
      <trkpt lat="33.042483" lon="35.245925">
        <ele>274</ele>
      </trkpt>
      <trkpt lat="33.042532" lon="35.245952">
        <ele>266</ele>
      </trkpt>
      <trkpt lat="33.042561" lon="35.24603">
        <ele>263</ele>
      </trkpt>
      <trkpt lat="33.042521" lon="35.24624">
        <ele>255</ele>
      </trkpt>
      <trkpt lat="33.042113" lon="35.246936">
        <ele>253</ele>
      </trkpt>
      <trkpt lat="33.041916" lon="35.247364">
        <ele>252</ele>
      </trkpt>
      <trkpt lat="33.041881" lon="35.247701">
        <ele>244</ele>
      </trkpt>
      <trkpt lat="33.04182" lon="35.2479">
        <ele>243.5</ele>
      </trkpt>
      <extensions>
        <RoutingType xmlns="">Hike</RoutingType>
      </extensions>
    </trkseg>
    <trkseg>
      <trkpt lat="33.04182" lon="35.2479">
        <ele>243.5</ele>
      </trkpt>
      <trkpt lat="33.041881" lon="35.247701">
        <ele>244</ele>
      </trkpt>
      <trkpt lat="33.041916" lon="35.247364">
        <ele>252</ele>
      </trkpt>
      <trkpt lat="33.042104" lon="35.247154">
        <ele>248</ele>
      </trkpt>
      <trkpt lat="33.042185" lon="35.247094">
        <ele>246</ele>
      </trkpt>
      <trkpt lat="33.04244" lon="35.246704">
        <ele>244</ele>
      </trkpt>
      <trkpt lat="33.042571" lon="35.246532">
        <ele>245</ele>
      </trkpt>
      <trkpt lat="33.042637" lon="35.246383">
        <ele>247</ele>
      </trkpt>
      <trkpt lat="33.04269" lon="35.246359">
        <ele>245</ele>
      </trkpt>
      <trkpt lat="33.042793" lon="35.246242">
        <ele>246</ele>
      </trkpt>
      <trkpt lat="33.04293" lon="35.246008">
        <ele>247</ele>
      </trkpt>
      <trkpt lat="33.043017" lon="35.245902">
        <ele>246</ele>
      </trkpt>
      <trkpt lat="33.04309" lon="35.245783">
        <ele>246</ele>
      </trkpt>
      <trkpt lat="33.043194" lon="35.24554">
        <ele>246</ele>
      </trkpt>
      <trkpt lat="33.043363" lon="35.2453">
        <ele>243</ele>
      </trkpt>
      <trkpt lat="33.043432" lon="35.245029">
        <ele>243</ele>
      </trkpt>
      <trkpt lat="33.043533" lon="35.244825">
        <ele>243</ele>
      </trkpt>
      <trkpt lat="33.043584" lon="35.244669">
        <ele>243</ele>
      </trkpt>
      <trkpt lat="33.043824" lon="35.244275">
        <ele>242</ele>
      </trkpt>
      <trkpt lat="33.04392" lon="35.244184">
        <ele>241</ele>
      </trkpt>
      <trkpt lat="33.044214" lon="35.244094">
        <ele>239</ele>
      </trkpt>
      <trkpt lat="33.044265" lon="35.244041">
        <ele>236</ele>
      </trkpt>
      <trkpt lat="33.044365" lon="35.243874">
        <ele>234</ele>
      </trkpt>
      <trkpt lat="33.044402" lon="35.243827">
        <ele>233.5</ele>
      </trkpt>
      <extensions>
        <RoutingType xmlns="">Hike</RoutingType>
      </extensions>
    </trkseg>
    <trkseg>
      <trkpt lat="33.044402" lon="35.243827">
        <ele>233.5</ele>
      </trkpt>
      <trkpt lat="33.044422" lon="35.243803">
        <ele>233</ele>
      </trkpt>
      <trkpt lat="33.044493" lon="35.243778">
        <ele>232</ele>
      </trkpt>
      <trkpt lat="33.044537" lon="35.243792">
        <ele>232</ele>
      </trkpt>
      <trkpt lat="33.044632" lon="35.243863">
        <ele>232</ele>
      </trkpt>
      <trkpt lat="33.044738" lon="35.243907">
        <ele>231</ele>
      </trkpt>
      <trkpt lat="33.044928" lon="35.244061">
        <ele>232</ele>
      </trkpt>
      <trkpt lat="33.045127" lon="35.244192">
        <ele>230</ele>
      </trkpt>
      <trkpt lat="33.045365" lon="35.244252">
        <ele>226</ele>
      </trkpt>
      <trkpt lat="33.045541" lon="35.24426">
        <ele>223</ele>
      </trkpt>
      <trkpt lat="33.045686" lon="35.244309">
        <ele>223</ele>
      </trkpt>
      <trkpt lat="33.045834" lon="35.24432">
        <ele>222</ele>
      </trkpt>
      <trkpt lat="33.046052" lon="35.244267">
        <ele>223</ele>
      </trkpt>
      <trkpt lat="33.046528" lon="35.244111">
        <ele>223</ele>
      </trkpt>
      <trkpt lat="33.046662" lon="35.244057">
        <ele>220</ele>
      </trkpt>
      <trkpt lat="33.047226" lon="35.243725">
        <ele>219</ele>
      </trkpt>
      <trkpt lat="33.047344" lon="35.243611">
        <ele>219</ele>
      </trkpt>
      <trkpt lat="33.047497" lon="35.243496">
        <ele>222</ele>
      </trkpt>
      <trkpt lat="33.047625" lon="35.24335">
        <ele>219</ele>
      </trkpt>
      <trkpt lat="33.047778" lon="35.243225">
        <ele>224</ele>
      </trkpt>
      <trkpt lat="33.047823" lon="35.243199">
        <ele>223</ele>
      </trkpt>
      <extensions>
        <RoutingType xmlns="">Hike</RoutingType>
      </extensions>
    </trkseg>
    <trkseg>
      <trkpt lat="33.047823" lon="35.243199">
        <ele>223</ele>
      </trkpt>
      <trkpt lat="33.048045" lon="35.243071">
        <ele>222</ele>
      </trkpt>
      <trkpt lat="33.048188" lon="35.243058">
        <ele>221</ele>
      </trkpt>
      <trkpt lat="33.048267" lon="35.243021">
        <ele>218</ele>
      </trkpt>
      <trkpt lat="33.048584" lon="35.242757">
        <ele>217</ele>
      </trkpt>
      <trkpt lat="33.048794" lon="35.242421">
        <ele>221</ele>
      </trkpt>
      <trkpt lat="33.04909" lon="35.242118">
        <ele>214</ele>
      </trkpt>
      <trkpt lat="33.049038" lon="35.241825">
        <ele>221</ele>
      </trkpt>
      <trkpt lat="33.049129" lon="35.241163">
        <ele>218</ele>
      </trkpt>
      <trkpt lat="33.04906" lon="35.240464">
        <ele>215</ele>
      </trkpt>
      <trkpt lat="33.049105" lon="35.240096">
        <ele>215.5</ele>
      </trkpt>
      <extensions>
        <RoutingType xmlns="">Hike</RoutingType>
      </extensions>
    </trkseg>
    <trkseg>
      <trkpt lat="33.049105" lon="35.240096">
        <ele>215.5</ele>
      </trkpt>
      <trkpt lat="33.049116" lon="35.240012">
        <ele>216</ele>
      </trkpt>
      <trkpt lat="33.049447" lon="35.239654">
        <ele>210</ele>
      </trkpt>
      <trkpt lat="33.049517" lon="35.239564">
        <ele>211</ele>
      </trkpt>
      <trkpt lat="33.049612" lon="35.239383">
        <ele>210</ele>
      </trkpt>
      <trkpt lat="33.049658" lon="35.239244">
        <ele>208</ele>
      </trkpt>
      <trkpt lat="33.049667" lon="35.238752">
        <ele>213</ele>
      </trkpt>
      <trkpt lat="33.049869" lon="35.238138">
        <ele>206</ele>
      </trkpt>
      <trkpt lat="33.049912" lon="35.237888">
        <ele>205</ele>
      </trkpt>
      <trkpt lat="33.049913" lon="35.237502">
        <ele>202</ele>
      </trkpt>
      <trkpt lat="33.049873" lon="35.237407">
        <ele>201</ele>
      </trkpt>
      <trkpt lat="33.049656" lon="35.237125">
        <ele>199</ele>
      </trkpt>
      <trkpt lat="33.04964" lon="35.237113">
        <ele>198</ele>
      </trkpt>
      <extensions>
        <RoutingType xmlns="">Hike</RoutingType>
      </extensions>
    </trkseg>
    <trkseg>
      <trkpt lat="33.04964" lon="35.237113">
        <ele>198</ele>
      </trkpt>
      <trkpt lat="33.049232" lon="35.236807">
        <ele>197</ele>
      </trkpt>
      <trkpt lat="33.049099" lon="35.236606">
        <ele>195</ele>
      </trkpt>
      <trkpt lat="33.048977" lon="35.23637">
        <ele>196</ele>
      </trkpt>
      <trkpt lat="33.048941" lon="35.236206">
        <ele>195</ele>
      </trkpt>
      <trkpt lat="33.048939" lon="35.235498">
        <ele>195</ele>
      </trkpt>
      <trkpt lat="33.048859" lon="35.23515">
        <ele>193</ele>
      </trkpt>
      <trkpt lat="33.048673" lon="35.234487">
        <ele>194</ele>
      </trkpt>
      <trkpt lat="33.048588" lon="35.234377">
        <ele>195</ele>
      </trkpt>
      <trkpt lat="33.048546" lon="35.234283">
        <ele>194</ele>
      </trkpt>
      <trkpt lat="33.048484" lon="35.234206">
        <ele>197</ele>
      </trkpt>
      <trkpt lat="33.048382" lon="35.23403">
        <ele>199</ele>
      </trkpt>
      <trkpt lat="33.048317" lon="35.233764">
        <ele>199</ele>
      </trkpt>
      <trkpt lat="33.04821" lon="35.233448">
        <ele>195</ele>
      </trkpt>
      <trkpt lat="33.048014" lon="35.232991">
        <ele>193</ele>
      </trkpt>
      <trkpt lat="33.048005" lon="35.232843">
        <ele>191</ele>
      </trkpt>
      <trkpt lat="33.048063" lon="35.232576">
        <ele>187</ele>
      </trkpt>
      <trkpt lat="33.048033" lon="35.232389">
        <ele>186</ele>
      </trkpt>
      <trkpt lat="33.047907" lon="35.232085">
        <ele>185</ele>
      </trkpt>
      <trkpt lat="33.047829" lon="35.231846">
        <ele>184</ele>
      </trkpt>
      <trkpt lat="33.047819" lon="35.231766">
        <ele>185</ele>
      </trkpt>
      <trkpt lat="33.047642" lon="35.231117">
        <ele>185</ele>
      </trkpt>
      <extensions>
        <RoutingType xmlns="">Hike</RoutingType>
      </extensions>
    </trkseg>
    <trkseg>
      <trkpt lat="33.047642" lon="35.231117">
        <ele>185</ele>
      </trkpt>
      <trkpt lat="33.047616" lon="35.231021">
        <ele>185</ele>
      </trkpt>
      <trkpt lat="33.047606" lon="35.230914">
        <ele>183</ele>
      </trkpt>
      <trkpt lat="33.047582" lon="35.230857">
        <ele>183</ele>
      </trkpt>
      <trkpt lat="33.047571" lon="35.230752">
        <ele>183</ele>
      </trkpt>
      <trkpt lat="33.047472" lon="35.230346">
        <ele>182</ele>
      </trkpt>
      <trkpt lat="33.047462" lon="35.23024">
        <ele>183</ele>
      </trkpt>
      <trkpt lat="33.04734" lon="35.229775">
        <ele>184</ele>
      </trkpt>
      <trkpt lat="33.047178" lon="35.229346">
        <ele>183</ele>
      </trkpt>
      <trkpt lat="33.047101" lon="35.229202">
        <ele>183</ele>
      </trkpt>
      <trkpt lat="33.046909" lon="35.22898">
        <ele>181</ele>
      </trkpt>
      <trkpt lat="33.046547" lon="35.228747">
        <ele>181</ele>
      </trkpt>
      <trkpt lat="33.046329" lon="35.22856">
        <ele>179</ele>
      </trkpt>
      <trkpt lat="33.04621" lon="35.228401">
        <ele>179</ele>
      </trkpt>
      <trkpt lat="33.046136" lon="35.228206">
        <ele>179</ele>
      </trkpt>
      <trkpt lat="33.046086" lon="35.227936">
        <ele>179</ele>
      </trkpt>
      <trkpt lat="33.046025" lon="35.227737">
        <ele>178</ele>
      </trkpt>
      <trkpt lat="33.045992" lon="35.227529">
        <ele>178</ele>
      </trkpt>
      <trkpt lat="33.045989" lon="35.227422">
        <ele>178</ele>
      </trkpt>
      <trkpt lat="33.04604" lon="35.227195">
        <ele>177</ele>
      </trkpt>
      <trkpt lat="33.046214" lon="35.226953">
        <ele>178</ele>
      </trkpt>
      <trkpt lat="33.046396" lon="35.226576">
        <ele>177</ele>
      </trkpt>
      <trkpt lat="33.046649" lon="35.225957">
        <ele>175</ele>
      </trkpt>
      <trkpt lat="33.046879" lon="35.225337">
        <ele>175</ele>
      </trkpt>
      <trkpt lat="33.046905" lon="35.225152">
        <ele>177</ele>
      </trkpt>
      <trkpt lat="33.046897" lon="35.224841">
        <ele>176</ele>
      </trkpt>
      <trkpt lat="33.046862" lon="35.224691">
        <ele>174</ele>
      </trkpt>
      <trkpt lat="33.046758" lon="35.224497">
        <ele>174</ele>
      </trkpt>
      <trkpt lat="33.046578" lon="35.224278">
        <ele>175</ele>
      </trkpt>
      <trkpt lat="33.046508" lon="35.224214">
        <ele>174</ele>
      </trkpt>
      <trkpt lat="33.046097" lon="35.223915">
        <ele>175</ele>
      </trkpt>
      <trkpt lat="33.045986" lon="35.223854">
        <ele>173</ele>
      </trkpt>
      <trkpt lat="33.045774" lon="35.223763">
        <ele>173</ele>
      </trkpt>
      <trkpt lat="33.045399" lon="35.223664">
        <ele>169</ele>
      </trkpt>
      <trkpt lat="33.044901" lon="35.223434">
        <ele>170</ele>
      </trkpt>
      <trkpt lat="33.044805" lon="35.22336">
        <ele>171</ele>
      </trkpt>
      <trkpt lat="33.044657" lon="35.223216">
        <ele>171</ele>
      </trkpt>
      <extensions>
        <RoutingType xmlns="">Hike</RoutingType>
      </extensions>
    </trkseg>
    <trkseg>
      <trkpt lat="33.044657" lon="35.223216">
        <ele>171</ele>
      </trkpt>
      <trkpt lat="33.044497" lon="35.22306">
        <ele>171</ele>
      </trkpt>
      <trkpt lat="33.044427" lon="35.222964">
        <ele>172</ele>
      </trkpt>
      <trkpt lat="33.044369" lon="35.222846">
        <ele>173</ele>
      </trkpt>
      <trkpt lat="33.044292" lon="35.222593">
        <ele>171</ele>
      </trkpt>
      <trkpt lat="33.044235" lon="35.222157">
        <ele>171</ele>
      </trkpt>
      <trkpt lat="33.044232" lon="35.222039">
        <ele>167</ele>
      </trkpt>
      <trkpt lat="33.044171" lon="35.221759">
        <ele>166</ele>
      </trkpt>
      <trkpt lat="33.044076" lon="35.221448">
        <ele>165</ele>
      </trkpt>
      <trkpt lat="33.043794" lon="35.220875">
        <ele>165</ele>
      </trkpt>
      <trkpt lat="33.043615" lon="35.220493">
        <ele>162</ele>
      </trkpt>
      <trkpt lat="33.043477" lon="35.220274">
        <ele>160</ele>
      </trkpt>
      <trkpt lat="33.043432" lon="35.220153">
        <ele>159</ele>
      </trkpt>
      <trkpt lat="33.043442" lon="35.220023">
        <ele>159</ele>
      </trkpt>
      <trkpt lat="33.043509" lon="35.219812">
        <ele>161</ele>
      </trkpt>
      <trkpt lat="33.043489" lon="35.219661">
        <ele>161</ele>
      </trkpt>
      <trkpt lat="33.043398" lon="35.219405">
        <ele>160</ele>
      </trkpt>
      <trkpt lat="33.043283" lon="35.219128">
        <ele>158</ele>
      </trkpt>
      <trkpt lat="33.042931" lon="35.218377">
        <ele>156</ele>
      </trkpt>
      <trkpt lat="33.042692" lon="35.217903">
        <ele>159</ele>
      </trkpt>
      <trkpt lat="33.042332" lon="35.217277">
        <ele>155</ele>
      </trkpt>
      <trkpt lat="33.042207" lon="35.216979">
        <ele>154</ele>
      </trkpt>
      <trkpt lat="33.042132" lon="35.216736">
        <ele>156</ele>
      </trkpt>
      <trkpt lat="33.042108" lon="35.21655">
        <ele>154</ele>
      </trkpt>
      <trkpt lat="33.042114" lon="35.216057">
        <ele>154</ele>
      </trkpt>
      <trkpt lat="33.042174" lon="35.215623">
        <ele>154</ele>
      </trkpt>
      <trkpt lat="33.04224" lon="35.215378">
        <ele>153</ele>
      </trkpt>
      <trkpt lat="33.042285" lon="35.215103">
        <ele>152</ele>
      </trkpt>
      <trkpt lat="33.042284" lon="35.215022">
        <ele>152</ele>
      </trkpt>
      <trkpt lat="33.042241" lon="35.214771">
        <ele>152</ele>
      </trkpt>
      <trkpt lat="33.0422" lon="35.214619">
        <ele>155</ele>
      </trkpt>
      <trkpt lat="33.042146" lon="35.21429">
        <ele>154</ele>
      </trkpt>
      <trkpt lat="33.042179" lon="35.213973">
        <ele>154</ele>
      </trkpt>
      <trkpt lat="33.042177" lon="35.213583">
        <ele>154</ele>
      </trkpt>
      <extensions>
        <RoutingType xmlns="">Hike</RoutingType>
      </extensions>
    </trkseg>
    <trkseg>
      <trkpt lat="33.042177" lon="35.213583">
        <ele>154</ele>
      </trkpt>
      <trkpt lat="33.042124" lon="35.213271">
        <ele>155</ele>
      </trkpt>
      <trkpt lat="33.042008" lon="35.212872">
        <ele>152</ele>
      </trkpt>
      <trkpt lat="33.041858" lon="35.212558">
        <ele>151</ele>
      </trkpt>
      <trkpt lat="33.041697" lon="35.21209">
        <ele>150</ele>
      </trkpt>
      <trkpt lat="33.041585" lon="35.211169">
        <ele>144</ele>
      </trkpt>
      <trkpt lat="33.041532" lon="35.210909">
        <ele>145</ele>
      </trkpt>
      <trkpt lat="33.041537" lon="35.210674">
        <ele>145</ele>
      </trkpt>
      <trkpt lat="33.041664" lon="35.209962">
        <ele>143</ele>
      </trkpt>
      <trkpt lat="33.041932" lon="35.209404">
        <ele>142</ele>
      </trkpt>
      <trkpt lat="33.041999" lon="35.209137">
        <ele>141</ele>
      </trkpt>
      <trkpt lat="33.042001" lon="35.208923">
        <ele>140</ele>
      </trkpt>
      <trkpt lat="33.041968" lon="35.20872">
        <ele>140</ele>
      </trkpt>
      <trkpt lat="33.041963" lon="35.207426">
        <ele>139</ele>
      </trkpt>
      <trkpt lat="33.041904" lon="35.207123">
        <ele>139</ele>
      </trkpt>
      <trkpt lat="33.04182" lon="35.206926">
        <ele>138.5</ele>
      </trkpt>
      <extensions>
        <RoutingType xmlns="">Hike</RoutingType>
      </extensions>
    </trkseg>
    <trkseg>
      <trkpt lat="33.04182" lon="35.206926">
        <ele>138.5</ele>
      </trkpt>
      <trkpt lat="33.041705" lon="35.206654">
        <ele>138</ele>
      </trkpt>
      <trkpt lat="33.041573" lon="35.206455">
        <ele>138</ele>
      </trkpt>
      <trkpt lat="33.041299" lon="35.206191">
        <ele>137</ele>
      </trkpt>
      <trkpt lat="33.04124" lon="35.206116">
        <ele>136</ele>
      </trkpt>
      <trkpt lat="33.04119" lon="35.205985">
        <ele>135</ele>
      </trkpt>
      <trkpt lat="33.04111" lon="35.205648">
        <ele>134</ele>
      </trkpt>
      <trkpt lat="33.041083" lon="35.205342">
        <ele>136</ele>
      </trkpt>
      <trkpt lat="33.041101" lon="35.205131">
        <ele>136</ele>
      </trkpt>
      <trkpt lat="33.041132" lon="35.205002">
        <ele>136</ele>
      </trkpt>
      <trkpt lat="33.041183" lon="35.204882">
        <ele>136</ele>
      </trkpt>
      <trkpt lat="33.041557" lon="35.204162">
        <ele>132</ele>
      </trkpt>
      <trkpt lat="33.041852" lon="35.203512">
        <ele>138</ele>
      </trkpt>
      <trkpt lat="33.042341" lon="35.202281">
        <ele>140</ele>
      </trkpt>
      <trkpt lat="33.042499" lon="35.201959">
        <ele>136</ele>
      </trkpt>
      <trkpt lat="33.04259" lon="35.201734">
        <ele>137</ele>
      </trkpt>
      <trkpt lat="33.04267" lon="35.201471">
        <ele>135</ele>
      </trkpt>
      <trkpt lat="33.042757" lon="35.200958">
        <ele>136</ele>
      </trkpt>
      <trkpt lat="33.042767" lon="35.200778">
        <ele>136</ele>
      </trkpt>
      <trkpt lat="33.04279" lon="35.200654">
        <ele>139</ele>
      </trkpt>
      <trkpt lat="33.042893" lon="35.20032">
        <ele>135</ele>
      </trkpt>
      <trkpt lat="33.042944" lon="35.19989">
        <ele>130</ele>
      </trkpt>
      <trkpt lat="33.042977" lon="35.199774">
        <ele>129</ele>
      </trkpt>
      <trkpt lat="33.04312" lon="35.19951">
        <ele>123</ele>
      </trkpt>
      <trkpt lat="33.043207" lon="35.199263">
        <ele>124</ele>
      </trkpt>
      <trkpt lat="33.043228" lon="35.199088">
        <ele>123</ele>
      </trkpt>
      <trkpt lat="33.043219" lon="35.198724">
        <ele>123</ele>
      </trkpt>
      <trkpt lat="33.043228" lon="35.198533">
        <ele>123</ele>
      </trkpt>
      <trkpt lat="33.043364" lon="35.197762">
        <ele>122</ele>
      </trkpt>
      <trkpt lat="33.043533" lon="35.197266">
        <ele>121</ele>
      </trkpt>
      <trkpt lat="33.043728" lon="35.196144">
        <ele>122</ele>
      </trkpt>
      <trkpt lat="33.043735" lon="35.195899">
        <ele>120</ele>
      </trkpt>
      <trkpt lat="33.043829" lon="35.195181">
        <ele>120</ele>
      </trkpt>
      <trkpt lat="33.043773" lon="35.194755">
        <ele>120</ele>
      </trkpt>
      <trkpt lat="33.043692" lon="35.194461">
        <ele>120</ele>
      </trkpt>
      <trkpt lat="33.043595" lon="35.194265">
        <ele>120</ele>
      </trkpt>
      <trkpt lat="33.043452" lon="35.194074">
        <ele>119</ele>
      </trkpt>
      <extensions>
        <RoutingType xmlns="">Hike</RoutingType>
      </extensions>
    </trkseg>
    <trkseg>
      <trkpt lat="33.043452" lon="35.194074">
        <ele>119</ele>
      </trkpt>
      <trkpt lat="33.043273" lon="35.193837">
        <ele>118</ele>
      </trkpt>
      <trkpt lat="33.042964" lon="35.193074">
        <ele>116</ele>
      </trkpt>
      <trkpt lat="33.042756" lon="35.192629">
        <ele>116</ele>
      </trkpt>
      <trkpt lat="33.042671" lon="35.192357">
        <ele>117</ele>
      </trkpt>
      <trkpt lat="33.042545" lon="35.191589">
        <ele>114</ele>
      </trkpt>
      <trkpt lat="33.042542" lon="35.19129">
        <ele>112</ele>
      </trkpt>
      <trkpt lat="33.04257" lon="35.191105">
        <ele>112</ele>
      </trkpt>
      <trkpt lat="33.042621" lon="35.190952">
        <ele>111</ele>
      </trkpt>
      <trkpt lat="33.042796" lon="35.190612">
        <ele>111</ele>
      </trkpt>
      <trkpt lat="33.042857" lon="35.190441">
        <ele>111</ele>
      </trkpt>
      <trkpt lat="33.042865" lon="35.190208">
        <ele>111</ele>
      </trkpt>
      <trkpt lat="33.042785" lon="35.189802">
        <ele>109</ele>
      </trkpt>
      <trkpt lat="33.042614" lon="35.189573">
        <ele>113</ele>
      </trkpt>
      <trkpt lat="33.042553" lon="35.189456">
        <ele>115</ele>
      </trkpt>
      <trkpt lat="33.042513" lon="35.189338">
        <ele>114</ele>
      </trkpt>
      <trkpt lat="33.042502" lon="35.189195">
        <ele>113</ele>
      </trkpt>
      <trkpt lat="33.042523" lon="35.189037">
        <ele>112</ele>
      </trkpt>
      <trkpt lat="33.042511" lon="35.188885">
        <ele>112</ele>
      </trkpt>
      <trkpt lat="33.042177" lon="35.187948">
        <ele>115</ele>
      </trkpt>
      <trkpt lat="33.04215" lon="35.187804">
        <ele>112</ele>
      </trkpt>
      <trkpt lat="33.042172" lon="35.187195">
        <ele>111</ele>
      </trkpt>
      <trkpt lat="33.042218" lon="35.18697">
        <ele>108</ele>
      </trkpt>
      <trkpt lat="33.042319" lon="35.18671">
        <ele>110</ele>
      </trkpt>
      <trkpt lat="33.042592" lon="35.186151">
        <ele>107</ele>
      </trkpt>
      <trkpt lat="33.042796" lon="35.185866">
        <ele>104</ele>
      </trkpt>
      <extensions>
        <RoutingType xmlns="">Hike</RoutingType>
      </extensions>
    </trkseg>
    <trkseg>
      <trkpt lat="33.042796" lon="35.185866">
        <ele>104</ele>
      </trkpt>
      <trkpt lat="33.042971" lon="35.185643">
        <ele>102</ele>
      </trkpt>
      <trkpt lat="33.043032" lon="35.185539">
        <ele>101</ele>
      </trkpt>
      <trkpt lat="33.043061" lon="35.185465">
        <ele>101</ele>
      </trkpt>
      <trkpt lat="33.043101" lon="35.185288">
        <ele>101</ele>
      </trkpt>
      <trkpt lat="33.043101" lon="35.185075">
        <ele>101</ele>
      </trkpt>
      <trkpt lat="33.043037" lon="35.18478">
        <ele>101</ele>
      </trkpt>
      <trkpt lat="33.042943" lon="35.184528">
        <ele>101</ele>
      </trkpt>
      <trkpt lat="33.042833" lon="35.184126">
        <ele>102</ele>
      </trkpt>
      <trkpt lat="33.042607" lon="35.18353">
        <ele>100</ele>
      </trkpt>
      <trkpt lat="33.042577" lon="35.183427">
        <ele>100</ele>
      </trkpt>
      <trkpt lat="33.042574" lon="35.183267">
        <ele>101</ele>
      </trkpt>
      <trkpt lat="33.042616" lon="35.182971">
        <ele>97</ele>
      </trkpt>
      <trkpt lat="33.042599" lon="35.182859">
        <ele>97</ele>
      </trkpt>
      <trkpt lat="33.042295" lon="35.182021">
        <ele>97</ele>
      </trkpt>
      <trkpt lat="33.042247" lon="35.181798">
        <ele>96</ele>
      </trkpt>
      <trkpt lat="33.042265" lon="35.181537">
        <ele>95</ele>
      </trkpt>
      <trkpt lat="33.042453" lon="35.180746">
        <ele>94</ele>
      </trkpt>
      <trkpt lat="33.042446" lon="35.180661">
        <ele>93</ele>
      </trkpt>
      <trkpt lat="33.04229" lon="35.180305">
        <ele>96</ele>
      </trkpt>
      <trkpt lat="33.042269" lon="35.180227">
        <ele>96</ele>
      </trkpt>
      <trkpt lat="33.042279" lon="35.180094">
        <ele>95</ele>
      </trkpt>
      <trkpt lat="33.0424" lon="35.179604">
        <ele>92</ele>
      </trkpt>
      <trkpt lat="33.042427" lon="35.179427">
        <ele>92</ele>
      </trkpt>
      <trkpt lat="33.042381" lon="35.178654">
        <ele>93</ele>
      </trkpt>
      <trkpt lat="33.042318" lon="35.178424">
        <ele>92</ele>
      </trkpt>
      <trkpt lat="33.042246" lon="35.178255">
        <ele>94</ele>
      </trkpt>
      <trkpt lat="33.042255" lon="35.177282">
        <ele>94</ele>
      </trkpt>
      <trkpt lat="33.042309" lon="35.176825">
        <ele>93</ele>
      </trkpt>
      <trkpt lat="33.042374" lon="35.176566">
        <ele>95</ele>
      </trkpt>
      <trkpt lat="33.042539" lon="35.176631">
        <ele>90</ele>
      </trkpt>
      <trkpt lat="33.042564" lon="35.176511">
        <ele>90</ele>
      </trkpt>
      <extensions>
        <RoutingType xmlns="">Hike</RoutingType>
      </extensions>
    </trkseg>
  </trk>
</gpx>
