<?xml version="1.0" encoding="utf-8"?>
<gpx version="1.1" creator="Mapeak_route" xmlns="http://www.topografix.com/GPX/1/1">
	<metadata>
		<bounds minlat="32.911411" minlon="35.214654" maxlat="32.945751" maxlon="35.316223" />
	</metadata>
	<rte>
		<name>מסלול 1</name>
		<desc />
		<rtept lat="32.91600827457589" lon="35.22641245323817">
			<ele>206.63853590802086</ele>
		</rtept>
		<rtept lat="32.916043" lon="35.226417">
			<ele>206</ele>
		</rtept>
		<rtept lat="32.916029" lon="35.226586">
			<ele>205</ele>
		</rtept>
		<rtept lat="32.916025" lon="35.226758">
			<ele>203</ele>
		</rtept>
		<rtept lat="32.916067" lon="35.226876">
			<ele>202</ele>
		</rtept>
		<rtept lat="32.916254" lon="35.227166">
			<ele>202</ele>
		</rtept>
		<rtept lat="32.916447" lon="35.227325">
			<ele>204</ele>
		</rtept>
		<rtept lat="32.916543" lon="35.227435">
			<ele>204.5</ele>
		</rtept>
		<rtept lat="32.916577" lon="35.227474">
			<ele>205</ele>
		</rtept>
		<rtept lat="32.916725" lon="35.227691">
			<ele>205</ele>
		</rtept>
		<rtept lat="32.916868" lon="35.22794">
			<ele>206</ele>
		</rtept>
		<rtept lat="32.916937" lon="35.228009">
			<ele>206</ele>
		</rtept>
		<rtept lat="32.917091" lon="35.228121">
			<ele>206</ele>
		</rtept>
		<rtept lat="32.917586" lon="35.228381">
			<ele>209</ele>
		</rtept>
		<rtept lat="32.917899" lon="35.228672">
			<ele>209</ele>
		</rtept>
		<rtept lat="32.918016" lon="35.228723">
			<ele>210</ele>
		</rtept>
		<rtept lat="32.918111" lon="35.228821">
			<ele>210</ele>
		</rtept>
		<rtept lat="32.918133" lon="35.228876">
			<ele>210</ele>
		</rtept>
		<rtept lat="32.91815" lon="35.228918">
			<ele>210</ele>
		</rtept>
		<rtept lat="32.918194" lon="35.229191">
			<ele>211</ele>
		</rtept>
		<rtept lat="32.918263" lon="35.229435">
			<ele>213</ele>
		</rtept>
		<rtept lat="32.918263" lon="35.22965">
			<ele>212</ele>
		</rtept>
		<rtept lat="32.91821" lon="35.230086">
			<ele>210</ele>
		</rtept>
		<rtept lat="32.918213" lon="35.230357">
			<ele>209</ele>
		</rtept>
		<rtept lat="32.918415" lon="35.23102">
			<ele>209</ele>
		</rtept>
		<rtept lat="32.918692" lon="35.231803">
			<ele>209</ele>
		</rtept>
		<rtept lat="32.918696" lon="35.23185">
			<ele>208.5</ele>
		</rtept>
		<rtept lat="32.918791" lon="35.233058">
			<ele>208</ele>
		</rtept>
		<rtept lat="32.918953" lon="35.233401">
			<ele>208</ele>
		</rtept>
		<rtept lat="32.91898" lon="35.233616">
			<ele>209</ele>
		</rtept>
		<rtept lat="32.918836" lon="35.234667">
			<ele>207</ele>
		</rtept>
		<rtept lat="32.918591" lon="35.235386">
			<ele>205</ele>
		</rtept>
		<rtept lat="32.918287" lon="35.236277">
			<ele>203</ele>
		</rtept>
		<rtept lat="32.91804" lon="35.237151">
			<ele>203</ele>
		</rtept>
		<rtept lat="32.918137" lon="35.237153">
			<ele>204.5</ele>
		</rtept>
		<rtept lat="32.91804" lon="35.237151">
			<ele>203</ele>
		</rtept>
		<rtept lat="32.917981" lon="35.23736">
			<ele>203</ele>
		</rtept>
		<rtept lat="32.917798" lon="35.237939">
			<ele>203</ele>
		</rtept>
		<rtept lat="32.91777" lon="35.238812">
			<ele>202</ele>
		</rtept>
		<rtept lat="32.917883" lon="35.240488">
			<ele>203</ele>
		</rtept>
		<rtept lat="32.918122" lon="35.241994">
			<ele>204</ele>
		</rtept>
		<rtept lat="32.91824" lon="35.242917">
			<ele>205</ele>
		</rtept>
		<rtept lat="32.918235" lon="35.242944">
			<ele>205</ele>
		</rtept>
		<rtept lat="32.918222" lon="35.243035">
			<ele>205</ele>
		</rtept>
		<rtept lat="32.918159" lon="35.243169">
			<ele>205</ele>
		</rtept>
		<rtept lat="32.918014" lon="35.242704">
			<ele>205</ele>
		</rtept>
		<rtept lat="32.917911" lon="35.24249">
			<ele>205</ele>
		</rtept>
		<rtept lat="32.917794" lon="35.242296">
			<ele>205</ele>
		</rtept>
		<rtept lat="32.917727" lon="35.242205">
			<ele>205</ele>
		</rtept>
		<rtept lat="32.917627" lon="35.242127">
			<ele>205</ele>
		</rtept>
		<rtept lat="32.91753" lon="35.242064">
			<ele>204</ele>
		</rtept>
		<rtept lat="32.91738" lon="35.241994">
			<ele>204</ele>
		</rtept>
		<rtept lat="32.917009" lon="35.241897">
			<ele>204</ele>
		</rtept>
		<rtept lat="32.916816" lon="35.241877">
			<ele>206</ele>
		</rtept>
		<rtept lat="32.916819" lon="35.241836">
			<ele>204.5</ele>
		</rtept>
		<rtept lat="32.916816" lon="35.241877">
			<ele>206</ele>
		</rtept>
		<rtept lat="32.916696" lon="35.241916">
			<ele>205</ele>
		</rtept>
		<rtept lat="32.91663" lon="35.242727">
			<ele>204.5</ele>
		</rtept>
		<rtept lat="32.916586" lon="35.243272">
			<ele>204</ele>
		</rtept>
		<rtept lat="32.916435" lon="35.245478">
			<ele>206</ele>
		</rtept>
		<rtept lat="32.916267" lon="35.247757">
			<ele>206</ele>
		</rtept>
		<rtept lat="32.916185" lon="35.247821">
			<ele>206</ele>
		</rtept>
		<rtept lat="32.916123" lon="35.247822">
			<ele>206</ele>
		</rtept>
		<rtept lat="32.916089" lon="35.247803">
			<ele>207</ele>
		</rtept>
		<rtept lat="32.915944" lon="35.247606">
			<ele>207</ele>
		</rtept>
		<rtept lat="32.915987" lon="35.247524">
			<ele>207</ele>
		</rtept>
		<rtept lat="32.915944" lon="35.247606">
			<ele>207</ele>
		</rtept>
		<rtept lat="32.916022" lon="35.248429">
			<ele>207</ele>
		</rtept>
		<rtept lat="32.916015" lon="35.248719">
			<ele>207</ele>
		</rtept>
		<rtept lat="32.916001" lon="35.24934">
			<ele>207</ele>
		</rtept>
		<rtept lat="32.91595" lon="35.25022">
			<ele>207</ele>
		</rtept>
		<rtept lat="32.915845" lon="35.252061">
			<ele>207</ele>
		</rtept>
		<rtept lat="32.915825" lon="35.252397">
			<ele>207</ele>
		</rtept>
		<rtept lat="32.915648" lon="35.253398">
			<ele>207</ele>
		</rtept>
		<rtept lat="32.91485" lon="35.253965">
			<ele>208</ele>
		</rtept>
		<rtept lat="32.914565" lon="35.25407">
			<ele>209.5</ele>
		</rtept>
		<rtept lat="32.913713" lon="35.254384">
			<ele>211</ele>
		</rtept>
		<rtept lat="32.913835" lon="35.255003">
			<ele>210</ele>
		</rtept>
		<rtept lat="32.914052" lon="35.256106">
			<ele>209</ele>
		</rtept>
		<rtept lat="32.914363" lon="35.25732">
			<ele>208.5</ele>
		</rtept>
		<rtept lat="32.914464" lon="35.257712">
			<ele>208</ele>
		</rtept>
		<rtept lat="32.914758" lon="35.258632">
			<ele>208</ele>
		</rtept>
		<rtept lat="32.914919" lon="35.259282">
			<ele>208</ele>
		</rtept>
		<rtept lat="32.914958" lon="35.259439">
			<ele>208</ele>
		</rtept>
		<rtept lat="32.91675" lon="35.264114">
			<ele>211</ele>
		</rtept>
		<rtept lat="32.917072" lon="35.265095">
			<ele>212</ele>
		</rtept>
		<rtept lat="32.917775" lon="35.267233">
			<ele>213</ele>
		</rtept>
		<rtept lat="32.918096" lon="35.268304">
			<ele>215</ele>
		</rtept>
		<rtept lat="32.918542" lon="35.269744">
			<ele>217</ele>
		</rtept>
		<rtept lat="32.918623" lon="35.269958">
			<ele>217</ele>
		</rtept>
		<rtept lat="32.918618" lon="35.269953">
			<ele>217</ele>
		</rtept>
		<rtept lat="32.918501" lon="35.270311">
			<ele>221</ele>
		</rtept>
		<rtept lat="32.918143" lon="35.271112">
			<ele>235.5</ele>
		</rtept>
		<rtept lat="32.917951" lon="35.271745">
			<ele>239</ele>
		</rtept>
		<rtept lat="32.918071" lon="35.271843">
			<ele>238</ele>
		</rtept>
		<rtept lat="32.918097" lon="35.271882">
			<ele>236</ele>
		</rtept>
		<rtept lat="32.918103" lon="35.27193">
			<ele>236</ele>
		</rtept>
		<rtept lat="32.918093" lon="35.272081">
			<ele>238</ele>
		</rtept>
		<rtept lat="32.918105" lon="35.272126">
			<ele>238</ele>
		</rtept>
		<rtept lat="32.918121" lon="35.272155">
			<ele>238</ele>
		</rtept>
		<rtept lat="32.918159" lon="35.272196">
			<ele>240</ele>
		</rtept>
		<rtept lat="32.918252" lon="35.272301">
			<ele>242</ele>
		</rtept>
		<rtept lat="32.918264" lon="35.272349">
			<ele>244</ele>
		</rtept>
		<rtept lat="32.91826" lon="35.272389">
			<ele>244</ele>
		</rtept>
		<rtept lat="32.91817" lon="35.27255">
			<ele>248</ele>
		</rtept>
		<rtept lat="32.918099" lon="35.272607">
			<ele>248</ele>
		</rtept>
		<rtept lat="32.918011" lon="35.272727">
			<ele>252</ele>
		</rtept>
		<rtept lat="32.917977" lon="35.272794">
			<ele>252.5</ele>
		</rtept>
		<rtept lat="32.917908" lon="35.272904">
			<ele>254</ele>
		</rtept>
		<rtept lat="32.917836" lon="35.272976">
			<ele>254</ele>
		</rtept>
		<rtept lat="32.91779" lon="35.273005">
			<ele>252</ele>
		</rtept>
		<rtept lat="32.917738" lon="35.273022">
			<ele>252</ele>
		</rtept>
		<rtept lat="32.917703" lon="35.27305">
			<ele>250</ele>
		</rtept>
		<rtept lat="32.917669" lon="35.273101">
			<ele>251</ele>
		</rtept>
		<rtept lat="32.917579" lon="35.273273">
			<ele>250</ele>
		</rtept>
		<rtept lat="32.917555" lon="35.273381">
			<ele>249</ele>
		</rtept>
		<rtept lat="32.917557" lon="35.273458">
			<ele>249</ele>
		</rtept>
		<rtept lat="32.917571" lon="35.273496">
			<ele>249</ele>
		</rtept>
		<rtept lat="32.91761" lon="35.27356">
			<ele>248</ele>
		</rtept>
		<rtept lat="32.917637" lon="35.273637">
			<ele>248</ele>
		</rtept>
		<rtept lat="32.917629" lon="35.273838">
			<ele>243</ele>
		</rtept>
		<rtept lat="32.917649" lon="35.273867">
			<ele>244</ele>
		</rtept>
		<rtept lat="32.917677" lon="35.273896">
			<ele>242</ele>
		</rtept>
		<rtept lat="32.917991" lon="35.274119">
			<ele>239</ele>
		</rtept>
		<rtept lat="32.918087" lon="35.274162">
			<ele>236</ele>
		</rtept>
		<rtept lat="32.918203" lon="35.274194">
			<ele>236</ele>
		</rtept>
		<rtept lat="32.918457" lon="35.274277">
			<ele>232</ele>
		</rtept>
		<rtept lat="32.918491" lon="35.274301">
			<ele>232</ele>
		</rtept>
		<rtept lat="32.918512" lon="35.274349">
			<ele>229</ele>
		</rtept>
		<rtept lat="32.918506" lon="35.274389">
			<ele>229</ele>
		</rtept>
		<rtept lat="32.918479" lon="35.274416">
			<ele>226</ele>
		</rtept>
		<rtept lat="32.918365" lon="35.274475">
			<ele>227</ele>
		</rtept>
		<rtept lat="32.918302" lon="35.274531">
			<ele>226</ele>
		</rtept>
		<rtept lat="32.918099" lon="35.274763">
			<ele>227</ele>
		</rtept>
		<rtept lat="32.918053" lon="35.274801">
			<ele>228</ele>
		</rtept>
		<rtept lat="32.917983" lon="35.27484">
			<ele>231</ele>
		</rtept>
		<rtept lat="32.917914" lon="35.274905">
			<ele>231.5</ele>
		</rtept>
		<rtept lat="32.917868" lon="35.274959">
			<ele>233</ele>
		</rtept>
		<rtept lat="32.917838" lon="35.275038">
			<ele>234</ele>
		</rtept>
		<rtept lat="32.917832" lon="35.27511">
			<ele>234</ele>
		</rtept>
		<rtept lat="32.917848" lon="35.275189">
			<ele>234</ele>
		</rtept>
		<rtept lat="32.917896" lon="35.275259">
			<ele>235</ele>
		</rtept>
		<rtept lat="32.917979" lon="35.275331">
			<ele>235</ele>
		</rtept>
		<rtept lat="32.918067" lon="35.27539">
			<ele>234</ele>
		</rtept>
		<rtept lat="32.918177" lon="35.27545">
			<ele>233</ele>
		</rtept>
		<rtept lat="32.918226" lon="35.275484">
			<ele>232</ele>
		</rtept>
		<rtept lat="32.918246" lon="35.27551">
			<ele>233</ele>
		</rtept>
		<rtept lat="32.918258" lon="35.275556">
			<ele>233</ele>
		</rtept>
		<rtept lat="32.918234" lon="35.275833">
			<ele>234</ele>
		</rtept>
		<rtept lat="32.918216" lon="35.275862">
			<ele>234</ele>
		</rtept>
		<rtept lat="32.91819" lon="35.275879">
			<ele>234</ele>
		</rtept>
		<rtept lat="32.918153" lon="35.275931">
			<ele>235</ele>
		</rtept>
		<rtept lat="32.918152" lon="35.275964">
			<ele>236</ele>
		</rtept>
		<rtept lat="32.918173" lon="35.276069">
			<ele>237</ele>
		</rtept>
		<rtept lat="32.9182" lon="35.276151">
			<ele>240</ele>
		</rtept>
		<rtept lat="32.918191" lon="35.276229">
			<ele>242</ele>
		</rtept>
		<rtept lat="32.918168" lon="35.276321">
			<ele>245</ele>
		</rtept>
		<rtept lat="32.91822" lon="35.276356">
			<ele>246.5</ele>
		</rtept>
		<rtept lat="32.91822" lon="35.276355">
			<ele>246.5</ele>
		</rtept>
		<rtept lat="32.918277" lon="35.276393">
			<ele>248</ele>
		</rtept>
		<rtept lat="32.918559" lon="35.276323">
			<ele>244</ele>
		</rtept>
		<rtept lat="32.918768" lon="35.276489">
			<ele>245</ele>
		</rtept>
		<rtept lat="32.918895" lon="35.276644">
			<ele>241</ele>
		</rtept>
		<rtept lat="32.918953" lon="35.27695">
			<ele>244.5</ele>
		</rtept>
		<rtept lat="32.918977" lon="35.277078">
			<ele>248</ele>
		</rtept>
		<rtept lat="32.918981" lon="35.277291">
			<ele>246</ele>
		</rtept>
		<rtept lat="32.918945" lon="35.277505">
			<ele>248</ele>
		</rtept>
		<rtept lat="32.918931" lon="35.277682">
			<ele>247.5</ele>
		</rtept>
		<rtept lat="32.918926" lon="35.277736">
			<ele>247</ele>
		</rtept>
		<rtept lat="32.918877" lon="35.27795">
			<ele>249</ele>
		</rtept>
		<rtept lat="32.9188" lon="35.278119">
			<ele>250</ele>
		</rtept>
		<rtept lat="32.918737" lon="35.278365">
			<ele>246</ele>
		</rtept>
		<rtept lat="32.918617" lon="35.278599">
			<ele>246</ele>
		</rtept>
		<rtept lat="32.918551" lon="35.278727">
			<ele>246</ele>
		</rtept>
		<rtept lat="32.918473" lon="35.278836">
			<ele>246</ele>
		</rtept>
		<rtept lat="32.918356" lon="35.2789">
			<ele>249</ele>
		</rtept>
		<rtept lat="32.918238" lon="35.278905">
			<ele>250</ele>
		</rtept>
		<rtept lat="32.91816" lon="35.278946">
			<ele>251</ele>
		</rtept>
		<rtept lat="32.918118" lon="35.278933">
			<ele>251</ele>
		</rtept>
		<rtept lat="32.918028" lon="35.278906">
			<ele>251</ele>
		</rtept>
		<rtept lat="32.917918" lon="35.278983">
			<ele>251</ele>
		</rtept>
		<rtept lat="32.917818" lon="35.279006">
			<ele>248</ele>
		</rtept>
		<rtept lat="32.917724" lon="35.278952">
			<ele>250</ele>
		</rtept>
		<rtept lat="32.91756" lon="35.278921">
			<ele>248</ele>
		</rtept>
		<rtept lat="32.917413" lon="35.278809">
			<ele>250</ele>
		</rtept>
		<rtept lat="32.917391" lon="35.278742">
			<ele>250</ele>
		</rtept>
		<rtept lat="32.917285" lon="35.278496">
			<ele>253</ele>
		</rtept>
		<rtept lat="32.917185" lon="35.278312">
			<ele>255</ele>
		</rtept>
		<rtept lat="32.917175" lon="35.278359">
			<ele>253</ele>
		</rtept>
		<rtept lat="32.917151" lon="35.278398">
			<ele>251</ele>
		</rtept>
		<rtept lat="32.917149" lon="35.278399">
			<ele>249.5</ele>
		</rtept>
		<rtept lat="32.916934" lon="35.278522">
			<ele>248</ele>
		</rtept>
		<rtept lat="32.916815" lon="35.278564">
			<ele>250</ele>
		</rtept>
		<rtept lat="32.916595" lon="35.278583">
			<ele>251</ele>
		</rtept>
		<rtept lat="32.915972" lon="35.278616">
			<ele>252</ele>
		</rtept>
		<rtept lat="32.915892" lon="35.278608">
			<ele>253</ele>
		</rtept>
		<rtept lat="32.915714" lon="35.278542">
			<ele>254</ele>
		</rtept>
		<rtept lat="32.915582" lon="35.278517">
			<ele>254</ele>
		</rtept>
		<rtept lat="32.915404" lon="35.27851">
			<ele>254</ele>
		</rtept>
		<rtept lat="32.915075" lon="35.278556">
			<ele>255</ele>
		</rtept>
		<rtept lat="32.915046" lon="35.278553">
			<ele>255</ele>
		</rtept>
		<rtept lat="32.914978" lon="35.278547">
			<ele>255</ele>
		</rtept>
		<rtept lat="32.914821" lon="35.278502">
			<ele>254</ele>
		</rtept>
		<rtept lat="32.91449" lon="35.278344">
			<ele>255</ele>
		</rtept>
		<rtept lat="32.914152" lon="35.278291">
			<ele>256</ele>
		</rtept>
		<rtept lat="32.913649" lon="35.278134">
			<ele>257</ele>
		</rtept>
		<rtept lat="32.913608" lon="35.278112">
			<ele>256.5</ele>
		</rtept>
		<rtept lat="32.913289" lon="35.27794">
			<ele>257</ele>
		</rtept>
		<rtept lat="32.912995" lon="35.277851">
			<ele>256</ele>
		</rtept>
		<rtept lat="32.912727" lon="35.277707">
			<ele>256</ele>
		</rtept>
		<rtept lat="32.912617" lon="35.277569">
			<ele>256</ele>
		</rtept>
		<rtept lat="32.912588" lon="35.277547">
			<ele>255</ele>
		</rtept>
		<rtept lat="32.912609" lon="35.277496">
			<ele>255</ele>
		</rtept>
		<rtept lat="32.912588" lon="35.277547">
			<ele>255</ele>
		</rtept>
		<rtept lat="32.91249" lon="35.277472">
			<ele>255</ele>
		</rtept>
		<rtept lat="32.912221" lon="35.277311">
			<ele>255</ele>
		</rtept>
		<rtept lat="32.912159" lon="35.277114">
			<ele>255</ele>
		</rtept>
		<rtept lat="32.912388" lon="35.27661">
			<ele>255</ele>
		</rtept>
		<rtept lat="32.912412" lon="35.276748">
			<ele>255</ele>
		</rtept>
		<rtept lat="32.912777" lon="35.27692">
			<ele>255</ele>
		</rtept>
		<rtept lat="32.912815" lon="35.277027">
			<ele>255</ele>
		</rtept>
		<rtept lat="32.91298" lon="35.276999">
			<ele>255</ele>
		</rtept>
		<rtept lat="32.912948" lon="35.276852">
			<ele>255</ele>
		</rtept>
		<rtept lat="32.91295" lon="35.276644">
			<ele>255</ele>
		</rtept>
		<rtept lat="32.912984" lon="35.276504">
			<ele>255</ele>
		</rtept>
		<rtept lat="32.913288" lon="35.275672">
			<ele>256</ele>
		</rtept>
		<rtept lat="32.912637" lon="35.275472">
			<ele>255</ele>
		</rtept>
		<rtept lat="32.912642" lon="35.275433">
			<ele>255</ele>
		</rtept>
		<rtept lat="32.912638" lon="35.275395">
			<ele>255</ele>
		</rtept>
		<rtept lat="32.912624" lon="35.275358">
			<ele>255</ele>
		</rtept>
		<rtept lat="32.912601" lon="35.275327">
			<ele>255</ele>
		</rtept>
		<rtept lat="32.912572" lon="35.275306">
			<ele>255</ele>
		</rtept>
		<rtept lat="32.912539" lon="35.275295">
			<ele>255</ele>
		</rtept>
		<rtept lat="32.912505" lon="35.275297">
			<ele>255</ele>
		</rtept>
		<rtept lat="32.912473" lon="35.275311">
			<ele>255</ele>
		</rtept>
		<rtept lat="32.912445" lon="35.275335">
			<ele>255</ele>
		</rtept>
		<rtept lat="32.912421" lon="35.275379">
			<ele>254</ele>
		</rtept>
		<rtept lat="32.912412" lon="35.275431">
			<ele>254</ele>
		</rtept>
		<rtept lat="32.912415" lon="35.275466">
			<ele>254</ele>
		</rtept>
		<rtept lat="32.912444" lon="35.275527">
			<ele>255</ele>
		</rtept>
		<rtept lat="32.912281" lon="35.276053">
			<ele>254</ele>
		</rtept>
		<rtept lat="32.912135" lon="35.276428">
			<ele>254</ele>
		</rtept>
		<rtept lat="32.911648" lon="35.277613">
			<ele>256</ele>
		</rtept>
		<rtept lat="32.911411" lon="35.278243">
			<ele>260</ele>
		</rtept>
		<rtept lat="32.911552" lon="35.278315">
			<ele>260</ele>
		</rtept>
		<rtept lat="32.911539" lon="35.278352">
			<ele>260</ele>
		</rtept>
		<rtept lat="32.91152" lon="35.278376">
			<ele>261</ele>
		</rtept>
		<rtept lat="32.911519" lon="35.27847">
			<ele>262</ele>
		</rtept>
		<rtept lat="32.911551" lon="35.278537">
			<ele>261</ele>
		</rtept>
		<rtept lat="32.911643" lon="35.278495">
			<ele>261</ele>
		</rtept>
		<rtept lat="32.911669" lon="35.278482">
			<ele>261</ele>
		</rtept>
		<rtept lat="32.911774" lon="35.278493">
			<ele>261</ele>
		</rtept>
		<rtept lat="32.912174" lon="35.278624">
			<ele>260</ele>
		</rtept>
		<rtept lat="32.913516" lon="35.278959">
			<ele>255</ele>
		</rtept>
		<rtept lat="32.914212" lon="35.279078">
			<ele>253</ele>
		</rtept>
		<rtept lat="32.915011" lon="35.279233">
			<ele>250</ele>
		</rtept>
		<rtept lat="32.915293" lon="35.279269">
			<ele>249</ele>
		</rtept>
		<rtept lat="32.915417" lon="35.279311">
			<ele>238.5</ele>
		</rtept>
		<rtept lat="32.917214" lon="35.279921">
			<ele>228</ele>
		</rtept>
		<rtept lat="32.917921" lon="35.280169">
			<ele>223</ele>
		</rtept>
		<rtept lat="32.918616" lon="35.280434">
			<ele>219</ele>
		</rtept>
		<rtept lat="32.919247" lon="35.280703">
			<ele>218</ele>
		</rtept>
		<rtept lat="32.919397" lon="35.28084">
			<ele>217</ele>
		</rtept>
		<rtept lat="32.919442" lon="35.280975">
			<ele>218</ele>
		</rtept>
		<rtept lat="32.91945" lon="35.28108">
			<ele>218</ele>
		</rtept>
		<rtept lat="32.919481" lon="35.280958">
			<ele>218</ele>
		</rtept>
		<rtept lat="32.91951" lon="35.280795">
			<ele>219</ele>
		</rtept>
		<rtept lat="32.919481" lon="35.280958">
			<ele>218</ele>
		</rtept>
		<rtept lat="32.91945" lon="35.28108">
			<ele>218</ele>
		</rtept>
		<rtept lat="32.919417" lon="35.281161">
			<ele>218</ele>
		</rtept>
		<rtept lat="32.919362" lon="35.281265">
			<ele>219</ele>
		</rtept>
		<rtept lat="32.919058" lon="35.281737">
			<ele>219</ele>
		</rtept>
		<rtept lat="32.918852" lon="35.282075">
			<ele>220</ele>
		</rtept>
		<rtept lat="32.918752" lon="35.282265">
			<ele>220</ele>
		</rtept>
		<rtept lat="32.91866" lon="35.282463">
			<ele>220</ele>
		</rtept>
		<rtept lat="32.918327" lon="35.283204">
			<ele>220.5</ele>
		</rtept>
		<rtept lat="32.918296" lon="35.283272">
			<ele>221</ele>
		</rtept>
		<rtept lat="32.918241" lon="35.283326">
			<ele>221</ele>
		</rtept>
		<rtept lat="32.918194" lon="35.283356">
			<ele>221</ele>
		</rtept>
		<rtept lat="32.918173" lon="35.283383">
			<ele>221</ele>
		</rtept>
		<rtept lat="32.918152" lon="35.283451">
			<ele>221</ele>
		</rtept>
		<rtept lat="32.918157" lon="35.283502">
			<ele>221</ele>
		</rtept>
		<rtept lat="32.918173" lon="35.283544">
			<ele>221</ele>
		</rtept>
		<rtept lat="32.9182" lon="35.283577">
			<ele>221</ele>
		</rtept>
		<rtept lat="32.918234" lon="35.283598">
			<ele>221</ele>
		</rtept>
		<rtept lat="32.918272" lon="35.283605">
			<ele>221</ele>
		</rtept>
		<rtept lat="32.918312" lon="35.283597">
			<ele>221</ele>
		</rtept>
		<rtept lat="32.919555" lon="35.284562">
			<ele>221</ele>
		</rtept>
		<rtept lat="32.919994" lon="35.284889">
			<ele>222</ele>
		</rtept>
		<rtept lat="32.920211" lon="35.285026">
			<ele>222</ele>
		</rtept>
		<rtept lat="32.920406" lon="35.285131">
			<ele>222</ele>
		</rtept>
		<rtept lat="32.920579" lon="35.28519">
			<ele>223</ele>
		</rtept>
		<rtept lat="32.920929" lon="35.285277">
			<ele>222</ele>
		</rtept>
		<rtept lat="32.920932" lon="35.285296">
			<ele>222</ele>
		</rtept>
		<rtept lat="32.920965" lon="35.285354">
			<ele>222</ele>
		</rtept>
		<rtept lat="32.921013" lon="35.285393">
			<ele>222</ele>
		</rtept>
		<rtept lat="32.921073" lon="35.285407">
			<ele>222</ele>
		</rtept>
		<rtept lat="32.921133" lon="35.285393">
			<ele>222</ele>
		</rtept>
		<rtept lat="32.921181" lon="35.285354">
			<ele>222</ele>
		</rtept>
		<rtept lat="32.921214" lon="35.285296">
			<ele>222</ele>
		</rtept>
		<rtept lat="32.921226" lon="35.285225">
			<ele>224</ele>
		</rtept>
		<rtept lat="32.921214" lon="35.285154">
			<ele>224</ele>
		</rtept>
		<rtept lat="32.921181" lon="35.285097">
			<ele>226</ele>
		</rtept>
		<rtept lat="32.921133" lon="35.285058">
			<ele>225</ele>
		</rtept>
		<rtept lat="32.921073" lon="35.285043">
			<ele>225</ele>
		</rtept>
		<rtept lat="32.921013" lon="35.285058">
			<ele>224</ele>
		</rtept>
		<rtept lat="32.920965" lon="35.285097">
			<ele>224</ele>
		</rtept>
		<rtept lat="32.920943" lon="35.285136">
			<ele>222</ele>
		</rtept>
		<rtept lat="32.92075" lon="35.285131">
			<ele>222</ele>
		</rtept>
		<rtept lat="32.920598" lon="35.285096">
			<ele>222</ele>
		</rtept>
		<rtept lat="32.920434" lon="35.28504">
			<ele>222</ele>
		</rtept>
		<rtept lat="32.920175" lon="35.284892">
			<ele>222</ele>
		</rtept>
		<rtept lat="32.919982" lon="35.284769">
			<ele>222</ele>
		</rtept>
		<rtept lat="32.919781" lon="35.28462">
			<ele>222</ele>
		</rtept>
		<rtept lat="32.919044" lon="35.284024">
			<ele>220</ele>
		</rtept>
		<rtept lat="32.918992" lon="35.284125">
			<ele>220</ele>
		</rtept>
		<rtept lat="32.919555" lon="35.284562">
			<ele>221</ele>
		</rtept>
		<rtept lat="32.919994" lon="35.284889">
			<ele>222</ele>
		</rtept>
		<rtept lat="32.920211" lon="35.285026">
			<ele>222</ele>
		</rtept>
		<rtept lat="32.920406" lon="35.285131">
			<ele>222</ele>
		</rtept>
		<rtept lat="32.920579" lon="35.28519">
			<ele>223</ele>
		</rtept>
		<rtept lat="32.920929" lon="35.285277">
			<ele>222</ele>
		</rtept>
		<rtept lat="32.920932" lon="35.285296">
			<ele>222</ele>
		</rtept>
		<rtept lat="32.920965" lon="35.285354">
			<ele>222</ele>
		</rtept>
		<rtept lat="32.921013" lon="35.285393">
			<ele>222</ele>
		</rtept>
		<rtept lat="32.921073" lon="35.285407">
			<ele>222</ele>
		</rtept>
		<rtept lat="32.921133" lon="35.285393">
			<ele>222</ele>
		</rtept>
		<rtept lat="32.921164" lon="35.285368">
			<ele>222</ele>
		</rtept>
		<rtept lat="32.921308" lon="35.285413">
			<ele>223</ele>
		</rtept>
		<rtept lat="32.921551" lon="35.285524">
			<ele>223</ele>
		</rtept>
		<rtept lat="32.921719" lon="35.285629">
			<ele>223</ele>
		</rtept>
		<rtept lat="32.921856" lon="35.285733">
			<ele>223</ele>
		</rtept>
		<rtept lat="32.921959" lon="35.285846">
			<ele>223</ele>
		</rtept>
		<rtept lat="32.922026" lon="35.285943">
			<ele>223</ele>
		</rtept>
		<rtept lat="32.922112" lon="35.286094">
			<ele>223</ele>
		</rtept>
		<rtept lat="32.922306" lon="35.286574">
			<ele>223</ele>
		</rtept>
		<rtept lat="32.92245" lon="35.287007">
			<ele>223</ele>
		</rtept>
		<rtept lat="32.922571" lon="35.287269">
			<ele>225</ele>
		</rtept>
		<rtept lat="32.922784" lon="35.287629">
			<ele>225</ele>
		</rtept>
		<rtept lat="32.923501" lon="35.288625">
			<ele>226</ele>
		</rtept>
		<rtept lat="32.923708" lon="35.288948">
			<ele>228</ele>
		</rtept>
		<rtept lat="32.923786" lon="35.289103">
			<ele>228</ele>
		</rtept>
		<rtept lat="32.923894" lon="35.289364">
			<ele>227</ele>
		</rtept>
		<rtept lat="32.923935" lon="35.289484">
			<ele>227</ele>
		</rtept>
		<rtept lat="32.924009" lon="35.289772">
			<ele>228</ele>
		</rtept>
		<rtept lat="32.924058" lon="35.290074">
			<ele>229</ele>
		</rtept>
		<rtept lat="32.924071" lon="35.29023">
			<ele>229</ele>
		</rtept>
		<rtept lat="32.924071" lon="35.290533">
			<ele>230</ele>
		</rtept>
		<rtept lat="32.924057" lon="35.290713">
			<ele>231</ele>
		</rtept>
		<rtept lat="32.923919" lon="35.291725">
			<ele>234</ele>
		</rtept>
		<rtept lat="32.923891" lon="35.291992">
			<ele>235</ele>
		</rtept>
		<rtept lat="32.923887" lon="35.292387">
			<ele>239</ele>
		</rtept>
		<rtept lat="32.923934" lon="35.293429">
			<ele>245</ele>
		</rtept>
		<rtept lat="32.923925" lon="35.293713">
			<ele>245</ele>
		</rtept>
		<rtept lat="32.923827" lon="35.295519">
			<ele>243</ele>
		</rtept>
		<rtept lat="32.923793" lon="35.295793">
			<ele>243</ele>
		</rtept>
		<rtept lat="32.923736" lon="35.295981">
			<ele>243</ele>
		</rtept>
		<rtept lat="32.923708" lon="35.295995">
			<ele>243</ele>
		</rtept>
		<rtept lat="32.923679" lon="35.296026">
			<ele>243</ele>
		</rtept>
		<rtept lat="32.92366" lon="35.296066">
			<ele>243</ele>
		</rtept>
		<rtept lat="32.923653" lon="35.296111">
			<ele>243</ele>
		</rtept>
		<rtept lat="32.923659" lon="35.296157">
			<ele>243</ele>
		</rtept>
		<rtept lat="32.923691" lon="35.296213">
			<ele>243</ele>
		</rtept>
		<rtept lat="32.92374" lon="35.296248">
			<ele>243</ele>
		</rtept>
		<rtept lat="32.923815" lon="35.296242">
			<ele>243</ele>
		</rtept>
		<rtept lat="32.923847" lon="35.296218">
			<ele>242</ele>
		</rtept>
		<rtept lat="32.923861" lon="35.296198">
			<ele>242</ele>
		</rtept>
		<rtept lat="32.92388" lon="35.296155">
			<ele>242</ele>
		</rtept>
		<rtept lat="32.923886" lon="35.296106">
			<ele>242</ele>
		</rtept>
		<rtept lat="32.923874" lon="35.296049">
			<ele>242</ele>
		</rtept>
		<rtept lat="32.923851" lon="35.296012">
			<ele>242</ele>
		</rtept>
		<rtept lat="32.923908" lon="35.295525">
			<ele>242</ele>
		</rtept>
		<rtept lat="32.924006" lon="35.293717">
			<ele>245</ele>
		</rtept>
		<rtept lat="32.924015" lon="35.293429">
			<ele>243</ele>
		</rtept>
		<rtept lat="32.923968" lon="35.292383">
			<ele>238</ele>
		</rtept>
		<rtept lat="32.923972" lon="35.292">
			<ele>235</ele>
		</rtept>
		<rtept lat="32.923999" lon="35.291739">
			<ele>234</ele>
		</rtept>
		<rtept lat="32.924138" lon="35.290726">
			<ele>231</ele>
		</rtept>
		<rtept lat="32.924152" lon="35.290538">
			<ele>230</ele>
		</rtept>
		<rtept lat="32.924152" lon="35.290225">
			<ele>229</ele>
		</rtept>
		<rtept lat="32.924139" lon="35.290061">
			<ele>229</ele>
		</rtept>
		<rtept lat="32.924088" lon="35.28975">
			<ele>228</ele>
		</rtept>
		<rtept lat="32.924047" lon="35.289569">
			<ele>228</ele>
		</rtept>
		<rtept lat="32.923969" lon="35.289324">
			<ele>227</ele>
		</rtept>
		<rtept lat="32.923857" lon="35.289057">
			<ele>228</ele>
		</rtept>
		<rtept lat="32.923775" lon="35.288895">
			<ele>228</ele>
		</rtept>
		<rtept lat="32.923564" lon="35.288564">
			<ele>226</ele>
		</rtept>
		<rtept lat="32.923227" lon="35.288095">
			<ele>225.5</ele>
		</rtept>
		<rtept lat="32.922848" lon="35.287569">
			<ele>225</ele>
		</rtept>
		<rtept lat="32.92264" lon="35.287218">
			<ele>224</ele>
		</rtept>
		<rtept lat="32.922564" lon="35.287053">
			<ele>223</ele>
		</rtept>
		<rtept lat="32.922492" lon="35.287098">
			<ele>224</ele>
		</rtept>
		<rtept lat="32.922571" lon="35.287269">
			<ele>225</ele>
		</rtept>
		<rtept lat="32.922784" lon="35.287629">
			<ele>225</ele>
		</rtept>
		<rtept lat="32.923501" lon="35.288625">
			<ele>226</ele>
		</rtept>
		<rtept lat="32.923708" lon="35.288948">
			<ele>228</ele>
		</rtept>
		<rtept lat="32.923786" lon="35.289103">
			<ele>228</ele>
		</rtept>
		<rtept lat="32.923894" lon="35.289364">
			<ele>227</ele>
		</rtept>
		<rtept lat="32.923935" lon="35.289484">
			<ele>227</ele>
		</rtept>
		<rtept lat="32.924009" lon="35.289772">
			<ele>228</ele>
		</rtept>
		<rtept lat="32.924058" lon="35.290074">
			<ele>229</ele>
		</rtept>
		<rtept lat="32.924071" lon="35.29023">
			<ele>229</ele>
		</rtept>
		<rtept lat="32.924071" lon="35.290533">
			<ele>230</ele>
		</rtept>
		<rtept lat="32.924057" lon="35.290713">
			<ele>231</ele>
		</rtept>
		<rtept lat="32.923919" lon="35.291725">
			<ele>234</ele>
		</rtept>
		<rtept lat="32.923891" lon="35.291992">
			<ele>235</ele>
		</rtept>
		<rtept lat="32.923887" lon="35.292387">
			<ele>239</ele>
		</rtept>
		<rtept lat="32.923934" lon="35.293429">
			<ele>245</ele>
		</rtept>
		<rtept lat="32.923925" lon="35.293713">
			<ele>245</ele>
		</rtept>
		<rtept lat="32.923827" lon="35.295519">
			<ele>243</ele>
		</rtept>
		<rtept lat="32.923793" lon="35.295793">
			<ele>243</ele>
		</rtept>
		<rtept lat="32.923736" lon="35.295981">
			<ele>243</ele>
		</rtept>
		<rtept lat="32.923708" lon="35.295995">
			<ele>243</ele>
		</rtept>
		<rtept lat="32.923679" lon="35.296026">
			<ele>243</ele>
		</rtept>
		<rtept lat="32.92366" lon="35.296066">
			<ele>243</ele>
		</rtept>
		<rtept lat="32.923653" lon="35.296111">
			<ele>243</ele>
		</rtept>
		<rtept lat="32.923659" lon="35.296157">
			<ele>243</ele>
		</rtept>
		<rtept lat="32.923691" lon="35.296213">
			<ele>243</ele>
		</rtept>
		<rtept lat="32.923651" lon="35.296401">
			<ele>243</ele>
		</rtept>
		<rtept lat="32.923575" lon="35.296657">
			<ele>243</ele>
		</rtept>
		<rtept lat="32.92335" lon="35.297269">
			<ele>243</ele>
		</rtept>
		<rtept lat="32.923227" lon="35.297635">
			<ele>244</ele>
		</rtept>
		<rtept lat="32.923086" lon="35.298203">
			<ele>245</ele>
		</rtept>
		<rtept lat="32.92303" lon="35.298216">
			<ele>245</ele>
		</rtept>
		<rtept lat="32.922985" lon="35.298252">
			<ele>247</ele>
		</rtept>
		<rtept lat="32.922955" lon="35.298306">
			<ele>246</ele>
		</rtept>
		<rtept lat="32.922943" lon="35.298372">
			<ele>246</ele>
		</rtept>
		<rtept lat="32.922955" lon="35.298438">
			<ele>246</ele>
		</rtept>
		<rtept lat="32.922985" lon="35.298491">
			<ele>246</ele>
		</rtept>
		<rtept lat="32.922766" lon="35.299293">
			<ele>247</ele>
		</rtept>
		<rtept lat="32.922714" lon="35.299445">
			<ele>248</ele>
		</rtept>
		<rtept lat="32.922631" lon="35.299686">
			<ele>249</ele>
		</rtept>
		<rtept lat="32.922526" lon="35.299958">
			<ele>249</ele>
		</rtept>
		<rtept lat="32.92246" lon="35.300169">
			<ele>249</ele>
		</rtept>
		<rtept lat="32.92241" lon="35.300645">
			<ele>246</ele>
		</rtept>
		<rtept lat="32.922414" lon="35.300746">
			<ele>245</ele>
		</rtept>
		<rtept lat="32.92243" lon="35.300854">
			<ele>245</ele>
		</rtept>
		<rtept lat="32.922458" lon="35.300975">
			<ele>246</ele>
		</rtept>
		<rtept lat="32.922537" lon="35.301207">
			<ele>247</ele>
		</rtept>
		<rtept lat="32.922714" lon="35.301653">
			<ele>246</ele>
		</rtept>
		<rtept lat="32.922796" lon="35.301601">
			<ele>246</ele>
		</rtept>
		<rtept lat="32.922773" lon="35.301543">
			<ele>246</ele>
		</rtept>
		<rtept lat="32.922742" lon="35.301468">
			<ele>246</ele>
		</rtept>
		<rtept lat="32.922664" lon="35.301518">
			<ele>246</ele>
		</rtept>
		<rtept lat="32.922714" lon="35.301653">
			<ele>246</ele>
		</rtept>
		<rtept lat="32.923702" lon="35.301023">
			<ele>248</ele>
		</rtept>
		<rtept lat="32.923812" lon="35.300979">
			<ele>249</ele>
		</rtept>
		<rtept lat="32.923941" lon="35.300983">
			<ele>250</ele>
		</rtept>
		<rtept lat="32.924143" lon="35.301007">
			<ele>251</ele>
		</rtept>
		<rtept lat="32.924271" lon="35.300998">
			<ele>251</ele>
		</rtept>
		<rtept lat="32.924405" lon="35.300467">
			<ele>249.5</ele>
		</rtept>
		<rtept lat="32.92476" lon="35.299092">
			<ele>247</ele>
		</rtept>
		<rtept lat="32.925098" lon="35.299149">
			<ele>248</ele>
		</rtept>
		<rtept lat="32.92583" lon="35.299249">
			<ele>250</ele>
		</rtept>
		<rtept lat="32.925163" lon="35.299078">
			<ele>248</ele>
		</rtept>
		<rtept lat="32.924914" lon="35.299028">
			<ele>247</ele>
		</rtept>
		<rtept lat="32.92478" lon="35.299002">
			<ele>246</ele>
		</rtept>
		<rtept lat="32.924659" lon="35.299013">
			<ele>246</ele>
		</rtept>
		<rtept lat="32.92476" lon="35.299092">
			<ele>247</ele>
		</rtept>
		<rtept lat="32.925098" lon="35.299149">
			<ele>248</ele>
		</rtept>
		<rtept lat="32.92583" lon="35.299249">
			<ele>250</ele>
		</rtept>
		<rtept lat="32.927949" lon="35.299639">
			<ele>259.5</ele>
		</rtept>
		<rtept lat="32.931686" lon="35.300335">
			<ele>273</ele>
		</rtept>
		<rtept lat="32.932074" lon="35.300454">
			<ele>273</ele>
		</rtept>
		<rtept lat="32.932792" lon="35.300739">
			<ele>276</ele>
		</rtept>
		<rtept lat="32.933239" lon="35.301017">
			<ele>276</ele>
		</rtept>
		<rtept lat="32.933499" lon="35.30116">
			<ele>275</ele>
		</rtept>
		<rtept lat="32.933631" lon="35.301263">
			<ele>275</ele>
		</rtept>
		<rtept lat="32.933746" lon="35.301353">
			<ele>275</ele>
		</rtept>
		<rtept lat="32.934269" lon="35.30182">
			<ele>278</ele>
		</rtept>
		<rtept lat="32.934835" lon="35.302413">
			<ele>280</ele>
		</rtept>
		<rtept lat="32.934932" lon="35.3023">
			<ele>281</ele>
		</rtept>
		<rtept lat="32.935236" lon="35.302742">
			<ele>282.5</ele>
		</rtept>
		<rtept lat="32.935506" lon="35.303134">
			<ele>284</ele>
		</rtept>
		<rtept lat="32.93572" lon="35.303471">
			<ele>287</ele>
		</rtept>
		<rtept lat="32.935874" lon="35.303782">
			<ele>287.5</ele>
		</rtept>
		<rtept lat="32.936017" lon="35.304093">
			<ele>288</ele>
		</rtept>
		<rtept lat="32.936427" lon="35.305253">
			<ele>289</ele>
		</rtept>
		<rtept lat="32.936984" lon="35.306737">
			<ele>294</ele>
		</rtept>
		<rtept lat="32.937506" lon="35.308259">
			<ele>295</ele>
		</rtept>
		<rtept lat="32.937534" lon="35.308271">
			<ele>295</ele>
		</rtept>
		<rtept lat="32.937648" lon="35.308639">
			<ele>294</ele>
		</rtept>
		<rtept lat="32.937742" lon="35.309016">
			<ele>295</ele>
		</rtept>
		<rtept lat="32.937967" lon="35.309652">
			<ele>297</ele>
		</rtept>
		<rtept lat="32.938276" lon="35.310808">
			<ele>298</ele>
		</rtept>
		<rtept lat="32.938356" lon="35.310976">
			<ele>298</ele>
		</rtept>
		<rtept lat="32.938398" lon="35.311145">
			<ele>298</ele>
		</rtept>
		<rtept lat="32.938565" lon="35.31197">
			<ele>305</ele>
		</rtept>
		<rtept lat="32.938637" lon="35.312394">
			<ele>305</ele>
		</rtept>
		<rtept lat="32.938682" lon="35.312761">
			<ele>306</ele>
		</rtept>
		<rtept lat="32.938715" lon="35.312927">
			<ele>307</ele>
		</rtept>
		<rtept lat="32.938714" lon="35.313023">
			<ele>307</ele>
		</rtept>
		<rtept lat="32.938712" lon="35.313116">
			<ele>307</ele>
		</rtept>
		<rtept lat="32.938751" lon="35.313622">
			<ele>309</ele>
		</rtept>
		<rtept lat="32.938823" lon="35.313775">
			<ele>310</ele>
		</rtept>
		<rtept lat="32.939048" lon="35.314024">
			<ele>316</ele>
		</rtept>
		<rtept lat="32.938875" lon="35.314335">
			<ele>314</ele>
		</rtept>
		<rtept lat="32.938685" lon="35.314329">
			<ele>309</ele>
		</rtept>
		<rtept lat="32.938541" lon="35.314726">
			<ele>309</ele>
		</rtept>
		<rtept lat="32.938545" lon="35.315026">
			<ele>312</ele>
		</rtept>
		<rtept lat="32.938622" lon="35.315359">
			<ele>317</ele>
		</rtept>
		<rtept lat="32.938625" lon="35.315417">
			<ele>319</ele>
		</rtept>
		<rtept lat="32.93864" lon="35.315734">
			<ele>321</ele>
		</rtept>
		<rtept lat="32.938598" lon="35.316205">
			<ele>327</ele>
		</rtept>
		<rtept lat="32.93868" lon="35.316223">
			<ele>329</ele>
		</rtept>
		<rtept lat="32.939063" lon="35.316056">
			<ele>338</ele>
		</rtept>
		<rtept lat="32.939162" lon="35.316137">
			<ele>341</ele>
		</rtept>
		<rtept lat="32.939207" lon="35.316115">
			<ele>345</ele>
		</rtept>
		<rtept lat="32.939293" lon="35.31596">
			<ele>348</ele>
		</rtept>
		<rtept lat="32.939369" lon="35.315737">
			<ele>350.5</ele>
		</rtept>
		<rtept lat="32.939459" lon="35.315472">
			<ele>353</ele>
		</rtept>
		<rtept lat="32.939819" lon="35.315203">
			<ele>363</ele>
		</rtept>
		<rtept lat="32.939963" lon="35.314914">
			<ele>360</ele>
		</rtept>
		<rtept lat="32.940063" lon="35.314892">
			<ele>363</ele>
		</rtept>
		<rtept lat="32.940126" lon="35.314833">
			<ele>366</ele>
		</rtept>
		<rtept lat="32.940178" lon="35.314803">
			<ele>367.5</ele>
		</rtept>
		<rtept lat="32.940352" lon="35.314702">
			<ele>369</ele>
		</rtept>
		<rtept lat="32.940571" lon="35.314243">
			<ele>371</ele>
		</rtept>
		<rtept lat="32.940648" lon="35.314034">
			<ele>373</ele>
		</rtept>
		<rtept lat="32.940768" lon="35.313227">
			<ele>376</ele>
		</rtept>
		<rtept lat="32.940901" lon="35.312839">
			<ele>386</ele>
		</rtept>
		<rtept lat="32.940904" lon="35.312477">
			<ele>389</ele>
		</rtept>
		<rtept lat="32.940984" lon="35.312301">
			<ele>392</ele>
		</rtept>
		<rtept lat="32.941099" lon="35.31205">
			<ele>395</ele>
		</rtept>
		<rtept lat="32.94132" lon="35.311758">
			<ele>396</ele>
		</rtept>
		<rtept lat="32.941464" lon="35.311381">
			<ele>400</ele>
		</rtept>
		<rtept lat="32.941617" lon="35.310479">
			<ele>405</ele>
		</rtept>
		<rtept lat="32.941687" lon="35.310186">
			<ele>405</ele>
		</rtept>
		<rtept lat="32.941824" lon="35.309952">
			<ele>412</ele>
		</rtept>
		<rtept lat="32.941827" lon="35.309666">
			<ele>413.5</ele>
		</rtept>
		<rtept lat="32.941822" lon="35.309531">
			<ele>414</ele>
		</rtept>
		<rtept lat="32.941794" lon="35.309465">
			<ele>412</ele>
		</rtept>
		<rtept lat="32.941487" lon="35.309348">
			<ele>407</ele>
		</rtept>
		<rtept lat="32.941365" lon="35.309199">
			<ele>406</ele>
		</rtept>
		<rtept lat="32.941203" lon="35.308806">
			<ele>409</ele>
		</rtept>
		<rtept lat="32.941117" lon="35.308454">
			<ele>408</ele>
		</rtept>
		<rtept lat="32.941115" lon="35.308413">
			<ele>406</ele>
		</rtept>
		<rtept lat="32.941069" lon="35.307759">
			<ele>404</ele>
		</rtept>
		<rtept lat="32.941086" lon="35.30739">
			<ele>407</ele>
		</rtept>
		<rtept lat="32.941078" lon="35.307023">
			<ele>408</ele>
		</rtept>
		<rtept lat="32.941027" lon="35.306551">
			<ele>410</ele>
		</rtept>
		<rtept lat="32.940968" lon="35.306168">
			<ele>414</ele>
		</rtept>
		<rtept lat="32.940918" lon="35.305935">
			<ele>415.5</ele>
		</rtept>
		<rtept lat="32.940887" lon="35.305788">
			<ele>417</ele>
		</rtept>
		<rtept lat="32.940817" lon="35.305561">
			<ele>421</ele>
		</rtept>
		<rtept lat="32.940594" lon="35.304604">
			<ele>420</ele>
		</rtept>
		<rtept lat="32.940288" lon="35.303981">
			<ele>421</ele>
		</rtept>
		<rtept lat="32.94017" lon="35.303628">
			<ele>419.5</ele>
		</rtept>
		<rtept lat="32.940032" lon="35.303214">
			<ele>418</ele>
		</rtept>
		<rtept lat="32.940035" lon="35.302758">
			<ele>421</ele>
		</rtept>
		<rtept lat="32.939994" lon="35.302364">
			<ele>421</ele>
		</rtept>
		<rtept lat="32.93975" lon="35.301861">
			<ele>424</ele>
		</rtept>
		<rtept lat="32.939675" lon="35.301822">
			<ele>422</ele>
		</rtept>
		<rtept lat="32.939634" lon="35.301638">
			<ele>424</ele>
		</rtept>
		<rtept lat="32.939622" lon="35.30152">
			<ele>425.5</ele>
		</rtept>
		<rtept lat="32.939605" lon="35.301353">
			<ele>427</ele>
		</rtept>
		<rtept lat="32.939608" lon="35.301268">
			<ele>427</ele>
		</rtept>
		<rtept lat="32.939536" lon="35.301167">
			<ele>427</ele>
		</rtept>
		<rtept lat="32.939706" lon="35.301128">
			<ele>430</ele>
		</rtept>
		<rtept lat="32.93979" lon="35.301039">
			<ele>432</ele>
		</rtept>
		<rtept lat="32.939869" lon="35.300872">
			<ele>433</ele>
		</rtept>
		<rtept lat="32.940365" lon="35.299374">
			<ele>438.5</ele>
		</rtept>
		<rtept lat="32.940587" lon="35.2987">
			<ele>443</ele>
		</rtept>
		<rtept lat="32.940602" lon="35.298595">
			<ele>443</ele>
		</rtept>
		<rtept lat="32.940603" lon="35.29778">
			<ele>448</ele>
		</rtept>
		<rtept lat="32.940638" lon="35.29744">
			<ele>457</ele>
		</rtept>
		<rtept lat="32.940602" lon="35.296455">
			<ele>469</ele>
		</rtept>
		<rtept lat="32.940603" lon="35.295816">
			<ele>473</ele>
		</rtept>
		<rtept lat="32.940443" lon="35.295691">
			<ele>472</ele>
		</rtept>
		<rtept lat="32.940256" lon="35.295488">
			<ele>471</ele>
		</rtept>
		<rtept lat="32.940207" lon="35.295255">
			<ele>473</ele>
		</rtept>
		<rtept lat="32.940209" lon="35.295069">
			<ele>476</ele>
		</rtept>
		<rtept lat="32.940117" lon="35.294531">
			<ele>477.5</ele>
		</rtept>
		<rtept lat="32.94004" lon="35.294176">
			<ele>478</ele>
		</rtept>
		<rtept lat="32.940159" lon="35.294042">
			<ele>483</ele>
		</rtept>
		<rtept lat="32.940215" lon="35.293689">
			<ele>486</ele>
		</rtept>
		<rtept lat="32.940359" lon="35.293506">
			<ele>489</ele>
		</rtept>
		<rtept lat="32.940355" lon="35.293389">
			<ele>489</ele>
		</rtept>
		<rtept lat="32.940304" lon="35.293278">
			<ele>489</ele>
		</rtept>
		<rtept lat="32.940233" lon="35.293201">
			<ele>490</ele>
		</rtept>
		<rtept lat="32.939955" lon="35.292986">
			<ele>494</ele>
		</rtept>
		<rtept lat="32.939753" lon="35.292956">
			<ele>493</ele>
		</rtept>
		<rtept lat="32.939673" lon="35.292829">
			<ele>494</ele>
		</rtept>
		<rtept lat="32.939692" lon="35.292717">
			<ele>496</ele>
		</rtept>
		<rtept lat="32.939874" lon="35.292547">
			<ele>499</ele>
		</rtept>
		<rtept lat="32.940025" lon="35.292334">
			<ele>501</ele>
		</rtept>
		<rtept lat="32.940243" lon="35.292287">
			<ele>502</ele>
		</rtept>
		<rtept lat="32.940409" lon="35.292326">
			<ele>505</ele>
		</rtept>
		<rtept lat="32.941" lon="35.292423">
			<ele>511</ele>
		</rtept>
		<rtept lat="32.941053" lon="35.2923">
			<ele>512</ele>
		</rtept>
		<rtept lat="32.941019" lon="35.292203">
			<ele>514</ele>
		</rtept>
		<rtept lat="32.941027" lon="35.292034">
			<ele>516</ele>
		</rtept>
		<rtept lat="32.940989" lon="35.29182">
			<ele>521</ele>
		</rtept>
		<rtept lat="32.940878" lon="35.291524">
			<ele>523</ele>
		</rtept>
		<rtept lat="32.940826" lon="35.29134">
			<ele>526</ele>
		</rtept>
		<rtept lat="32.940843" lon="35.291138">
			<ele>528</ele>
		</rtept>
		<rtept lat="32.94086" lon="35.29095">
			<ele>530</ele>
		</rtept>
		<rtept lat="32.940785" lon="35.290838">
			<ele>531</ele>
		</rtept>
		<rtept lat="32.940655" lon="35.290688">
			<ele>531</ele>
		</rtept>
		<rtept lat="32.940603" lon="35.290512">
			<ele>531</ele>
		</rtept>
		<rtept lat="32.940567" lon="35.290321">
			<ele>532</ele>
		</rtept>
		<rtept lat="32.94055" lon="35.28925">
			<ele>535</ele>
		</rtept>
		<rtept lat="32.940489" lon="35.288074">
			<ele>538</ele>
		</rtept>
		<rtept lat="32.940414" lon="35.287833">
			<ele>537</ele>
		</rtept>
		<rtept lat="32.940314" lon="35.287595">
			<ele>536.5</ele>
		</rtept>
		<rtept lat="32.940039" lon="35.286939">
			<ele>536</ele>
		</rtept>
		<rtept lat="32.940065" lon="35.286838">
			<ele>536</ele>
		</rtept>
		<rtept lat="32.940122" lon="35.286688">
			<ele>538</ele>
		</rtept>
		<rtept lat="32.94073" lon="35.28539">
			<ele>545</ele>
		</rtept>
		<rtept lat="32.940811" lon="35.285271">
			<ele>546</ele>
		</rtept>
		<rtept lat="32.940894" lon="35.285184">
			<ele>546</ele>
		</rtept>
		<rtept lat="32.940979" lon="35.285124">
			<ele>548</ele>
		</rtept>
		<rtept lat="32.941063" lon="35.285088">
			<ele>549</ele>
		</rtept>
		<rtept lat="32.941147" lon="35.285072">
			<ele>551</ele>
		</rtept>
		<rtept lat="32.941229" lon="35.285071">
			<ele>552</ele>
		</rtept>
		<rtept lat="32.941309" lon="35.285083">
			<ele>553</ele>
		</rtept>
		<rtept lat="32.941525" lon="35.285142">
			<ele>557</ele>
		</rtept>
		<rtept lat="32.941565" lon="35.284873">
			<ele>554</ele>
		</rtept>
		<rtept lat="32.941631" lon="35.284893">
			<ele>554.5</ele>
		</rtept>
		<rtept lat="32.941565" lon="35.284873">
			<ele>554</ele>
		</rtept>
		<rtept lat="32.941601" lon="35.284697">
			<ele>553</ele>
		</rtept>
		<rtept lat="32.941657" lon="35.28451">
			<ele>555</ele>
		</rtept>
		<rtept lat="32.941697" lon="35.284453">
			<ele>555</ele>
		</rtept>
		<rtept lat="32.941744" lon="35.284406">
			<ele>555</ele>
		</rtept>
		<rtept lat="32.94178" lon="35.284384">
			<ele>555</ele>
		</rtept>
		<rtept lat="32.941857" lon="35.28437">
			<ele>556</ele>
		</rtept>
		<rtept lat="32.941906" lon="35.28435">
			<ele>556</ele>
		</rtept>
		<rtept lat="32.941948" lon="35.284314">
			<ele>556</ele>
		</rtept>
		<rtept lat="32.941978" lon="35.284265">
			<ele>557</ele>
		</rtept>
		<rtept lat="32.941995" lon="35.284205">
			<ele>557</ele>
		</rtept>
		<rtept lat="32.941988" lon="35.28411">
			<ele>557</ele>
		</rtept>
		<rtept lat="32.941964" lon="35.284055">
			<ele>556</ele>
		</rtept>
		<rtept lat="32.941928" lon="35.284012">
			<ele>556</ele>
		</rtept>
		<rtept lat="32.941882" lon="35.283984">
			<ele>556</ele>
		</rtept>
		<rtept lat="32.941802" lon="35.283976">
			<ele>556</ele>
		</rtept>
		<rtept lat="32.941769" lon="35.283979">
			<ele>556</ele>
		</rtept>
		<rtept lat="32.941714" lon="35.283965">
			<ele>556</ele>
		</rtept>
		<rtept lat="32.941619" lon="35.2839">
			<ele>555</ele>
		</rtept>
		<rtept lat="32.941188" lon="35.283476">
			<ele>556</ele>
		</rtept>
		<rtept lat="32.941464" lon="35.283105">
			<ele>556</ele>
		</rtept>
		<rtept lat="32.941602" lon="35.283241">
			<ele>556</ele>
		</rtept>
		<rtept lat="32.941477" lon="35.283407">
			<ele>555</ele>
		</rtept>
		<rtept lat="32.941459" lon="35.283458">
			<ele>555</ele>
		</rtept>
		<rtept lat="32.941466" lon="35.283503">
			<ele>555</ele>
		</rtept>
		<rtept lat="32.941494" lon="35.283542">
			<ele>555</ele>
		</rtept>
		<rtept lat="32.941776" lon="35.283816">
			<ele>556</ele>
		</rtept>
		<rtept lat="32.941795" lon="35.28383">
			<ele>557</ele>
		</rtept>
		<rtept lat="32.941834" lon="35.28384">
			<ele>557</ele>
		</rtept>
		<rtept lat="32.941874" lon="35.283832">
			<ele>557</ele>
		</rtept>
		<rtept lat="32.94193" lon="35.283794">
			<ele>557</ele>
		</rtept>
		<rtept lat="32.942076" lon="35.283631">
			<ele>559</ele>
		</rtept>
		<rtept lat="32.942209" lon="35.283509">
			<ele>560</ele>
		</rtept>
		<rtept lat="32.942383" lon="35.283398">
			<ele>559</ele>
		</rtept>
		<rtept lat="32.942508" lon="35.283345">
			<ele>559</ele>
		</rtept>
		<rtept lat="32.942595" lon="35.283321">
			<ele>558</ele>
		</rtept>
		<rtept lat="32.94308" lon="35.28311">
			<ele>556</ele>
		</rtept>
		<rtept lat="32.943443" lon="35.282952">
			<ele>550</ele>
		</rtept>
		<rtept lat="32.943535" lon="35.2829">
			<ele>549</ele>
		</rtept>
		<rtept lat="32.943612" lon="35.282832">
			<ele>548</ele>
		</rtept>
		<rtept lat="32.943675" lon="35.282749">
			<ele>548</ele>
		</rtept>
		<rtept lat="32.943725" lon="35.282654">
			<ele>547</ele>
		</rtept>
		<rtept lat="32.943763" lon="35.282549">
			<ele>548</ele>
		</rtept>
		<rtept lat="32.94379" lon="35.282437">
			<ele>547</ele>
		</rtept>
		<rtept lat="32.94381" lon="35.282292">
			<ele>548</ele>
		</rtept>
		<rtept lat="32.94382" lon="35.282079">
			<ele>549</ele>
		</rtept>
		<rtept lat="32.943817" lon="35.281959">
			<ele>549</ele>
		</rtept>
		<rtept lat="32.94395" lon="35.281945">
			<ele>548</ele>
		</rtept>
		<rtept lat="32.943959" lon="35.282119">
			<ele>546</ele>
		</rtept>
		<rtept lat="32.943942" lon="35.282248">
			<ele>547</ele>
		</rtept>
		<rtept lat="32.94385" lon="35.282752">
			<ele>546</ele>
		</rtept>
		<rtept lat="32.943834" lon="35.282785">
			<ele>545</ele>
		</rtept>
		<rtept lat="32.943825" lon="35.282848">
			<ele>545</ele>
		</rtept>
		<rtept lat="32.943836" lon="35.282891">
			<ele>545</ele>
		</rtept>
		<rtept lat="32.943858" lon="35.282926">
			<ele>545</ele>
		</rtept>
		<rtept lat="32.943889" lon="35.28295">
			<ele>543</ele>
		</rtept>
		<rtept lat="32.943926" lon="35.282961">
			<ele>543</ele>
		</rtept>
		<rtept lat="32.943962" lon="35.282956">
			<ele>542</ele>
		</rtept>
		<rtept lat="32.943996" lon="35.282936">
			<ele>542</ele>
		</rtept>
		<rtept lat="32.944021" lon="35.282904">
			<ele>542</ele>
		</rtept>
		<rtept lat="32.944037" lon="35.282864">
			<ele>542</ele>
		</rtept>
		<rtept lat="32.944089" lon="35.282818">
			<ele>541</ele>
		</rtept>
		<rtept lat="32.944454" lon="35.282593">
			<ele>536</ele>
		</rtept>
		<rtept lat="32.945004" lon="35.282169">
			<ele>528</ele>
		</rtept>
		<rtept lat="32.94506" lon="35.282103">
			<ele>527</ele>
		</rtept>
		<rtept lat="32.945159" lon="35.281938">
			<ele>526</ele>
		</rtept>
		<rtept lat="32.945255" lon="35.281822">
			<ele>524</ele>
		</rtept>
		<rtept lat="32.945345" lon="35.281687">
			<ele>523</ele>
		</rtept>
		<rtept lat="32.945459" lon="35.281543">
			<ele>521</ele>
		</rtept>
		<rtept lat="32.945459" lon="35.28153">
			<ele>520.5</ele>
		</rtept>
		<rtept lat="32.945451" lon="35.28135">
			<ele>520</ele>
		</rtept>
		<rtept lat="32.945464" lon="35.281074">
			<ele>519</ele>
		</rtept>
		<rtept lat="32.945751" lon="35.279212">
			<ele>511</ele>
		</rtept>
		<rtept lat="32.945715" lon="35.278844">
			<ele>514</ele>
		</rtept>
		<rtept lat="32.945661" lon="35.278656">
			<ele>514</ele>
		</rtept>
		<rtept lat="32.945625" lon="35.278529">
			<ele>514</ele>
		</rtept>
		<rtept lat="32.945225" lon="35.278209">
			<ele>514</ele>
		</rtept>
		<rtept lat="32.944158" lon="35.278144">
			<ele>510</ele>
		</rtept>
		<rtept lat="32.944058" lon="35.278109">
			<ele>508.5</ele>
		</rtept>
		<rtept lat="32.943738" lon="35.277998">
			<ele>507</ele>
		</rtept>
		<rtept lat="32.943345" lon="35.277778">
			<ele>506</ele>
		</rtept>
		<rtept lat="32.942076" lon="35.276697">
			<ele>509</ele>
		</rtept>
		<rtept lat="32.941112" lon="35.275876">
			<ele>512</ele>
		</rtept>
		<rtept lat="32.940625" lon="35.275808">
			<ele>513</ele>
		</rtept>
		<rtept lat="32.940399" lon="35.275847">
			<ele>513</ele>
		</rtept>
		<rtept lat="32.940373" lon="35.275852">
			<ele>513</ele>
		</rtept>
		<rtept lat="32.940182" lon="35.275971">
			<ele>513</ele>
		</rtept>
		<rtept lat="32.940211" lon="35.275121">
			<ele>513</ele>
		</rtept>
		<rtept lat="32.940233" lon="35.274461">
			<ele>513</ele>
		</rtept>
		<rtept lat="32.940097" lon="35.274212">
			<ele>517</ele>
		</rtept>
		<rtept lat="32.939717" lon="35.273808">
			<ele>518</ele>
		</rtept>
		<rtept lat="32.939705" lon="35.273744">
			<ele>518</ele>
		</rtept>
		<rtept lat="32.939737" lon="35.273569">
			<ele>521.5</ele>
		</rtept>
		<rtept lat="32.939812" lon="35.27315">
			<ele>525</ele>
		</rtept>
		<rtept lat="32.939919" lon="35.272846">
			<ele>531</ele>
		</rtept>
		<rtept lat="32.939933" lon="35.27241">
			<ele>537</ele>
		</rtept>
		<rtept lat="32.940045" lon="35.272043">
			<ele>543</ele>
		</rtept>
		<rtept lat="32.940045" lon="35.27182">
			<ele>545</ele>
		</rtept>
		<rtept lat="32.94016" lon="35.271681">
			<ele>545</ele>
		</rtept>
		<rtept lat="32.940163" lon="35.271477">
			<ele>546</ele>
		</rtept>
		<rtept lat="32.940083" lon="35.271313">
			<ele>548</ele>
		</rtept>
		<rtept lat="32.940197" lon="35.27097">
			<ele>548</ele>
		</rtept>
		<rtept lat="32.940168" lon="35.270746">
			<ele>548</ele>
		</rtept>
		<rtept lat="32.940193" lon="35.270427">
			<ele>547</ele>
		</rtept>
		<rtept lat="32.940166" lon="35.269997">
			<ele>550</ele>
		</rtept>
		<rtept lat="32.940197" lon="35.269967">
			<ele>549</ele>
		</rtept>
		<rtept lat="32.94038" lon="35.26979">
			<ele>548</ele>
		</rtept>
		<rtept lat="32.940914" lon="35.26866">
			<ele>552</ele>
		</rtept>
		<rtept lat="32.940666" lon="35.268364">
			<ele>557.5</ele>
		</rtept>
		<rtept lat="32.94038" lon="35.268023">
			<ele>563</ele>
		</rtept>
		<rtept lat="32.940781" lon="35.267052">
			<ele>565</ele>
		</rtept>
		<rtept lat="32.940313" lon="35.266447">
			<ele>568</ele>
		</rtept>
		<rtept lat="32.940193" lon="35.266208">
			<ele>567</ele>
		</rtept>
		<rtept lat="32.940216" lon="35.266062">
			<ele>567.5</ele>
		</rtept>
		<rtept lat="32.94026" lon="35.265778">
			<ele>568</ele>
		</rtept>
		<rtept lat="32.940193" lon="35.265221">
			<ele>568</ele>
		</rtept>
		<rtept lat="32.94046" lon="35.26495">
			<ele>571</ele>
		</rtept>
		<rtept lat="32.941252" lon="35.264795">
			<ele>575</ele>
		</rtept>
		<rtept lat="32.941356" lon="35.264775">
			<ele>579</ele>
		</rtept>
		<rtept lat="32.941583" lon="35.264695">
			<ele>581</ele>
		</rtept>
		<rtept lat="32.941623" lon="35.26401">
			<ele>580</ele>
		</rtept>
		<rtept lat="32.94185" lon="35.26401">
			<ele>580</ele>
		</rtept>
		<rtept lat="32.942051" lon="35.263935">
			<ele>580</ele>
		</rtept>
		<rtept lat="32.942029" lon="35.263908">
			<ele>580</ele>
		</rtept>
		<rtept lat="32.941979" lon="35.263849">
			<ele>580</ele>
		</rtept>
		<rtept lat="32.941959" lon="35.263588">
			<ele>579</ele>
		</rtept>
		<rtept lat="32.942099" lon="35.259687">
			<ele>544</ele>
		</rtept>
		<rtept lat="32.942133" lon="35.259491">
			<ele>541</ele>
		</rtept>
		<rtept lat="32.942171" lon="35.259498">
			<ele>541</ele>
		</rtept>
		<rtept lat="32.942208" lon="35.259491">
			<ele>541</ele>
		</rtept>
		<rtept lat="32.942243" lon="35.259469">
			<ele>541</ele>
		</rtept>
		<rtept lat="32.942269" lon="35.259436">
			<ele>541</ele>
		</rtept>
		<rtept lat="32.942286" lon="35.259395">
			<ele>540</ele>
		</rtept>
		<rtept lat="32.942291" lon="35.25935">
			<ele>540</ele>
		</rtept>
		<rtept lat="32.942282" lon="35.259302">
			<ele>540</ele>
		</rtept>
		<rtept lat="32.942261" lon="35.25926">
			<ele>540</ele>
		</rtept>
		<rtept lat="32.942229" lon="35.259229">
			<ele>539</ele>
		</rtept>
		<rtept lat="32.942191" lon="35.259212">
			<ele>539</ele>
		</rtept>
		<rtept lat="32.942149" lon="35.259213">
			<ele>539</ele>
		</rtept>
		<rtept lat="32.942162" lon="35.258373">
			<ele>534.5</ele>
		</rtept>
		<rtept lat="32.942177" lon="35.257423">
			<ele>530</ele>
		</rtept>
		<rtept lat="32.941995" lon="35.256646">
			<ele>527</ele>
		</rtept>
		<rtept lat="32.941727" lon="35.255878">
			<ele>517</ele>
		</rtept>
		<rtept lat="32.941511" lon="35.255394">
			<ele>510</ele>
		</rtept>
		<rtept lat="32.941326" lon="35.25556">
			<ele>510</ele>
		</rtept>
		<rtept lat="32.941226" lon="35.255667">
			<ele>510.5</ele>
		</rtept>
		<rtept lat="32.941175" lon="35.255721">
			<ele>511</ele>
		</rtept>
		<rtept lat="32.940967" lon="35.256004">
			<ele>512</ele>
		</rtept>
		<rtept lat="32.940034" lon="35.257404">
			<ele>514</ele>
		</rtept>
		<rtept lat="32.939694" lon="35.257776">
			<ele>509</ele>
		</rtept>
		<rtept lat="32.938276" lon="35.258593">
			<ele>515</ele>
		</rtept>
		<rtept lat="32.937929" lon="35.25873">
			<ele>514</ele>
		</rtept>
		<rtept lat="32.937299" lon="35.258978">
			<ele>513</ele>
		</rtept>
		<rtept lat="32.936846" lon="35.259103">
			<ele>513</ele>
		</rtept>
		<rtept lat="32.936555" lon="35.259172">
			<ele>514</ele>
		</rtept>
		<rtept lat="32.936419" lon="35.259184">
			<ele>514</ele>
		</rtept>
		<rtept lat="32.93622" lon="35.25918">
			<ele>514</ele>
		</rtept>
		<rtept lat="32.936084" lon="35.259165">
			<ele>513.5</ele>
		</rtept>
		<rtept lat="32.935789" lon="35.259133">
			<ele>513</ele>
		</rtept>
		<rtept lat="32.935111" lon="35.258875">
			<ele>508</ele>
		</rtept>
		<rtept lat="32.934248" lon="35.258308">
			<ele>504</ele>
		</rtept>
		<rtept lat="32.932892" lon="35.25523">
			<ele>510.5</ele>
		</rtept>
		<rtept lat="32.932676" lon="35.254739">
			<ele>512</ele>
		</rtept>
		<rtept lat="32.932296" lon="35.252389">
			<ele>527</ele>
		</rtept>
		<rtept lat="32.932208" lon="35.250566">
			<ele>533</ele>
		</rtept>
		<rtept lat="32.932344" lon="35.250453">
			<ele>530</ele>
		</rtept>
		<rtept lat="32.932436" lon="35.250227">
			<ele>526</ele>
		</rtept>
		<rtept lat="32.932568" lon="35.24979">
			<ele>520</ele>
		</rtept>
		<rtept lat="32.932669" lon="35.249241">
			<ele>518</ele>
		</rtept>
		<rtept lat="32.932758" lon="35.248898">
			<ele>515</ele>
		</rtept>
		<rtept lat="32.932925" lon="35.248499">
			<ele>512</ele>
		</rtept>
		<rtept lat="32.933017" lon="35.248116">
			<ele>512</ele>
		</rtept>
		<rtept lat="32.933026" lon="35.247536">
			<ele>512</ele>
		</rtept>
		<rtept lat="32.933042" lon="35.247205">
			<ele>512</ele>
		</rtept>
		<rtept lat="32.933071" lon="35.246836">
			<ele>511</ele>
		</rtept>
		<rtept lat="32.933156" lon="35.246381">
			<ele>508</ele>
		</rtept>
		<rtept lat="32.933251" lon="35.245813">
			<ele>505</ele>
		</rtept>
		<rtept lat="32.933421" lon="35.245052">
			<ele>499</ele>
		</rtept>
		<rtept lat="32.933421" lon="35.244465">
			<ele>493</ele>
		</rtept>
		<rtept lat="32.933484" lon="35.244142">
			<ele>489</ele>
		</rtept>
		<rtept lat="32.933585" lon="35.243848">
			<ele>485</ele>
		</rtept>
		<rtept lat="32.933731" lon="35.243671">
			<ele>482</ele>
		</rtept>
		<rtept lat="32.93393" lon="35.243513">
			<ele>479</ele>
		</rtept>
		<rtept lat="32.934315" lon="35.243336">
			<ele>474</ele>
		</rtept>
		<rtept lat="32.934511" lon="35.243306">
			<ele>473</ele>
		</rtept>
		<rtept lat="32.934653" lon="35.243325">
			<ele>471</ele>
		</rtept>
		<rtept lat="32.934782" lon="35.243355">
			<ele>468</ele>
		</rtept>
		<rtept lat="32.934956" lon="35.243254">
			<ele>468</ele>
		</rtept>
		<rtept lat="32.935048" lon="35.243024">
			<ele>471</ele>
		</rtept>
		<rtept lat="32.935101" lon="35.242689">
			<ele>474</ele>
		</rtept>
		<rtept lat="32.935203" lon="35.242403">
			<ele>475</ele>
		</rtept>
		<rtept lat="32.935401" lon="35.241726">
			<ele>474</ele>
		</rtept>
		<rtept lat="32.935518" lon="35.241406">
			<ele>472</ele>
		</rtept>
		<rtept lat="32.935629" lon="35.241048">
			<ele>471</ele>
		</rtept>
		<rtept lat="32.935818" lon="35.240563">
			<ele>468</ele>
		</rtept>
		<rtept lat="32.935926" lon="35.240315">
			<ele>465</ele>
		</rtept>
		<rtept lat="32.936128" lon="35.23972">
			<ele>460</ele>
		</rtept>
		<rtept lat="32.936204" lon="35.239468">
			<ele>457</ele>
		</rtept>
		<rtept lat="32.936182" lon="35.239257">
			<ele>455</ele>
		</rtept>
		<rtept lat="32.936093" lon="35.239027">
			<ele>456</ele>
		</rtept>
		<rtept lat="32.935945" lon="35.238572">
			<ele>455</ele>
		</rtept>
		<rtept lat="32.93585" lon="35.238403">
			<ele>454</ele>
		</rtept>
		<rtept lat="32.935702" lon="35.238286">
			<ele>453</ele>
		</rtept>
		<rtept lat="32.935487" lon="35.238188">
			<ele>455</ele>
		</rtept>
		<rtept lat="32.935228" lon="35.238173">
			<ele>457</ele>
		</rtept>
		<rtept lat="32.934962" lon="35.238222">
			<ele>460</ele>
		</rtept>
		<rtept lat="32.934779" lon="35.238286">
			<ele>460</ele>
		</rtept>
		<rtept lat="32.934495" lon="35.238452">
			<ele>463</ele>
		</rtept>
		<rtept lat="32.934258" lon="35.238685">
			<ele>467</ele>
		</rtept>
		<rtept lat="32.934081" lon="35.238926">
			<ele>469</ele>
		</rtept>
		<rtept lat="32.933664" lon="35.239456">
			<ele>473</ele>
		</rtept>
		<rtept lat="32.9332" lon="35.239995">
			<ele>476</ele>
		</rtept>
		<rtept lat="32.933023" lon="35.240235">
			<ele>479</ele>
		</rtept>
		<rtept lat="32.932862" lon="35.240371">
			<ele>480</ele>
		</rtept>
		<rtept lat="32.932691" lon="35.240484">
			<ele>481</ele>
		</rtept>
		<rtept lat="32.932761" lon="35.240205">
			<ele>478</ele>
		</rtept>
		<rtept lat="32.932777" lon="35.24004">
			<ele>476</ele>
		</rtept>
		<rtept lat="32.932555" lon="35.239564">
			<ele>470</ele>
		</rtept>
		<rtept lat="32.932514" lon="35.239308">
			<ele>474</ele>
		</rtept>
		<rtept lat="32.932513" lon="35.239093">
			<ele>476</ele>
		</rtept>
		<rtept lat="32.932495" lon="35.239039">
			<ele>476</ele>
		</rtept>
		<rtept lat="32.932366" lon="35.239026">
			<ele>478</ele>
		</rtept>
		<rtept lat="32.932284" lon="35.239054">
			<ele>480</ele>
		</rtept>
		<rtept lat="32.932206" lon="35.239046">
			<ele>482</ele>
		</rtept>
		<rtept lat="32.931733" lon="35.239554">
			<ele>489</ele>
		</rtept>
		<rtept lat="32.931522" lon="35.239753">
			<ele>491</ele>
		</rtept>
		<rtept lat="32.931251" lon="35.239964">
			<ele>493</ele>
		</rtept>
		<rtept lat="32.930936" lon="35.240249">
			<ele>494</ele>
		</rtept>
		<rtept lat="32.930432" lon="35.240737">
			<ele>496</ele>
		</rtept>
		<rtept lat="32.930085" lon="35.240523">
			<ele>499</ele>
		</rtept>
		<rtept lat="32.92998" lon="35.240409">
			<ele>499.5</ele>
		</rtept>
		<rtept lat="32.929924" lon="35.240348">
			<ele>500</ele>
		</rtept>
		<rtept lat="32.929812" lon="35.240071">
			<ele>500</ele>
		</rtept>
		<rtept lat="32.929736" lon="35.239832">
			<ele>501</ele>
		</rtept>
		<rtept lat="32.929702" lon="35.239635">
			<ele>501</ele>
		</rtept>
		<rtept lat="32.929721" lon="35.239251">
			<ele>502</ele>
		</rtept>
		<rtept lat="32.929759" lon="35.238965">
			<ele>503</ele>
		</rtept>
		<rtept lat="32.929847" lon="35.238694">
			<ele>503</ele>
		</rtept>
		<rtept lat="32.92998" lon="35.238589">
			<ele>504</ele>
		</rtept>
		<rtept lat="32.930093" lon="35.238581">
			<ele>504</ele>
		</rtept>
		<rtept lat="32.930239" lon="35.238401">
			<ele>505</ele>
		</rtept>
		<rtept lat="32.930252" lon="35.238364">
			<ele>504.5</ele>
		</rtept>
		<rtept lat="32.930315" lon="35.238197">
			<ele>504</ele>
		</rtept>
		<rtept lat="32.930637" lon="35.237708">
			<ele>504</ele>
		</rtept>
		<rtept lat="32.930706" lon="35.237445">
			<ele>503</ele>
		</rtept>
		<rtept lat="32.930826" lon="35.237038">
			<ele>502</ele>
		</rtept>
		<rtept lat="32.930893" lon="35.236841">
			<ele>502</ele>
		</rtept>
		<rtept lat="32.930973" lon="35.236735">
			<ele>500</ele>
		</rtept>
		<rtept lat="32.93128" lon="35.236326">
			<ele>498</ele>
		</rtept>
		<rtept lat="32.931877" lon="35.235703">
			<ele>493</ele>
		</rtept>
		<rtept lat="32.931815" lon="35.235677">
			<ele>491</ele>
		</rtept>
		<rtept lat="32.931784" lon="35.235627">
			<ele>491</ele>
		</rtept>
		<rtept lat="32.931772" lon="35.235542">
			<ele>491</ele>
		</rtept>
		<rtept lat="32.931794" lon="35.235283">
			<ele>484</ele>
		</rtept>
		<rtept lat="32.931909" lon="35.234356">
			<ele>479</ele>
		</rtept>
		<rtept lat="32.931915" lon="35.234142">
			<ele>478</ele>
		</rtept>
		<rtept lat="32.931982" lon="35.233551">
			<ele>474</ele>
		</rtept>
		<rtept lat="32.932022" lon="35.232847">
			<ele>470</ele>
		</rtept>
		<rtept lat="32.932095" lon="35.232128">
			<ele>466</ele>
		</rtept>
		<rtept lat="32.932166" lon="35.231777">
			<ele>462</ele>
		</rtept>
		<rtept lat="32.932224" lon="35.231597">
			<ele>461</ele>
		</rtept>
		<rtept lat="32.93238" lon="35.231211">
			<ele>459</ele>
		</rtept>
		<rtept lat="32.932448" lon="35.231085">
			<ele>456</ele>
		</rtept>
		<rtept lat="32.932595" lon="35.230693">
			<ele>453</ele>
		</rtept>
		<rtept lat="32.932646" lon="35.230605">
			<ele>452</ele>
		</rtept>
		<rtept lat="32.93274" lon="35.230476">
			<ele>451</ele>
		</rtept>
		<rtept lat="32.933414" lon="35.229909">
			<ele>446</ele>
		</rtept>
		<rtept lat="32.933616" lon="35.229607">
			<ele>444.5</ele>
		</rtept>
		<rtept lat="32.933648" lon="35.22956">
			<ele>443</ele>
		</rtept>
		<rtept lat="32.934023" lon="35.228346">
			<ele>427</ele>
		</rtept>
		<rtept lat="32.934711" lon="35.227463">
			<ele>414</ele>
		</rtept>
		<rtept lat="32.934845" lon="35.22709">
			<ele>408</ele>
		</rtept>
		<rtept lat="32.93495" lon="35.226513">
			<ele>399</ele>
		</rtept>
		<rtept lat="32.935166" lon="35.226691">
			<ele>404.5</ele>
		</rtept>
		<rtept lat="32.93495" lon="35.226513">
			<ele>399</ele>
		</rtept>
		<rtept lat="32.934907" lon="35.22675">
			<ele>403</ele>
		</rtept>
		<rtept lat="32.934759" lon="35.226771">
			<ele>403</ele>
		</rtept>
		<rtept lat="32.934484" lon="35.226768">
			<ele>402</ele>
		</rtept>
		<rtept lat="32.934377" lon="35.226743">
			<ele>402</ele>
		</rtept>
		<rtept lat="32.934311" lon="35.226706">
			<ele>400</ele>
		</rtept>
		<rtept lat="32.934287" lon="35.226674">
			<ele>400</ele>
		</rtept>
		<rtept lat="32.934191" lon="35.226416">
			<ele>395</ele>
		</rtept>
		<rtept lat="32.934118" lon="35.226292">
			<ele>393</ele>
		</rtept>
		<rtept lat="32.934063" lon="35.226233">
			<ele>391</ele>
		</rtept>
		<rtept lat="32.933928" lon="35.226171">
			<ele>389</ele>
		</rtept>
		<rtept lat="32.933409" lon="35.226154">
			<ele>385</ele>
		</rtept>
		<rtept lat="32.933128" lon="35.226223">
			<ele>383</ele>
		</rtept>
		<rtept lat="32.932665" lon="35.226386">
			<ele>381</ele>
		</rtept>
		<rtept lat="32.932253" lon="35.226601">
			<ele>376</ele>
		</rtept>
		<rtept lat="32.931947" lon="35.226825">
			<ele>373</ele>
		</rtept>
		<rtept lat="32.931622" lon="35.227094">
			<ele>370</ele>
		</rtept>
		<rtept lat="32.931294" lon="35.227269">
			<ele>369</ele>
		</rtept>
		<rtept lat="32.931168" lon="35.227353">
			<ele>367</ele>
		</rtept>
		<rtept lat="32.930684" lon="35.22761">
			<ele>363.5</ele>
		</rtept>
		<rtept lat="32.930642" lon="35.227632">
			<ele>360</ele>
		</rtept>
		<rtept lat="32.930554" lon="35.227653">
			<ele>358</ele>
		</rtept>
		<rtept lat="32.930411" lon="35.227644">
			<ele>357</ele>
		</rtept>
		<rtept lat="32.930313" lon="35.227553">
			<ele>355</ele>
		</rtept>
		<rtept lat="32.930263" lon="35.227439">
			<ele>355</ele>
		</rtept>
		<rtept lat="32.930234" lon="35.227271">
			<ele>355</ele>
		</rtept>
		<rtept lat="32.930234" lon="35.226992">
			<ele>355</ele>
		</rtept>
		<rtept lat="32.930306" lon="35.226727">
			<ele>353</ele>
		</rtept>
		<rtept lat="32.930337" lon="35.22656">
			<ele>352</ele>
		</rtept>
		<rtept lat="32.930343" lon="35.22641">
			<ele>352</ele>
		</rtept>
		<rtept lat="32.930491" lon="35.225726">
			<ele>348</ele>
		</rtept>
		<rtept lat="32.930558" lon="35.225483">
			<ele>350</ele>
		</rtept>
		<rtept lat="32.93059" lon="35.225272">
			<ele>349</ele>
		</rtept>
		<rtept lat="32.930609" lon="35.225016">
			<ele>348</ele>
		</rtept>
		<rtept lat="32.930607" lon="35.224845">
			<ele>348</ele>
		</rtept>
		<rtept lat="32.930558" lon="35.224486">
			<ele>348</ele>
		</rtept>
		<rtept lat="32.930515" lon="35.224322">
			<ele>347</ele>
		</rtept>
		<rtept lat="32.930407" lon="35.224027">
			<ele>346</ele>
		</rtept>
		<rtept lat="32.93035" lon="35.223938">
			<ele>346</ele>
		</rtept>
		<rtept lat="32.930331" lon="35.223908">
			<ele>346</ele>
		</rtept>
		<rtept lat="32.930196" lon="35.223767">
			<ele>347</ele>
		</rtept>
		<rtept lat="32.93002" lon="35.223616">
			<ele>347</ele>
		</rtept>
		<rtept lat="32.929782" lon="35.223466">
			<ele>345</ele>
		</rtept>
		<rtept lat="32.929305" lon="35.223213">
			<ele>343</ele>
		</rtept>
		<rtept lat="32.929194" lon="35.223104">
			<ele>341</ele>
		</rtept>
		<rtept lat="32.929336" lon="35.223069">
			<ele>341</ele>
		</rtept>
		<rtept lat="32.929394" lon="35.223019">
			<ele>340</ele>
		</rtept>
		<rtept lat="32.92961" lon="35.222912">
			<ele>340</ele>
		</rtept>
		<rtept lat="32.929824" lon="35.222718">
			<ele>338</ele>
		</rtept>
		<rtept lat="32.929939" lon="35.222655">
			<ele>335</ele>
		</rtept>
		<rtept lat="32.930002" lon="35.222641">
			<ele>335</ele>
		</rtept>
		<rtept lat="32.930027" lon="35.222636">
			<ele>335</ele>
		</rtept>
		<rtept lat="32.930187" lon="35.222655">
			<ele>333</ele>
		</rtept>
		<rtept lat="32.930449" lon="35.222733">
			<ele>331</ele>
		</rtept>
		<rtept lat="32.930502" lon="35.222727">
			<ele>330</ele>
		</rtept>
		<rtept lat="32.930577" lon="35.222668">
			<ele>327</ele>
		</rtept>
		<rtept lat="32.930644" lon="35.222517">
			<ele>326</ele>
		</rtept>
		<rtept lat="32.930705" lon="35.222271">
			<ele>323</ele>
		</rtept>
		<rtept lat="32.930726" lon="35.222059">
			<ele>321</ele>
		</rtept>
		<rtept lat="32.930716" lon="35.221889">
			<ele>320</ele>
		</rtept>
		<rtept lat="32.930815" lon="35.221501">
			<ele>315</ele>
		</rtept>
		<rtept lat="32.930817" lon="35.221286">
			<ele>312</ele>
		</rtept>
		<rtept lat="32.930762" lon="35.220973">
			<ele>309</ele>
		</rtept>
		<rtept lat="32.930708" lon="35.220838">
			<ele>309</ele>
		</rtept>
		<rtept lat="32.93063" lon="35.220694">
			<ele>308</ele>
		</rtept>
		<rtept lat="32.930494" lon="35.220486">
			<ele>308</ele>
		</rtept>
		<rtept lat="32.930299" lon="35.220187">
			<ele>308</ele>
		</rtept>
		<rtept lat="32.930133" lon="35.219758">
			<ele>306</ele>
		</rtept>
		<rtept lat="32.930052" lon="35.219617">
			<ele>304</ele>
		</rtept>
		<rtept lat="32.929939" lon="35.219481">
			<ele>303</ele>
		</rtept>
		<rtept lat="32.929706" lon="35.219321">
			<ele>300</ele>
		</rtept>
		<rtept lat="32.929617" lon="35.219188">
			<ele>298</ele>
		</rtept>
		<rtept lat="32.929408" lon="35.218739">
			<ele>291</ele>
		</rtept>
		<rtept lat="32.92937" lon="35.218509">
			<ele>287</ele>
		</rtept>
		<rtept lat="32.929337" lon="35.218433">
			<ele>286</ele>
		</rtept>
		<rtept lat="32.929278" lon="35.218385">
			<ele>286</ele>
		</rtept>
		<rtept lat="32.929242" lon="35.21838">
			<ele>286</ele>
		</rtept>
		<rtept lat="32.928962" lon="35.218441">
			<ele>285</ele>
		</rtept>
		<rtept lat="32.928836" lon="35.218441">
			<ele>284</ele>
		</rtept>
		<rtept lat="32.928697" lon="35.218402">
			<ele>284</ele>
		</rtept>
		<rtept lat="32.928625" lon="35.218306">
			<ele>283</ele>
		</rtept>
		<rtept lat="32.928605" lon="35.218176">
			<ele>280</ele>
		</rtept>
		<rtept lat="32.928617" lon="35.217827">
			<ele>278</ele>
		</rtept>
		<rtept lat="32.928633" lon="35.217722">
			<ele>276</ele>
		</rtept>
		<rtept lat="32.928765" lon="35.217301">
			<ele>272</ele>
		</rtept>
		<rtept lat="32.928993" lon="35.216672">
			<ele>263</ele>
		</rtept>
		<rtept lat="32.929009" lon="35.216567">
			<ele>262</ele>
		</rtept>
		<rtept lat="32.929013" lon="35.216353">
			<ele>260</ele>
		</rtept>
		<rtept lat="32.928994" lon="35.216249">
			<ele>260</ele>
		</rtept>
		<rtept lat="32.928952" lon="35.216108">
			<ele>259</ele>
		</rtept>
		<rtept lat="32.928879" lon="35.21596">
			<ele>260</ele>
		</rtept>
		<rtept lat="32.928768" lon="35.215792">
			<ele>260</ele>
		</rtept>
		<rtept lat="32.928513" lon="35.215522">
			<ele>260</ele>
		</rtept>
		<rtept lat="32.928233" lon="35.215104">
			<ele>257</ele>
		</rtept>
		<rtept lat="32.928096" lon="35.214964">
			<ele>256</ele>
		</rtept>
		<rtept lat="32.92799" lon="35.214884">
			<ele>254</ele>
		</rtept>
		<rtept lat="32.927793" lon="35.21478">
			<ele>251</ele>
		</rtept>
		<rtept lat="32.92741" lon="35.214674">
			<ele>246</ele>
		</rtept>
		<rtept lat="32.92721" lon="35.214654">
			<ele>238</ele>
		</rtept>
		<rtept lat="32.926969" lon="35.214703">
			<ele>235</ele>
		</rtept>
		<rtept lat="32.926359" lon="35.215013">
			<ele>232</ele>
		</rtept>
		<rtept lat="32.925862" lon="35.216049">
			<ele>238.5</ele>
		</rtept>
		<rtept lat="32.925694" lon="35.216398">
			<ele>245</ele>
		</rtept>
		<rtept lat="32.925555" lon="35.216651">
			<ele>247</ele>
		</rtept>
		<rtept lat="32.925418" lon="35.216861">
			<ele>248</ele>
		</rtept>
		<rtept lat="32.925314" lon="35.216989">
			<ele>248</ele>
		</rtept>
		<rtept lat="32.92519" lon="35.217163">
			<ele>250</ele>
		</rtept>
		<rtept lat="32.924934" lon="35.217463">
			<ele>254</ele>
		</rtept>
		<rtept lat="32.924793" lon="35.217595">
			<ele>252</ele>
		</rtept>
		<rtept lat="32.924663" lon="35.2178">
			<ele>253</ele>
		</rtept>
		<rtept lat="32.924552" lon="35.218044">
			<ele>253</ele>
		</rtept>
		<rtept lat="32.92424" lon="35.218928">
			<ele>244</ele>
		</rtept>
		<rtept lat="32.924019" lon="35.219463">
			<ele>241</ele>
		</rtept>
		<rtept lat="32.923889" lon="35.219744">
			<ele>240</ele>
		</rtept>
		<rtept lat="32.923398" lon="35.220688">
			<ele>242</ele>
		</rtept>
		<rtept lat="32.92319" lon="35.221087">
			<ele>244</ele>
		</rtept>
		<rtept lat="32.923052" lon="35.221372">
			<ele>246</ele>
		</rtept>
		<rtept lat="32.922891" lon="35.22173">
			<ele>246</ele>
		</rtept>
		<rtept lat="32.922786" lon="35.221939">
			<ele>246</ele>
		</rtept>
		<rtept lat="32.922709" lon="35.22213">
			<ele>246</ele>
		</rtept>
		<rtept lat="32.922633" lon="35.222588">
			<ele>246.5</ele>
		</rtept>
		<rtept lat="32.922619" lon="35.222674">
			<ele>247</ele>
		</rtept>
		<rtept lat="32.922646" lon="35.22306">
			<ele>248</ele>
		</rtept>
		<rtept lat="32.92284" lon="35.224005">
			<ele>247</ele>
		</rtept>
		<rtept lat="32.923052" lon="35.224927">
			<ele>252</ele>
		</rtept>
		<rtept lat="32.923096" lon="35.225442">
			<ele>253.5</ele>
		</rtept>
		<rtept lat="32.923124" lon="35.225757">
			<ele>255</ele>
		</rtept>
		<rtept lat="32.922996" lon="35.226318">
			<ele>255</ele>
		</rtept>
		<rtept lat="32.922587" lon="35.227519">
			<ele>258</ele>
		</rtept>
		<rtept lat="32.922389" lon="35.228059">
			<ele>257</ele>
		</rtept>
		<rtept lat="32.922235" lon="35.228441">
			<ele>258</ele>
		</rtept>
		<rtept lat="32.92206" lon="35.228624">
			<ele>257</ele>
		</rtept>
		<rtept lat="32.921917" lon="35.228747">
			<ele>254</ele>
		</rtept>
		<rtept lat="32.921767" lon="35.228843">
			<ele>254</ele>
		</rtept>
		<rtept lat="32.921331" lon="35.228858">
			<ele>250</ele>
		</rtept>
		<rtept lat="32.920753" lon="35.22885">
			<ele>245</ele>
		</rtept>
		<rtept lat="32.920343" lon="35.228955">
			<ele>242</ele>
		</rtept>
		<rtept lat="32.919998" lon="35.229069">
			<ele>241</ele>
		</rtept>
		<rtept lat="32.91931" lon="35.229249">
			<ele>236.5</ele>
		</rtept>
		<rtept lat="32.91892" lon="35.229341">
			<ele>231</ele>
		</rtept>
		<rtept lat="32.918805" lon="35.229338">
			<ele>230</ele>
		</rtept>
		<rtept lat="32.918637" lon="35.229027">
			<ele>225</ele>
		</rtept>
		<rtept lat="32.918596" lon="35.228894">
			<ele>224</ele>
		</rtept>
		<rtept lat="32.918512" lon="35.228564">
			<ele>223</ele>
		</rtept>
		<rtept lat="32.918275" lon="35.2276">
			<ele>224</ele>
		</rtept>
		<rtept lat="32.918158" lon="35.22731">
			<ele>221</ele>
		</rtept>
		<rtept lat="32.918084" lon="35.227195">
			<ele>222</ele>
		</rtept>
		<rtept lat="32.917933" lon="35.227095">
			<ele>219</ele>
		</rtept>
		<rtept lat="32.917663" lon="35.227113">
			<ele>216</ele>
		</rtept>
		<rtept lat="32.917418" lon="35.227161">
			<ele>215</ele>
		</rtept>
		<rtept lat="32.917189" lon="35.22718">
			<ele>212</ele>
		</rtept>
		<rtept lat="32.916974" lon="35.227167">
			<ele>210</ele>
		</rtept>
		<rtept lat="32.916766" lon="35.22699">
			<ele>211</ele>
		</rtept>
		<rtept lat="32.916336" lon="35.226559">
			<ele>209</ele>
		</rtept>
		<rtept lat="32.915874" lon="35.226185">
			<ele>206</ele>
		</rtept>
		<rtept lat="32.915683" lon="35.226068">
			<ele>206</ele>
		</rtept>
		<rtept lat="32.915467" lon="35.226028">
			<ele>204</ele>
		</rtept>
		<rtept lat="32.915393" lon="35.226031">
			<ele>203.5</ele>
		</rtept>
	</rte>
</gpx>