<?xml version="1.0" encoding="UTF-8"?>
<gpx xmlns="Amud Anan http://amudanan.co.il/" version="1.0" xmlns:xsi="http://www.w3.org/2001/XMLSchema-instance" xsi:schemaLocation="http://www.topografix.com/GPX/1/0 http://www.topografix.com/GPX/1/0/gpx.xsd"><trk><name>Amud Anan</name><trkseg><trkpt lon="35.235132044501" lat="33.036288347753"/><trkpt lon="35.234981840796" lat="33.037079838755"/><trkpt lon="35.235003298468" lat="33.037997239884"/><trkpt lon="35.23562557096" lat="33.038087180657"/><trkpt lon="35.236290758795" lat="33.037835346261"/><trkpt lon="35.236676996893" lat="33.037367651902"/><trkpt lon="35.237041777319" lat="33.03715179213"/><trkpt lon="35.23755676145" lat="33.036684094143"/><trkpt lon="35.237878626532" lat="33.036756047841"/><trkpt lon="35.238114660925" lat="33.037295698704"/><trkpt lon="35.238415068335" lat="33.037601499392"/><trkpt lon="35.238951510138" lat="33.037979251718"/><trkpt lon="35.239530867285" lat="33.038141145076"/><trkpt lon="35.240067309088" lat="33.038213097585"/><trkpt lon="35.240668123908" lat="33.038374990513"/><trkpt lon="35.240968531317" lat="33.03844694283"/><trkpt lon="35.24150497312" lat="33.038608835329"/><trkpt lon="35.241676634497" lat="33.038860667514"/><trkpt lon="35.242084330267" lat="33.038824691531"/><trkpt lon="35.242706602759" lat="33.038914631459"/><trkpt lon="35.242964094824" lat="33.03909451104"/><trkpt lon="35.242685145087" lat="33.039885976833"/><trkpt lon="35.242298906989" lat="33.040281707062"/><trkpt lon="35.241569346137" lat="33.041540836875"/><trkpt lon="35.241419142432" lat="33.042170395033"/><trkpt lon="35.241419142432" lat="33.042853910223"/><trkpt lon="35.241719549841" lat="33.04308774315"/><trkpt lon="35.242242253362" lat="33.042677877091"/><trkpt lon="35.242885983525" lat="33.042192221136"/><trkpt lon="35.243765748082" lat="33.041724549908"/><trkpt lon="35.244888042869" lat="33.041166396691"/><trkpt lon="35.245767807426" lat="33.040968533786"/><trkpt lon="35.24681923336" lat="33.041112434125"/><trkpt lon="35.246561741294" lat="33.041580108603"/><trkpt lon="35.246304249229" lat="33.041939856512"/><trkpt lon="35.245960926475" lat="33.042425513859"/><trkpt lon="35.246711944999" lat="33.042047780598"/><trkpt lon="35.248282846409" lat="33.041508158845"/><trkpt lon="35.248218473393" lat="33.041634070883"/><trkpt lon="35.248111185032" lat="33.041903881787"/><trkpt lon="35.248025354344" lat="33.042191679174"/><trkpt lon="35.247059759098" lat="33.04282123268"/><trkpt lon="35.246137079197" lat="33.043540716891"/><trkpt lon="35.245192941624" lat="33.043810521955"/><trkpt lon="35.244763788181" lat="33.044260195225"/><trkpt lon="35.244956907231" lat="33.045519268168"/><trkpt lon="35.244785245854" lat="33.04663443203"/><trkpt lon="35.244077142674" lat="33.047533747439"/><trkpt lon="35.243218835789" lat="33.048612913809"/><trkpt lon="35.24261802097" lat="33.049314364857"/><trkpt lon="35.242026205355" lat="33.049640396847"/><trkpt lon="35.241232271487" lat="33.049586439473"/><trkpt lon="35.240416879946" lat="33.049478524624"/><trkpt lon="35.239022131259" lat="33.049694354189"/><trkpt lon="35.238335485751" lat="33.049802268774"/><trkpt lon="35.237734670932" lat="33.050018097546"/><trkpt lon="35.237305517489" lat="33.049838240272"/><trkpt lon="35.236897821719" lat="33.049388595482"/><trkpt lon="35.236168260867" lat="33.049010892084"/><trkpt lon="35.234966631228" lat="33.048831032754"/><trkpt lon="35.232992525393" lat="33.047931730591"/><trkpt lon="35.232606287295" lat="33.048093605658"/><trkpt lon="35.230760927493" lat="33.047607979565"/><trkpt lon="35.22992407828" lat="33.047464089838"/><trkpt lon="35.229065771395" lat="33.047032419246"/><trkpt lon="35.228228922183" lat="33.046079139193"/><trkpt lon="35.227628107363" lat="33.046025179636"/><trkpt lon="35.227156038577" lat="33.046137650595"/><trkpt lon="35.226405020053" lat="33.046533352739"/><trkpt lon="35.225589628512" lat="33.046857107716"/><trkpt lon="35.224817152316" lat="33.046893080417"/><trkpt lon="35.224109049136" lat="33.046389461256"/><trkpt lon="35.223765726382" lat="33.045634027114"/><trkpt lon="35.2234438613" lat="33.044950533497"/><trkpt lon="35.222843046481" lat="33.044500863751"/><trkpt lon="35.222714300448" lat="33.044662745124"/><trkpt lon="35.221555586154" lat="33.04464475832"/><trkpt lon="35.221040602023" lat="33.044338982081"/><trkpt lon="35.218422766024" lat="33.043133853627"/><trkpt lon="35.217070932681" lat="33.042450340609"/><trkpt lon="35.216620321566" lat="33.042180531378"/><trkpt lon="35.216062422091" lat="33.04223449329"/><trkpt lon="35.214925165469" lat="33.04227046788"/><trkpt lon="35.213809366519" lat="33.04210858211"/><trkpt lon="35.212457533175" lat="33.041838771833"/><trkpt lon="35.210333223635" lat="33.04167688527"/><trkpt lon="35.209753866488" lat="33.041838771833"/><trkpt lon="35.208895559603" lat="33.042054620121"/><trkpt lon="35.207221861178" lat="33.041946696043"/><trkpt lon="35.205870027835" lat="33.041209211306"/><trkpt lon="35.204968805606" lat="33.041101286192"/><trkpt lon="35.203574056918" lat="33.041838771833"/><trkpt lon="35.202350969607" lat="33.042252480587"/><trkpt lon="35.20147120505" lat="33.042684174606"/><trkpt lon="35.200235346682" lat="33.042918007984"/><trkpt lon="35.199033717044" lat="33.043277750428"/><trkpt lon="35.197703341372" lat="33.04336768581"/><trkpt lon="35.196458796389" lat="33.043637491404"/><trkpt lon="35.1954502858" lat="33.043817361341"/><trkpt lon="35.194570521243" lat="33.04374541341"/><trkpt lon="35.193862418063" lat="33.043349698741"/><trkpt lon="35.192853907473" lat="33.042918007984"/><trkpt lon="35.191959346312" lat="33.04261222575"/><trkpt lon="35.190972293394" lat="33.042648200186"/><trkpt lon="35.190113986509" lat="33.04286404649"/><trkpt lon="35.188955272215" lat="33.04263021297"/><trkpt lon="35.188054049986" lat="33.042288455169"/><trkpt lon="35.187109912413" lat="33.042144556752"/><trkpt lon="35.186487639921" lat="33.04236040429"/><trkpt lon="35.185822452085" lat="33.042882033658"/><trkpt lon="35.184964145201" lat="33.04311586651"/><trkpt lon="35.183891261595" lat="33.042828072143"/><trkpt lon="35.183483565824" lat="33.042648200186"/></trkseg></trk></gpx>
