<?xml version="1.0" encoding="UTF-8" standalone="yes"?>
<gpx xmlns="http://www.topografix.com/GPX/1/1" xmlns:xsi="http://www.w3.org/2001/XMLSchema-instance" version="1.1" creator="IsraelHikingMap" xsi:schemaLocation="http://www.topografix.com/GPX/1/1 http://www.topografix.com/GPX/1/1/gpx.xsd">
  <metadata>
    <bounds maxlat="33.008862" maxlon="35.443185" minlat="32.972908" minlon="35.39365506109422"></bounds>
  </metadata>
  <trk>
    <name>מסלול 1</name>
    <desc></desc>
    <extensions>
      <Color xmlns="">#0000FF</Color>
      <Opacity xmlns="">0.4</Opacity>
      <Weight xmlns="">9</Weight>
    </extensions>
    <trkseg>
      <trkpt lat="33.008860626708994" lon="35.39365506109422">
        <ele>884.8869908015167</ele>
      </trkpt>
      <trkpt lat="33.008860626708994" lon="35.39365506109422">
        <ele>884.8869908015167</ele>
      </trkpt>
      <extensions>
        <RoutingType xmlns="">Hike</RoutingType>
      </extensions>
    </trkseg>
    <trkseg>
      <trkpt lat="33.008862" lon="35.393656">
        <ele>886</ele>
      </trkpt>
      <trkpt lat="33.008855" lon="35.393669">
        <ele>886</ele>
      </trkpt>
      <trkpt lat="33.00868" lon="35.39381">
        <ele>886</ele>
      </trkpt>
      <trkpt lat="33.008444" lon="35.394021">
        <ele>886</ele>
      </trkpt>
      <trkpt lat="33.008252" lon="35.394261">
        <ele>888</ele>
      </trkpt>
      <trkpt lat="33.008131" lon="35.394468">
        <ele>889</ele>
      </trkpt>
      <trkpt lat="33.007975" lon="35.394671">
        <ele>892</ele>
      </trkpt>
      <trkpt lat="33.007956" lon="35.394714">
        <ele>892</ele>
      </trkpt>
      <extensions>
        <RoutingType xmlns="">Hike</RoutingType>
      </extensions>
    </trkseg>
    <trkseg>
      <trkpt lat="33.007956" lon="35.394714">
        <ele>892</ele>
      </trkpt>
      <trkpt lat="33.007942" lon="35.394744">
        <ele>892</ele>
      </trkpt>
      <trkpt lat="33.007935" lon="35.394833">
        <ele>893</ele>
      </trkpt>
      <trkpt lat="33.008024" lon="35.395112">
        <ele>900</ele>
      </trkpt>
      <trkpt lat="33.00802" lon="35.395151">
        <ele>901.5</ele>
      </trkpt>
      <extensions>
        <RoutingType xmlns="">Hike</RoutingType>
      </extensions>
    </trkseg>
    <trkseg>
      <trkpt lat="33.00802" lon="35.395151">
        <ele>901.5</ele>
      </trkpt>
      <trkpt lat="33.008014" lon="35.395214">
        <ele>903</ele>
      </trkpt>
      <trkpt lat="33.007957" lon="35.395272">
        <ele>906</ele>
      </trkpt>
      <trkpt lat="33.007332" lon="35.395437">
        <ele>909</ele>
      </trkpt>
      <trkpt lat="33.007136" lon="35.395456">
        <ele>909</ele>
      </trkpt>
      <trkpt lat="33.006983" lon="35.395511">
        <ele>912</ele>
      </trkpt>
      <trkpt lat="33.006916" lon="35.395553">
        <ele>911.5</ele>
      </trkpt>
      <extensions>
        <RoutingType xmlns="">Hike</RoutingType>
      </extensions>
    </trkseg>
    <trkseg>
      <trkpt lat="33.006916" lon="35.395553">
        <ele>911.5</ele>
      </trkpt>
      <trkpt lat="33.006237" lon="35.396093">
        <ele>924</ele>
      </trkpt>
      <trkpt lat="33.005899" lon="35.396421">
        <ele>932</ele>
      </trkpt>
      <extensions>
        <RoutingType xmlns="">Hike</RoutingType>
      </extensions>
    </trkseg>
    <trkseg>
      <trkpt lat="33.005899" lon="35.396421">
        <ele>932</ele>
      </trkpt>
      <trkpt lat="33.00564" lon="35.396672">
        <ele>940</ele>
      </trkpt>
      <trkpt lat="33.005581" lon="35.396703">
        <ele>940.5</ele>
      </trkpt>
      <extensions>
        <RoutingType xmlns="">Hike</RoutingType>
      </extensions>
    </trkseg>
    <trkseg>
      <trkpt lat="33.005581" lon="35.396703">
        <ele>940.5</ele>
      </trkpt>
      <trkpt lat="33.005527" lon="35.396731">
        <ele>941</ele>
      </trkpt>
      <trkpt lat="33.005404" lon="35.396752">
        <ele>944</ele>
      </trkpt>
      <trkpt lat="33.005335" lon="35.39679">
        <ele>946</ele>
      </trkpt>
      <extensions>
        <RoutingType xmlns="">Hike</RoutingType>
      </extensions>
    </trkseg>
    <trkseg>
      <trkpt lat="33.005335" lon="35.39679">
        <ele>946</ele>
      </trkpt>
      <trkpt lat="33.00532" lon="35.396798">
        <ele>948</ele>
      </trkpt>
      <trkpt lat="33.005131" lon="35.39717">
        <ele>955</ele>
      </trkpt>
      <trkpt lat="33.004917" lon="35.397638">
        <ele>967</ele>
      </trkpt>
      <trkpt lat="33.004868" lon="35.39771">
        <ele>968</ele>
      </trkpt>
      <trkpt lat="33.004805" lon="35.397745">
        <ele>974</ele>
      </trkpt>
      <extensions>
        <RoutingType xmlns="">Hike</RoutingType>
      </extensions>
    </trkseg>
    <trkseg>
      <trkpt lat="33.004805" lon="35.397745">
        <ele>974</ele>
      </trkpt>
      <trkpt lat="33.00474" lon="35.39774">
        <ele>976</ele>
      </trkpt>
      <trkpt lat="33.004686" lon="35.397694">
        <ele>975</ele>
      </trkpt>
      <trkpt lat="33.004591" lon="35.397485">
        <ele>978</ele>
      </trkpt>
      <trkpt lat="33.004485" lon="35.397328">
        <ele>985</ele>
      </trkpt>
      <trkpt lat="33.004413" lon="35.397272">
        <ele>985</ele>
      </trkpt>
      <trkpt lat="33.004378" lon="35.397263">
        <ele>987</ele>
      </trkpt>
      <extensions>
        <RoutingType xmlns="">Hike</RoutingType>
      </extensions>
    </trkseg>
    <trkseg>
      <trkpt lat="33.004378" lon="35.397263">
        <ele>987</ele>
      </trkpt>
      <trkpt lat="33.004364" lon="35.39726">
        <ele>989</ele>
      </trkpt>
      <trkpt lat="33.004293" lon="35.397289">
        <ele>992</ele>
      </trkpt>
      <trkpt lat="33.00404" lon="35.397629">
        <ele>1002</ele>
      </trkpt>
      <trkpt lat="33.003961" lon="35.39768">
        <ele>1004</ele>
      </trkpt>
      <extensions>
        <RoutingType xmlns="">Hike</RoutingType>
      </extensions>
    </trkseg>
    <trkseg>
      <trkpt lat="33.003961" lon="35.39768">
        <ele>1004</ele>
      </trkpt>
      <trkpt lat="33.003941" lon="35.397693">
        <ele>1006</ele>
      </trkpt>
      <trkpt lat="33.00388" lon="35.397775">
        <ele>1007</ele>
      </trkpt>
      <trkpt lat="33.003834" lon="35.397938">
        <ele>1010</ele>
      </trkpt>
      <trkpt lat="33.00381" lon="35.397983">
        <ele>1010.5</ele>
      </trkpt>
      <extensions>
        <RoutingType xmlns="">Hike</RoutingType>
      </extensions>
    </trkseg>
    <trkseg>
      <trkpt lat="33.00381" lon="35.397983">
        <ele>1010.5</ele>
      </trkpt>
      <trkpt lat="33.003783" lon="35.398035">
        <ele>1011</ele>
      </trkpt>
      <trkpt lat="33.00369" lon="35.398114">
        <ele>1013</ele>
      </trkpt>
      <trkpt lat="33.003565" lon="35.398171">
        <ele>1014</ele>
      </trkpt>
      <trkpt lat="33.003319" lon="35.39832">
        <ele>1019</ele>
      </trkpt>
      <trkpt lat="33.00298" lon="35.398699">
        <ele>1023</ele>
      </trkpt>
      <trkpt lat="33.002836" lon="35.398805">
        <ele>1023</ele>
      </trkpt>
      <trkpt lat="33.002459" lon="35.399024">
        <ele>1024</ele>
      </trkpt>
      <trkpt lat="33.002162" lon="35.399276">
        <ele>1025</ele>
      </trkpt>
      <trkpt lat="33.001968" lon="35.399495">
        <ele>1024</ele>
      </trkpt>
      <trkpt lat="33.001787" lon="35.399755">
        <ele>1028</ele>
      </trkpt>
      <trkpt lat="33.001738" lon="35.399799">
        <ele>1030</ele>
      </trkpt>
      <extensions>
        <RoutingType xmlns="">Hike</RoutingType>
      </extensions>
    </trkseg>
    <trkseg>
      <trkpt lat="33.001738" lon="35.399799">
        <ele>1030</ele>
      </trkpt>
      <trkpt lat="33.001218" lon="35.400263">
        <ele>1032</ele>
      </trkpt>
      <trkpt lat="33.001054" lon="35.400459">
        <ele>1034</ele>
      </trkpt>
      <trkpt lat="33.000781" lon="35.40084">
        <ele>1040</ele>
      </trkpt>
      <trkpt lat="33.000659" lon="35.400978">
        <ele>1041</ele>
      </trkpt>
      <trkpt lat="33.000413" lon="35.401118">
        <ele>1042</ele>
      </trkpt>
      <trkpt lat="33.00037" lon="35.401123">
        <ele>1042.5</ele>
      </trkpt>
      <extensions>
        <RoutingType xmlns="">Hike</RoutingType>
      </extensions>
    </trkseg>
    <trkseg>
      <trkpt lat="33.00037" lon="35.401124">
        <ele>1042.5</ele>
      </trkpt>
      <trkpt lat="33.000343" lon="35.401127">
        <ele>1043</ele>
      </trkpt>
      <trkpt lat="33.00022" lon="35.401109">
        <ele>1046</ele>
      </trkpt>
      <trkpt lat="33.000156" lon="35.401078">
        <ele>1048</ele>
      </trkpt>
      <trkpt lat="32.999723" lon="35.400741">
        <ele>1051</ele>
      </trkpt>
      <trkpt lat="32.999506" lon="35.400538">
        <ele>1051</ele>
      </trkpt>
      <trkpt lat="32.999435" lon="35.400513">
        <ele>1052</ele>
      </trkpt>
      <trkpt lat="32.99936" lon="35.400551">
        <ele>1054</ele>
      </trkpt>
      <trkpt lat="32.999321" lon="35.400622">
        <ele>1056</ele>
      </trkpt>
      <trkpt lat="32.999295" lon="35.400947">
        <ele>1060</ele>
      </trkpt>
      <trkpt lat="32.999136" lon="35.40119">
        <ele>1065</ele>
      </trkpt>
      <trkpt lat="32.999088" lon="35.401291">
        <ele>1066</ele>
      </trkpt>
      <trkpt lat="32.99903" lon="35.401494">
        <ele>1068</ele>
      </trkpt>
      <trkpt lat="32.999025" lon="35.401559">
        <ele>1069</ele>
      </trkpt>
      <extensions>
        <RoutingType xmlns="">Hike</RoutingType>
      </extensions>
    </trkseg>
    <trkseg>
      <trkpt lat="32.999025" lon="35.401559">
        <ele>1069</ele>
      </trkpt>
      <trkpt lat="32.999018" lon="35.401649">
        <ele>1070</ele>
      </trkpt>
      <trkpt lat="32.999053" lon="35.401825">
        <ele>1072</ele>
      </trkpt>
      <trkpt lat="32.999058" lon="35.402037">
        <ele>1074</ele>
      </trkpt>
      <trkpt lat="32.999072" lon="35.402116">
        <ele>1075</ele>
      </trkpt>
      <trkpt lat="32.999127" lon="35.402192">
        <ele>1079</ele>
      </trkpt>
      <trkpt lat="32.999171" lon="35.402214">
        <ele>1079</ele>
      </trkpt>
      <extensions>
        <RoutingType xmlns="">Hike</RoutingType>
      </extensions>
    </trkseg>
    <trkseg>
      <trkpt lat="32.999171" lon="35.402214">
        <ele>1079</ele>
      </trkpt>
      <trkpt lat="32.999256" lon="35.402231">
        <ele>1082</ele>
      </trkpt>
      <trkpt lat="32.999435" lon="35.402226">
        <ele>1082</ele>
      </trkpt>
      <trkpt lat="32.999505" lon="35.40224">
        <ele>1086</ele>
      </trkpt>
      <trkpt lat="33.000529" lon="35.402523">
        <ele>1098</ele>
      </trkpt>
      <trkpt lat="33.001633" lon="35.402664">
        <ele>1111</ele>
      </trkpt>
      <trkpt lat="33.001814" lon="35.40272">
        <ele>1114</ele>
      </trkpt>
      <trkpt lat="33.00203" lon="35.402821">
        <ele>1116</ele>
      </trkpt>
      <trkpt lat="33.002397" lon="35.402905">
        <ele>1116</ele>
      </trkpt>
      <trkpt lat="33.002535" lon="35.40298">
        <ele>1116</ele>
      </trkpt>
      <trkpt lat="33.002765" lon="35.403006">
        <ele>1116</ele>
      </trkpt>
      <trkpt lat="33.00283" lon="35.403029">
        <ele>1116</ele>
      </trkpt>
      <trkpt lat="33.002875" lon="35.403083">
        <ele>1116</ele>
      </trkpt>
      <trkpt lat="33.002886" lon="35.403161">
        <ele>1117</ele>
      </trkpt>
      <extensions>
        <RoutingType xmlns="">Hike</RoutingType>
      </extensions>
    </trkseg>
    <trkseg>
      <trkpt lat="33.002886" lon="35.403161">
        <ele>1117</ele>
      </trkpt>
      <trkpt lat="33.002887" lon="35.40322">
        <ele>1117</ele>
      </trkpt>
      <trkpt lat="33.002801" lon="35.403294">
        <ele>1117</ele>
      </trkpt>
      <trkpt lat="33.002538" lon="35.403415">
        <ele>1117</ele>
      </trkpt>
      <trkpt lat="33.00236" lon="35.403425">
        <ele>1119</ele>
      </trkpt>
      <trkpt lat="33.00228" lon="35.403385">
        <ele>1120</ele>
      </trkpt>
      <trkpt lat="33.002175" lon="35.403398">
        <ele>1120</ele>
      </trkpt>
      <trkpt lat="33.002079" lon="35.40346">
        <ele>1121</ele>
      </trkpt>
      <trkpt lat="33.00207" lon="35.403578">
        <ele>1120</ele>
      </trkpt>
      <trkpt lat="33.001987" lon="35.403796">
        <ele>1119</ele>
      </trkpt>
      <trkpt lat="33.00189" lon="35.403881">
        <ele>1120</ele>
      </trkpt>
      <trkpt lat="33.001831" lon="35.403996">
        <ele>1122</ele>
      </trkpt>
      <trkpt lat="33.001764" lon="35.404063">
        <ele>1125</ele>
      </trkpt>
      <trkpt lat="33.001656" lon="35.404084">
        <ele>1126</ele>
      </trkpt>
      <trkpt lat="33.001603" lon="35.404153">
        <ele>1129</ele>
      </trkpt>
      <trkpt lat="33.001509" lon="35.40422">
        <ele>1132</ele>
      </trkpt>
      <trkpt lat="33.001419" lon="35.404358">
        <ele>1135</ele>
      </trkpt>
      <trkpt lat="33.001092" lon="35.404588">
        <ele>1142</ele>
      </trkpt>
      <trkpt lat="33.001019" lon="35.404687">
        <ele>1145</ele>
      </trkpt>
      <trkpt lat="33.000913" lon="35.40471">
        <ele>1147</ele>
      </trkpt>
      <trkpt lat="33.000816" lon="35.404764">
        <ele>1151</ele>
      </trkpt>
      <trkpt lat="33.000732" lon="35.404872">
        <ele>1156</ele>
      </trkpt>
      <trkpt lat="33.000568" lon="35.404981">
        <ele>1161</ele>
      </trkpt>
      <trkpt lat="33.000472" lon="35.405068">
        <ele>1162</ele>
      </trkpt>
      <trkpt lat="33.000268" lon="35.405116">
        <ele>1164</ele>
      </trkpt>
      <trkpt lat="33.000194" lon="35.405189">
        <ele>1164</ele>
      </trkpt>
      <trkpt lat="33.000203" lon="35.405305">
        <ele>1164</ele>
      </trkpt>
      <trkpt lat="33.000155" lon="35.405388">
        <ele>1165</ele>
      </trkpt>
      <trkpt lat="33.000049" lon="35.405427">
        <ele>1166</ele>
      </trkpt>
      <trkpt lat="32.999982" lon="35.405519">
        <ele>1166</ele>
      </trkpt>
      <trkpt lat="32.999818" lon="35.405658">
        <ele>1169</ele>
      </trkpt>
      <trkpt lat="32.999696" lon="35.405841">
        <ele>1171</ele>
      </trkpt>
      <trkpt lat="32.999597" lon="35.40589">
        <ele>1172</ele>
      </trkpt>
      <trkpt lat="32.999517" lon="35.405976">
        <ele>1173</ele>
      </trkpt>
      <trkpt lat="32.999501" lon="35.406096">
        <ele>1174</ele>
      </trkpt>
      <trkpt lat="32.999321" lon="35.406407">
        <ele>1178</ele>
      </trkpt>
      <trkpt lat="32.99932" lon="35.406512">
        <ele>1180</ele>
      </trkpt>
      <trkpt lat="32.999354" lon="35.406551">
        <ele>1179.5</ele>
      </trkpt>
      <extensions>
        <RoutingType xmlns="">Hike</RoutingType>
      </extensions>
    </trkseg>
    <trkseg>
      <trkpt lat="32.999354" lon="35.406551">
        <ele>1179.5</ele>
      </trkpt>
      <trkpt lat="32.999396" lon="35.4066">
        <ele>1179</ele>
      </trkpt>
      <trkpt lat="32.999544" lon="35.406851">
        <ele>1178</ele>
      </trkpt>
      <trkpt lat="32.999591" lon="35.407145">
        <ele>1177</ele>
      </trkpt>
      <trkpt lat="32.999631" lon="35.4073">
        <ele>1177</ele>
      </trkpt>
      <trkpt lat="32.99959" lon="35.407601">
        <ele>1177</ele>
      </trkpt>
      <trkpt lat="32.999503" lon="35.407714">
        <ele>1178</ele>
      </trkpt>
      <trkpt lat="32.999225" lon="35.408485">
        <ele>1178</ele>
      </trkpt>
      <trkpt lat="32.999204" lon="35.408663">
        <ele>1178</ele>
      </trkpt>
      <trkpt lat="32.999257" lon="35.409001">
        <ele>1178</ele>
      </trkpt>
      <trkpt lat="32.999221" lon="35.409141">
        <ele>1178</ele>
      </trkpt>
      <trkpt lat="32.999202" lon="35.409336">
        <ele>1178.5</ele>
      </trkpt>
      <extensions>
        <RoutingType xmlns="">Hike</RoutingType>
      </extensions>
    </trkseg>
    <trkseg>
      <trkpt lat="32.999202" lon="35.409336">
        <ele>1178.5</ele>
      </trkpt>
      <trkpt lat="32.999193" lon="35.409435">
        <ele>1179</ele>
      </trkpt>
      <trkpt lat="32.999244" lon="35.409491">
        <ele>1179</ele>
      </trkpt>
      <trkpt lat="32.999332" lon="35.409534">
        <ele>1177</ele>
      </trkpt>
      <trkpt lat="32.999406" lon="35.409627">
        <ele>1175</ele>
      </trkpt>
      <trkpt lat="32.999437" lon="35.409766">
        <ele>1175</ele>
      </trkpt>
      <trkpt lat="32.999486" lon="35.409883">
        <ele>1174</ele>
      </trkpt>
      <trkpt lat="32.999553" lon="35.410153">
        <ele>1173</ele>
      </trkpt>
      <trkpt lat="32.99956" lon="35.410629">
        <ele>1173</ele>
      </trkpt>
      <trkpt lat="32.999589" lon="35.410744">
        <ele>1174</ele>
      </trkpt>
      <trkpt lat="32.999549" lon="35.410913">
        <ele>1178</ele>
      </trkpt>
      <trkpt lat="32.999579" lon="35.411006">
        <ele>1179</ele>
      </trkpt>
      <trkpt lat="32.999674" lon="35.411197">
        <ele>1182</ele>
      </trkpt>
      <trkpt lat="32.999772" lon="35.411277">
        <ele>1182</ele>
      </trkpt>
      <trkpt lat="32.999994" lon="35.411221">
        <ele>1179</ele>
      </trkpt>
      <trkpt lat="33.000038" lon="35.411241">
        <ele>1179</ele>
      </trkpt>
      <trkpt lat="33.000072" lon="35.411348">
        <ele>1181</ele>
      </trkpt>
      <trkpt lat="33.000125" lon="35.411422">
        <ele>1180</ele>
      </trkpt>
      <trkpt lat="33.000188" lon="35.41167">
        <ele>1174</ele>
      </trkpt>
      <trkpt lat="33.000146" lon="35.411787">
        <ele>1175</ele>
      </trkpt>
      <trkpt lat="33.000182" lon="35.41187">
        <ele>1170</ele>
      </trkpt>
      <trkpt lat="33.000178" lon="35.411939">
        <ele>1171</ele>
      </trkpt>
      <extensions>
        <RoutingType xmlns="">Hike</RoutingType>
      </extensions>
    </trkseg>
    <trkseg>
      <trkpt lat="33.000178" lon="35.411939">
        <ele>1171</ele>
      </trkpt>
      <trkpt lat="33.000175" lon="35.411997">
        <ele>1172</ele>
      </trkpt>
      <trkpt lat="33.000125" lon="35.412194">
        <ele>1168</ele>
      </trkpt>
      <trkpt lat="32.999925" lon="35.412474">
        <ele>1164</ele>
      </trkpt>
      <trkpt lat="32.999832" lon="35.412544">
        <ele>1168</ele>
      </trkpt>
      <trkpt lat="32.999794" lon="35.412531">
        <ele>1171</ele>
      </trkpt>
      <trkpt lat="32.9998" lon="35.412613">
        <ele>1169</ele>
      </trkpt>
      <trkpt lat="32.999735" lon="35.412715">
        <ele>1167</ele>
      </trkpt>
      <trkpt lat="32.999711" lon="35.412815">
        <ele>1168</ele>
      </trkpt>
      <trkpt lat="32.999673" lon="35.412932">
        <ele>1163</ele>
      </trkpt>
      <trkpt lat="32.999525" lon="35.413168">
        <ele>1165</ele>
      </trkpt>
      <trkpt lat="32.999485" lon="35.413348">
        <ele>1159</ele>
      </trkpt>
      <trkpt lat="32.999415" lon="35.413431">
        <ele>1160</ele>
      </trkpt>
      <trkpt lat="32.999405" lon="35.413505">
        <ele>1157</ele>
      </trkpt>
      <trkpt lat="32.999325" lon="35.413587">
        <ele>1159</ele>
      </trkpt>
      <trkpt lat="32.99925" lon="35.413713">
        <ele>1160</ele>
      </trkpt>
      <trkpt lat="32.999186" lon="35.413735">
        <ele>1161</ele>
      </trkpt>
      <trkpt lat="32.999158" lon="35.413809">
        <ele>1161</ele>
      </trkpt>
      <trkpt lat="32.999115" lon="35.413807">
        <ele>1161</ele>
      </trkpt>
      <trkpt lat="32.999102" lon="35.413858">
        <ele>1158</ele>
      </trkpt>
      <trkpt lat="32.999002" lon="35.414083">
        <ele>1162</ele>
      </trkpt>
      <trkpt lat="32.998917" lon="35.414129">
        <ele>1163</ele>
      </trkpt>
      <trkpt lat="32.998842" lon="35.414186">
        <ele>1160</ele>
      </trkpt>
      <trkpt lat="32.998746" lon="35.414319">
        <ele>1160</ele>
      </trkpt>
      <trkpt lat="32.9987" lon="35.414463">
        <ele>1157</ele>
      </trkpt>
      <trkpt lat="32.998709" lon="35.41456">
        <ele>1155</ele>
      </trkpt>
      <trkpt lat="32.998661" lon="35.414621">
        <ele>1155</ele>
      </trkpt>
      <trkpt lat="32.998648" lon="35.414694">
        <ele>1156</ele>
      </trkpt>
      <trkpt lat="32.998529" lon="35.41486">
        <ele>1156</ele>
      </trkpt>
      <trkpt lat="32.99843" lon="35.414982">
        <ele>1156</ele>
      </trkpt>
      <trkpt lat="32.998218" lon="35.415183">
        <ele>1152</ele>
      </trkpt>
      <trkpt lat="32.998107" lon="35.41531">
        <ele>1155</ele>
      </trkpt>
      <trkpt lat="32.998097" lon="35.415339">
        <ele>1152</ele>
      </trkpt>
      <extensions>
        <RoutingType xmlns="">Hike</RoutingType>
      </extensions>
    </trkseg>
    <trkseg>
      <trkpt lat="32.998097" lon="35.415339">
        <ele>1152</ele>
      </trkpt>
      <trkpt lat="32.998034" lon="35.415522">
        <ele>1149</ele>
      </trkpt>
      <trkpt lat="32.997988" lon="35.415584">
        <ele>1152</ele>
      </trkpt>
      <trkpt lat="32.997936" lon="35.415579">
        <ele>1152</ele>
      </trkpt>
      <trkpt lat="32.997952" lon="35.415664">
        <ele>1150</ele>
      </trkpt>
      <trkpt lat="32.997934" lon="35.415765">
        <ele>1148</ele>
      </trkpt>
      <trkpt lat="32.997837" lon="35.416061">
        <ele>1142</ele>
      </trkpt>
      <trkpt lat="32.997749" lon="35.416157">
        <ele>1141</ele>
      </trkpt>
      <trkpt lat="32.997636" lon="35.416227">
        <ele>1143</ele>
      </trkpt>
      <trkpt lat="32.997542" lon="35.416341">
        <ele>1140</ele>
      </trkpt>
      <trkpt lat="32.99739" lon="35.416467">
        <ele>1142</ele>
      </trkpt>
      <trkpt lat="32.99729" lon="35.416581">
        <ele>1141</ele>
      </trkpt>
      <trkpt lat="32.997099" lon="35.416739">
        <ele>1141</ele>
      </trkpt>
      <trkpt lat="32.996984" lon="35.416794">
        <ele>1141</ele>
      </trkpt>
      <trkpt lat="32.996894" lon="35.416863">
        <ele>1142</ele>
      </trkpt>
      <trkpt lat="32.996615" lon="35.417025">
        <ele>1141</ele>
      </trkpt>
      <trkpt lat="32.996442" lon="35.417053">
        <ele>1139</ele>
      </trkpt>
      <trkpt lat="32.996378" lon="35.417047">
        <ele>1143</ele>
      </trkpt>
      <trkpt lat="32.996216" lon="35.417057">
        <ele>1139</ele>
      </trkpt>
      <trkpt lat="32.996169" lon="35.417082">
        <ele>1139</ele>
      </trkpt>
      <trkpt lat="32.996023" lon="35.417073">
        <ele>1138</ele>
      </trkpt>
      <trkpt lat="32.995835" lon="35.417016">
        <ele>1142</ele>
      </trkpt>
      <trkpt lat="32.99565" lon="35.416983">
        <ele>1142</ele>
      </trkpt>
      <trkpt lat="32.995571" lon="35.416985">
        <ele>1141</ele>
      </trkpt>
      <trkpt lat="32.995492" lon="35.417014">
        <ele>1141</ele>
      </trkpt>
      <trkpt lat="32.995438" lon="35.417">
        <ele>1139.5</ele>
      </trkpt>
      <extensions>
        <RoutingType xmlns="">Hike</RoutingType>
      </extensions>
    </trkseg>
    <trkseg>
      <trkpt lat="32.995438" lon="35.417">
        <ele>1139.5</ele>
      </trkpt>
      <trkpt lat="32.995313" lon="35.416966">
        <ele>1138</ele>
      </trkpt>
      <trkpt lat="32.995141" lon="35.416854">
        <ele>1141</ele>
      </trkpt>
      <trkpt lat="32.994992" lon="35.416837">
        <ele>1138</ele>
      </trkpt>
      <trkpt lat="32.994868" lon="35.416791">
        <ele>1136</ele>
      </trkpt>
      <trkpt lat="32.994759" lon="35.416797">
        <ele>1135</ele>
      </trkpt>
      <trkpt lat="32.994637" lon="35.416832">
        <ele>1133</ele>
      </trkpt>
      <trkpt lat="32.994608" lon="35.41666">
        <ele>1136</ele>
      </trkpt>
      <trkpt lat="32.994569" lon="35.416294">
        <ele>1141</ele>
      </trkpt>
      <trkpt lat="32.994568" lon="35.41608">
        <ele>1142</ele>
      </trkpt>
      <trkpt lat="32.994519" lon="35.415838">
        <ele>1137</ele>
      </trkpt>
      <trkpt lat="32.99446" lon="35.415705">
        <ele>1137</ele>
      </trkpt>
      <trkpt lat="32.994094" lon="35.415302">
        <ele>1132</ele>
      </trkpt>
      <extensions>
        <RoutingType xmlns="">Hike</RoutingType>
      </extensions>
    </trkseg>
    <trkseg>
      <trkpt lat="32.994094" lon="35.415302">
        <ele>1132</ele>
      </trkpt>
      <trkpt lat="32.993988" lon="35.415185">
        <ele>1127</ele>
      </trkpt>
      <trkpt lat="32.993778" lon="35.414853">
        <ele>1121</ele>
      </trkpt>
      <trkpt lat="32.993725" lon="35.414772">
        <ele>1120</ele>
      </trkpt>
      <trkpt lat="32.993595" lon="35.414438">
        <ele>1117</ele>
      </trkpt>
      <trkpt lat="32.993491" lon="35.414369">
        <ele>1117</ele>
      </trkpt>
      <trkpt lat="32.993398" lon="35.414248">
        <ele>1115</ele>
      </trkpt>
      <trkpt lat="32.993441" lon="35.414067">
        <ele>1111</ele>
      </trkpt>
      <trkpt lat="32.993295" lon="35.41384">
        <ele>1108</ele>
      </trkpt>
      <trkpt lat="32.993261" lon="35.413676">
        <ele>1106</ele>
      </trkpt>
      <trkpt lat="32.99325" lon="35.413547">
        <ele>1104</ele>
      </trkpt>
      <trkpt lat="32.993167" lon="35.413385">
        <ele>1101.5</ele>
      </trkpt>
      <extensions>
        <RoutingType xmlns="">Hike</RoutingType>
      </extensions>
    </trkseg>
    <trkseg>
      <trkpt lat="32.993167" lon="35.413385">
        <ele>1101.5</ele>
      </trkpt>
      <trkpt lat="32.993095" lon="35.413285">
        <ele>1099</ele>
      </trkpt>
      <trkpt lat="32.992992" lon="35.413286">
        <ele>1101</ele>
      </trkpt>
      <trkpt lat="32.992904" lon="35.413372">
        <ele>1104</ele>
      </trkpt>
      <trkpt lat="32.992804" lon="35.413439">
        <ele>1103</ele>
      </trkpt>
      <trkpt lat="32.992745" lon="35.413445">
        <ele>1103</ele>
      </trkpt>
      <trkpt lat="32.992609" lon="35.413337">
        <ele>1099</ele>
      </trkpt>
      <trkpt lat="32.99242" lon="35.41306">
        <ele>1096</ele>
      </trkpt>
      <trkpt lat="32.992381" lon="35.412959">
        <ele>1094</ele>
      </trkpt>
      <trkpt lat="32.992358" lon="35.412824">
        <ele>1095</ele>
      </trkpt>
      <trkpt lat="32.992318" lon="35.412687">
        <ele>1094</ele>
      </trkpt>
      <trkpt lat="32.992288" lon="35.412524">
        <ele>1093</ele>
      </trkpt>
      <trkpt lat="32.99226" lon="35.412216">
        <ele>1095</ele>
      </trkpt>
      <trkpt lat="32.992202" lon="35.411927">
        <ele>1093</ele>
      </trkpt>
      <trkpt lat="32.99213" lon="35.411813">
        <ele>1096</ele>
      </trkpt>
      <trkpt lat="32.992105" lon="35.411728">
        <ele>1095</ele>
      </trkpt>
      <trkpt lat="32.992059" lon="35.411641">
        <ele>1096</ele>
      </trkpt>
      <trkpt lat="32.992033" lon="35.411523">
        <ele>1095</ele>
      </trkpt>
      <trkpt lat="32.991991" lon="35.411412">
        <ele>1096</ele>
      </trkpt>
      <trkpt lat="32.991843" lon="35.411117">
        <ele>1093</ele>
      </trkpt>
      <trkpt lat="32.991815" lon="35.410991">
        <ele>1094</ele>
      </trkpt>
      <trkpt lat="32.991765" lon="35.410858">
        <ele>1093.5</ele>
      </trkpt>
      <extensions>
        <RoutingType xmlns="">Hike</RoutingType>
      </extensions>
    </trkseg>
    <trkseg>
      <trkpt lat="32.991765" lon="35.410858">
        <ele>1093.5</ele>
      </trkpt>
      <trkpt lat="32.991724" lon="35.410778">
        <ele>1094</ele>
      </trkpt>
      <trkpt lat="32.991658" lon="35.410686">
        <ele>1093</ele>
      </trkpt>
      <trkpt lat="32.991561" lon="35.410629">
        <ele>1093</ele>
      </trkpt>
      <trkpt lat="32.991464" lon="35.410534">
        <ele>1095</ele>
      </trkpt>
      <trkpt lat="32.991393" lon="35.410414">
        <ele>1094</ele>
      </trkpt>
      <trkpt lat="32.991227" lon="35.410175">
        <ele>1091</ele>
      </trkpt>
      <trkpt lat="32.990936" lon="35.409652">
        <ele>1086</ele>
      </trkpt>
      <trkpt lat="32.990879" lon="35.409501">
        <ele>1085</ele>
      </trkpt>
      <trkpt lat="32.990824" lon="35.409389">
        <ele>1085</ele>
      </trkpt>
      <trkpt lat="32.990626" lon="35.40914">
        <ele>1084</ele>
      </trkpt>
      <trkpt lat="32.990532" lon="35.408987">
        <ele>1084</ele>
      </trkpt>
      <extensions>
        <RoutingType xmlns="">Hike</RoutingType>
      </extensions>
    </trkseg>
    <trkseg>
      <trkpt lat="32.990532" lon="35.408987">
        <ele>1084</ele>
      </trkpt>
      <trkpt lat="32.990398" lon="35.40881">
        <ele>1084</ele>
      </trkpt>
      <trkpt lat="32.990305" lon="35.408719">
        <ele>1084</ele>
      </trkpt>
      <trkpt lat="32.99029" lon="35.407984">
        <ele>1082</ele>
      </trkpt>
      <trkpt lat="32.990269" lon="35.407797">
        <ele>1082</ele>
      </trkpt>
      <trkpt lat="32.990298" lon="35.407614">
        <ele>1083</ele>
      </trkpt>
      <trkpt lat="32.990394" lon="35.407335">
        <ele>1083</ele>
      </trkpt>
      <trkpt lat="32.990377" lon="35.407217">
        <ele>1085.5</ele>
      </trkpt>
      <extensions>
        <RoutingType xmlns="">Hike</RoutingType>
      </extensions>
    </trkseg>
    <trkseg>
      <trkpt lat="32.990377" lon="35.407217">
        <ele>1085.5</ele>
      </trkpt>
      <trkpt lat="32.990297" lon="35.407112">
        <ele>1086</ele>
      </trkpt>
      <trkpt lat="32.990062" lon="35.406914">
        <ele>1087</ele>
      </trkpt>
      <trkpt lat="32.990006" lon="35.406821">
        <ele>1086</ele>
      </trkpt>
      <trkpt lat="32.98997" lon="35.406684">
        <ele>1088</ele>
      </trkpt>
      <trkpt lat="32.989987" lon="35.406563">
        <ele>1089</ele>
      </trkpt>
      <trkpt lat="32.990089" lon="35.406258">
        <ele>1092</ele>
      </trkpt>
      <trkpt lat="32.990107" lon="35.406179">
        <ele>1092</ele>
      </trkpt>
      <trkpt lat="32.989938" lon="35.405965">
        <ele>1092</ele>
      </trkpt>
      <trkpt lat="32.98982" lon="35.405949">
        <ele>1091</ele>
      </trkpt>
      <trkpt lat="32.989481" lon="35.405933">
        <ele>1088</ele>
      </trkpt>
      <extensions>
        <RoutingType xmlns="">Hike</RoutingType>
      </extensions>
    </trkseg>
    <trkseg>
      <trkpt lat="32.989481" lon="35.405933">
        <ele>1088</ele>
      </trkpt>
      <trkpt lat="32.989449" lon="35.405931">
        <ele>1085</ele>
      </trkpt>
      <trkpt lat="32.989378" lon="35.405997">
        <ele>1083</ele>
      </trkpt>
      <trkpt lat="32.989356" lon="35.406095">
        <ele>1082</ele>
      </trkpt>
      <trkpt lat="32.989363" lon="35.406212">
        <ele>1081</ele>
      </trkpt>
      <trkpt lat="32.989264" lon="35.406481">
        <ele>1077</ele>
      </trkpt>
      <trkpt lat="32.989228" lon="35.406693">
        <ele>1075</ele>
      </trkpt>
      <trkpt lat="32.989313" lon="35.406911">
        <ele>1076</ele>
      </trkpt>
      <trkpt lat="32.989289" lon="35.407017">
        <ele>1074</ele>
      </trkpt>
      <trkpt lat="32.98923" lon="35.407081">
        <ele>1074</ele>
      </trkpt>
      <trkpt lat="32.989231" lon="35.407165">
        <ele>1074</ele>
      </trkpt>
      <trkpt lat="32.98917" lon="35.407266">
        <ele>1072</ele>
      </trkpt>
      <trkpt lat="32.989126" lon="35.407428">
        <ele>1071</ele>
      </trkpt>
      <trkpt lat="32.989039" lon="35.407572">
        <ele>1068</ele>
      </trkpt>
      <trkpt lat="32.988817" lon="35.40785">
        <ele>1064</ele>
      </trkpt>
      <trkpt lat="32.988598" lon="35.408198">
        <ele>1062</ele>
      </trkpt>
      <trkpt lat="32.988465" lon="35.4089">
        <ele>1061</ele>
      </trkpt>
      <trkpt lat="32.988452" lon="35.40951">
        <ele>1059</ele>
      </trkpt>
      <trkpt lat="32.988455" lon="35.409816">
        <ele>1058</ele>
      </trkpt>
      <trkpt lat="32.98841" lon="35.410133">
        <ele>1054</ele>
      </trkpt>
      <trkpt lat="32.988337" lon="35.410463">
        <ele>1052</ele>
      </trkpt>
      <trkpt lat="32.988451" lon="35.410766">
        <ele>1052</ele>
      </trkpt>
      <trkpt lat="32.988389" lon="35.411039">
        <ele>1051.5</ele>
      </trkpt>
      <extensions>
        <RoutingType xmlns="">Hike</RoutingType>
      </extensions>
    </trkseg>
    <trkseg>
      <trkpt lat="32.988389" lon="35.411039">
        <ele>1051.5</ele>
      </trkpt>
      <trkpt lat="32.988327" lon="35.411307">
        <ele>1051</ele>
      </trkpt>
      <trkpt lat="32.988092" lon="35.411394">
        <ele>1049</ele>
      </trkpt>
      <trkpt lat="32.987848" lon="35.41171">
        <ele>1050</ele>
      </trkpt>
      <trkpt lat="32.987746" lon="35.41191">
        <ele>1051</ele>
      </trkpt>
      <trkpt lat="32.987629" lon="35.411984">
        <ele>1049</ele>
      </trkpt>
      <trkpt lat="32.987523" lon="35.412119">
        <ele>1048</ele>
      </trkpt>
      <trkpt lat="32.98751" lon="35.412225">
        <ele>1047</ele>
      </trkpt>
      <trkpt lat="32.987446" lon="35.412336">
        <ele>1048</ele>
      </trkpt>
      <trkpt lat="32.987282" lon="35.412883">
        <ele>1046</ele>
      </trkpt>
      <trkpt lat="32.987128" lon="35.413226">
        <ele>1044</ele>
      </trkpt>
      <trkpt lat="32.986914" lon="35.413495">
        <ele>1042</ele>
      </trkpt>
      <trkpt lat="32.986837" lon="35.41369">
        <ele>1041</ele>
      </trkpt>
      <trkpt lat="32.986623" lon="35.414106">
        <ele>1043</ele>
      </trkpt>
      <trkpt lat="32.986588" lon="35.414192">
        <ele>1042.5</ele>
      </trkpt>
      <extensions>
        <RoutingType xmlns="">Hike</RoutingType>
      </extensions>
    </trkseg>
    <trkseg>
      <trkpt lat="32.986588" lon="35.414192">
        <ele>1042.5</ele>
      </trkpt>
      <trkpt lat="32.986587" lon="35.414196">
        <ele>1042</ele>
      </trkpt>
      <trkpt lat="32.986551" lon="35.414273">
        <ele>1042</ele>
      </trkpt>
      <trkpt lat="32.986516" lon="35.414308">
        <ele>1041</ele>
      </trkpt>
      <trkpt lat="32.986245" lon="35.414412">
        <ele>1037</ele>
      </trkpt>
      <trkpt lat="32.985985" lon="35.414542">
        <ele>1034</ele>
      </trkpt>
      <trkpt lat="32.985879" lon="35.414567">
        <ele>1033</ele>
      </trkpt>
      <trkpt lat="32.985805" lon="35.414548">
        <ele>1032</ele>
      </trkpt>
      <trkpt lat="32.985451" lon="35.414816">
        <ele>1028</ele>
      </trkpt>
      <trkpt lat="32.985167" lon="35.414913">
        <ele>1025</ele>
      </trkpt>
      <trkpt lat="32.984973" lon="35.414937">
        <ele>1024</ele>
      </trkpt>
      <trkpt lat="32.984787" lon="35.415003">
        <ele>1023</ele>
      </trkpt>
      <trkpt lat="32.98462" lon="35.415112">
        <ele>1024</ele>
      </trkpt>
      <trkpt lat="32.984387" lon="35.415312">
        <ele>1024</ele>
      </trkpt>
      <trkpt lat="32.984388" lon="35.415508">
        <ele>1023.5</ele>
      </trkpt>
      <extensions>
        <RoutingType xmlns="">Hike</RoutingType>
      </extensions>
    </trkseg>
    <trkseg>
      <trkpt lat="32.984388" lon="35.415508">
        <ele>1023.5</ele>
      </trkpt>
      <trkpt lat="32.984388" lon="35.415597">
        <ele>1023</ele>
      </trkpt>
      <trkpt lat="32.984334" lon="35.415832">
        <ele>1022</ele>
      </trkpt>
      <trkpt lat="32.984389" lon="35.416034">
        <ele>1020</ele>
      </trkpt>
      <trkpt lat="32.984341" lon="35.41617">
        <ele>1018</ele>
      </trkpt>
      <trkpt lat="32.984327" lon="35.416324">
        <ele>1018</ele>
      </trkpt>
      <trkpt lat="32.984409" lon="35.416576">
        <ele>1014</ele>
      </trkpt>
      <trkpt lat="32.984346" lon="35.416713">
        <ele>1013</ele>
      </trkpt>
      <trkpt lat="32.984311" lon="35.416833">
        <ele>1012</ele>
      </trkpt>
      <trkpt lat="32.984222" lon="35.417019">
        <ele>1012</ele>
      </trkpt>
      <trkpt lat="32.98416" lon="35.417109">
        <ele>1013</ele>
      </trkpt>
      <trkpt lat="32.983957" lon="35.417302">
        <ele>1014</ele>
      </trkpt>
      <trkpt lat="32.983846" lon="35.417456">
        <ele>1012</ele>
      </trkpt>
      <trkpt lat="32.983662" lon="35.417809">
        <ele>1010</ele>
      </trkpt>
      <trkpt lat="32.983571" lon="35.417893">
        <ele>1009</ele>
      </trkpt>
      <trkpt lat="32.983381" lon="35.417986">
        <ele>1009</ele>
      </trkpt>
      <trkpt lat="32.983285" lon="35.418063">
        <ele>1008</ele>
      </trkpt>
      <trkpt lat="32.983084" lon="35.418292">
        <ele>1007</ele>
      </trkpt>
      <trkpt lat="32.982903" lon="35.418587">
        <ele>1003</ele>
      </trkpt>
      <trkpt lat="32.98283" lon="35.418645">
        <ele>1003</ele>
      </trkpt>
      <trkpt lat="32.982805" lon="35.418651">
        <ele>1003</ele>
      </trkpt>
      <extensions>
        <RoutingType xmlns="">Hike</RoutingType>
      </extensions>
    </trkseg>
    <trkseg>
      <trkpt lat="32.982805" lon="35.418651">
        <ele>1003</ele>
      </trkpt>
      <trkpt lat="32.982761" lon="35.418661">
        <ele>1003</ele>
      </trkpt>
      <trkpt lat="32.982624" lon="35.418624">
        <ele>1001</ele>
      </trkpt>
      <trkpt lat="32.982284" lon="35.418458">
        <ele>1000</ele>
      </trkpt>
      <trkpt lat="32.981953" lon="35.418221">
        <ele>1000</ele>
      </trkpt>
      <trkpt lat="32.98183" lon="35.418158">
        <ele>1000</ele>
      </trkpt>
      <trkpt lat="32.981591" lon="35.41812">
        <ele>999</ele>
      </trkpt>
      <trkpt lat="32.981522" lon="35.418131">
        <ele>997</ele>
      </trkpt>
      <trkpt lat="32.981443" lon="35.418194">
        <ele>996</ele>
      </trkpt>
      <trkpt lat="32.981327" lon="35.418328">
        <ele>993</ele>
      </trkpt>
      <trkpt lat="32.981266" lon="35.41837">
        <ele>993</ele>
      </trkpt>
      <trkpt lat="32.980898" lon="35.418565">
        <ele>988</ele>
      </trkpt>
      <trkpt lat="32.98083" lon="35.418593">
        <ele>987</ele>
      </trkpt>
      <trkpt lat="32.980707" lon="35.418607">
        <ele>986</ele>
      </trkpt>
      <trkpt lat="32.980484" lon="35.41859">
        <ele>984</ele>
      </trkpt>
      <trkpt lat="32.980158" lon="35.418525">
        <ele>982</ele>
      </trkpt>
      <trkpt lat="32.979234" lon="35.418282">
        <ele>974</ele>
      </trkpt>
      <trkpt lat="32.979102" lon="35.418303">
        <ele>973</ele>
      </trkpt>
      <trkpt lat="32.978583" lon="35.418571">
        <ele>968</ele>
      </trkpt>
      <trkpt lat="32.978422" lon="35.418635">
        <ele>967</ele>
      </trkpt>
      <trkpt lat="32.978212" lon="35.418676">
        <ele>966.5</ele>
      </trkpt>
      <extensions>
        <RoutingType xmlns="">Hike</RoutingType>
      </extensions>
    </trkseg>
    <trkseg>
      <trkpt lat="32.978212" lon="35.418676">
        <ele>966.5</ele>
      </trkpt>
      <trkpt lat="32.977976" lon="35.418721">
        <ele>966</ele>
      </trkpt>
      <trkpt lat="32.977905" lon="35.419473">
        <ele>964</ele>
      </trkpt>
      <trkpt lat="32.977854" lon="35.419836">
        <ele>960</ele>
      </trkpt>
      <trkpt lat="32.977596" lon="35.42035">
        <ele>956</ele>
      </trkpt>
      <trkpt lat="32.977661" lon="35.420399">
        <ele>955</ele>
      </trkpt>
      <trkpt lat="32.977667" lon="35.420463">
        <ele>954</ele>
      </trkpt>
      <extensions>
        <RoutingType xmlns="">Hike</RoutingType>
      </extensions>
    </trkseg>
    <trkseg>
      <trkpt lat="32.977667" lon="35.420463">
        <ele>954</ele>
      </trkpt>
      <trkpt lat="32.977672" lon="35.420505">
        <ele>953</ele>
      </trkpt>
      <trkpt lat="32.977729" lon="35.420594">
        <ele>953</ele>
      </trkpt>
      <trkpt lat="32.977811" lon="35.420671">
        <ele>951</ele>
      </trkpt>
      <trkpt lat="32.97796" lon="35.420973">
        <ele>950</ele>
      </trkpt>
      <trkpt lat="32.978021" lon="35.421068">
        <ele>950</ele>
      </trkpt>
      <trkpt lat="32.978143" lon="35.421235">
        <ele>950</ele>
      </trkpt>
      <trkpt lat="32.978219" lon="35.421294">
        <ele>951</ele>
      </trkpt>
      <trkpt lat="32.978278" lon="35.421369">
        <ele>952</ele>
      </trkpt>
      <trkpt lat="32.97832" lon="35.421474">
        <ele>952</ele>
      </trkpt>
      <trkpt lat="32.978349" lon="35.421693">
        <ele>950</ele>
      </trkpt>
      <trkpt lat="32.978339" lon="35.422024">
        <ele>946</ele>
      </trkpt>
      <trkpt lat="32.97836" lon="35.422255">
        <ele>945</ele>
      </trkpt>
      <trkpt lat="32.978342" lon="35.422478">
        <ele>942</ele>
      </trkpt>
      <trkpt lat="32.978306" lon="35.422577">
        <ele>942</ele>
      </trkpt>
      <trkpt lat="32.978244" lon="35.422659">
        <ele>941</ele>
      </trkpt>
      <trkpt lat="32.978066" lon="35.422777">
        <ele>938</ele>
      </trkpt>
      <trkpt lat="32.977998" lon="35.422869">
        <ele>939</ele>
      </trkpt>
      <trkpt lat="32.977973" lon="35.42296">
        <ele>938</ele>
      </trkpt>
      <trkpt lat="32.97793" lon="35.423004">
        <ele>937</ele>
      </trkpt>
      <extensions>
        <RoutingType xmlns="">Hike</RoutingType>
      </extensions>
    </trkseg>
    <trkseg>
      <trkpt lat="32.97793" lon="35.423004">
        <ele>937</ele>
      </trkpt>
      <trkpt lat="32.977901" lon="35.423035">
        <ele>936</ele>
      </trkpt>
      <trkpt lat="32.977413" lon="35.423167">
        <ele>933</ele>
      </trkpt>
      <trkpt lat="32.977358" lon="35.423261">
        <ele>934</ele>
      </trkpt>
      <trkpt lat="32.977341" lon="35.42337">
        <ele>933</ele>
      </trkpt>
      <trkpt lat="32.977253" lon="35.423596">
        <ele>933</ele>
      </trkpt>
      <trkpt lat="32.977077" lon="35.423888">
        <ele>933</ele>
      </trkpt>
      <trkpt lat="32.976988" lon="35.423924">
        <ele>936</ele>
      </trkpt>
      <trkpt lat="32.97691" lon="35.42401">
        <ele>937</ele>
      </trkpt>
      <trkpt lat="32.976735" lon="35.424296">
        <ele>936</ele>
      </trkpt>
      <trkpt lat="32.976669" lon="35.424376">
        <ele>935</ele>
      </trkpt>
      <trkpt lat="32.976341" lon="35.424656">
        <ele>935</ele>
      </trkpt>
      <trkpt lat="32.976103" lon="35.425043">
        <ele>932</ele>
      </trkpt>
      <trkpt lat="32.976016" lon="35.425123">
        <ele>934</ele>
      </trkpt>
      <trkpt lat="32.97582" lon="35.425405">
        <ele>931</ele>
      </trkpt>
      <trkpt lat="32.975796" lon="35.425466">
        <ele>931.5</ele>
      </trkpt>
      <extensions>
        <RoutingType xmlns="">Hike</RoutingType>
      </extensions>
    </trkseg>
    <trkseg>
      <trkpt lat="32.975796" lon="35.425466">
        <ele>931.5</ele>
      </trkpt>
      <trkpt lat="32.975783" lon="35.425503">
        <ele>932</ele>
      </trkpt>
      <trkpt lat="32.975785" lon="35.425611">
        <ele>933</ele>
      </trkpt>
      <trkpt lat="32.975834" lon="35.425706">
        <ele>934</ele>
      </trkpt>
      <trkpt lat="32.975895" lon="35.426036">
        <ele>935</ele>
      </trkpt>
      <trkpt lat="32.975928" lon="35.426144">
        <ele>933</ele>
      </trkpt>
      <trkpt lat="32.97592" lon="35.426372">
        <ele>936</ele>
      </trkpt>
      <trkpt lat="32.975953" lon="35.426485">
        <ele>933</ele>
      </trkpt>
      <trkpt lat="32.97593" lon="35.426596">
        <ele>932</ele>
      </trkpt>
      <trkpt lat="32.975931" lon="35.426711">
        <ele>931</ele>
      </trkpt>
      <trkpt lat="32.975912" lon="35.426822">
        <ele>933</ele>
      </trkpt>
      <trkpt lat="32.975845" lon="35.42704">
        <ele>930</ele>
      </trkpt>
      <trkpt lat="32.975818" lon="35.427268">
        <ele>930</ele>
      </trkpt>
      <trkpt lat="32.975775" lon="35.427502">
        <ele>927</ele>
      </trkpt>
      <trkpt lat="32.975741" lon="35.427611">
        <ele>929</ele>
      </trkpt>
      <trkpt lat="32.97549" lon="35.428187">
        <ele>923</ele>
      </trkpt>
      <trkpt lat="32.975433" lon="35.428402">
        <ele>922</ele>
      </trkpt>
      <trkpt lat="32.975352" lon="35.428566">
        <ele>921</ele>
      </trkpt>
      <trkpt lat="32.975268" lon="35.428788">
        <ele>921</ele>
      </trkpt>
      <trkpt lat="32.975091" lon="35.429163">
        <ele>918</ele>
      </trkpt>
      <trkpt lat="32.975031" lon="35.429249">
        <ele>917</ele>
      </trkpt>
      <trkpt lat="32.974863" lon="35.429666">
        <ele>912</ele>
      </trkpt>
      <trkpt lat="32.974811" lon="35.429767">
        <ele>912</ele>
      </trkpt>
      <trkpt lat="32.974748" lon="35.429852">
        <ele>911</ele>
      </trkpt>
      <trkpt lat="32.974705" lon="35.429964">
        <ele>909</ele>
      </trkpt>
      <trkpt lat="32.974677" lon="35.429997">
        <ele>908.5</ele>
      </trkpt>
      <extensions>
        <RoutingType xmlns="">Hike</RoutingType>
      </extensions>
    </trkseg>
    <trkseg>
      <trkpt lat="32.974677" lon="35.429997">
        <ele>908.5</ele>
      </trkpt>
      <trkpt lat="32.974635" lon="35.430048">
        <ele>908</ele>
      </trkpt>
      <trkpt lat="32.974541" lon="35.43009">
        <ele>906</ele>
      </trkpt>
      <trkpt lat="32.974445" lon="35.430083">
        <ele>907</ele>
      </trkpt>
      <trkpt lat="32.974349" lon="35.430055">
        <ele>910</ele>
      </trkpt>
      <trkpt lat="32.974254" lon="35.430101">
        <ele>907</ele>
      </trkpt>
      <trkpt lat="32.974187" lon="35.430185">
        <ele>906</ele>
      </trkpt>
      <trkpt lat="32.974104" lon="35.43025">
        <ele>906</ele>
      </trkpt>
      <trkpt lat="32.973919" lon="35.430503">
        <ele>901</ele>
      </trkpt>
      <trkpt lat="32.973725" lon="35.430586">
        <ele>901</ele>
      </trkpt>
      <trkpt lat="32.973425" lon="35.430647">
        <ele>902</ele>
      </trkpt>
      <trkpt lat="32.973333" lon="35.430695">
        <ele>903</ele>
      </trkpt>
      <trkpt lat="32.973262" lon="35.430783">
        <ele>903</ele>
      </trkpt>
      <trkpt lat="32.973138" lon="35.431081">
        <ele>902</ele>
      </trkpt>
      <trkpt lat="32.97312" lon="35.431162">
        <ele>901.5</ele>
      </trkpt>
      <extensions>
        <RoutingType xmlns="">Hike</RoutingType>
      </extensions>
    </trkseg>
    <trkseg>
      <trkpt lat="32.97312" lon="35.431162">
        <ele>901.5</ele>
      </trkpt>
      <trkpt lat="32.973076" lon="35.431287">
        <ele>899</ele>
      </trkpt>
      <trkpt lat="32.973067" lon="35.431391">
        <ele>898</ele>
      </trkpt>
      <trkpt lat="32.973032" lon="35.431493">
        <ele>898</ele>
      </trkpt>
      <trkpt lat="32.973038" lon="35.431727">
        <ele>894</ele>
      </trkpt>
      <trkpt lat="32.97299" lon="35.431952">
        <ele>892</ele>
      </trkpt>
      <trkpt lat="32.972986" lon="35.43207">
        <ele>889</ele>
      </trkpt>
      <trkpt lat="32.972919" lon="35.432286">
        <ele>887</ele>
      </trkpt>
      <trkpt lat="32.972908" lon="35.432394">
        <ele>886</ele>
      </trkpt>
      <trkpt lat="32.972943" lon="35.432615">
        <ele>881</ele>
      </trkpt>
      <trkpt lat="32.972992" lon="35.432706">
        <ele>880</ele>
      </trkpt>
      <trkpt lat="32.973064" lon="35.432764">
        <ele>879</ele>
      </trkpt>
      <trkpt lat="32.973067" lon="35.432854">
        <ele>877</ele>
      </trkpt>
      <trkpt lat="32.973102" lon="35.43294">
        <ele>876</ele>
      </trkpt>
      <trkpt lat="32.9732" lon="35.433109">
        <ele>871</ele>
      </trkpt>
      <trkpt lat="32.973275" lon="35.433186">
        <ele>868</ele>
      </trkpt>
      <trkpt lat="32.973373" lon="35.433434">
        <ele>862</ele>
      </trkpt>
      <trkpt lat="32.973435" lon="35.433527">
        <ele>860</ele>
      </trkpt>
      <trkpt lat="32.973412" lon="35.433712">
        <ele>860</ele>
      </trkpt>
      <trkpt lat="32.973436" lon="35.433826">
        <ele>857</ele>
      </trkpt>
      <trkpt lat="32.97353" lon="35.434023">
        <ele>852</ele>
      </trkpt>
      <trkpt lat="32.97361" lon="35.434086">
        <ele>850</ele>
      </trkpt>
      <trkpt lat="32.973751" lon="35.434391">
        <ele>846</ele>
      </trkpt>
      <extensions>
        <RoutingType xmlns="">Hike</RoutingType>
      </extensions>
    </trkseg>
    <trkseg>
      <trkpt lat="32.973751" lon="35.434391">
        <ele>846</ele>
      </trkpt>
      <trkpt lat="32.973775" lon="35.434444">
        <ele>842</ele>
      </trkpt>
      <trkpt lat="32.973796" lon="35.434557">
        <ele>840</ele>
      </trkpt>
      <trkpt lat="32.973949" lon="35.434796">
        <ele>835</ele>
      </trkpt>
      <trkpt lat="32.974035" lon="35.434998">
        <ele>830</ele>
      </trkpt>
      <trkpt lat="32.974089" lon="35.435088">
        <ele>827</ele>
      </trkpt>
      <trkpt lat="32.974119" lon="35.435204">
        <ele>824</ele>
      </trkpt>
      <trkpt lat="32.974196" lon="35.435277">
        <ele>823</ele>
      </trkpt>
      <trkpt lat="32.974246" lon="35.435364">
        <ele>820</ele>
      </trkpt>
      <trkpt lat="32.974265" lon="35.435568">
        <ele>816</ele>
      </trkpt>
      <trkpt lat="32.974326" lon="35.435616">
        <ele>814</ele>
      </trkpt>
      <trkpt lat="32.974373" lon="35.435726">
        <ele>812</ele>
      </trkpt>
      <trkpt lat="32.974457" lon="35.435789">
        <ele>809</ele>
      </trkpt>
      <trkpt lat="32.974517" lon="35.435861">
        <ele>806</ele>
      </trkpt>
      <trkpt lat="32.974609" lon="35.436056">
        <ele>801</ele>
      </trkpt>
      <trkpt lat="32.974677" lon="35.436143">
        <ele>798</ele>
      </trkpt>
      <trkpt lat="32.974851" lon="35.436255">
        <ele>792</ele>
      </trkpt>
      <trkpt lat="32.974908" lon="35.436474">
        <ele>790</ele>
      </trkpt>
      <trkpt lat="32.974946" lon="35.436708">
        <ele>785</ele>
      </trkpt>
      <trkpt lat="32.974992" lon="35.436798">
        <ele>784</ele>
      </trkpt>
      <trkpt lat="32.975086" lon="35.43681">
        <ele>781</ele>
      </trkpt>
      <trkpt lat="32.975173" lon="35.436862">
        <ele>779</ele>
      </trkpt>
      <trkpt lat="32.975239" lon="35.43706">
        <ele>774</ele>
      </trkpt>
      <trkpt lat="32.975256" lon="35.437153">
        <ele>773</ele>
      </trkpt>
      <trkpt lat="32.975301" lon="35.437252">
        <ele>771</ele>
      </trkpt>
      <trkpt lat="32.975429" lon="35.437445">
        <ele>767</ele>
      </trkpt>
      <trkpt lat="32.975471" lon="35.437541">
        <ele>766</ele>
      </trkpt>
      <trkpt lat="32.975556" lon="35.437607">
        <ele>764</ele>
      </trkpt>
      <trkpt lat="32.975592" lon="35.437703">
        <ele>762</ele>
      </trkpt>
      <trkpt lat="32.975625" lon="35.43773">
        <ele>760.5</ele>
      </trkpt>
      <extensions>
        <RoutingType xmlns="">Hike</RoutingType>
      </extensions>
    </trkseg>
    <trkseg>
      <trkpt lat="32.975625" lon="35.43773">
        <ele>760.5</ele>
      </trkpt>
      <trkpt lat="32.975825" lon="35.437891">
        <ele>759</ele>
      </trkpt>
      <trkpt lat="32.975878" lon="35.437972">
        <ele>757</ele>
      </trkpt>
      <trkpt lat="32.975944" lon="35.438179">
        <ele>756</ele>
      </trkpt>
      <trkpt lat="32.976039" lon="35.43837">
        <ele>754</ele>
      </trkpt>
      <trkpt lat="32.976124" lon="35.438436">
        <ele>752</ele>
      </trkpt>
      <trkpt lat="32.976175" lon="35.438537">
        <ele>751</ele>
      </trkpt>
      <trkpt lat="32.976244" lon="35.438618">
        <ele>749</ele>
      </trkpt>
      <trkpt lat="32.976332" lon="35.438662">
        <ele>748</ele>
      </trkpt>
      <trkpt lat="32.976497" lon="35.438933">
        <ele>744</ele>
      </trkpt>
      <trkpt lat="32.976576" lon="35.439012">
        <ele>743</ele>
      </trkpt>
      <trkpt lat="32.976603" lon="35.439112">
        <ele>742</ele>
      </trkpt>
      <trkpt lat="32.976669" lon="35.439106">
        <ele>742.5</ele>
      </trkpt>
      <extensions>
        <RoutingType xmlns="">Hike</RoutingType>
      </extensions>
    </trkseg>
    <trkseg>
      <trkpt lat="32.976669" lon="35.439106">
        <ele>742.5</ele>
      </trkpt>
      <trkpt lat="32.976683" lon="35.439105">
        <ele>743</ele>
      </trkpt>
      <trkpt lat="32.976854" lon="35.438869">
        <ele>742</ele>
      </trkpt>
      <trkpt lat="32.976931" lon="35.438791">
        <ele>742</ele>
      </trkpt>
      <trkpt lat="32.976982" lon="35.438594">
        <ele>739</ele>
      </trkpt>
      <trkpt lat="32.976982" lon="35.438482">
        <ele>738</ele>
      </trkpt>
      <trkpt lat="32.977044" lon="35.438245">
        <ele>732</ele>
      </trkpt>
      <trkpt lat="32.97704" lon="35.438125">
        <ele>730</ele>
      </trkpt>
      <extensions>
        <RoutingType xmlns="">Hike</RoutingType>
      </extensions>
    </trkseg>
    <trkseg>
      <trkpt lat="32.97704" lon="35.438125">
        <ele>730</ele>
      </trkpt>
      <trkpt lat="32.977038" lon="35.438059">
        <ele>728</ele>
      </trkpt>
      <trkpt lat="32.976912" lon="35.43783">
        <ele>729</ele>
      </trkpt>
      <trkpt lat="32.976855" lon="35.437633">
        <ele>725</ele>
      </trkpt>
      <trkpt lat="32.976762" lon="35.437442">
        <ele>724</ele>
      </trkpt>
      <trkpt lat="32.976604" lon="35.437267">
        <ele>726</ele>
      </trkpt>
      <trkpt lat="32.976567" lon="35.437149">
        <ele>723</ele>
      </trkpt>
      <trkpt lat="32.976544" lon="35.437015">
        <ele>725</ele>
      </trkpt>
      <trkpt lat="32.976613" lon="35.437002">
        <ele>723.5</ele>
      </trkpt>
      <extensions>
        <RoutingType xmlns="">Hike</RoutingType>
      </extensions>
    </trkseg>
    <trkseg>
      <trkpt lat="32.976613" lon="35.437002">
        <ele>723.5</ele>
      </trkpt>
      <trkpt lat="32.976744" lon="35.437167">
        <ele>716</ele>
      </trkpt>
      <trkpt lat="32.976893" lon="35.437321">
        <ele>717</ele>
      </trkpt>
      <trkpt lat="32.976967" lon="35.437361">
        <ele>715</ele>
      </trkpt>
      <trkpt lat="32.977056" lon="35.437435">
        <ele>712</ele>
      </trkpt>
      <trkpt lat="32.977088" lon="35.437596">
        <ele>716</ele>
      </trkpt>
      <trkpt lat="32.977147" lon="35.437692">
        <ele>715</ele>
      </trkpt>
      <trkpt lat="32.977237" lon="35.437763">
        <ele>714</ele>
      </trkpt>
      <trkpt lat="32.977453" lon="35.437821">
        <ele>713</ele>
      </trkpt>
      <trkpt lat="32.977547" lon="35.437824">
        <ele>711</ele>
      </trkpt>
      <trkpt lat="32.977595" lon="35.437755">
        <ele>709</ele>
      </trkpt>
      <extensions>
        <RoutingType xmlns="">Hike</RoutingType>
      </extensions>
    </trkseg>
    <trkseg>
      <trkpt lat="32.977595" lon="35.437755">
        <ele>709</ele>
      </trkpt>
      <trkpt lat="32.977601" lon="35.437708">
        <ele>707</ele>
      </trkpt>
      <trkpt lat="32.977436" lon="35.437616">
        <ele>704</ele>
      </trkpt>
      <trkpt lat="32.977392" lon="35.437558">
        <ele>704</ele>
      </trkpt>
      <trkpt lat="32.97744" lon="35.437459">
        <ele>702</ele>
      </trkpt>
      <trkpt lat="32.977526" lon="35.437446">
        <ele>700</ele>
      </trkpt>
      <trkpt lat="32.977622" lon="35.437471">
        <ele>699</ele>
      </trkpt>
      <extensions>
        <RoutingType xmlns="">Hike</RoutingType>
      </extensions>
    </trkseg>
    <trkseg>
      <trkpt lat="32.977622" lon="35.437471">
        <ele>699</ele>
      </trkpt>
      <trkpt lat="32.978011" lon="35.437569">
        <ele>698</ele>
      </trkpt>
      <trkpt lat="32.978111" lon="35.437545">
        <ele>696</ele>
      </trkpt>
      <trkpt lat="32.978398" lon="35.437607">
        <ele>689</ele>
      </trkpt>
      <extensions>
        <RoutingType xmlns="">Hike</RoutingType>
      </extensions>
    </trkseg>
    <trkseg>
      <trkpt lat="32.978398" lon="35.437607">
        <ele>689</ele>
      </trkpt>
      <trkpt lat="32.978487" lon="35.437623">
        <ele>687</ele>
      </trkpt>
      <trkpt lat="32.978533" lon="35.437773">
        <ele>686</ele>
      </trkpt>
      <trkpt lat="32.978614" lon="35.437845">
        <ele>687</ele>
      </trkpt>
      <trkpt lat="32.978701" lon="35.437896">
        <ele>686</ele>
      </trkpt>
      <trkpt lat="32.978775" lon="35.437977">
        <ele>685</ele>
      </trkpt>
      <trkpt lat="32.978835" lon="35.438195">
        <ele>683</ele>
      </trkpt>
      <trkpt lat="32.978944" lon="35.438644">
        <ele>679</ele>
      </trkpt>
      <trkpt lat="32.979019" lon="35.438869">
        <ele>677</ele>
      </trkpt>
      <trkpt lat="32.979068" lon="35.438979">
        <ele>678</ele>
      </trkpt>
      <trkpt lat="32.979132" lon="35.439194">
        <ele>675</ele>
      </trkpt>
      <trkpt lat="32.979171" lon="35.439436">
        <ele>672</ele>
      </trkpt>
      <trkpt lat="32.979278" lon="35.439891">
        <ele>668</ele>
      </trkpt>
      <trkpt lat="32.979231" lon="35.440007">
        <ele>669</ele>
      </trkpt>
      <trkpt lat="32.97916" lon="35.440266">
        <ele>670</ele>
      </trkpt>
      <trkpt lat="32.979118" lon="35.440578">
        <ele>667</ele>
      </trkpt>
      <extensions>
        <RoutingType xmlns="">Hike</RoutingType>
      </extensions>
    </trkseg>
    <trkseg>
      <trkpt lat="32.979118" lon="35.440578">
        <ele>667</ele>
      </trkpt>
      <trkpt lat="32.97911" lon="35.440639">
        <ele>664</ele>
      </trkpt>
      <trkpt lat="32.979158" lon="35.440915">
        <ele>659</ele>
      </trkpt>
      <trkpt lat="32.979245" lon="35.44106">
        <ele>655</ele>
      </trkpt>
      <trkpt lat="32.979231" lon="35.441235">
        <ele>654</ele>
      </trkpt>
      <trkpt lat="32.979142" lon="35.441479">
        <ele>652</ele>
      </trkpt>
      <trkpt lat="32.979004" lon="35.442064">
        <ele>648</ele>
      </trkpt>
      <trkpt lat="32.979014" lon="35.442143">
        <ele>647</ele>
      </trkpt>
      <extensions>
        <RoutingType xmlns="">Hike</RoutingType>
      </extensions>
    </trkseg>
    <trkseg>
      <trkpt lat="32.979014" lon="35.442143">
        <ele>647</ele>
      </trkpt>
      <trkpt lat="32.979038" lon="35.442354">
        <ele>646</ele>
      </trkpt>
      <trkpt lat="32.979094" lon="35.442546">
        <ele>646</ele>
      </trkpt>
      <trkpt lat="32.979203" lon="35.442782">
        <ele>642.5</ele>
      </trkpt>
      <extensions>
        <RoutingType xmlns="">Hike</RoutingType>
      </extensions>
    </trkseg>
    <trkseg>
      <trkpt lat="32.979203" lon="35.442782">
        <ele>642.5</ele>
      </trkpt>
      <trkpt lat="32.979201" lon="35.442778">
        <ele>644</ele>
      </trkpt>
      <trkpt lat="32.979082" lon="35.442849">
        <ele>643</ele>
      </trkpt>
      <trkpt lat="32.979084" lon="35.442859">
        <ele>643.5</ele>
      </trkpt>
      <extensions>
        <RoutingType xmlns="">Hike</RoutingType>
      </extensions>
    </trkseg>
    <trkseg>
      <trkpt lat="32.979084" lon="35.442859">
        <ele>643.5</ele>
      </trkpt>
      <trkpt lat="32.979113" lon="35.442979">
        <ele>644</ele>
      </trkpt>
      <trkpt lat="32.979212" lon="35.44314">
        <ele>642</ele>
      </trkpt>
      <trkpt lat="32.979259" lon="35.443185">
        <ele>641</ele>
      </trkpt>
      <extensions>
        <RoutingType xmlns="">Hike</RoutingType>
      </extensions>
    </trkseg>
  </trk>
</gpx>
