<?xml version="1.0" encoding="utf-8"?>
<gpx version="1.1" creator="IsraelHikingMap_route" xmlns="http://www.topografix.com/GPX/1/1">
	<metadata>
		<bounds minlat="32.968793" minlon="35.079941" maxlat="33.051564" maxlon="35.159511" />
	</metadata>
	<rte>
		<name>מסלול</name>
		<desc />
		<rtept lat="33.018323483219504" lon="35.14315950873606">
			<ele>66.4599852915202</ele>
		</rtept>
		<rtept lat="33.018158" lon="35.14315">
			<ele>60.5</ele>
		</rtept>
		<rtept lat="33.018167" lon="35.142748">
			<ele>58</ele>
		</rtept>
		<rtept lat="33.018149" lon="35.142566">
			<ele>57</ele>
		</rtept>
		<rtept lat="33.018105" lon="35.142369">
			<ele>56.5</ele>
		</rtept>
		<rtept lat="33.018086" lon="35.142284">
			<ele>56</ele>
		</rtept>
		<rtept lat="33.018031" lon="35.142176">
			<ele>55</ele>
		</rtept>
		<rtept lat="33.016841" lon="35.142642">
			<ele>54</ele>
		</rtept>
		<rtept lat="33.016736" lon="35.142639">
			<ele>54</ele>
		</rtept>
		<rtept lat="33.016687" lon="35.142626">
			<ele>55</ele>
		</rtept>
		<rtept lat="33.016637" lon="35.14259">
			<ele>55</ele>
		</rtept>
		<rtept lat="33.016594" lon="35.142535">
			<ele>55</ele>
		</rtept>
		<rtept lat="33.016546" lon="35.142432">
			<ele>54</ele>
		</rtept>
		<rtept lat="33.016512" lon="35.141645">
			<ele>53</ele>
		</rtept>
		<rtept lat="33.016562" lon="35.141492">
			<ele>52</ele>
		</rtept>
		<rtept lat="33.016387" lon="35.13713">
			<ele>46</ele>
		</rtept>
		<rtept lat="33.016207" lon="35.135571">
			<ele>44</ele>
		</rtept>
		<rtept lat="33.015924" lon="35.134489">
			<ele>42</ele>
		</rtept>
		<rtept lat="33.016062" lon="35.134365">
			<ele>41</ele>
		</rtept>
		<rtept lat="33.016253" lon="35.134251">
			<ele>41</ele>
		</rtept>
		<rtept lat="33.017159" lon="35.134435">
			<ele>40</ele>
		</rtept>
		<rtept lat="33.017322" lon="35.134453">
			<ele>40</ele>
		</rtept>
		<rtept lat="33.017423" lon="35.134377">
			<ele>40</ele>
		</rtept>
		<rtept lat="33.018926" lon="35.134834">
			<ele>38</ele>
		</rtept>
		<rtept lat="33.019592" lon="35.131938">
			<ele>32</ele>
		</rtept>
		<rtept lat="33.020977" lon="35.132404">
			<ele>32</ele>
		</rtept>
		<rtept lat="33.022597" lon="35.13292">
			<ele>32</ele>
		</rtept>
		<rtept lat="33.022917" lon="35.130987">
			<ele>28</ele>
		</rtept>
		<rtept lat="33.023457" lon="35.128361">
			<ele>26</ele>
		</rtept>
		<rtept lat="33.023619" lon="35.127893">
			<ele>26</ele>
		</rtept>
		<rtept lat="33.023636" lon="35.127709">
			<ele>26</ele>
		</rtept>
		<rtept lat="33.023703" lon="35.127385">
			<ele>26</ele>
		</rtept>
		<rtept lat="33.023798" lon="35.126544">
			<ele>25</ele>
		</rtept>
		<rtept lat="33.02382" lon="35.126018">
			<ele>25</ele>
		</rtept>
		<rtept lat="33.023856" lon="35.125451">
			<ele>24</ele>
		</rtept>
		<rtept lat="33.023897" lon="35.124907">
			<ele>24</ele>
		</rtept>
		<rtept lat="33.023951" lon="35.12435">
			<ele>23</ele>
		</rtept>
		<rtept lat="33.023973" lon="35.12377">
			<ele>23</ele>
		</rtept>
		<rtept lat="33.024018" lon="35.123212">
			<ele>23</ele>
		</rtept>
		<rtept lat="33.025399" lon="35.123612">
			<ele>21</ele>
		</rtept>
		<rtept lat="33.025911" lon="35.123693">
			<ele>21</ele>
		</rtept>
		<rtept lat="33.026217" lon="35.123648">
			<ele>21</ele>
		</rtept>
		<rtept lat="33.026474" lon="35.123704">
			<ele>20</ele>
		</rtept>
		<rtept lat="33.02725" lon="35.123806">
			<ele>20</ele>
		</rtept>
		<rtept lat="33.028268" lon="35.12387">
			<ele>20</ele>
		</rtept>
		<rtept lat="33.029921" lon="35.123946">
			<ele>20</ele>
		</rtept>
		<rtept lat="33.031076" lon="35.124088">
			<ele>19</ele>
		</rtept>
		<rtept lat="33.030986" lon="35.123495">
			<ele>18</ele>
		</rtept>
		<rtept lat="33.030833" lon="35.122371">
			<ele>18</ele>
		</rtept>
		<rtept lat="33.030752" lon="35.121363">
			<ele>17</ele>
		</rtept>
		<rtept lat="33.030707" lon="35.120041">
			<ele>16</ele>
		</rtept>
		<rtept lat="33.030707" lon="35.119628">
			<ele>16</ele>
		</rtept>
		<rtept lat="33.030844" lon="35.119634">
			<ele>15</ele>
		</rtept>
		<rtept lat="33.030998" lon="35.119809">
			<ele>16</ele>
		</rtept>
		<rtept lat="33.031759" lon="35.119931">
			<ele>16</ele>
		</rtept>
		<rtept lat="33.032548" lon="35.120134">
			<ele>17</ele>
		</rtept>
		<rtept lat="33.034341" lon="35.120452">
			<ele>19</ele>
		</rtept>
		<rtept lat="33.035168" lon="35.120465">
			<ele>19</ele>
		</rtept>
		<rtept lat="33.036032" lon="35.12049">
			<ele>19</ele>
		</rtept>
		<rtept lat="33.036262" lon="35.120551">
			<ele>20</ele>
		</rtept>
		<rtept lat="33.036355" lon="35.120576">
			<ele>20</ele>
		</rtept>
		<rtept lat="33.036465" lon="35.120605">
			<ele>20</ele>
		</rtept>
		<rtept lat="33.037114" lon="35.120643">
			<ele>21</ele>
		</rtept>
		<rtept lat="33.037167" lon="35.120796">
			<ele>21</ele>
		</rtept>
		<rtept lat="33.037126" lon="35.12575">
			<ele>26</ele>
		</rtept>
		<rtept lat="33.036643" lon="35.125692">
			<ele>25</ele>
		</rtept>
		<rtept lat="33.036108" lon="35.12561">
			<ele>24.5</ele>
		</rtept>
		<rtept lat="33.036643" lon="35.125692">
			<ele>25</ele>
		</rtept>
		<rtept lat="33.037126" lon="35.12575">
			<ele>26</ele>
		</rtept>
		<rtept lat="33.041133" lon="35.126214">
			<ele>27</ele>
		</rtept>
		<rtept lat="33.043244" lon="35.126519">
			<ele>26</ele>
		</rtept>
		<rtept lat="33.044249" lon="35.126557">
			<ele>25</ele>
		</rtept>
		<rtept lat="33.046302" lon="35.126873">
			<ele>25</ele>
		</rtept>
		<rtept lat="33.046399" lon="35.12688">
			<ele>24</ele>
		</rtept>
		<rtept lat="33.047177" lon="35.126941">
			<ele>23</ele>
		</rtept>
		<rtept lat="33.047364" lon="35.12697">
			<ele>22</ele>
		</rtept>
		<rtept lat="33.047617" lon="35.125588">
			<ele>22</ele>
		</rtept>
		<rtept lat="33.047642" lon="35.124965">
			<ele>24</ele>
		</rtept>
		<rtept lat="33.047862" lon="35.124205">
			<ele>23</ele>
		</rtept>
		<rtept lat="33.048091" lon="35.123796">
			<ele>22</ele>
		</rtept>
		<rtept lat="33.048499" lon="35.123387">
			<ele>22</ele>
		</rtept>
		<rtept lat="33.048695" lon="35.122832">
			<ele>21</ele>
		</rtept>
		<rtept lat="33.048703" lon="35.122443">
			<ele>21</ele>
		</rtept>
		<rtept lat="33.048387" lon="35.122231">
			<ele>21</ele>
		</rtept>
		<rtept lat="33.048615" lon="35.121903">
			<ele>21</ele>
		</rtept>
		<rtept lat="33.049282" lon="35.117993">
			<ele>16</ele>
		</rtept>
		<rtept lat="33.049363" lon="35.117776">
			<ele>16</ele>
		</rtept>
		<rtept lat="33.049458" lon="35.117566">
			<ele>15</ele>
		</rtept>
		<rtept lat="33.049644" lon="35.117192">
			<ele>14</ele>
		</rtept>
		<rtept lat="33.049653" lon="35.11713">
			<ele>14</ele>
		</rtept>
		<rtept lat="33.049672" lon="35.116997">
			<ele>14</ele>
		</rtept>
		<rtept lat="33.049601" lon="35.116739">
			<ele>14</ele>
		</rtept>
		<rtept lat="33.049945" lon="35.116788">
			<ele>13</ele>
		</rtept>
		<rtept lat="33.050125" lon="35.116758">
			<ele>13</ele>
		</rtept>
		<rtept lat="33.050319" lon="35.116619">
			<ele>13</ele>
		</rtept>
		<rtept lat="33.050629" lon="35.116291">
			<ele>13</ele>
		</rtept>
		<rtept lat="33.050872" lon="35.115754">
			<ele>12</ele>
		</rtept>
		<rtept lat="33.050908" lon="35.114885">
			<ele>12</ele>
		</rtept>
		<rtept lat="33.050854" lon="35.114617">
			<ele>11</ele>
		</rtept>
		<rtept lat="33.050613" lon="35.114232">
			<ele>11</ele>
		</rtept>
		<rtept lat="33.050493" lon="35.114022">
			<ele>11</ele>
		</rtept>
		<rtept lat="33.050647" lon="35.113434">
			<ele>11</ele>
		</rtept>
		<rtept lat="33.050983" lon="35.112734">
			<ele>9</ele>
		</rtept>
		<rtept lat="33.051182" lon="35.11153">
			<ele>9</ele>
		</rtept>
		<rtept lat="33.051193" lon="35.110826">
			<ele>8</ele>
		</rtept>
		<rtept lat="33.051564" lon="35.109693">
			<ele>7</ele>
		</rtept>
		<rtept lat="33.051439" lon="35.108502">
			<ele>7</ele>
		</rtept>
		<rtept lat="33.051486" lon="35.107712">
			<ele>6</ele>
		</rtept>
		<rtept lat="33.05131" lon="35.106747">
			<ele>5</ele>
		</rtept>
		<rtept lat="33.051256" lon="35.106492">
			<ele>5</ele>
		</rtept>
		<rtept lat="33.051072" lon="35.106153">
			<ele>4</ele>
		</rtept>
		<rtept lat="33.050772" lon="35.105968">
			<ele>5</ele>
		</rtept>
		<rtept lat="33.050622" lon="35.105819">
			<ele>5</ele>
		</rtept>
		<rtept lat="33.050462" lon="35.10514">
			<ele>4</ele>
		</rtept>
		<rtept lat="33.050348" lon="35.104986">
			<ele>4</ele>
		</rtept>
		<rtept lat="33.050312" lon="35.104697">
			<ele>4</ele>
		</rtept>
		<rtept lat="33.050204" lon="35.104579">
			<ele>4</ele>
		</rtept>
		<rtept lat="33.05022" lon="35.104429">
			<ele>4</ele>
		</rtept>
		<rtept lat="33.05044" lon="35.104307">
			<ele>4</ele>
		</rtept>
		<rtept lat="33.050536" lon="35.10398">
			<ele>2</ele>
		</rtept>
		<rtept lat="33.050539" lon="35.103556">
			<ele>2</ele>
		</rtept>
		<rtept lat="33.050584" lon="35.103135">
			<ele>2</ele>
		</rtept>
		<rtept lat="33.05058" lon="35.102961">
			<ele>1</ele>
		</rtept>
		<rtept lat="33.050398" lon="35.102993">
			<ele>2</ele>
		</rtept>
		<rtept lat="33.050257" lon="35.102929">
			<ele>2</ele>
		</rtept>
		<rtept lat="33.050135" lon="35.102917">
			<ele>2</ele>
		</rtept>
		<rtept lat="33.050018" lon="35.102958">
			<ele>3</ele>
		</rtept>
		<rtept lat="33.049769" lon="35.103103">
			<ele>4</ele>
		</rtept>
		<rtept lat="33.049639" lon="35.103166">
			<ele>4</ele>
		</rtept>
		<rtept lat="33.049425" lon="35.103248">
			<ele>4</ele>
		</rtept>
		<rtept lat="33.049153" lon="35.103335">
			<ele>5</ele>
		</rtept>
		<rtept lat="33.048834" lon="35.103568">
			<ele>4</ele>
		</rtept>
		<rtept lat="33.048761" lon="35.103562">
			<ele>4</ele>
		</rtept>
		<rtept lat="33.047715" lon="35.103264">
			<ele>6</ele>
		</rtept>
		<rtept lat="33.047174" lon="35.103243">
			<ele>5</ele>
		</rtept>
		<rtept lat="33.046864" lon="35.103548">
			<ele>4</ele>
		</rtept>
		<rtept lat="33.046583" lon="35.103804">
			<ele>5</ele>
		</rtept>
		<rtept lat="33.04639" lon="35.10376">
			<ele>4</ele>
		</rtept>
		<rtept lat="33.046044" lon="35.103757">
			<ele>2</ele>
		</rtept>
		<rtept lat="33.045686" lon="35.103816">
			<ele>5</ele>
		</rtept>
		<rtept lat="33.045181" lon="35.103943">
			<ele>6</ele>
		</rtept>
		<rtept lat="33.043528" lon="35.104465">
			<ele>7</ele>
		</rtept>
		<rtept lat="33.04347" lon="35.104483">
			<ele>8</ele>
		</rtept>
		<rtept lat="33.043387" lon="35.103867">
			<ele>8</ele>
		</rtept>
		<rtept lat="33.043325" lon="35.10259">
			<ele>5</ele>
		</rtept>
		<rtept lat="33.043301" lon="35.102244">
			<ele>5</ele>
		</rtept>
		<rtept lat="33.043337" lon="35.10175">
			<ele>4</ele>
		</rtept>
		<rtept lat="33.043355" lon="35.101085">
			<ele>4</ele>
		</rtept>
		<rtept lat="33.043444" lon="35.100441">
			<ele>3</ele>
		</rtept>
		<rtept lat="33.043318" lon="35.100098">
			<ele>3</ele>
		</rtept>
		<rtept lat="33.043248" lon="35.100014">
			<ele>3.5</ele>
		</rtept>
		<rtept lat="33.043013" lon="35.099733">
			<ele>4</ele>
		</rtept>
		<rtept lat="33.042743" lon="35.099433">
			<ele>6</ele>
		</rtept>
		<rtept lat="33.042365" lon="35.099283">
			<ele>7</ele>
		</rtept>
		<rtept lat="33.04188" lon="35.099132">
			<ele>6</ele>
		</rtept>
		<rtept lat="33.041486" lon="35.099073">
			<ele>6</ele>
		</rtept>
		<rtept lat="33.039802" lon="35.098578">
			<ele>5</ele>
		</rtept>
		<rtept lat="33.039387" lon="35.098478">
			<ele>5</ele>
		</rtept>
		<rtept lat="33.038991" lon="35.09847">
			<ele>5</ele>
		</rtept>
		<rtept lat="33.038718" lon="35.098435">
			<ele>5</ele>
		</rtept>
		<rtept lat="33.038391" lon="35.098244">
			<ele>4</ele>
		</rtept>
		<rtept lat="33.038166" lon="35.098153">
			<ele>4</ele>
		</rtept>
		<rtept lat="33.037766" lon="35.098179">
			<ele>5</ele>
		</rtept>
		<rtept lat="33.037366" lon="35.098066">
			<ele>5</ele>
		</rtept>
		<rtept lat="33.03612" lon="35.097366">
			<ele>4.5</ele>
		</rtept>
		<rtept lat="33.035846" lon="35.097212">
			<ele>4</ele>
		</rtept>
		<rtept lat="33.035319" lon="35.096952">
			<ele>4</ele>
		</rtept>
		<rtept lat="33.034315" lon="35.096691">
			<ele>3</ele>
		</rtept>
		<rtept lat="33.033475" lon="35.096405">
			<ele>3</ele>
		</rtept>
		<rtept lat="33.02811" lon="35.094978">
			<ele>4</ele>
		</rtept>
		<rtept lat="33.027316" lon="35.094688">
			<ele>3</ele>
		</rtept>
		<rtept lat="33.027203" lon="35.094658">
			<ele>3</ele>
		</rtept>
		<rtept lat="33.026863" lon="35.094549">
			<ele>4</ele>
		</rtept>
		<rtept lat="33.026276" lon="35.094425">
			<ele>4</ele>
		</rtept>
		<rtept lat="33.025686" lon="35.094196">
			<ele>4</ele>
		</rtept>
		<rtept lat="33.024471" lon="35.093855">
			<ele>5</ele>
		</rtept>
		<rtept lat="33.023834" lon="35.093599">
			<ele>4</ele>
		</rtept>
		<rtept lat="33.023574" lon="35.093599">
			<ele>3</ele>
		</rtept>
		<rtept lat="33.023037" lon="35.093443">
			<ele>4</ele>
		</rtept>
		<rtept lat="33.022551" lon="35.093135">
			<ele>3</ele>
		</rtept>
		<rtept lat="33.021348" lon="35.092646">
			<ele>3.5</ele>
		</rtept>
		<rtept lat="33.021106" lon="35.092548">
			<ele>4</ele>
		</rtept>
		<rtept lat="33.020624" lon="35.092485">
			<ele>4</ele>
		</rtept>
		<rtept lat="33.020357" lon="35.092473">
			<ele>4</ele>
		</rtept>
		<rtept lat="33.020084" lon="35.092325">
			<ele>4</ele>
		</rtept>
		<rtept lat="33.019602" lon="35.092085">
			<ele>4</ele>
		</rtept>
		<rtept lat="33.019165" lon="35.091965">
			<ele>3</ele>
		</rtept>
		<rtept lat="33.01895" lon="35.091663">
			<ele>3</ele>
		</rtept>
		<rtept lat="33.01877" lon="35.091654">
			<ele>3</ele>
		</rtept>
		<rtept lat="33.018527" lon="35.091691">
			<ele>3</ele>
		</rtept>
		<rtept lat="33.018235" lon="35.091628">
			<ele>3</ele>
		</rtept>
		<rtept lat="33.017791" lon="35.091474">
			<ele>3</ele>
		</rtept>
		<rtept lat="33.017524" lon="35.091195">
			<ele>2</ele>
		</rtept>
		<rtept lat="33.017133" lon="35.091185">
			<ele>2</ele>
		</rtept>
		<rtept lat="33.016242" lon="35.090946">
			<ele>3</ele>
		</rtept>
		<rtept lat="33.015755" lon="35.090764">
			<ele>3</ele>
		</rtept>
		<rtept lat="33.015539" lon="35.090631">
			<ele>3</ele>
		</rtept>
		<rtept lat="33.015339" lon="35.090674">
			<ele>3</ele>
		</rtept>
		<rtept lat="33.015148" lon="35.090633">
			<ele>2</ele>
		</rtept>
		<rtept lat="33.015016" lon="35.09053">
			<ele>2</ele>
		</rtept>
		<rtept lat="33.014796" lon="35.090525">
			<ele>2</ele>
		</rtept>
		<rtept lat="33.014569" lon="35.090406">
			<ele>2</ele>
		</rtept>
		<rtept lat="33.014407" lon="35.090408">
			<ele>2</ele>
		</rtept>
		<rtept lat="33.014341" lon="35.090699">
			<ele>2</ele>
		</rtept>
		<rtept lat="33.013777" lon="35.090549">
			<ele>3</ele>
		</rtept>
		<rtept lat="33.013511" lon="35.09056">
			<ele>3</ele>
		</rtept>
		<rtept lat="33.013509" lon="35.090519">
			<ele>2</ele>
		</rtept>
		<rtept lat="33.013495" lon="35.090482">
			<ele>2</ele>
		</rtept>
		<rtept lat="33.013471" lon="35.090453">
			<ele>3</ele>
		</rtept>
		<rtept lat="33.013407" lon="35.090433">
			<ele>3</ele>
		</rtept>
		<rtept lat="33.013374" lon="35.090444">
			<ele>3</ele>
		</rtept>
		<rtept lat="33.013341" lon="35.090478">
			<ele>3</ele>
		</rtept>
		<rtept lat="33.013263" lon="35.090492">
			<ele>3</ele>
		</rtept>
		<rtept lat="33.013184" lon="35.090518">
			<ele>3</ele>
		</rtept>
		<rtept lat="33.013087" lon="35.090504">
			<ele>3</ele>
		</rtept>
		<rtept lat="33.01211" lon="35.090271">
			<ele>4</ele>
		</rtept>
		<rtept lat="33.009171" lon="35.089514">
			<ele>3</ele>
		</rtept>
		<rtept lat="33.008918" lon="35.089512">
			<ele>3</ele>
		</rtept>
		<rtept lat="33.008806" lon="35.089522">
			<ele>3</ele>
		</rtept>
		<rtept lat="33.008236" lon="35.089717">
			<ele>3</ele>
		</rtept>
		<rtept lat="33.008204" lon="35.089668">
			<ele>3</ele>
		</rtept>
		<rtept lat="33.008153" lon="35.08965">
			<ele>3</ele>
		</rtept>
		<rtept lat="33.008103" lon="35.089669">
			<ele>3</ele>
		</rtept>
		<rtept lat="33.008071" lon="35.089719">
			<ele>3</ele>
		</rtept>
		<rtept lat="33.008066" lon="35.08975">
			<ele>4</ele>
		</rtept>
		<rtept lat="33.007989" lon="35.089751">
			<ele>4</ele>
		</rtept>
		<rtept lat="33.007744" lon="35.08969">
			<ele>3</ele>
		</rtept>
		<rtept lat="33.007438" lon="35.089635">
			<ele>2</ele>
		</rtept>
		<rtept lat="33.007234" lon="35.08962">
			<ele>2</ele>
		</rtept>
		<rtept lat="33.006176" lon="35.089382">
			<ele>5</ele>
		</rtept>
		<rtept lat="33.005915" lon="35.08935">
			<ele>6</ele>
		</rtept>
		<rtept lat="33.005707" lon="35.089359">
			<ele>6</ele>
		</rtept>
		<rtept lat="33.005578" lon="35.089375">
			<ele>7</ele>
		</rtept>
		<rtept lat="33.005356" lon="35.089425">
			<ele>6</ele>
		</rtept>
		<rtept lat="33.005343" lon="35.089403">
			<ele>6</ele>
		</rtept>
		<rtept lat="33.005304" lon="35.089381">
			<ele>6</ele>
		</rtept>
		<rtept lat="33.005282" lon="35.089383">
			<ele>6</ele>
		</rtept>
		<rtept lat="33.005248" lon="35.089409">
			<ele>6</ele>
		</rtept>
		<rtept lat="33.005052" lon="35.089256">
			<ele>5</ele>
		</rtept>
		<rtept lat="33.004836" lon="35.089171">
			<ele>4</ele>
		</rtept>
		<rtept lat="33.00378" lon="35.088949">
			<ele>3</ele>
		</rtept>
		<rtept lat="33.00378" lon="35.088926">
			<ele>3</ele>
		</rtept>
		<rtept lat="33.003762" lon="35.088884">
			<ele>3</ele>
		</rtept>
		<rtept lat="33.003727" lon="35.088864">
			<ele>3</ele>
		</rtept>
		<rtept lat="33.003929" lon="35.087539">
			<ele>2</ele>
		</rtept>
		<rtept lat="33.00393" lon="35.087496">
			<ele>2</ele>
		</rtept>
		<rtept lat="33.003922" lon="35.087459">
			<ele>2</ele>
		</rtept>
		<rtept lat="33.003902" lon="35.087417">
			<ele>2</ele>
		</rtept>
		<rtept lat="33.003842" lon="35.087381">
			<ele>2</ele>
		</rtept>
		<rtept lat="33.003446" lon="35.087277">
			<ele>2</ele>
		</rtept>
		<rtept lat="33.001396" lon="35.086777">
			<ele>3</ele>
		</rtept>
		<rtept lat="33.000641" lon="35.086575">
			<ele>2</ele>
		</rtept>
		<rtept lat="33.000541" lon="35.086586">
			<ele>2</ele>
		</rtept>
		<rtept lat="33.000487" lon="35.086601">
			<ele>3</ele>
		</rtept>
		<rtept lat="33.000348" lon="35.086423">
			<ele>2</ele>
		</rtept>
		<rtept lat="32.998749" lon="35.085898">
			<ele>2</ele>
		</rtept>
		<rtept lat="32.998277" lon="35.085788">
			<ele>1</ele>
		</rtept>
		<rtept lat="32.997654" lon="35.085608">
			<ele>1</ele>
		</rtept>
		<rtept lat="32.997312" lon="35.085562">
			<ele>1</ele>
		</rtept>
		<rtept lat="32.997018" lon="35.085488">
			<ele>1</ele>
		</rtept>
		<rtept lat="32.996499" lon="35.085406">
			<ele>1</ele>
		</rtept>
		<rtept lat="32.995807" lon="35.085141">
			<ele>1</ele>
		</rtept>
		<rtept lat="32.995481" lon="35.085035">
			<ele>1</ele>
		</rtept>
		<rtept lat="32.994952" lon="35.084748">
			<ele>2</ele>
		</rtept>
		<rtept lat="32.994186" lon="35.08427">
			<ele>3</ele>
		</rtept>
		<rtept lat="32.993379" lon="35.084015">
			<ele>3</ele>
		</rtept>
		<rtept lat="32.993148" lon="35.083973">
			<ele>3</ele>
		</rtept>
		<rtept lat="32.992842" lon="35.083838">
			<ele>3</ele>
		</rtept>
		<rtept lat="32.992542" lon="35.083605">
			<ele>4</ele>
		</rtept>
		<rtept lat="32.992306" lon="35.083358">
			<ele>5</ele>
		</rtept>
		<rtept lat="32.99207" lon="35.083176">
			<ele>5</ele>
		</rtept>
		<rtept lat="32.991212" lon="35.083">
			<ele>5</ele>
		</rtept>
		<rtept lat="32.991049" lon="35.083">
			<ele>5</ele>
		</rtept>
		<rtept lat="32.990945" lon="35.082862">
			<ele>5</ele>
		</rtept>
		<rtept lat="32.990619" lon="35.082878">
			<ele>4</ele>
		</rtept>
		<rtept lat="32.990022" lon="35.082759">
			<ele>3</ele>
		</rtept>
		<rtept lat="32.989359" lon="35.08257">
			<ele>3</ele>
		</rtept>
		<rtept lat="32.988578" lon="35.082383">
			<ele>3</ele>
		</rtept>
		<rtept lat="32.988101" lon="35.082118">
			<ele>3</ele>
		</rtept>
		<rtept lat="32.987511" lon="35.082053">
			<ele>3</ele>
		</rtept>
		<rtept lat="32.987092" lon="35.081963">
			<ele>3</ele>
		</rtept>
		<rtept lat="32.98648" lon="35.081707">
			<ele>4</ele>
		</rtept>
		<rtept lat="32.986036" lon="35.081882">
			<ele>5</ele>
		</rtept>
		<rtept lat="32.985931" lon="35.082271">
			<ele>4</ele>
		</rtept>
		<rtept lat="32.985521" lon="35.08246">
			<ele>1</ele>
		</rtept>
		<rtept lat="32.985386" lon="35.082537">
			<ele>1</ele>
		</rtept>
		<rtept lat="32.984833" lon="35.082085">
			<ele>1</ele>
		</rtept>
		<rtept lat="32.984601" lon="35.082116">
			<ele>2</ele>
		</rtept>
		<rtept lat="32.984686" lon="35.08219">
			<ele>2</ele>
		</rtept>
		<rtept lat="32.98471" lon="35.082235">
			<ele>2</ele>
		</rtept>
		<rtept lat="32.984725" lon="35.082295">
			<ele>2</ele>
		</rtept>
		<rtept lat="32.984719" lon="35.082407">
			<ele>3</ele>
		</rtept>
		<rtept lat="32.984649" lon="35.082757">
			<ele>3</ele>
		</rtept>
		<rtept lat="32.984673" lon="35.082837">
			<ele>3</ele>
		</rtept>
		<rtept lat="32.984603" lon="35.08283">
			<ele>3</ele>
		</rtept>
		<rtept lat="32.984558" lon="35.082839">
			<ele>3</ele>
		</rtept>
		<rtept lat="32.98449" lon="35.08288">
			<ele>3</ele>
		</rtept>
		<rtept lat="32.984446" lon="35.082934">
			<ele>3</ele>
		</rtept>
		<rtept lat="32.9844" lon="35.083024">
			<ele>3</ele>
		</rtept>
		<rtept lat="32.984345" lon="35.083161">
			<ele>3</ele>
		</rtept>
		<rtept lat="32.983184" lon="35.082637">
			<ele>3</ele>
		</rtept>
		<rtept lat="32.982137" lon="35.082333">
			<ele>3</ele>
		</rtept>
		<rtept lat="32.982228" lon="35.081855">
			<ele>2</ele>
		</rtept>
		<rtept lat="32.982399" lon="35.081833">
			<ele>2</ele>
		</rtept>
		<rtept lat="32.982415" lon="35.081838">
			<ele>2</ele>
		</rtept>
		<rtept lat="32.982492" lon="35.081813">
			<ele>2</ele>
		</rtept>
		<rtept lat="32.982415" lon="35.081838">
			<ele>2</ele>
		</rtept>
		<rtept lat="32.982399" lon="35.081833">
			<ele>2</ele>
		</rtept>
		<rtept lat="32.982228" lon="35.081855">
			<ele>2</ele>
		</rtept>
		<rtept lat="32.981995" lon="35.083078">
			<ele>3</ele>
		</rtept>
		<rtept lat="32.980252" lon="35.082659">
			<ele>3</ele>
		</rtept>
		<rtept lat="32.978831" lon="35.082369">
			<ele>3</ele>
		</rtept>
		<rtept lat="32.977417" lon="35.082132">
			<ele>3</ele>
		</rtept>
		<rtept lat="32.977301" lon="35.08208">
			<ele>3</ele>
		</rtept>
		<rtept lat="32.976149" lon="35.081315">
			<ele>2</ele>
		</rtept>
		<rtept lat="32.975768" lon="35.081043">
			<ele>2</ele>
		</rtept>
		<rtept lat="32.975341" lon="35.08077">
			<ele>2</ele>
		</rtept>
		<rtept lat="32.97494" lon="35.080541">
			<ele>2</ele>
		</rtept>
		<rtept lat="32.974788" lon="35.080473">
			<ele>2</ele>
		</rtept>
		<rtept lat="32.974662" lon="35.080427">
			<ele>2</ele>
		</rtept>
		<rtept lat="32.973527" lon="35.080093">
			<ele>3</ele>
		</rtept>
		<rtept lat="32.973552" lon="35.080028">
			<ele>3</ele>
		</rtept>
		<rtept lat="32.973541" lon="35.079973">
			<ele>3</ele>
		</rtept>
		<rtept lat="32.9735" lon="35.079951">
			<ele>3</ele>
		</rtept>
		<rtept lat="32.973437" lon="35.079941">
			<ele>3</ele>
		</rtept>
		<rtept lat="32.973397" lon="35.079975">
			<ele>2</ele>
		</rtept>
		<rtept lat="32.973376" lon="35.08005">
			<ele>2</ele>
		</rtept>
		<rtept lat="32.973227" lon="35.080015">
			<ele>2</ele>
		</rtept>
		<rtept lat="32.973209" lon="35.080197">
			<ele>2</ele>
		</rtept>
		<rtept lat="32.97324" lon="35.080632">
			<ele>2</ele>
		</rtept>
		<rtept lat="32.973256" lon="35.081078">
			<ele>1</ele>
		</rtept>
		<rtept lat="32.973256" lon="35.081735">
			<ele>2</ele>
		</rtept>
		<rtept lat="32.973166" lon="35.083001">
			<ele>3</ele>
		</rtept>
		<rtept lat="32.972344" lon="35.084634">
			<ele>3</ele>
		</rtept>
		<rtept lat="32.972207" lon="35.085037">
			<ele>3</ele>
		</rtept>
		<rtept lat="32.971627" lon="35.08663">
			<ele>3</ele>
		</rtept>
		<rtept lat="32.970962" lon="35.08839">
			<ele>3</ele>
		</rtept>
		<rtept lat="32.970098" lon="35.08972">
			<ele>4</ele>
		</rtept>
		<rtept lat="32.969142" lon="35.09133">
			<ele>7</ele>
		</rtept>
		<rtept lat="32.969127" lon="35.091444">
			<ele>7</ele>
		</rtept>
		<rtept lat="32.96931" lon="35.091713">
			<ele>8</ele>
		</rtept>
		<rtept lat="32.969427" lon="35.091965">
			<ele>10</ele>
		</rtept>
		<rtept lat="32.969593" lon="35.092987">
			<ele>12</ele>
		</rtept>
		<rtept lat="32.969564" lon="35.093181">
			<ele>13</ele>
		</rtept>
		<rtept lat="32.969544" lon="35.093239">
			<ele>13</ele>
		</rtept>
		<rtept lat="32.969379" lon="35.09337">
			<ele>13</ele>
		</rtept>
		<rtept lat="32.968793" lon="35.093794">
			<ele>16</ele>
		</rtept>
		<rtept lat="32.968831" lon="35.093999">
			<ele>16</ele>
		</rtept>
		<rtept lat="32.968898" lon="35.094042">
			<ele>16</ele>
		</rtept>
		<rtept lat="32.969094" lon="35.094132">
			<ele>17</ele>
		</rtept>
		<rtept lat="32.96927" lon="35.094135">
			<ele>18</ele>
		</rtept>
		<rtept lat="32.969789" lon="35.094054">
			<ele>19</ele>
		</rtept>
		<rtept lat="32.970016" lon="35.093976">
			<ele>19</ele>
		</rtept>
		<rtept lat="32.970058" lon="35.094089">
			<ele>19</ele>
		</rtept>
		<rtept lat="32.970202" lon="35.094357">
			<ele>18</ele>
		</rtept>
		<rtept lat="32.970296" lon="35.094454">
			<ele>18</ele>
		</rtept>
		<rtept lat="32.970427" lon="35.094491">
			<ele>17</ele>
		</rtept>
		<rtept lat="32.970658" lon="35.094588">
			<ele>16</ele>
		</rtept>
		<rtept lat="32.970739" lon="35.094642">
			<ele>16</ele>
		</rtept>
		<rtept lat="32.970847" lon="35.094679">
			<ele>15</ele>
		</rtept>
		<rtept lat="32.971203" lon="35.094668">
			<ele>13</ele>
		</rtept>
		<rtept lat="32.971391" lon="35.09463">
			<ele>12</ele>
		</rtept>
		<rtept lat="32.971397" lon="35.094669">
			<ele>12</ele>
		</rtept>
		<rtept lat="32.971414" lon="35.094703">
			<ele>12</ele>
		</rtept>
		<rtept lat="32.97144" lon="35.094729">
			<ele>12</ele>
		</rtept>
		<rtept lat="32.971472" lon="35.094742">
			<ele>12</ele>
		</rtept>
		<rtept lat="32.971505" lon="35.094742">
			<ele>12</ele>
		</rtept>
		<rtept lat="32.971537" lon="35.094728">
			<ele>12</ele>
		</rtept>
		<rtept lat="32.971562" lon="35.094702">
			<ele>12</ele>
		</rtept>
		<rtept lat="32.971739" lon="35.094641">
			<ele>12</ele>
		</rtept>
		<rtept lat="32.972396" lon="35.094587">
			<ele>12</ele>
		</rtept>
		<rtept lat="32.97273" lon="35.09463">
			<ele>11</ele>
		</rtept>
		<rtept lat="32.972722" lon="35.094548">
			<ele>12</ele>
		</rtept>
		<rtept lat="32.972851" lon="35.094534">
			<ele>11.5</ele>
		</rtept>
		<rtept lat="32.972722" lon="35.094548">
			<ele>12</ele>
		</rtept>
		<rtept lat="32.97273" lon="35.09463">
			<ele>11</ele>
		</rtept>
		<rtept lat="32.973124" lon="35.094601">
			<ele>10</ele>
		</rtept>
		<rtept lat="32.973297" lon="35.094548">
			<ele>11</ele>
		</rtept>
		<rtept lat="32.973372" lon="35.094512">
			<ele>11</ele>
		</rtept>
		<rtept lat="32.973537" lon="35.094398">
			<ele>12</ele>
		</rtept>
		<rtept lat="32.973586" lon="35.094382">
			<ele>12</ele>
		</rtept>
		<rtept lat="32.973653" lon="35.094385">
			<ele>12</ele>
		</rtept>
		<rtept lat="32.97371" lon="35.094369">
			<ele>12</ele>
		</rtept>
		<rtept lat="32.973755" lon="35.094324">
			<ele>12</ele>
		</rtept>
		<rtept lat="32.973802" lon="35.094194">
			<ele>12</ele>
		</rtept>
		<rtept lat="32.973843" lon="35.094135">
			<ele>12</ele>
		</rtept>
		<rtept lat="32.973947" lon="35.094048">
			<ele>12</ele>
		</rtept>
		<rtept lat="32.974225" lon="35.093869">
			<ele>11</ele>
		</rtept>
		<rtept lat="32.974463" lon="35.093763">
			<ele>10</ele>
		</rtept>
		<rtept lat="32.974717" lon="35.093701">
			<ele>9</ele>
		</rtept>
		<rtept lat="32.974921" lon="35.093676">
			<ele>8</ele>
		</rtept>
		<rtept lat="32.975163" lon="35.093691">
			<ele>8</ele>
		</rtept>
		<rtept lat="32.975387" lon="35.093733">
			<ele>8</ele>
		</rtept>
		<rtept lat="32.975634" lon="35.0938">
			<ele>8</ele>
		</rtept>
		<rtept lat="32.975765" lon="35.093849">
			<ele>8</ele>
		</rtept>
		<rtept lat="32.975884" lon="35.093908">
			<ele>8</ele>
		</rtept>
		<rtept lat="32.975982" lon="35.093986">
			<ele>8</ele>
		</rtept>
		<rtept lat="32.976118" lon="35.094128">
			<ele>8</ele>
		</rtept>
		<rtept lat="32.976262" lon="35.094342">
			<ele>8</ele>
		</rtept>
		<rtept lat="32.97628" lon="35.094397">
			<ele>8</ele>
		</rtept>
		<rtept lat="32.976287" lon="35.094473">
			<ele>8</ele>
		</rtept>
		<rtept lat="32.97631" lon="35.094516">
			<ele>8</ele>
		</rtept>
		<rtept lat="32.976344" lon="35.094548">
			<ele>8</ele>
		</rtept>
		<rtept lat="32.976384" lon="35.094564">
			<ele>8</ele>
		</rtept>
		<rtept lat="32.976428" lon="35.094563">
			<ele>8</ele>
		</rtept>
		<rtept lat="32.976506" lon="35.094577">
			<ele>8</ele>
		</rtept>
		<rtept lat="32.976629" lon="35.094661">
			<ele>8</ele>
		</rtept>
		<rtept lat="32.976703" lon="35.0947">
			<ele>8</ele>
		</rtept>
		<rtept lat="32.976841" lon="35.094751">
			<ele>8</ele>
		</rtept>
		<rtept lat="32.977075" lon="35.094812">
			<ele>9</ele>
		</rtept>
		<rtept lat="32.977764" lon="35.094935">
			<ele>11</ele>
		</rtept>
		<rtept lat="32.97783" lon="35.094951">
			<ele>11</ele>
		</rtept>
		<rtept lat="32.977928" lon="35.095005">
			<ele>12</ele>
		</rtept>
		<rtept lat="32.977938" lon="35.095045">
			<ele>12</ele>
		</rtept>
		<rtept lat="32.977978" lon="35.095111">
			<ele>12</ele>
		</rtept>
		<rtept lat="32.978018" lon="35.095139">
			<ele>12</ele>
		</rtept>
		<rtept lat="32.978062" lon="35.095152">
			<ele>12</ele>
		</rtept>
		<rtept lat="32.978108" lon="35.095147">
			<ele>12</ele>
		</rtept>
		<rtept lat="32.978152" lon="35.095125">
			<ele>12</ele>
		</rtept>
		<rtept lat="32.978187" lon="35.095088">
			<ele>12</ele>
		</rtept>
		<rtept lat="32.978211" lon="35.095039">
			<ele>12</ele>
		</rtept>
		<rtept lat="32.978221" lon="35.094983">
			<ele>12</ele>
		</rtept>
		<rtept lat="32.978215" lon="35.094927">
			<ele>12</ele>
		</rtept>
		<rtept lat="32.978194" lon="35.094876">
			<ele>12</ele>
		</rtept>
		<rtept lat="32.978161" lon="35.094836">
			<ele>12</ele>
		</rtept>
		<rtept lat="32.978179" lon="35.094651">
			<ele>12</ele>
		</rtept>
		<rtept lat="32.978297" lon="35.093812">
			<ele>8</ele>
		</rtept>
		<rtept lat="32.978619" lon="35.093889">
			<ele>9</ele>
		</rtept>
		<rtept lat="32.979903" lon="35.094138">
			<ele>12</ele>
		</rtept>
		<rtept lat="32.980122" lon="35.094252">
			<ele>12</ele>
		</rtept>
		<rtept lat="32.980219" lon="35.094324">
			<ele>12</ele>
		</rtept>
		<rtept lat="32.980258" lon="35.094371">
			<ele>12</ele>
		</rtept>
		<rtept lat="32.980299" lon="35.09447">
			<ele>12</ele>
		</rtept>
		<rtept lat="32.980348" lon="35.094638">
			<ele>12</ele>
		</rtept>
		<rtept lat="32.980343" lon="35.096082">
			<ele>15</ele>
		</rtept>
		<rtept lat="32.980349" lon="35.096274">
			<ele>15</ele>
		</rtept>
		<rtept lat="32.980376" lon="35.09665">
			<ele>18</ele>
		</rtept>
		<rtept lat="32.980525" lon="35.098093">
			<ele>17</ele>
		</rtept>
		<rtept lat="32.980587" lon="35.098882">
			<ele>15</ele>
		</rtept>
		<rtept lat="32.980587" lon="35.099198">
			<ele>14</ele>
		</rtept>
		<rtept lat="32.980575" lon="35.099505">
			<ele>14</ele>
		</rtept>
		<rtept lat="32.98053" lon="35.099916">
			<ele>13</ele>
		</rtept>
		<rtept lat="32.980311" lon="35.101625">
			<ele>12</ele>
		</rtept>
		<rtept lat="32.979858" lon="35.104917">
			<ele>14</ele>
		</rtept>
		<rtept lat="32.979793" lon="35.105322">
			<ele>14</ele>
		</rtept>
		<rtept lat="32.979546" lon="35.106482">
			<ele>14</ele>
		</rtept>
		<rtept lat="32.97916" lon="35.108076">
			<ele>16</ele>
		</rtept>
		<rtept lat="32.979124" lon="35.108124">
			<ele>16</ele>
		</rtept>
		<rtept lat="32.979077" lon="35.108187">
			<ele>16</ele>
		</rtept>
		<rtept lat="32.978963" lon="35.108288">
			<ele>16</ele>
		</rtept>
		<rtept lat="32.978904" lon="35.108316">
			<ele>16</ele>
		</rtept>
		<rtept lat="32.978832" lon="35.108332">
			<ele>16</ele>
		</rtept>
		<rtept lat="32.978568" lon="35.108248">
			<ele>15</ele>
		</rtept>
		<rtept lat="32.978495" lon="35.108215">
			<ele>15</ele>
		</rtept>
		<rtept lat="32.97844" lon="35.108176">
			<ele>15</ele>
		</rtept>
		<rtept lat="32.978386" lon="35.108113">
			<ele>15</ele>
		</rtept>
		<rtept lat="32.978373" lon="35.108074">
			<ele>15</ele>
		</rtept>
		<rtept lat="32.978324" lon="35.108014">
			<ele>15</ele>
		</rtept>
		<rtept lat="32.978262" lon="35.107989">
			<ele>15</ele>
		</rtept>
		<rtept lat="32.978197" lon="35.108002">
			<ele>15</ele>
		</rtept>
		<rtept lat="32.978164" lon="35.108026">
			<ele>15</ele>
		</rtept>
		<rtept lat="32.978137" lon="35.10806">
			<ele>16</ele>
		</rtept>
		<rtept lat="32.97812" lon="35.108101">
			<ele>16</ele>
		</rtept>
		<rtept lat="32.978113" lon="35.108146">
			<ele>16</ele>
		</rtept>
		<rtept lat="32.978116" lon="35.108192">
			<ele>16</ele>
		</rtept>
		<rtept lat="32.97813" lon="35.108236">
			<ele>16</ele>
		</rtept>
		<rtept lat="32.978154" lon="35.108272">
			<ele>16</ele>
		</rtept>
		<rtept lat="32.978211" lon="35.108312">
			<ele>16</ele>
		</rtept>
		<rtept lat="32.978257" lon="35.108317">
			<ele>15.5</ele>
		</rtept>
		<rtept lat="32.978257" lon="35.108318">
			<ele>15.5</ele>
		</rtept>
		<rtept lat="32.97829" lon="35.108314">
			<ele>15</ele>
		</rtept>
		<rtept lat="32.978332" lon="35.108289">
			<ele>15</ele>
		</rtept>
		<rtept lat="32.978362" lon="35.108254">
			<ele>15</ele>
		</rtept>
		<rtept lat="32.978382" lon="35.108211">
			<ele>15</ele>
		</rtept>
		<rtept lat="32.97839" lon="35.108162">
			<ele>15</ele>
		</rtept>
		<rtept lat="32.978386" lon="35.108113">
			<ele>15</ele>
		</rtept>
		<rtept lat="32.978373" lon="35.108074">
			<ele>15</ele>
		</rtept>
		<rtept lat="32.978324" lon="35.108014">
			<ele>15</ele>
		</rtept>
		<rtept lat="32.978262" lon="35.107989">
			<ele>15</ele>
		</rtept>
		<rtept lat="32.978197" lon="35.108002">
			<ele>15</ele>
		</rtept>
		<rtept lat="32.978164" lon="35.108026">
			<ele>15</ele>
		</rtept>
		<rtept lat="32.978137" lon="35.10806">
			<ele>16</ele>
		</rtept>
		<rtept lat="32.97812" lon="35.108101">
			<ele>16</ele>
		</rtept>
		<rtept lat="32.978113" lon="35.108146">
			<ele>16</ele>
		</rtept>
		<rtept lat="32.978116" lon="35.108192">
			<ele>16</ele>
		</rtept>
		<rtept lat="32.97813" lon="35.108236">
			<ele>16</ele>
		</rtept>
		<rtept lat="32.978154" lon="35.108272">
			<ele>16</ele>
		</rtept>
		<rtept lat="32.978182" lon="35.108419">
			<ele>16</ele>
		</rtept>
		<rtept lat="32.978188" lon="35.108515">
			<ele>16</ele>
		</rtept>
		<rtept lat="32.978159" lon="35.10904">
			<ele>16</ele>
		</rtept>
		<rtept lat="32.978181" lon="35.11038">
			<ele>17</ele>
		</rtept>
		<rtept lat="32.978144" lon="35.110662">
			<ele>17</ele>
		</rtept>
		<rtept lat="32.978081" lon="35.110968">
			<ele>17</ele>
		</rtept>
		<rtept lat="32.977876" lon="35.111766">
			<ele>18</ele>
		</rtept>
		<rtept lat="32.977417" lon="35.11325">
			<ele>19</ele>
		</rtept>
		<rtept lat="32.977375" lon="35.113243">
			<ele>19</ele>
		</rtept>
		<rtept lat="32.977332" lon="35.113253">
			<ele>19</ele>
		</rtept>
		<rtept lat="32.977294" lon="35.113277">
			<ele>19</ele>
		</rtept>
		<rtept lat="32.977265" lon="35.113315">
			<ele>19</ele>
		</rtept>
		<rtept lat="32.977246" lon="35.113361">
			<ele>19</ele>
		</rtept>
		<rtept lat="32.97724" lon="35.113412">
			<ele>19</ele>
		</rtept>
		<rtept lat="32.977248" lon="35.113463">
			<ele>19</ele>
		</rtept>
		<rtept lat="32.977269" lon="35.113508">
			<ele>19</ele>
		</rtept>
		<rtept lat="32.9773" lon="35.113543">
			<ele>19</ele>
		</rtept>
		<rtept lat="32.977339" lon="35.113565">
			<ele>19</ele>
		</rtept>
		<rtept lat="32.977401" lon="35.11357">
			<ele>19</ele>
		</rtept>
		<rtept lat="32.977458" lon="35.113542">
			<ele>19</ele>
		</rtept>
		<rtept lat="32.977499" lon="35.113487">
			<ele>19</ele>
		</rtept>
		<rtept lat="32.977514" lon="35.113441">
			<ele>19</ele>
		</rtept>
		<rtept lat="32.977516" lon="35.113392">
			<ele>19</ele>
		</rtept>
		<rtept lat="32.977506" lon="35.113345">
			<ele>19</ele>
		</rtept>
		<rtept lat="32.97747" lon="35.113287">
			<ele>19</ele>
		</rtept>
		<rtept lat="32.977417" lon="35.11325">
			<ele>19</ele>
		</rtept>
		<rtept lat="32.977375" lon="35.113243">
			<ele>19</ele>
		</rtept>
		<rtept lat="32.977332" lon="35.113253">
			<ele>19</ele>
		</rtept>
		<rtept lat="32.977294" lon="35.113277">
			<ele>19</ele>
		</rtept>
		<rtept lat="32.977265" lon="35.113315">
			<ele>19</ele>
		</rtept>
		<rtept lat="32.977246" lon="35.113361">
			<ele>19</ele>
		</rtept>
		<rtept lat="32.97724" lon="35.113412">
			<ele>19</ele>
		</rtept>
		<rtept lat="32.977248" lon="35.113463">
			<ele>19</ele>
		</rtept>
		<rtept lat="32.977269" lon="35.113508">
			<ele>19</ele>
		</rtept>
		<rtept lat="32.9773" lon="35.113543">
			<ele>19</ele>
		</rtept>
		<rtept lat="32.977339" lon="35.113565">
			<ele>19</ele>
		</rtept>
		<rtept lat="32.977401" lon="35.11357">
			<ele>19</ele>
		</rtept>
		<rtept lat="32.977458" lon="35.113542">
			<ele>19</ele>
		</rtept>
		<rtept lat="32.977499" lon="35.113487">
			<ele>19</ele>
		</rtept>
		<rtept lat="32.979121" lon="35.114267">
			<ele>20</ele>
		</rtept>
		<rtept lat="32.980433" lon="35.114754">
			<ele>19</ele>
		</rtept>
		<rtept lat="32.980659" lon="35.114812">
			<ele>19</ele>
		</rtept>
		<rtept lat="32.980932" lon="35.114858">
			<ele>18</ele>
		</rtept>
		<rtept lat="32.983134" lon="35.115109">
			<ele>17</ele>
		</rtept>
		<rtept lat="32.98376" lon="35.115144">
			<ele>16</ele>
		</rtept>
		<rtept lat="32.983827" lon="35.115187">
			<ele>16</ele>
		</rtept>
		<rtept lat="32.983852" lon="35.115242">
			<ele>16</ele>
		</rtept>
		<rtept lat="32.983861" lon="35.115319">
			<ele>16</ele>
		</rtept>
		<rtept lat="32.983723" lon="35.11652">
			<ele>16</ele>
		</rtept>
		<rtept lat="32.983699" lon="35.116647">
			<ele>16</ele>
		</rtept>
		<rtept lat="32.983388" lon="35.117947">
			<ele>19</ele>
		</rtept>
		<rtept lat="32.983385" lon="35.118061">
			<ele>19</ele>
		</rtept>
		<rtept lat="32.983399" lon="35.118179">
			<ele>19</ele>
		</rtept>
		<rtept lat="32.98344" lon="35.118289">
			<ele>19</ele>
		</rtept>
		<rtept lat="32.983505" lon="35.118391">
			<ele>19</ele>
		</rtept>
		<rtept lat="32.98359" lon="35.11846">
			<ele>19</ele>
		</rtept>
		<rtept lat="32.983689" lon="35.118517">
			<ele>19</ele>
		</rtept>
		<rtept lat="32.985943" lon="35.119525">
			<ele>23</ele>
		</rtept>
		<rtept lat="32.986147" lon="35.11957">
			<ele>24</ele>
		</rtept>
		<rtept lat="32.986233" lon="35.119566">
			<ele>24</ele>
		</rtept>
		<rtept lat="32.986308" lon="35.119525">
			<ele>24</ele>
		</rtept>
		<rtept lat="32.986355" lon="35.119476">
			<ele>25</ele>
		</rtept>
		<rtept lat="32.986415" lon="35.119375">
			<ele>25</ele>
		</rtept>
		<rtept lat="32.986508" lon="35.11903">
			<ele>25</ele>
		</rtept>
		<rtept lat="32.986615" lon="35.118813">
			<ele>26</ele>
		</rtept>
		<rtept lat="32.986951" lon="35.118368">
			<ele>27</ele>
		</rtept>
		<rtept lat="32.987022" lon="35.118299">
			<ele>28</ele>
		</rtept>
		<rtept lat="32.987094" lon="35.118264">
			<ele>29</ele>
		</rtept>
		<rtept lat="32.987173" lon="35.11825">
			<ele>29</ele>
		</rtept>
		<rtept lat="32.987243" lon="35.118253">
			<ele>29</ele>
		</rtept>
		<rtept lat="32.987477" lon="35.118312">
			<ele>30</ele>
		</rtept>
		<rtept lat="32.987552" lon="35.118317">
			<ele>30</ele>
		</rtept>
		<rtept lat="32.987656" lon="35.118285">
			<ele>30</ele>
		</rtept>
		<rtept lat="32.987712" lon="35.118233">
			<ele>31</ele>
		</rtept>
		<rtept lat="32.987735" lon="35.118246">
			<ele>31</ele>
		</rtept>
		<rtept lat="32.987762" lon="35.118249">
			<ele>31</ele>
		</rtept>
		<rtept lat="32.987809" lon="35.118224">
			<ele>31</ele>
		</rtept>
		<rtept lat="32.987825" lon="35.118199">
			<ele>31</ele>
		</rtept>
		<rtept lat="32.987833" lon="35.118169">
			<ele>31</ele>
		</rtept>
		<rtept lat="32.988065" lon="35.118224">
			<ele>31</ele>
		</rtept>
		<rtept lat="32.989281" lon="35.118632">
			<ele>34</ele>
		</rtept>
		<rtept lat="32.989304" lon="35.118535">
			<ele>33.5</ele>
		</rtept>
		<rtept lat="32.989281" lon="35.118632">
			<ele>34</ele>
		</rtept>
		<rtept lat="32.989256" lon="35.120571">
			<ele>35</ele>
		</rtept>
		<rtept lat="32.989277" lon="35.121135">
			<ele>35</ele>
		</rtept>
		<rtept lat="32.990034" lon="35.121248">
			<ele>35</ele>
		</rtept>
		<rtept lat="32.990674" lon="35.121365">
			<ele>35</ele>
		</rtept>
		<rtept lat="32.991215" lon="35.121438">
			<ele>35</ele>
		</rtept>
		<rtept lat="32.991855" lon="35.121482">
			<ele>34</ele>
		</rtept>
		<rtept lat="32.992765" lon="35.121453">
			<ele>33</ele>
		</rtept>
		<rtept lat="32.993417" lon="35.121394">
			<ele>32</ele>
		</rtept>
		<rtept lat="32.993905" lon="35.121416">
			<ele>30</ele>
		</rtept>
		<rtept lat="32.994552" lon="35.121476">
			<ele>28</ele>
		</rtept>
		<rtept lat="32.99508" lon="35.121537">
			<ele>27</ele>
		</rtept>
		<rtept lat="32.995419" lon="35.12163">
			<ele>26</ele>
		</rtept>
		<rtept lat="32.995871" lon="35.121754">
			<ele>25</ele>
		</rtept>
		<rtept lat="32.995903" lon="35.121811">
			<ele>25</ele>
		</rtept>
		<rtept lat="32.996084" lon="35.121919">
			<ele>25</ele>
		</rtept>
		<rtept lat="32.996602" lon="35.122874">
			<ele>24</ele>
		</rtept>
		<rtept lat="32.997" lon="35.123545">
			<ele>24</ele>
		</rtept>
		<rtept lat="32.99738" lon="35.12443">
			<ele>26</ele>
		</rtept>
		<rtept lat="32.997732" lon="35.126326">
			<ele>27</ele>
		</rtept>
		<rtept lat="32.997994" lon="35.126483">
			<ele>27</ele>
		</rtept>
		<rtept lat="32.998874" lon="35.126667">
			<ele>27</ele>
		</rtept>
		<rtept lat="32.999089" lon="35.126727">
			<ele>27</ele>
		</rtept>
		<rtept lat="32.99909" lon="35.127227">
			<ele>27.5</ele>
		</rtept>
		<rtept lat="32.999097" lon="35.128099">
			<ele>28</ele>
		</rtept>
		<rtept lat="32.999308" lon="35.129102">
			<ele>29</ele>
		</rtept>
		<rtept lat="32.999508" lon="35.130145">
			<ele>30</ele>
		</rtept>
		<rtept lat="32.999679" lon="35.130782">
			<ele>29</ele>
		</rtept>
		<rtept lat="32.999762" lon="35.131536">
			<ele>30</ele>
		</rtept>
		<rtept lat="32.999699" lon="35.132208">
			<ele>31</ele>
		</rtept>
		<rtept lat="32.999595" lon="35.133025">
			<ele>32</ele>
		</rtept>
		<rtept lat="32.999675" lon="35.133685">
			<ele>33</ele>
		</rtept>
		<rtept lat="32.999899" lon="35.134069">
			<ele>33</ele>
		</rtept>
		<rtept lat="33.000742" lon="35.134781">
			<ele>35</ele>
		</rtept>
		<rtept lat="33.000926" lon="35.134998">
			<ele>35</ele>
		</rtept>
		<rtept lat="33.001091" lon="35.135239">
			<ele>35</ele>
		</rtept>
		<rtept lat="33.001205" lon="35.13555">
			<ele>36</ele>
		</rtept>
		<rtept lat="33.00119" lon="35.136593">
			<ele>37</ele>
		</rtept>
		<rtept lat="33.001143" lon="35.136997">
			<ele>37</ele>
		</rtept>
		<rtept lat="33.001132" lon="35.137393">
			<ele>38</ele>
		</rtept>
		<rtept lat="33.001309" lon="35.138417">
			<ele>39</ele>
		</rtept>
		<rtept lat="33.001197" lon="35.139019">
			<ele>39</ele>
		</rtept>
		<rtept lat="33.001055" lon="35.139593">
			<ele>40</ele>
		</rtept>
		<rtept lat="33.001053" lon="35.139939">
			<ele>40</ele>
		</rtept>
		<rtept lat="33.001499" lon="35.140825">
			<ele>41</ele>
		</rtept>
		<rtept lat="33.001774" lon="35.141298">
			<ele>42</ele>
		</rtept>
		<rtept lat="33.002656" lon="35.142165">
			<ele>43</ele>
		</rtept>
		<rtept lat="33.002813" lon="35.14228">
			<ele>43</ele>
		</rtept>
		<rtept lat="33.00356" lon="35.143078">
			<ele>46</ele>
		</rtept>
		<rtept lat="33.004256" lon="35.143285">
			<ele>47</ele>
		</rtept>
		<rtept lat="33.004778" lon="35.143161">
			<ele>47</ele>
		</rtept>
		<rtept lat="33.005335" lon="35.143368">
			<ele>47</ele>
		</rtept>
		<rtept lat="33.005646" lon="35.143739">
			<ele>47.5</ele>
		</rtept>
		<rtept lat="33.005787" lon="35.143907">
			<ele>48</ele>
		</rtept>
		<rtept lat="33.006772" lon="35.145164">
			<ele>50</ele>
		</rtept>
		<rtept lat="33.00692" lon="35.145374">
			<ele>50</ele>
		</rtept>
		<rtept lat="33.006946" lon="35.145615">
			<ele>52</ele>
		</rtept>
		<rtept lat="33.006758" lon="35.145604">
			<ele>52</ele>
		</rtept>
		<rtept lat="33.006561" lon="35.145577">
			<ele>53</ele>
		</rtept>
		<rtept lat="33.006786" lon="35.145964">
			<ele>51</ele>
		</rtept>
		<rtept lat="33.006852" lon="35.145968">
			<ele>50.5</ele>
		</rtept>
		<rtept lat="33.007355" lon="35.146002">
			<ele>50</ele>
		</rtept>
		<rtept lat="33.006931" lon="35.147435">
			<ele>52</ele>
		</rtept>
		<rtept lat="33.006906" lon="35.147546">
			<ele>53</ele>
		</rtept>
		<rtept lat="33.006922" lon="35.14804">
			<ele>54</ele>
		</rtept>
		<rtept lat="33.006913" lon="35.148204">
			<ele>55</ele>
		</rtept>
		<rtept lat="33.00683" lon="35.148199">
			<ele>55</ele>
		</rtept>
		<rtept lat="33.006606" lon="35.147929">
			<ele>56</ele>
		</rtept>
		<rtept lat="33.006533" lon="35.14787">
			<ele>57</ele>
		</rtept>
		<rtept lat="33.006224" lon="35.147758">
			<ele>59</ele>
		</rtept>
		<rtept lat="33.005973" lon="35.147756">
			<ele>61</ele>
		</rtept>
		<rtept lat="33.00586" lon="35.147699">
			<ele>62</ele>
		</rtept>
		<rtept lat="33.005822" lon="35.14766">
			<ele>62</ele>
		</rtept>
		<rtept lat="33.005636" lon="35.147657">
			<ele>63</ele>
		</rtept>
		<rtept lat="33.005566" lon="35.14764">
			<ele>64</ele>
		</rtept>
		<rtept lat="33.005479" lon="35.14766">
			<ele>64</ele>
		</rtept>
		<rtept lat="33.005339" lon="35.147623">
			<ele>65</ele>
		</rtept>
		<rtept lat="33.005195" lon="35.147618">
			<ele>65</ele>
		</rtept>
		<rtept lat="33.005147" lon="35.147646">
			<ele>65</ele>
		</rtept>
		<rtept lat="33.004971" lon="35.147682">
			<ele>66</ele>
		</rtept>
		<rtept lat="33.004917" lon="35.147677">
			<ele>66</ele>
		</rtept>
		<rtept lat="33.004799" lon="35.147623">
			<ele>65</ele>
		</rtept>
		<rtept lat="33.004745" lon="35.14762">
			<ele>65</ele>
		</rtept>
		<rtept lat="33.004573" lon="35.147682">
			<ele>67</ele>
		</rtept>
		<rtept lat="33.004302" lon="35.147682">
			<ele>67</ele>
		</rtept>
		<rtept lat="33.004181" lon="35.147722">
			<ele>67</ele>
		</rtept>
		<rtept lat="33.003912" lon="35.147725">
			<ele>68</ele>
		</rtept>
		<rtept lat="33.003843" lon="35.147708">
			<ele>68</ele>
		</rtept>
		<rtept lat="33.003753" lon="35.147719">
			<ele>68</ele>
		</rtept>
		<rtept lat="33.003614" lon="35.147686">
			<ele>68</ele>
		</rtept>
		<rtept lat="33.003563" lon="35.147703">
			<ele>68</ele>
		</rtept>
		<rtept lat="33.003364" lon="35.147703">
			<ele>68</ele>
		</rtept>
		<rtept lat="33.003313" lon="35.147684">
			<ele>68</ele>
		</rtept>
		<rtept lat="33.003134" lon="35.147672">
			<ele>69</ele>
		</rtept>
		<rtept lat="33.00301" lon="35.147699">
			<ele>69</ele>
		</rtept>
		<rtept lat="33.002884" lon="35.147703">
			<ele>69</ele>
		</rtept>
		<rtept lat="33.002781" lon="35.147667">
			<ele>68</ele>
		</rtept>
		<rtept lat="33.002752" lon="35.147641">
			<ele>68</ele>
		</rtept>
		<rtept lat="33.002701" lon="35.147505">
			<ele>67</ele>
		</rtept>
		<rtept lat="33.002813" lon="35.147348">
			<ele>66</ele>
		</rtept>
		<rtept lat="33.002916" lon="35.147016">
			<ele>65</ele>
		</rtept>
		<rtept lat="33.00317" lon="35.146505">
			<ele>63</ele>
		</rtept>
		<rtept lat="33.003381" lon="35.146116">
			<ele>61</ele>
		</rtept>
		<rtept lat="33.003452" lon="35.145918">
			<ele>61</ele>
		</rtept>
		<rtept lat="33.003562" lon="35.14594">
			<ele>61</ele>
		</rtept>
		<rtept lat="33.003875" lon="35.145854">
			<ele>59</ele>
		</rtept>
		<rtept lat="33.003955" lon="35.145851">
			<ele>59</ele>
		</rtept>
		<rtept lat="33.003992" lon="35.14587">
			<ele>59</ele>
		</rtept>
		<rtept lat="33.004033" lon="35.145873">
			<ele>60</ele>
		</rtept>
		<rtept lat="33.004064" lon="35.145863">
			<ele>59</ele>
		</rtept>
		<rtept lat="33.004098" lon="35.145837">
			<ele>59</ele>
		</rtept>
		<rtept lat="33.004129" lon="35.145781">
			<ele>59</ele>
		</rtept>
		<rtept lat="33.004135" lon="35.145734">
			<ele>59</ele>
		</rtept>
		<rtept lat="33.004127" lon="35.145684">
			<ele>58</ele>
		</rtept>
		<rtept lat="33.004106" lon="35.145643">
			<ele>58</ele>
		</rtept>
		<rtept lat="33.004074" lon="35.145613">
			<ele>58</ele>
		</rtept>
		<rtept lat="33.004048" lon="35.1456">
			<ele>58</ele>
		</rtept>
		<rtept lat="33.004008" lon="35.145597">
			<ele>58</ele>
		</rtept>
		<rtept lat="33.003969" lon="35.14561">
			<ele>58</ele>
		</rtept>
		<rtept lat="33.003936" lon="35.145638">
			<ele>58</ele>
		</rtept>
		<rtept lat="33.003913" lon="35.145678">
			<ele>58</ele>
		</rtept>
		<rtept lat="33.003903" lon="35.145734">
			<ele>59</ele>
		</rtept>
		<rtept lat="33.003697" lon="35.145848">
			<ele>60</ele>
		</rtept>
		<rtept lat="33.003544" lon="35.145864">
			<ele>60</ele>
		</rtept>
		<rtept lat="33.003362" lon="35.145826">
			<ele>60</ele>
		</rtept>
		<rtept lat="33.002543" lon="35.14552">
			<ele>60</ele>
		</rtept>
		<rtept lat="33.002527" lon="35.145504">
			<ele>60</ele>
		</rtept>
		<rtept lat="33.002453" lon="35.145429">
			<ele>60</ele>
		</rtept>
		<rtept lat="33.002373" lon="35.145458">
			<ele>61</ele>
		</rtept>
		<rtept lat="33.00221" lon="35.145579">
			<ele>60</ele>
		</rtept>
		<rtept lat="33.002048" lon="35.14589">
			<ele>61</ele>
		</rtept>
		<rtept lat="33.001648" lon="35.146599">
			<ele>62</ele>
		</rtept>
		<rtept lat="33.001025" lon="35.147372">
			<ele>62</ele>
		</rtept>
		<rtept lat="33.000786" lon="35.147396">
			<ele>61</ele>
		</rtept>
		<rtept lat="33.000427" lon="35.147386">
			<ele>62</ele>
		</rtept>
		<rtept lat="33.000094" lon="35.147407">
			<ele>63</ele>
		</rtept>
		<rtept lat="32.999475" lon="35.14761">
			<ele>66</ele>
		</rtept>
		<rtept lat="32.998993" lon="35.147936">
			<ele>66</ele>
		</rtept>
		<rtept lat="32.998651" lon="35.148348">
			<ele>67</ele>
		</rtept>
		<rtept lat="32.998325" lon="35.148916">
			<ele>67</ele>
		</rtept>
		<rtept lat="32.998153" lon="35.149365">
			<ele>67</ele>
		</rtept>
		<rtept lat="32.998049" lon="35.149815">
			<ele>67</ele>
		</rtept>
		<rtept lat="32.997955" lon="35.150472">
			<ele>68</ele>
		</rtept>
		<rtept lat="32.997899" lon="35.151235">
			<ele>67</ele>
		</rtept>
		<rtept lat="32.997892" lon="35.151544">
			<ele>68</ele>
		</rtept>
		<rtept lat="32.997878" lon="35.152105">
			<ele>69</ele>
		</rtept>
		<rtept lat="32.997896" lon="35.15278">
			<ele>73</ele>
		</rtept>
		<rtept lat="32.998298" lon="35.154591">
			<ele>90</ele>
		</rtept>
		<rtept lat="32.998409" lon="35.15567">
			<ele>95</ele>
		</rtept>
		<rtept lat="32.999072" lon="35.159511">
			<ele>113</ele>
		</rtept>
		<rtept lat="32.999154" lon="35.159457">
			<ele>113</ele>
		</rtept>
		<rtept lat="32.99936" lon="35.159323">
			<ele>113</ele>
		</rtept>
		<rtept lat="32.999418" lon="35.159265">
			<ele>113</ele>
		</rtept>
		<rtept lat="32.999639" lon="35.158873">
			<ele>113</ele>
		</rtept>
		<rtept lat="32.999672" lon="35.158571">
			<ele>114</ele>
		</rtept>
		<rtept lat="32.999692" lon="35.158502">
			<ele>114</ele>
		</rtept>
		<rtept lat="32.999994" lon="35.157939">
			<ele>115</ele>
		</rtept>
		<rtept lat="33.000077" lon="35.157881">
			<ele>116</ele>
		</rtept>
		<rtept lat="33.000149" lon="35.157901">
			<ele>117</ele>
		</rtept>
		<rtept lat="33.000302" lon="35.158015">
			<ele>115</ele>
		</rtept>
		<rtept lat="33.000378" lon="35.15804">
			<ele>116</ele>
		</rtept>
		<rtept lat="33.00051" lon="35.158035">
			<ele>116</ele>
		</rtept>
		<rtept lat="33.000587" lon="35.158009">
			<ele>116</ele>
		</rtept>
		<rtept lat="33.000723" lon="35.157909">
			<ele>115</ele>
		</rtept>
		<rtept lat="33.000816" lon="35.157796">
			<ele>114</ele>
		</rtept>
		<rtept lat="33.000847" lon="35.157703">
			<ele>114</ele>
		</rtept>
		<rtept lat="33.000932" lon="35.157597">
			<ele>113.5</ele>
		</rtept>
		<rtept lat="33.000944" lon="35.157582">
			<ele>113</ele>
		</rtept>
		<rtept lat="33.00126" lon="35.157416">
			<ele>108</ele>
		</rtept>
		<rtept lat="33.001393" lon="35.157209">
			<ele>107</ele>
		</rtept>
		<rtept lat="33.001518" lon="35.156841">
			<ele>105</ele>
		</rtept>
		<rtept lat="33.001545" lon="35.156557">
			<ele>103</ele>
		</rtept>
		<rtept lat="33.001566" lon="35.156124">
			<ele>101</ele>
		</rtept>
		<rtept lat="33.00153" lon="35.155898">
			<ele>100</ele>
		</rtept>
		<rtept lat="33.001551" lon="35.155479">
			<ele>98</ele>
		</rtept>
		<rtept lat="33.001572" lon="35.155309">
			<ele>97</ele>
		</rtept>
		<rtept lat="33.001652" lon="35.155145">
			<ele>98</ele>
		</rtept>
		<rtept lat="33.001691" lon="35.154965">
			<ele>98</ele>
		</rtept>
		<rtept lat="33.001723" lon="35.154727">
			<ele>98</ele>
		</rtept>
		<rtept lat="33.001704" lon="35.154389">
			<ele>97</ele>
		</rtept>
		<rtept lat="33.001754" lon="35.154126">
			<ele>96</ele>
		</rtept>
		<rtept lat="33.001918" lon="35.153739">
			<ele>96</ele>
		</rtept>
		<rtept lat="33.001845" lon="35.153658">
			<ele>95</ele>
		</rtept>
		<rtept lat="33.001704" lon="35.153476">
			<ele>93</ele>
		</rtept>
		<rtept lat="33.001573" lon="35.153366">
			<ele>92</ele>
		</rtept>
		<rtept lat="33.001479" lon="35.153241">
			<ele>91</ele>
		</rtept>
		<rtept lat="33.001393" lon="35.153177">
			<ele>91</ele>
		</rtept>
		<rtept lat="33.001328" lon="35.153021">
			<ele>90</ele>
		</rtept>
		<rtept lat="33.001289" lon="35.152895">
			<ele>90</ele>
		</rtept>
		<rtept lat="33.001238" lon="35.152787">
			<ele>90</ele>
		</rtept>
		<rtept lat="33.00107" lon="35.152642">
			<ele>90</ele>
		</rtept>
		<rtept lat="33.000968" lon="35.152527">
			<ele>90</ele>
		</rtept>
		<rtept lat="33.000863" lon="35.152431">
			<ele>90</ele>
		</rtept>
		<rtept lat="33.000772" lon="35.152399">
			<ele>90</ele>
		</rtept>
		<rtept lat="33.000679" lon="35.152222">
			<ele>90</ele>
		</rtept>
		<rtept lat="33.000603" lon="35.152018">
			<ele>91</ele>
		</rtept>
		<rtept lat="33.000583" lon="35.151898">
			<ele>91</ele>
		</rtept>
		<rtept lat="33.000482" lon="35.151801">
			<ele>91</ele>
		</rtept>
		<rtept lat="33.000427" lon="35.151736">
			<ele>91</ele>
		</rtept>
		<rtept lat="33.000257" lon="35.15167">
			<ele>90</ele>
		</rtept>
		<rtept lat="33.000177" lon="35.151606">
			<ele>90</ele>
		</rtept>
		<rtept lat="32.999972" lon="35.151531">
			<ele>89</ele>
		</rtept>
		<rtept lat="32.999836" lon="35.151503">
			<ele>88</ele>
		</rtept>
		<rtept lat="32.999756" lon="35.151465">
			<ele>87</ele>
		</rtept>
		<rtept lat="32.999549" lon="35.151312">
			<ele>86</ele>
		</rtept>
		<rtept lat="32.999518" lon="35.151228">
			<ele>87</ele>
		</rtept>
		<rtept lat="32.999489" lon="35.151054">
			<ele>88</ele>
		</rtept>
		<rtept lat="32.999353" lon="35.150828">
			<ele>88</ele>
		</rtept>
		<rtept lat="32.999297" lon="35.150714">
			<ele>88</ele>
		</rtept>
		<rtept lat="32.999278" lon="35.150613">
			<ele>87</ele>
		</rtept>
		<rtept lat="32.999305" lon="35.150509">
			<ele>87</ele>
		</rtept>
		<rtept lat="32.999359" lon="35.150365">
			<ele>87</ele>
		</rtept>
		<rtept lat="32.999388" lon="35.150288">
			<ele>87</ele>
		</rtept>
		<rtept lat="32.999391" lon="35.15006">
			<ele>85</ele>
		</rtept>
		<rtept lat="32.999427" lon="35.149915">
			<ele>85</ele>
		</rtept>
		<rtept lat="32.999492" lon="35.149798">
			<ele>84</ele>
		</rtept>
		<rtept lat="32.999649" lon="35.149621">
			<ele>84</ele>
		</rtept>
		<rtept lat="32.99973" lon="35.149559">
			<ele>84</ele>
		</rtept>
		<rtept lat="32.999815" lon="35.149517">
			<ele>84</ele>
		</rtept>
		<rtept lat="32.999981" lon="35.149384">
			<ele>84</ele>
		</rtept>
		<rtept lat="33.000322" lon="35.14932">
			<ele>83</ele>
		</rtept>
		<rtept lat="33.00041" lon="35.149331">
			<ele>82</ele>
		</rtept>
		<rtept lat="33.000491" lon="35.149301">
			<ele>82</ele>
		</rtept>
		<rtept lat="33.000644" lon="35.149228">
			<ele>81</ele>
		</rtept>
		<rtept lat="33.000802" lon="35.149069">
			<ele>79</ele>
		</rtept>
		<rtept lat="33.000973" lon="35.148789">
			<ele>76</ele>
		</rtept>
		<rtept lat="33.001084" lon="35.148669">
			<ele>74</ele>
		</rtept>
		<rtept lat="33.001212" lon="35.148559">
			<ele>72</ele>
		</rtept>
		<rtept lat="33.001386" lon="35.148455">
			<ele>72</ele>
		</rtept>
		<rtept lat="33.001533" lon="35.148466">
			<ele>73</ele>
		</rtept>
		<rtept lat="33.001808" lon="35.148399">
			<ele>74</ele>
		</rtept>
		<rtept lat="33.001935" lon="35.148146">
			<ele>72.5</ele>
		</rtept>
		<rtept lat="33.001961" lon="35.148095">
			<ele>71</ele>
		</rtept>
		<rtept lat="33.002312" lon="35.14788">
			<ele>70</ele>
		</rtept>
		<rtept lat="33.002402" lon="35.147876">
			<ele>70</ele>
		</rtept>
		<rtept lat="33.002682" lon="35.147923">
			<ele>70</ele>
		</rtept>
		<rtept lat="33.003068" lon="35.147924">
			<ele>71</ele>
		</rtept>
		<rtept lat="33.003217" lon="35.147952">
			<ele>72</ele>
		</rtept>
		<rtept lat="33.003766" lon="35.148147">
			<ele>73</ele>
		</rtept>
		<rtept lat="33.003996" lon="35.148202">
			<ele>73</ele>
		</rtept>
		<rtept lat="33.004188" lon="35.148184">
			<ele>73</ele>
		</rtept>
		<rtept lat="33.00441" lon="35.148249">
			<ele>74</ele>
		</rtept>
		<rtept lat="33.004699" lon="35.148267">
			<ele>73</ele>
		</rtept>
		<rtept lat="33.004779" lon="35.148307">
			<ele>74</ele>
		</rtept>
		<rtept lat="33.004967" lon="35.148343">
			<ele>73</ele>
		</rtept>
		<rtept lat="33.005207" lon="35.148372">
			<ele>72</ele>
		</rtept>
		<rtept lat="33.005311" lon="35.148354">
			<ele>71</ele>
		</rtept>
		<rtept lat="33.00537" lon="35.148403">
			<ele>72</ele>
		</rtept>
		<rtept lat="33.005535" lon="35.148434">
			<ele>70</ele>
		</rtept>
		<rtept lat="33.005607" lon="35.14843">
			<ele>70</ele>
		</rtept>
		<rtept lat="33.0057" lon="35.14846">
			<ele>69</ele>
		</rtept>
		<rtept lat="33.005714" lon="35.148477">
			<ele>69</ele>
		</rtept>
		<rtept lat="33.005758" lon="35.148529">
			<ele>69</ele>
		</rtept>
		<rtept lat="33.005833" lon="35.148667">
			<ele>71</ele>
		</rtept>
		<rtept lat="33.005931" lon="35.148822">
			<ele>69</ele>
		</rtept>
		<rtept lat="33.005999" lon="35.148967">
			<ele>70</ele>
		</rtept>
		<rtept lat="33.006053" lon="35.149046">
			<ele>70</ele>
		</rtept>
		<rtept lat="33.006205" lon="35.149173">
			<ele>68</ele>
		</rtept>
		<rtept lat="33.006327" lon="35.149362">
			<ele>68</ele>
		</rtept>
		<rtept lat="33.006374" lon="35.14953">
			<ele>69</ele>
		</rtept>
		<rtept lat="33.006391" lon="35.149603">
			<ele>68</ele>
		</rtept>
		<rtept lat="33.00636" lon="35.149767">
			<ele>70</ele>
		</rtept>
		<rtept lat="33.006364" lon="35.149846">
			<ele>70</ele>
		</rtept>
		<rtept lat="33.006368" lon="35.149922">
			<ele>70</ele>
		</rtept>
		<rtept lat="33.006393" lon="35.15003">
			<ele>68</ele>
		</rtept>
		<rtept lat="33.006354" lon="35.150131">
			<ele>70</ele>
		</rtept>
		<rtept lat="33.006333" lon="35.150285">
			<ele>69</ele>
		</rtept>
		<rtept lat="33.006303" lon="35.150441">
			<ele>69</ele>
		</rtept>
		<rtept lat="33.006319" lon="35.150659">
			<ele>68</ele>
		</rtept>
		<rtept lat="33.00632" lon="35.150796">
			<ele>68</ele>
		</rtept>
		<rtept lat="33.006359" lon="35.15101">
			<ele>67</ele>
		</rtept>
		<rtept lat="33.006421" lon="35.1512">
			<ele>64</ele>
		</rtept>
		<rtept lat="33.006395" lon="35.151282">
			<ele>64</ele>
		</rtept>
		<rtept lat="33.006414" lon="35.151341">
			<ele>64</ele>
		</rtept>
		<rtept lat="33.006453" lon="35.151371">
			<ele>64</ele>
		</rtept>
		<rtept lat="33.006495" lon="35.151304">
			<ele>61.5</ele>
		</rtept>
		<rtept lat="33.006587" lon="35.151008">
			<ele>61</ele>
		</rtept>
		<rtept lat="33.006702" lon="35.150805">
			<ele>60</ele>
		</rtept>
		<rtept lat="33.006765" lon="35.150741">
			<ele>59</ele>
		</rtept>
		<rtept lat="33.00697" lon="35.150688">
			<ele>58</ele>
		</rtept>
		<rtept lat="33.007005" lon="35.150635">
			<ele>58</ele>
		</rtept>
		<rtept lat="33.007021" lon="35.150385">
			<ele>59</ele>
		</rtept>
		<rtept lat="33.007019" lon="35.149886">
			<ele>59</ele>
		</rtept>
		<rtept lat="33.007003" lon="35.149513">
			<ele>57.5</ele>
		</rtept>
		<rtept lat="33.006949" lon="35.148943">
			<ele>56</ele>
		</rtept>
		<rtept lat="33.006934" lon="35.148351">
			<ele>55</ele>
		</rtept>
		<rtept lat="33.006913" lon="35.148204">
			<ele>55</ele>
		</rtept>
		<rtept lat="33.007012" lon="35.148057">
			<ele>53</ele>
		</rtept>
		<rtept lat="33.00707" lon="35.148025">
			<ele>53</ele>
		</rtept>
		<rtept lat="33.007238" lon="35.147976">
			<ele>52</ele>
		</rtept>
		<rtept lat="33.0077" lon="35.147974">
			<ele>54</ele>
		</rtept>
		<rtept lat="33.008012" lon="35.147948">
			<ele>54</ele>
		</rtept>
		<rtept lat="33.008187" lon="35.147907">
			<ele>55</ele>
		</rtept>
		<rtept lat="33.008193" lon="35.147882">
			<ele>55</ele>
		</rtept>
		<rtept lat="33.00842" lon="35.147302">
			<ele>54</ele>
		</rtept>
		<rtept lat="33.008501" lon="35.147161">
			<ele>54</ele>
		</rtept>
		<rtept lat="33.008685" lon="35.146743">
			<ele>54</ele>
		</rtept>
		<rtept lat="33.008954" lon="35.146291">
			<ele>54</ele>
		</rtept>
		<rtept lat="33.009033" lon="35.146099">
			<ele>54</ele>
		</rtept>
		<rtept lat="33.009153" lon="35.145937">
			<ele>54</ele>
		</rtept>
		<rtept lat="33.00931" lon="35.145761">
			<ele>54</ele>
		</rtept>
		<rtept lat="33.009366" lon="35.145739">
			<ele>54</ele>
		</rtept>
		<rtept lat="33.009454" lon="35.145732">
			<ele>54</ele>
		</rtept>
		<rtept lat="33.009507" lon="35.145757">
			<ele>54</ele>
		</rtept>
		<rtept lat="33.009537" lon="35.145795">
			<ele>55</ele>
		</rtept>
		<rtept lat="33.009549" lon="35.145852">
			<ele>55</ele>
		</rtept>
		<rtept lat="33.009633" lon="35.146392">
			<ele>56</ele>
		</rtept>
		<rtept lat="33.009709" lon="35.146675">
			<ele>57</ele>
		</rtept>
		<rtept lat="33.009792" lon="35.146815">
			<ele>58</ele>
		</rtept>
		<rtept lat="33.009901" lon="35.146925">
			<ele>59</ele>
		</rtept>
		<rtept lat="33.010201" lon="35.147074">
			<ele>59</ele>
		</rtept>
		<rtept lat="33.010522" lon="35.147356">
			<ele>61</ele>
		</rtept>
		<rtept lat="33.010916" lon="35.147569">
			<ele>62</ele>
		</rtept>
		<rtept lat="33.011013" lon="35.147663">
			<ele>62</ele>
		</rtept>
		<rtept lat="33.011071" lon="35.147744">
			<ele>63</ele>
		</rtept>
		<rtept lat="33.011088" lon="35.1478">
			<ele>63</ele>
		</rtept>
		<rtept lat="33.011079" lon="35.147949">
			<ele>64</ele>
		</rtept>
		<rtept lat="33.011068" lon="35.147993">
			<ele>64</ele>
		</rtept>
		<rtept lat="33.010978" lon="35.14818">
			<ele>64</ele>
		</rtept>
		<rtept lat="33.01094" lon="35.148311">
			<ele>65</ele>
		</rtept>
		<rtept lat="33.010911" lon="35.148471">
			<ele>66</ele>
		</rtept>
		<rtept lat="33.010925" lon="35.148599">
			<ele>66</ele>
		</rtept>
		<rtept lat="33.010989" lon="35.148801">
			<ele>66</ele>
		</rtept>
		<rtept lat="33.011111" lon="35.149013">
			<ele>67</ele>
		</rtept>
		<rtept lat="33.011182" lon="35.149111">
			<ele>67</ele>
		</rtept>
		<rtept lat="33.011291" lon="35.149223">
			<ele>67</ele>
		</rtept>
		<rtept lat="33.011446" lon="35.149334">
			<ele>66</ele>
		</rtept>
		<rtept lat="33.011513" lon="35.149435">
			<ele>66</ele>
		</rtept>
		<rtept lat="33.011541" lon="35.149603">
			<ele>67</ele>
		</rtept>
		<rtept lat="33.011548" lon="35.149862">
			<ele>68</ele>
		</rtept>
		<rtept lat="33.011583" lon="35.150074">
			<ele>69</ele>
		</rtept>
		<rtept lat="33.01164" lon="35.150233">
			<ele>69</ele>
		</rtept>
		<rtept lat="33.011729" lon="35.150369">
			<ele>70</ele>
		</rtept>
		<rtept lat="33.011787" lon="35.15042">
			<ele>69</ele>
		</rtept>
		<rtept lat="33.012021" lon="35.150532">
			<ele>69</ele>
		</rtept>
		<rtept lat="33.0123" lon="35.15062">
			<ele>69</ele>
		</rtept>
		<rtept lat="33.012551" lon="35.150662">
			<ele>69</ele>
		</rtept>
		<rtept lat="33.01263" lon="35.150664">
			<ele>69</ele>
		</rtept>
		<rtept lat="33.012768" lon="35.150667">
			<ele>69</ele>
		</rtept>
		<rtept lat="33.012911" lon="35.150688">
			<ele>69</ele>
		</rtept>
		<rtept lat="33.013407" lon="35.150812">
			<ele>72</ele>
		</rtept>
		<rtept lat="33.013659" lon="35.15079">
			<ele>71</ele>
		</rtept>
		<rtept lat="33.014045" lon="35.150687">
			<ele>69</ele>
		</rtept>
		<rtept lat="33.014405" lon="35.150657">
			<ele>70</ele>
		</rtept>
		<rtept lat="33.01454" lon="35.150595">
			<ele>69</ele>
		</rtept>
		<rtept lat="33.014611" lon="35.150499">
			<ele>69</ele>
		</rtept>
		<rtept lat="33.014673" lon="35.150343">
			<ele>69</ele>
		</rtept>
		<rtept lat="33.014723" lon="35.149959">
			<ele>68</ele>
		</rtept>
		<rtept lat="33.014917" lon="35.149973">
			<ele>69</ele>
		</rtept>
		<rtept lat="33.015065" lon="35.149876">
			<ele>69</ele>
		</rtept>
		<rtept lat="33.015235" lon="35.149833">
			<ele>69</ele>
		</rtept>
		<rtept lat="33.015571" lon="35.149595">
			<ele>70</ele>
		</rtept>
		<rtept lat="33.015761" lon="35.149508">
			<ele>70</ele>
		</rtept>
		<rtept lat="33.015813" lon="35.149318">
			<ele>69</ele>
		</rtept>
		<rtept lat="33.015804" lon="35.149055">
			<ele>68</ele>
		</rtept>
		<rtept lat="33.015907" lon="35.148505">
			<ele>67</ele>
		</rtept>
		<rtept lat="33.016004" lon="35.148441">
			<ele>66</ele>
		</rtept>
		<rtept lat="33.015948" lon="35.149063">
			<ele>67</ele>
		</rtept>
		<rtept lat="33.016011" lon="35.149184">
			<ele>68</ele>
		</rtept>
		<rtept lat="33.016331" lon="35.149225">
			<ele>69</ele>
		</rtept>
		<rtept lat="33.016467" lon="35.149122">
			<ele>68</ele>
		</rtept>
		<rtept lat="33.016583" lon="35.14897">
			<ele>67</ele>
		</rtept>
		<rtept lat="33.016581" lon="35.149056">
			<ele>68</ele>
		</rtept>
		<rtept lat="33.016583" lon="35.14897">
			<ele>67</ele>
		</rtept>
		<rtept lat="33.016627" lon="35.148819">
			<ele>66</ele>
		</rtept>
		<rtept lat="33.016727" lon="35.148549">
			<ele>66</ele>
		</rtept>
		<rtept lat="33.016835" lon="35.148192">
			<ele>65</ele>
		</rtept>
		<rtept lat="33.017114" lon="35.147472">
			<ele>67</ele>
		</rtept>
		<rtept lat="33.017191" lon="35.147231">
			<ele>68</ele>
		</rtept>
		<rtept lat="33.017203" lon="35.146986">
			<ele>68</ele>
		</rtept>
		<rtept lat="33.017168" lon="35.146261">
			<ele>68</ele>
		</rtept>
		<rtept lat="33.017183" lon="35.145965">
			<ele>68</ele>
		</rtept>
		<rtept lat="33.017189" lon="35.145637">
			<ele>67</ele>
		</rtept>
		<rtept lat="33.017226" lon="35.145351">
			<ele>66</ele>
		</rtept>
		<rtept lat="33.017259" lon="35.144989">
			<ele>66</ele>
		</rtept>
		<rtept lat="33.017489" lon="35.144616">
			<ele>66</ele>
		</rtept>
		<rtept lat="33.017579" lon="35.144425">
			<ele>65</ele>
		</rtept>
		<rtept lat="33.017656" lon="35.144238">
			<ele>64</ele>
		</rtept>
		<rtept lat="33.017675" lon="35.144251">
			<ele>65.5</ele>
		</rtept>
		<rtept lat="33.017842" lon="35.144365">
			<ele>67</ele>
		</rtept>
		<rtept lat="33.017976" lon="35.144047">
			<ele>65</ele>
		</rtept>
		<rtept lat="33.018068" lon="35.143797">
			<ele>64</ele>
		</rtept>
		<rtept lat="33.018094" lon="35.14369">
			<ele>63</ele>
		</rtept>
		<rtept lat="33.018135" lon="35.143459">
			<ele>62</ele>
		</rtept>
		<rtept lat="33.018153" lon="35.143255">
			<ele>60.5</ele>
		</rtept>
	</rte>
</gpx>