<?xml version='1.0' encoding='UTF-8'?>
<gpx version="1.1" creator="https://www.komoot.de" xmlns="http://www.topografix.com/GPX/1/1" xmlns:xsi="http://www.w3.org/2001/XMLSchema-instance" xsi:schemaLocation="http://www.topografix.com/GPX/1/1 http://www.topografix.com/GPX/1/1/gpx.xsd">
  <metadata>
    <name>View from – Erzsébet-kilátó loop from Virányos</name>
    <author>
      <link href="https://www.komoot.de">
        <text>komoot</text>
        <type>text/html</type>
      </link>
    </author>
  </metadata>
  <trk>
    <name>View from – Erzsébet-kilátó loop from Virányos</name>
    <trkseg>
      <trkpt lat="47.516534" lon="18.976314">
        <ele>236.339345</ele>
        <time>2024-11-09T19:58:51.384Z</time>
      </trkpt>
      <trkpt lat="47.516516" lon="18.976160">
        <ele>236.339345</ele>
        <time>2024-11-09T19:59:02.274Z</time>
      </trkpt>
      <trkpt lat="47.516363" lon="18.975166">
        <ele>236.339345</ele>
        <time>2024-11-09T20:00:13.008Z</time>
      </trkpt>
      <trkpt lat="47.516412" lon="18.975050">
        <ele>236.339345</ele>
        <time>2024-11-09T20:00:22.280Z</time>
      </trkpt>
      <trkpt lat="47.516427" lon="18.974910">
        <ele>236.868945</ele>
        <time>2024-11-09T20:00:31.858Z</time>
      </trkpt>
      <trkpt lat="47.516456" lon="18.974907">
        <ele>237.054628</ele>
        <time>2024-11-09T20:00:34.881Z</time>
      </trkpt>
      <trkpt lat="47.516495" lon="18.974709">
        <ele>237.944356</ele>
        <time>2024-11-09T20:00:49.306Z</time>
      </trkpt>
      <trkpt lat="47.516383" lon="18.974578">
        <ele>238.856016</ele>
        <time>2024-11-09T20:01:04.391Z</time>
      </trkpt>
      <trkpt lat="47.516298" lon="18.974238">
        <ele>240.419991</ele>
        <time>2024-11-09T20:01:31.490Z</time>
      </trkpt>
      <trkpt lat="47.516280" lon="18.974188">
        <ele>240.664413</ele>
        <time>2024-11-09T20:01:35.774Z</time>
      </trkpt>
      <trkpt lat="47.516561" lon="18.973947">
        <ele>242.738610</ele>
        <time>2024-11-09T20:02:14.434Z</time>
      </trkpt>
      <trkpt lat="47.516608" lon="18.973189">
        <ele>246.022258</ele>
        <time>2024-11-09T20:03:23.418Z</time>
      </trkpt>
      <trkpt lat="47.516487" lon="18.972533">
        <ele>250.327245</ele>
        <time>2024-11-09T20:04:31.904Z</time>
      </trkpt>
      <trkpt lat="47.516488" lon="18.972396">
        <ele>251.636920</ele>
        <time>2024-11-09T20:04:45.010Z</time>
      </trkpt>
      <trkpt lat="47.516586" lon="18.971826">
        <ele>257.259393</ele>
        <time>2024-11-09T20:05:39.857Z</time>
      </trkpt>
      <trkpt lat="47.516519" lon="18.971480">
        <ele>260.700105</ele>
        <time>2024-11-09T20:06:15.153Z</time>
      </trkpt>
      <trkpt lat="47.516071" lon="18.971483">
        <ele>267.041040</ele>
        <time>2024-11-09T20:07:24.729Z</time>
      </trkpt>
      <trkpt lat="47.515914" lon="18.971451">
        <ele>269.284132</ele>
        <time>2024-11-09T20:07:50.928Z</time>
      </trkpt>
      <trkpt lat="47.515915" lon="18.971160">
        <ele>272.065901</ele>
        <time>2024-11-09T20:08:25.388Z</time>
      </trkpt>
      <trkpt lat="47.515842" lon="18.971016">
        <ele>274.210764</ele>
        <time>2024-11-09T20:08:47.623Z</time>
      </trkpt>
      <trkpt lat="47.515838" lon="18.970814">
        <ele>277.774062</ele>
        <time>2024-11-09T20:09:13.627Z</time>
      </trkpt>
      <trkpt lat="47.515862" lon="18.970622">
        <ele>281.216999</ele>
        <time>2024-11-09T20:09:39.655Z</time>
      </trkpt>
      <trkpt lat="47.515790" lon="18.970502">
        <ele>284.047266</ele>
        <time>2024-11-09T20:10:02.454Z</time>
      </trkpt>
      <trkpt lat="47.515708" lon="18.970241">
        <ele>289.122922</ele>
        <time>2024-11-09T20:10:46.261Z</time>
      </trkpt>
      <trkpt lat="47.515713" lon="18.969998">
        <ele>293.409621</ele>
        <time>2024-11-09T20:11:26.182Z</time>
      </trkpt>
      <trkpt lat="47.515798" lon="18.969857">
        <ele>296.742131</ele>
        <time>2024-11-09T20:11:57.941Z</time>
      </trkpt>
      <trkpt lat="47.515915" lon="18.969427">
        <ele>304.916279</ele>
        <time>2024-11-09T20:13:15.683Z</time>
      </trkpt>
      <trkpt lat="47.515970" lon="18.969325">
        <ele>307.217683</ele>
        <time>2024-11-09T20:13:37.369Z</time>
      </trkpt>
      <trkpt lat="47.515984" lon="18.969093">
        <ele>311.324711</ele>
        <time>2024-11-09T20:14:16.893Z</time>
      </trkpt>
      <trkpt lat="47.515954" lon="18.968993">
        <ele>313.254082</ele>
        <time>2024-11-09T20:14:35.915Z</time>
      </trkpt>
      <trkpt lat="47.515915" lon="18.968961">
        <ele>314.418155</ele>
        <time>2024-11-09T20:14:47.409Z</time>
      </trkpt>
      <trkpt lat="47.515882" lon="18.968752">
        <ele>318.202714</ele>
        <time>2024-11-09T20:15:25.637Z</time>
      </trkpt>
      <trkpt lat="47.515817" lon="18.968617">
        <ele>321.119213</ele>
        <time>2024-11-09T20:15:55.681Z</time>
      </trkpt>
      <trkpt lat="47.515602" lon="18.968660">
        <ele>326.739314</ele>
        <time>2024-11-09T20:16:53.287Z</time>
      </trkpt>
      <trkpt lat="47.515474" lon="18.968623">
        <ele>330.117721</ele>
        <time>2024-11-09T20:17:27.511Z</time>
      </trkpt>
      <trkpt lat="47.515407" lon="18.968567">
        <ele>332.110787</ele>
        <time>2024-11-09T20:17:47.144Z</time>
      </trkpt>
      <trkpt lat="47.515310" lon="18.968443">
        <ele>335.430522</ele>
        <time>2024-11-09T20:18:18.969Z</time>
      </trkpt>
      <trkpt lat="47.515185" lon="18.968191">
        <ele>340.900828</ele>
        <time>2024-11-09T20:19:09.242Z</time>
      </trkpt>
      <trkpt lat="47.515172" lon="18.968000">
        <ele>344.259477</ele>
        <time>2024-11-09T20:19:38.285Z</time>
      </trkpt>
      <trkpt lat="47.515115" lon="18.967671">
        <ele>350.202010</ele>
        <time>2024-11-09T20:20:27.526Z</time>
      </trkpt>
      <trkpt lat="47.515114" lon="18.967476">
        <ele>353.613819</ele>
        <time>2024-11-09T20:20:55.184Z</time>
      </trkpt>
      <trkpt lat="47.515071" lon="18.967282">
        <ele>357.186141</ele>
        <time>2024-11-09T20:21:24.542Z</time>
      </trkpt>
      <trkpt lat="47.514953" lon="18.967092">
        <ele>361.702150</ele>
        <time>2024-11-09T20:22:02.194Z</time>
      </trkpt>
      <trkpt lat="47.514842" lon="18.966775">
        <ele>367.890344</ele>
        <time>2024-11-09T20:22:54.288Z</time>
      </trkpt>
      <trkpt lat="47.514756" lon="18.966561">
        <ele>372.015760</ele>
        <time>2024-11-09T20:23:29.637Z</time>
      </trkpt>
      <trkpt lat="47.514766" lon="18.966441">
        <ele>374.018854</ele>
        <time>2024-11-09T20:23:46.376Z</time>
      </trkpt>
      <trkpt lat="47.514745" lon="18.966308">
        <ele>376.281651</ele>
        <time>2024-11-09T20:24:05.366Z</time>
      </trkpt>
      <trkpt lat="47.514704" lon="18.966047">
        <ele>380.721007</ele>
        <time>2024-11-09T20:24:42.068Z</time>
      </trkpt>
      <trkpt lat="47.514631" lon="18.965866">
        <ele>384.213553</ele>
        <time>2024-11-09T20:25:10.699Z</time>
      </trkpt>
      <trkpt lat="47.514654" lon="18.965441">
        <ele>391.277033</ele>
        <time>2024-11-09T20:26:10.426Z</time>
      </trkpt>
      <trkpt lat="47.514624" lon="18.965308">
        <ele>393.600057</ele>
        <time>2024-11-09T20:26:31.089Z</time>
      </trkpt>
      <trkpt lat="47.514620" lon="18.965157">
        <ele>396.103576</ele>
        <time>2024-11-09T20:26:53.672Z</time>
      </trkpt>
      <trkpt lat="47.514642" lon="18.965098">
        <ele>397.220091</ele>
        <time>2024-11-09T20:27:04.101Z</time>
      </trkpt>
      <trkpt lat="47.514731" lon="18.965064">
        <ele>399.474659</ele>
        <time>2024-11-09T20:27:25.115Z</time>
      </trkpt>
      <trkpt lat="47.514744" lon="18.965008">
        <ele>400.455672</ele>
        <time>2024-11-09T20:27:34.749Z</time>
      </trkpt>
      <trkpt lat="47.514986" lon="18.964214">
        <ele>415.414636</ele>
        <time>2024-11-09T20:30:01.167Z</time>
      </trkpt>
      <trkpt lat="47.515265" lon="18.963608">
        <ele>429.195062</ele>
        <time>2024-11-09T20:32:11.818Z</time>
      </trkpt>
      <trkpt lat="47.515402" lon="18.963188">
        <ele>437.958887</ele>
        <time>2024-11-09T20:33:34.442Z</time>
      </trkpt>
      <trkpt lat="47.515508" lon="18.962356">
        <ele>453.867526</ele>
        <time>2024-11-09T20:35:53.475Z</time>
      </trkpt>
      <trkpt lat="47.515480" lon="18.961964">
        <ele>461.118689</ele>
        <time>2024-11-09T20:36:52.745Z</time>
      </trkpt>
      <trkpt lat="47.515516" lon="18.961644">
        <ele>463.832485</ele>
        <time>2024-11-09T20:37:38.184Z</time>
      </trkpt>
      <trkpt lat="47.515622" lon="18.961272">
        <ele>467.210015</ele>
        <time>2024-11-09T20:38:29.126Z</time>
      </trkpt>
      <trkpt lat="47.515691" lon="18.960763">
        <ele>471.552889</ele>
        <time>2024-11-09T20:39:25.373Z</time>
      </trkpt>
      <trkpt lat="47.515644" lon="18.960437">
        <ele>474.341428</ele>
        <time>2024-11-09T20:39:55.998Z</time>
      </trkpt>
      <trkpt lat="47.515666" lon="18.960240">
        <ele>476.011774</ele>
        <time>2024-11-09T20:40:13.497Z</time>
      </trkpt>
      <trkpt lat="47.515852" lon="18.960133">
        <ele>478.483336</ele>
        <time>2024-11-09T20:40:37.892Z</time>
      </trkpt>
      <trkpt lat="47.515914" lon="18.960109">
        <ele>479.277075</ele>
        <time>2024-11-09T20:40:45.416Z</time>
      </trkpt>
      <trkpt lat="47.516049" lon="18.960149">
        <ele>480.982330</ele>
        <time>2024-11-09T20:41:01.267Z</time>
      </trkpt>
      <trkpt lat="47.516117" lon="18.959909">
        <ele>483.159504</ele>
        <time>2024-11-09T20:41:21.027Z</time>
      </trkpt>
      <trkpt lat="47.516184" lon="18.959876">
        <ele>483.485500</ele>
        <time>2024-11-09T20:41:28.482Z</time>
      </trkpt>
      <trkpt lat="47.516160" lon="18.959758">
        <ele>483.774441</ele>
        <time>2024-11-09T20:41:37.288Z</time>
      </trkpt>
      <trkpt lat="47.516171" lon="18.959603">
        <ele>484.139861</ele>
        <time>2024-11-09T20:41:48.180Z</time>
      </trkpt>
      <trkpt lat="47.516197" lon="18.959563">
        <ele>484.270025</ele>
        <time>2024-11-09T20:41:52.170Z</time>
      </trkpt>
      <trkpt lat="47.516171" lon="18.959603">
        <ele>484.400189</ele>
        <time>2024-11-09T20:41:56.139Z</time>
      </trkpt>
      <trkpt lat="47.516160" lon="18.959758">
        <ele>484.765609</ele>
        <time>2024-11-09T20:42:06.858Z</time>
      </trkpt>
      <trkpt lat="47.516184" lon="18.959876">
        <ele>485.054550</ele>
        <time>2024-11-09T20:42:15.326Z</time>
      </trkpt>
      <trkpt lat="47.516212" lon="18.960061">
        <ele>485.499066</ele>
        <time>2024-11-09T20:42:28.393Z</time>
      </trkpt>
      <trkpt lat="47.516278" lon="18.960158">
        <ele>485.821901</ele>
        <time>2024-11-09T20:42:37.764Z</time>
      </trkpt>
      <trkpt lat="47.516363" lon="18.960228">
        <ele>486.159556</ele>
        <time>2024-11-09T20:42:47.812Z</time>
      </trkpt>
      <trkpt lat="47.516456" lon="18.960251">
        <ele>486.486885</ele>
        <time>2024-11-09T20:42:57.755Z</time>
      </trkpt>
      <trkpt lat="47.516538" lon="18.960217">
        <ele>486.782505</ele>
        <time>2024-11-09T20:43:06.754Z</time>
      </trkpt>
      <trkpt lat="47.516574" lon="18.960154">
        <ele>486.975994</ele>
        <time>2024-11-09T20:43:12.846Z</time>
      </trkpt>
      <trkpt lat="47.516561" lon="18.960309">
        <ele>487.342202</ele>
        <time>2024-11-09T20:43:24.018Z</time>
      </trkpt>
      <trkpt lat="47.516583" lon="18.960382">
        <ele>487.529626</ele>
        <time>2024-11-09T20:43:29.963Z</time>
      </trkpt>
      <trkpt lat="47.516561" lon="18.960309">
        <ele>487.717051</ele>
        <time>2024-11-09T20:43:35.806Z</time>
      </trkpt>
      <trkpt lat="47.516574" lon="18.960154">
        <ele>488.083258</ele>
        <time>2024-11-09T20:43:47.495Z</time>
      </trkpt>
      <trkpt lat="47.516607" lon="18.960162">
        <ele>488.199346</ele>
        <time>2024-11-09T20:43:51.093Z</time>
      </trkpt>
      <trkpt lat="47.516967" lon="18.960058">
        <ele>489.472678</ele>
        <time>2024-11-09T20:44:34.902Z</time>
      </trkpt>
      <trkpt lat="47.517676" lon="18.959679">
        <ele>493.619066</ele>
        <time>2024-11-09T20:46:15.404Z</time>
      </trkpt>
      <trkpt lat="47.518018" lon="18.959487">
        <ele>495.643484</ele>
        <time>2024-11-09T20:47:02.771Z</time>
      </trkpt>
      <trkpt lat="47.518099" lon="18.959421">
        <ele>496.155207</ele>
        <time>2024-11-09T20:47:13.786Z</time>
      </trkpt>
      <trkpt lat="47.518129" lon="18.959367">
        <ele>496.416580</ele>
        <time>2024-11-09T20:47:19.657Z</time>
      </trkpt>
      <trkpt lat="47.518118" lon="18.959280">
        <ele>496.747437</ele>
        <time>2024-11-09T20:47:26.663Z</time>
      </trkpt>
      <trkpt lat="47.518156" lon="18.959181">
        <ele>497.173094</ele>
        <time>2024-11-09T20:47:35.516Z</time>
      </trkpt>
      <trkpt lat="47.518221" lon="18.959150">
        <ele>497.551062</ele>
        <time>2024-11-09T20:47:43.260Z</time>
      </trkpt>
      <trkpt lat="47.518269" lon="18.959177">
        <ele>497.835261</ele>
        <time>2024-11-09T20:47:48.789Z</time>
      </trkpt>
      <trkpt lat="47.518374" lon="18.959062">
        <ele>498.558128</ele>
        <time>2024-11-09T20:48:02.936Z</time>
      </trkpt>
      <trkpt lat="47.518475" lon="18.958952">
        <ele>499.252084</ele>
        <time>2024-11-09T20:48:16.092Z</time>
      </trkpt>
      <trkpt lat="47.518543" lon="18.958858">
        <ele>499.164638</ele>
        <time>2024-11-09T20:48:25.378Z</time>
      </trkpt>
      <trkpt lat="47.518683" lon="18.958650">
        <ele>498.026514</ele>
        <time>2024-11-09T20:48:45.972Z</time>
      </trkpt>
      <trkpt lat="47.518641" lon="18.958594">
        <ele>497.702172</ele>
        <time>2024-11-09T20:48:52.190Z</time>
      </trkpt>
      <trkpt lat="47.517907" lon="18.958895">
        <ele>493.331414</ele>
        <time>2024-11-09T20:50:20.628Z</time>
      </trkpt>
      <trkpt lat="47.517470" lon="18.959166">
        <ele>490.612542</ele>
        <time>2024-11-09T20:51:16.673Z</time>
      </trkpt>
      <trkpt lat="47.517399" lon="18.959234">
        <ele>490.127289</ele>
        <time>2024-11-09T20:51:26.487Z</time>
      </trkpt>
      <trkpt lat="47.516726" lon="18.959870">
        <ele>485.382735</ele>
        <time>2024-11-09T20:52:54.466Z</time>
      </trkpt>
      <trkpt lat="47.516574" lon="18.960154">
        <ele>483.914837</ele>
        <time>2024-11-09T20:53:20.041Z</time>
      </trkpt>
      <trkpt lat="47.516538" lon="18.960217">
        <ele>483.580539</ele>
        <time>2024-11-09T20:53:25.922Z</time>
      </trkpt>
      <trkpt lat="47.516456" lon="18.960251">
        <ele>483.069785</ele>
        <time>2024-11-09T20:53:34.939Z</time>
      </trkpt>
      <trkpt lat="47.516363" lon="18.960228">
        <ele>482.504245</ele>
        <time>2024-11-09T20:53:44.900Z</time>
      </trkpt>
      <trkpt lat="47.516278" lon="18.960158">
        <ele>481.920864</ele>
        <time>2024-11-09T20:53:55.429Z</time>
      </trkpt>
      <trkpt lat="47.516179" lon="18.960177">
        <ele>481.322097</ele>
        <time>2024-11-09T20:54:06.254Z</time>
      </trkpt>
      <trkpt lat="47.516049" lon="18.960149">
        <ele>480.534154</ele>
        <time>2024-11-09T20:54:20.725Z</time>
      </trkpt>
      <trkpt lat="47.515914" lon="18.960109">
        <ele>479.708373</ele>
        <time>2024-11-09T20:54:36.370Z</time>
      </trkpt>
      <trkpt lat="47.515852" lon="18.960133">
        <ele>479.324000</ele>
        <time>2024-11-09T20:54:43.713Z</time>
      </trkpt>
      <trkpt lat="47.515666" lon="18.960240">
        <ele>477.512112</ele>
        <time>2024-11-09T20:55:07.226Z</time>
      </trkpt>
      <trkpt lat="47.515644" lon="18.960437">
        <ele>474.577672</ele>
        <time>2024-11-09T20:55:23.686Z</time>
      </trkpt>
      <trkpt lat="47.515691" lon="18.960763">
        <ele>469.678808</ele>
        <time>2024-11-09T20:55:51.811Z</time>
      </trkpt>
      <trkpt lat="47.515781" lon="18.961201">
        <ele>462.950617</ele>
        <time>2024-11-09T20:56:32.436Z</time>
      </trkpt>
      <trkpt lat="47.515882" lon="18.963314">
        <ele>428.284437</ele>
        <time>2024-11-09T21:00:43.837Z</time>
      </trkpt>
      <trkpt lat="47.515946" lon="18.963893">
        <ele>415.544421</ele>
        <time>2024-11-09T21:02:02.717Z</time>
      </trkpt>
      <trkpt lat="47.516056" lon="18.964894">
        <ele>393.522316</ele>
        <time>2024-11-09T21:04:18.062Z</time>
      </trkpt>
      <trkpt lat="47.516072" lon="18.965139">
        <ele>388.177445</ele>
        <time>2024-11-09T21:04:50.286Z</time>
      </trkpt>
      <trkpt lat="47.516125" lon="18.965911">
        <ele>372.210685</ele>
        <time>2024-11-09T21:06:33.139Z</time>
      </trkpt>
      <trkpt lat="47.516149" lon="18.966787">
        <ele>354.843347</ele>
        <time>2024-11-09T21:08:23.497Z</time>
      </trkpt>
      <trkpt lat="47.516211" lon="18.967439">
        <ele>341.800213</ele>
        <time>2024-11-09T21:09:42.268Z</time>
      </trkpt>
      <trkpt lat="47.516685" lon="18.967697">
        <ele>327.394221</ele>
        <time>2024-11-09T21:11:08.678Z</time>
      </trkpt>
      <trkpt lat="47.516715" lon="18.967981">
        <ele>323.101205</ele>
        <time>2024-11-09T21:11:41.442Z</time>
      </trkpt>
      <trkpt lat="47.516721" lon="18.968348">
        <ele>317.618574</ele>
        <time>2024-11-09T21:12:21.864Z</time>
      </trkpt>
      <trkpt lat="47.516383" lon="18.969566">
        <ele>297.952400</ele>
        <time>2024-11-09T21:14:33.003Z</time>
      </trkpt>
      <trkpt lat="47.516328" lon="18.969880">
        <ele>293.107733</ele>
        <time>2024-11-09T21:15:04.881Z</time>
      </trkpt>
      <trkpt lat="47.516388" lon="18.970000">
        <ele>290.877877</ele>
        <time>2024-11-09T21:15:19.804Z</time>
      </trkpt>
      <trkpt lat="47.516495" lon="18.970027">
        <ele>288.525111</ele>
        <time>2024-11-09T21:15:35.838Z</time>
      </trkpt>
      <trkpt lat="47.516572" lon="18.969994">
        <ele>286.969318</ele>
        <time>2024-11-09T21:15:47.197Z</time>
      </trkpt>
      <trkpt lat="47.516402" lon="18.970446">
        <ele>280.187734</ele>
        <time>2024-11-09T21:16:38.343Z</time>
      </trkpt>
      <trkpt lat="47.516371" lon="18.970671">
        <ele>277.177678</ele>
        <time>2024-11-09T21:17:01.321Z</time>
      </trkpt>
      <trkpt lat="47.516361" lon="18.970925">
        <ele>273.842578</ele>
        <time>2024-11-09T21:17:26.915Z</time>
      </trkpt>
      <trkpt lat="47.516395" lon="18.971204">
        <ele>270.126372</ele>
        <time>2024-11-09T21:17:54.947Z</time>
      </trkpt>
      <trkpt lat="47.516450" lon="18.971357">
        <ele>267.854449</ele>
        <time>2024-11-09T21:18:11.842Z</time>
      </trkpt>
      <trkpt lat="47.516519" lon="18.971480">
        <ele>265.758529</ele>
        <time>2024-11-09T21:18:27.312Z</time>
      </trkpt>
      <trkpt lat="47.516586" lon="18.971826">
        <ele>261.040420</ele>
        <time>2024-11-09T21:19:02.811Z</time>
      </trkpt>
      <trkpt lat="47.516488" lon="18.972396">
        <ele>253.649248</ele>
        <time>2024-11-09T21:19:58.178Z</time>
      </trkpt>
      <trkpt lat="47.516487" lon="18.972533">
        <ele>252.767284</ele>
        <time>2024-11-09T21:20:10.361Z</time>
      </trkpt>
      <trkpt lat="47.516608" lon="18.973189">
        <ele>248.389753</ele>
        <time>2024-11-09T21:21:09.291Z</time>
      </trkpt>
      <trkpt lat="47.516561" lon="18.973947">
        <ele>243.489756</ele>
        <time>2024-11-09T21:22:11.049Z</time>
      </trkpt>
      <trkpt lat="47.516280" lon="18.974188">
        <ele>240.394552</ele>
        <time>2024-11-09T21:22:47.157Z</time>
      </trkpt>
      <trkpt lat="47.516298" lon="18.974238">
        <ele>240.029815</ele>
        <time>2024-11-09T21:22:51.238Z</time>
      </trkpt>
      <trkpt lat="47.516383" lon="18.974578">
        <ele>237.695986</ele>
        <time>2024-11-09T21:23:17.258Z</time>
      </trkpt>
      <trkpt lat="47.516495" lon="18.974709">
        <ele>236.813158</ele>
        <time>2024-11-09T21:23:32.004Z</time>
      </trkpt>
      <trkpt lat="47.516456" lon="18.974907">
        <ele>236.813158</ele>
        <time>2024-11-09T21:23:46.225Z</time>
      </trkpt>
      <trkpt lat="47.516427" lon="18.974910">
        <ele>236.813158</ele>
        <time>2024-11-09T21:23:49.202Z</time>
      </trkpt>
      <trkpt lat="47.516412" lon="18.975050">
        <ele>236.813158</ele>
        <time>2024-11-09T21:23:58.762Z</time>
      </trkpt>
      <trkpt lat="47.516363" lon="18.975166">
        <ele>236.813158</ele>
        <time>2024-11-09T21:24:08.049Z</time>
      </trkpt>
      <trkpt lat="47.516516" lon="18.976160">
        <ele>236.813158</ele>
        <time>2024-11-09T21:25:20.095Z</time>
      </trkpt>
      <trkpt lat="47.516534" lon="18.976314">
        <ele>236.813158</ele>
        <time>2024-11-09T21:25:31.232Z</time>
      </trkpt>
    </trkseg>
  </trk>
</gpx>