<?xml version="1.0" encoding="UTF-8" standalone="yes"?>
<gpx xmlns="http://www.topografix.com/GPX/1/1" xmlns:xsi="http://www.w3.org/2001/XMLSchema-instance" version="1.1" creator="IsraelHikingMap" xsi:schemaLocation="http://www.topografix.com/GPX/1/1 http://www.topografix.com/GPX/1/1/gpx.xsd">
  <metadata>
    <bounds maxlat="30.932909" maxlon="34.773595" minlat="30.900547" minlon="34.723265"></bounds>
  </metadata>
  <trk>
    <name>מסלול 1</name>
    <desc></desc>
    <extensions>
      <Color xmlns="">#0000FF</Color>
      <Opacity xmlns="">0.4</Opacity>
      <Weight xmlns="">9</Weight>
    </extensions>
    <trkseg>
      <trkpt lat="30.906405546612717" lon="34.77250146905894">
        <ele>452.82609999999795</ele>
      </trkpt>
      <trkpt lat="30.906405546612717" lon="34.77250146905894">
        <ele>452.82609999999795</ele>
      </trkpt>
      <extensions>
        <RoutingType xmlns="">Hike</RoutingType>
      </extensions>
    </trkseg>
    <trkseg>
      <trkpt lat="30.906417" lon="34.772459">
        <ele>452</ele>
      </trkpt>
      <trkpt lat="30.906267" lon="34.772421">
        <ele>453.02055400000563</ele>
      </trkpt>
      <trkpt lat="30.906024" lon="34.772298">
        <ele>452.59242399999494</ele>
      </trkpt>
      <extensions>
        <RoutingType xmlns="">Hike</RoutingType>
      </extensions>
    </trkseg>
    <trkseg>
      <trkpt lat="30.906024" lon="34.772298">
        <ele>452.59242399999494</ele>
      </trkpt>
      <trkpt lat="30.905418" lon="34.772041">
        <ele>453.5897819999964</ele>
      </trkpt>
      <trkpt lat="30.905354" lon="34.771801">
        <ele>453.8202460000034</ele>
      </trkpt>
      <trkpt lat="30.905338" lon="34.77167">
        <ele>453.6615319999996</ele>
      </trkpt>
      <trkpt lat="30.905355" lon="34.771594">
        <ele>453.3266390000008</ele>
      </trkpt>
      <trkpt lat="30.90544" lon="34.771436">
        <ele>452.45159600000943</ele>
      </trkpt>
      <trkpt lat="30.905498" lon="34.771287">
        <ele>451.7061889999982</ele>
      </trkpt>
      <trkpt lat="30.905549" lon="34.771024">
        <ele>450.5754749999869</ele>
      </trkpt>
      <trkpt lat="30.905664" lon="34.770588">
        <ele>448.5913239999818</ele>
      </trkpt>
      <trkpt lat="30.905724" lon="34.769863">
        <ele>446</ele>
      </trkpt>
      <trkpt lat="30.905727" lon="34.76951">
        <ele>446</ele>
      </trkpt>
      <trkpt lat="30.905756" lon="34.769171">
        <ele>445</ele>
      </trkpt>
      <trkpt lat="30.905807" lon="34.768854">
        <ele>445</ele>
      </trkpt>
      <trkpt lat="30.905915" lon="34.768492">
        <ele>444.8602229999942</ele>
      </trkpt>
      <trkpt lat="30.905942" lon="34.768383">
        <ele>445.9471830000002</ele>
      </trkpt>
      <trkpt lat="30.905946" lon="34.768291">
        <ele>445.6158909999922</ele>
      </trkpt>
      <trkpt lat="30.905937" lon="34.767994">
        <ele>445</ele>
      </trkpt>
      <trkpt lat="30.905872" lon="34.767618">
        <ele>445.80758200000446</ele>
      </trkpt>
      <trkpt lat="30.905864" lon="34.767367">
        <ele>446</ele>
      </trkpt>
      <trkpt lat="30.905839" lon="34.767151">
        <ele>445.9262390000008</ele>
      </trkpt>
      <trkpt lat="30.90565" lon="34.766044">
        <ele>445.24565000000484</ele>
      </trkpt>
      <trkpt lat="30.905658" lon="34.765673">
        <ele>445.27445799999623</ele>
      </trkpt>
      <trkpt lat="30.905685" lon="34.765577">
        <ele>445.3716849999937</ele>
      </trkpt>
      <trkpt lat="30.906003" lon="34.764933">
        <ele>447.03360599998814</ele>
      </trkpt>
      <trkpt lat="30.906095" lon="34.764824">
        <ele>447.6961900000042</ele>
      </trkpt>
      <extensions>
        <RoutingType xmlns="">Hike</RoutingType>
      </extensions>
    </trkseg>
    <trkseg>
      <trkpt lat="30.906095" lon="34.764824">
        <ele>447.6961900000042</ele>
      </trkpt>
      <trkpt lat="30.90614" lon="34.76477">
        <ele>447.94690999999693</ele>
      </trkpt>
      <trkpt lat="30.906354" lon="34.764495">
        <ele>447.5615080000025</ele>
      </trkpt>
      <trkpt lat="30.90645" lon="34.764404">
        <ele>448.1264499999984</ele>
      </trkpt>
      <trkpt lat="30.906547" lon="34.764352">
        <ele>448.47574699999905</ele>
      </trkpt>
      <trkpt lat="30.906799" lon="34.764288">
        <ele>449.38319899999806</ele>
      </trkpt>
      <trkpt lat="30.906908" lon="34.764237">
        <ele>449.7757080000051</ele>
      </trkpt>
      <trkpt lat="30.90706" lon="34.764086">
        <ele>450.5263140000038</ele>
      </trkpt>
      <trkpt lat="30.907253" lon="34.763941">
        <ele>452</ele>
      </trkpt>
      <trkpt lat="30.907391" lon="34.7638">
        <ele>452</ele>
      </trkpt>
      <trkpt lat="30.907533" lon="34.763714">
        <ele>452.026333000003</ele>
      </trkpt>
      <trkpt lat="30.907788" lon="34.763626">
        <ele>453.07194999999274</ele>
      </trkpt>
      <trkpt lat="30.908027" lon="34.763429">
        <ele>454</ele>
      </trkpt>
      <trkpt lat="30.908411" lon="34.763255">
        <ele>456</ele>
      </trkpt>
      <trkpt lat="30.908835" lon="34.762837">
        <ele>458.4296699999986</ele>
      </trkpt>
      <trkpt lat="30.909176" lon="34.762555">
        <ele>459.88555199999064</ele>
      </trkpt>
      <trkpt lat="30.909491" lon="34.76229">
        <ele>462.1416019999933</ele>
      </trkpt>
      <trkpt lat="30.90978" lon="34.762123">
        <ele>465.066197000011</ele>
      </trkpt>
      <trkpt lat="30.910044" lon="34.762025">
        <ele>469.2217509999846</ele>
      </trkpt>
      <trkpt lat="30.910315" lon="34.761857">
        <ele>472.3682299999905</ele>
      </trkpt>
      <trkpt lat="30.910434" lon="34.76183">
        <ele>473.1676520000451</ele>
      </trkpt>
      <trkpt lat="30.910911" lon="34.761829">
        <ele>476.07737399997404</ele>
      </trkpt>
      <trkpt lat="30.911339" lon="34.761926">
        <ele>477.47763000004534</ele>
      </trkpt>
      <trkpt lat="30.911704" lon="34.762091">
        <ele>482.6585230000005</ele>
      </trkpt>
      <trkpt lat="30.9118" lon="34.762084">
        <ele>485.3988839999902</ele>
      </trkpt>
      <trkpt lat="30.912191" lon="34.761807">
        <ele>493.4663559999626</ele>
      </trkpt>
      <trkpt lat="30.912375" lon="34.761731">
        <ele>496.9333099999103</ele>
      </trkpt>
      <trkpt lat="30.912462" lon="34.761724">
        <ele>496.68124000003627</ele>
      </trkpt>
      <trkpt lat="30.912595" lon="34.761775">
        <ele>499.02693999999974</ele>
      </trkpt>
      <trkpt lat="30.91279" lon="34.761897">
        <ele>504.82454999992115</ele>
      </trkpt>
      <trkpt lat="30.912849" lon="34.761913">
        <ele>506.16412600001604</ele>
      </trkpt>
      <trkpt lat="30.913045" lon="34.761908">
        <ele>508.8072599999423</ele>
      </trkpt>
      <trkpt lat="30.913174" lon="34.761877">
        <ele>507.8317639999632</ele>
      </trkpt>
      <trkpt lat="30.913335" lon="34.761878">
        <ele>509.0200940000859</ele>
      </trkpt>
      <trkpt lat="30.913652" lon="34.761928">
        <ele>508.30425999998215</ele>
      </trkpt>
      <trkpt lat="30.914026" lon="34.761913">
        <ele>511.6280259999994</ele>
      </trkpt>
      <trkpt lat="30.914489" lon="34.761765">
        <ele>517.7265850001199</ele>
      </trkpt>
      <trkpt lat="30.914956" lon="34.76153">
        <ele>520.3307859999836</ele>
      </trkpt>
      <trkpt lat="30.915579" lon="34.761094">
        <ele>526.6009070000191</ele>
      </trkpt>
      <trkpt lat="30.915684" lon="34.761">
        <ele>527.3292519999382</ele>
      </trkpt>
      <trkpt lat="30.915809" lon="34.760852">
        <ele>529.9690969999892</ele>
      </trkpt>
      <trkpt lat="30.915877" lon="34.760747">
        <ele>531.2036870000347</ele>
      </trkpt>
      <trkpt lat="30.915934" lon="34.760609">
        <ele>529.3493500000168</ele>
      </trkpt>
      <trkpt lat="30.916019" lon="34.760537">
        <ele>528.218636000006</ele>
      </trkpt>
      <trkpt lat="30.916144" lon="34.760505">
        <ele>528.1758440000413</ele>
      </trkpt>
      <trkpt lat="30.916163" lon="34.760387">
        <ele>526.2024960000072</ele>
      </trkpt>
      <extensions>
        <RoutingType xmlns="">Hike</RoutingType>
      </extensions>
    </trkseg>
    <trkseg>
      <trkpt lat="30.916163" lon="34.760387">
        <ele>526.2024960000072</ele>
      </trkpt>
      <trkpt lat="30.916178" lon="34.7603">
        <ele>526.0554100000281</ele>
      </trkpt>
      <trkpt lat="30.916225" lon="34.760169">
        <ele>524.737443999979</ele>
      </trkpt>
      <trkpt lat="30.916445" lon="34.759749">
        <ele>523.7208830000181</ele>
      </trkpt>
      <trkpt lat="30.91656" lon="34.759581">
        <ele>523.0510970000196</ele>
      </trkpt>
      <trkpt lat="30.916632" lon="34.75943">
        <ele>523.5430539999843</ele>
      </trkpt>
      <trkpt lat="30.916661" lon="34.759289">
        <ele>524.2308449999373</ele>
      </trkpt>
      <trkpt lat="30.916661" lon="34.759051">
        <ele>526.8019589999703</ele>
      </trkpt>
      <trkpt lat="30.916628" lon="34.758899">
        <ele>528.7805760000192</ele>
      </trkpt>
      <trkpt lat="30.916403" lon="34.758313">
        <ele>533.0983910000118</ele>
      </trkpt>
      <trkpt lat="30.916221" lon="34.758012">
        <ele>536.0421069999993</ele>
      </trkpt>
      <trkpt lat="30.915949" lon="34.75784">
        <ele>540.2837749999958</ele>
      </trkpt>
      <trkpt lat="30.91584" lon="34.757753">
        <ele>537.174820999996</ele>
      </trkpt>
      <trkpt lat="30.915753" lon="34.757669">
        <ele>539.0221340000144</ele>
      </trkpt>
      <trkpt lat="30.91557" lon="34.757433">
        <ele>541.7432430000231</ele>
      </trkpt>
      <trkpt lat="30.915395" lon="34.757282">
        <ele>545.5556809999589</ele>
      </trkpt>
      <trkpt lat="30.915327" lon="34.757145">
        <ele>545.7897459999808</ele>
      </trkpt>
      <trkpt lat="30.915314" lon="34.757021">
        <ele>544.7778650000546</ele>
      </trkpt>
      <trkpt lat="30.91532" lon="34.756908">
        <ele>543.4119839999566</ele>
      </trkpt>
      <trkpt lat="30.915344" lon="34.756799">
        <ele>543.7648819999749</ele>
      </trkpt>
      <trkpt lat="30.91543" lon="34.756596">
        <ele>545.0943379999467</ele>
      </trkpt>
      <trkpt lat="30.915586" lon="34.756371">
        <ele>548.4642319999584</ele>
      </trkpt>
      <trkpt lat="30.915687" lon="34.756297">
        <ele>550.5960239998967</ele>
      </trkpt>
      <trkpt lat="30.9158" lon="34.756268">
        <ele>551.4314560000385</ele>
      </trkpt>
      <trkpt lat="30.91618" lon="34.756237">
        <ele>551.160324000034</ele>
      </trkpt>
      <trkpt lat="30.916364" lon="34.756177">
        <ele>552.0397379999795</ele>
      </trkpt>
      <trkpt lat="30.916782" lon="34.756071">
        <ele>550.726411000006</ele>
      </trkpt>
      <trkpt lat="30.916924" lon="34.75601">
        <ele>549.1959859998788</ele>
      </trkpt>
      <trkpt lat="30.917197" lon="34.755808">
        <ele>547.0539699999272</ele>
      </trkpt>
      <trkpt lat="30.917846" lon="34.755054">
        <ele>540.4354999999609</ele>
      </trkpt>
      <trkpt lat="30.918135" lon="34.754798">
        <ele>540.4261419999839</ele>
      </trkpt>
      <trkpt lat="30.918327" lon="34.754751">
        <ele>539.6710690000118</ele>
      </trkpt>
      <trkpt lat="30.918533" lon="34.754742">
        <ele>539.5076229999959</ele>
      </trkpt>
      <trkpt lat="30.918489" lon="34.754704">
        <ele>540.0333690000625</ele>
      </trkpt>
      <extensions>
        <RoutingType xmlns="">Hike</RoutingType>
      </extensions>
    </trkseg>
    <trkseg>
      <trkpt lat="30.918489" lon="34.754704">
        <ele>540.0333690000625</ele>
      </trkpt>
      <trkpt lat="30.918533" lon="34.754742">
        <ele>539.5076229999959</ele>
      </trkpt>
      <trkpt lat="30.919026" lon="34.75435">
        <ele>541.2725739999387</ele>
      </trkpt>
      <trkpt lat="30.919269" lon="34.754179">
        <ele>542.3810219999914</ele>
      </trkpt>
      <trkpt lat="30.919499" lon="34.753937">
        <ele>545</ele>
      </trkpt>
      <trkpt lat="30.919646" lon="34.753861">
        <ele>545</ele>
      </trkpt>
      <trkpt lat="30.91973" lon="34.753789">
        <ele>545</ele>
      </trkpt>
      <trkpt lat="30.919779" lon="34.753716">
        <ele>544.262063000032</ele>
      </trkpt>
      <trkpt lat="30.91988" lon="34.753509">
        <ele>537.7983230000505</ele>
      </trkpt>
      <trkpt lat="30.919923" lon="34.753324">
        <ele>532.8911139999573</ele>
      </trkpt>
      <trkpt lat="30.919936" lon="34.753165">
        <ele>528.9876300000651</ele>
      </trkpt>
      <trkpt lat="30.919839" lon="34.752738">
        <ele>531.9610989999915</ele>
      </trkpt>
      <trkpt lat="30.919829" lon="34.752571">
        <ele>535.8213709999304</ele>
      </trkpt>
      <trkpt lat="30.919854" lon="34.752442">
        <ele>536.4681019999321</ele>
      </trkpt>
      <trkpt lat="30.919912" lon="34.752341">
        <ele>538.7511359999639</ele>
      </trkpt>
      <trkpt lat="30.920136" lon="34.752036">
        <ele>540.1177040000985</ele>
      </trkpt>
      <trkpt lat="30.920418" lon="34.751752">
        <ele>536.0234739999628</ele>
      </trkpt>
      <trkpt lat="30.920479" lon="34.751664">
        <ele>533.2933519999524</ele>
      </trkpt>
      <trkpt lat="30.92054" lon="34.751516">
        <ele>528.3383760000779</ele>
      </trkpt>
      <trkpt lat="30.92055" lon="34.751406">
        <ele>526.3340680000733</ele>
      </trkpt>
      <trkpt lat="30.92054" lon="34.751251">
        <ele>524.9836930000697</ele>
      </trkpt>
      <trkpt lat="30.920431" lon="34.750914">
        <ele>526.8902869999843</ele>
      </trkpt>
      <trkpt lat="30.920425" lon="34.750814">
        <ele>526.6385419999106</ele>
      </trkpt>
      <trkpt lat="30.920507" lon="34.750431">
        <ele>523.0805129999949</ele>
      </trkpt>
      <trkpt lat="30.920542" lon="34.75036">
        <ele>522.9688819999565</ele>
      </trkpt>
      <trkpt lat="30.920717" lon="34.750152">
        <ele>526.4279420000066</ele>
      </trkpt>
      <trkpt lat="30.920809" lon="34.749999">
        <ele>531.1156179999116</ele>
      </trkpt>
      <trkpt lat="30.920853" lon="34.749865">
        <ele>535.6168680000128</ele>
      </trkpt>
      <trkpt lat="30.920853" lon="34.749763">
        <ele>538.3636660000011</ele>
      </trkpt>
      <trkpt lat="30.920815" lon="34.749496">
        <ele>541.3048290000193</ele>
      </trkpt>
      <trkpt lat="30.920702" lon="34.749247">
        <ele>536.4974939999406</ele>
      </trkpt>
      <trkpt lat="30.920632" lon="34.749156">
        <ele>537.5836279999717</ele>
      </trkpt>
      <trkpt lat="30.920574" lon="34.749108">
        <ele>534.0627899999922</ele>
      </trkpt>
      <trkpt lat="30.920435" lon="34.749014">
        <ele>532.8852630000229</ele>
      </trkpt>
      <trkpt lat="30.920045" lon="34.748868">
        <ele>531.0820449999937</ele>
      </trkpt>
      <trkpt lat="30.920447" lon="34.748856">
        <ele>533.1345010000878</ele>
      </trkpt>
      <trkpt lat="30.92052" lon="34.748877">
        <ele>532.2738620000091</ele>
      </trkpt>
      <trkpt lat="30.920558" lon="34.748916">
        <ele>532.4323060000329</ele>
      </trkpt>
      <trkpt lat="30.920658" lon="34.749085">
        <ele>535.6066790000259</ele>
      </trkpt>
      <trkpt lat="30.920767" lon="34.749173">
        <ele>537.0398769999638</ele>
      </trkpt>
      <trkpt lat="30.920993" lon="34.749271">
        <ele>537.6290780000036</ele>
      </trkpt>
      <trkpt lat="30.921124" lon="34.749265">
        <ele>537.1357410000082</ele>
      </trkpt>
      <trkpt lat="30.921309" lon="34.749165">
        <ele>529.5410100000472</ele>
      </trkpt>
      <trkpt lat="30.921414" lon="34.749071">
        <ele>529.5131769999875</ele>
      </trkpt>
      <trkpt lat="30.921522" lon="34.74892">
        <ele>529.4373680000299</ele>
      </trkpt>
      <trkpt lat="30.921698" lon="34.748748">
        <ele>534.6535160000267</ele>
      </trkpt>
      <trkpt lat="30.92183" lon="34.748541">
        <ele>537.5431789999889</ele>
      </trkpt>
      <trkpt lat="30.92192" lon="34.748315">
        <ele>537.5956499999593</ele>
      </trkpt>
      <trkpt lat="30.921958" lon="34.748167">
        <ele>534.8084760000502</ele>
      </trkpt>
      <trkpt lat="30.921974" lon="34.748033">
        <ele>532.8317520000082</ele>
      </trkpt>
      <trkpt lat="30.921927" lon="34.747499">
        <ele>518.9617069999631</ele>
      </trkpt>
      <trkpt lat="30.921824" lon="34.747248">
        <ele>518.9661759999594</ele>
      </trkpt>
      <trkpt lat="30.921721" lon="34.747066">
        <ele>519.6827749999006</ele>
      </trkpt>
      <trkpt lat="30.921424" lon="34.746668">
        <ele>523.9674600000326</ele>
      </trkpt>
      <trkpt lat="30.921233" lon="34.746367">
        <ele>522.2577359999791</ele>
      </trkpt>
      <trkpt lat="30.921435" lon="34.746413">
        <ele>522.1330109999562</ele>
      </trkpt>
      <trkpt lat="30.921533" lon="34.746478">
        <ele>519.5598360000326</ele>
      </trkpt>
      <trkpt lat="30.921785" lon="34.746788">
        <ele>515.7251290000299</ele>
      </trkpt>
      <trkpt lat="30.921825" lon="34.746857">
        <ele>514.8860960000493</ele>
      </trkpt>
      <trkpt lat="30.921867" lon="34.746982">
        <ele>514.5728090000748</ele>
      </trkpt>
      <trkpt lat="30.921992" lon="34.747545">
        <ele>519.3389660000757</ele>
      </trkpt>
      <trkpt lat="30.922175" lon="34.747872">
        <ele>521.5318140000572</ele>
      </trkpt>
      <trkpt lat="30.92226" lon="34.748056">
        <ele>525.9799439999633</ele>
      </trkpt>
      <trkpt lat="30.92235" lon="34.748171">
        <ele>532.2012049999921</ele>
      </trkpt>
      <trkpt lat="30.922403" lon="34.74821">
        <ele>533.0942530000029</ele>
      </trkpt>
      <trkpt lat="30.922469" lon="34.748236">
        <ele>533.8000489999718</ele>
      </trkpt>
      <trkpt lat="30.922549" lon="34.748235">
        <ele>531.4078669999958</ele>
      </trkpt>
      <trkpt lat="30.922608" lon="34.748213">
        <ele>531.0621709999987</ele>
      </trkpt>
      <trkpt lat="30.922689" lon="34.748151">
        <ele>530.7020710000124</ele>
      </trkpt>
      <trkpt lat="30.922861" lon="34.747938">
        <ele>524.757482999933</ele>
      </trkpt>
      <trkpt lat="30.923029" lon="34.747582">
        <ele>518.8642979999904</ele>
      </trkpt>
      <trkpt lat="30.923101" lon="34.747477">
        <ele>515.9830069999653</ele>
      </trkpt>
      <trkpt lat="30.923172" lon="34.74728">
        <ele>517.6950520000287</ele>
      </trkpt>
      <trkpt lat="30.923229" lon="34.747481">
        <ele>512.2235630000141</ele>
      </trkpt>
      <trkpt lat="30.923269" lon="34.747543">
        <ele>509.9549329999595</ele>
      </trkpt>
      <trkpt lat="30.923279" lon="34.747621">
        <ele>508.8962049999136</ele>
      </trkpt>
      <trkpt lat="30.923219" lon="34.74802">
        <ele>508.5889929999962</ele>
      </trkpt>
      <trkpt lat="30.923232" lon="34.74848">
        <ele>514.3674560000359</ele>
      </trkpt>
      <trkpt lat="30.92326" lon="34.748634">
        <ele>514.2162140000328</ele>
      </trkpt>
      <trkpt lat="30.923315" lon="34.748763">
        <ele>514.7517870000011</ele>
      </trkpt>
      <trkpt lat="30.923381" lon="34.748811">
        <ele>511.9870120000551</ele>
      </trkpt>
      <trkpt lat="30.923449" lon="34.748823">
        <ele>509.6247559999574</ele>
      </trkpt>
      <trkpt lat="30.923597" lon="34.748788">
        <ele>504.04320599995117</ele>
      </trkpt>
      <trkpt lat="30.923766" lon="34.748718">
        <ele>498.41610799996124</ele>
      </trkpt>
      <trkpt lat="30.923888" lon="34.748696">
        <ele>494.7430879999729</ele>
      </trkpt>
      <trkpt lat="30.924076" lon="34.748703">
        <ele>492.566139000015</ele>
      </trkpt>
      <trkpt lat="30.924442" lon="34.74867">
        <ele>494.1573200000421</ele>
      </trkpt>
      <trkpt lat="30.924582" lon="34.748635">
        <ele>496.3356590000044</ele>
      </trkpt>
      <trkpt lat="30.925396" lon="34.748276">
        <ele>493.5960160000104</ele>
      </trkpt>
      <trkpt lat="30.925505" lon="34.74826">
        <ele>492.025979999984</ele>
      </trkpt>
      <extensions>
        <RoutingType xmlns="">Hike</RoutingType>
      </extensions>
    </trkseg>
    <trkseg>
      <trkpt lat="30.925505" lon="34.74826">
        <ele>492.025979999984</ele>
      </trkpt>
      <trkpt lat="30.925605" lon="34.748273">
        <ele>488.46128800002225</ele>
      </trkpt>
      <trkpt lat="30.925867" lon="34.74835">
        <ele>482.62878099995623</ele>
      </trkpt>
      <trkpt lat="30.925938" lon="34.748347">
        <ele>480.8930989999899</ele>
      </trkpt>
      <trkpt lat="30.926023" lon="34.7483">
        <ele>479.59673899997233</ele>
      </trkpt>
      <trkpt lat="30.926405" lon="34.747764">
        <ele>481.7789040001253</ele>
      </trkpt>
      <trkpt lat="30.926632" lon="34.747511">
        <ele>484.72339399987914</ele>
      </trkpt>
      <trkpt lat="30.926933" lon="34.747289">
        <ele>485.6047999999373</ele>
      </trkpt>
      <trkpt lat="30.927079" lon="34.747149">
        <ele>488.38912900001606</ele>
      </trkpt>
      <trkpt lat="30.9274" lon="34.74695">
        <ele>485.5582500000928</ele>
      </trkpt>
      <trkpt lat="30.927564" lon="34.746773">
        <ele>486.5417400000633</ele>
      </trkpt>
      <trkpt lat="30.92763" lon="34.746639">
        <ele>487.55709599993907</ele>
      </trkpt>
      <trkpt lat="30.927764" lon="34.746229">
        <ele>490.53584400001364</ele>
      </trkpt>
      <trkpt lat="30.92778" lon="34.746076">
        <ele>491.9066159999993</ele>
      </trkpt>
      <trkpt lat="30.927737" lon="34.745908">
        <ele>495.2555459999885</ele>
      </trkpt>
      <trkpt lat="30.927676" lon="34.74578">
        <ele>496.19361999996863</ele>
      </trkpt>
      <trkpt lat="30.927538" lon="34.745591">
        <ele>497.3622209999962</ele>
      </trkpt>
      <trkpt lat="30.927442" lon="34.745427">
        <ele>496.1305079999911</ele>
      </trkpt>
      <trkpt lat="30.927415" lon="34.745351">
        <ele>495.0358039999919</ele>
      </trkpt>
      <trkpt lat="30.9274" lon="34.745249">
        <ele>493.9991960000216</ele>
      </trkpt>
      <trkpt lat="30.927397" lon="34.744622">
        <ele>484.7905750000127</ele>
      </trkpt>
      <trkpt lat="30.927426" lon="34.74447">
        <ele>481.3966459999788</ele>
      </trkpt>
      <trkpt lat="30.927494" lon="34.744311">
        <ele>476.9025980000679</ele>
      </trkpt>
      <trkpt lat="30.92772" lon="34.743936">
        <ele>472.5880960000068</ele>
      </trkpt>
      <trkpt lat="30.928114" lon="34.743494">
        <ele>470.3971619999611</ele>
      </trkpt>
      <trkpt lat="30.928547" lon="34.743069">
        <ele>467.48176600008264</ele>
      </trkpt>
      <trkpt lat="30.92907" lon="34.742686">
        <ele>464.46543800004065</ele>
      </trkpt>
      <trkpt lat="30.929207" lon="34.742553">
        <ele>465.58916499992483</ele>
      </trkpt>
      <trkpt lat="30.929581" lon="34.742059">
        <ele>462.861436000092</ele>
      </trkpt>
      <trkpt lat="30.929981" lon="34.741597">
        <ele>460.3949349999989</ele>
      </trkpt>
      <trkpt lat="30.930128" lon="34.7414">
        <ele>460.57510400003275</ele>
      </trkpt>
      <trkpt lat="30.930179" lon="34.741304">
        <ele>461.36372300003586</ele>
      </trkpt>
      <trkpt lat="30.930283" lon="34.740894">
        <ele>466.0407060000098</ele>
      </trkpt>
      <trkpt lat="30.930288" lon="34.740387">
        <ele>463.5343479999756</ele>
      </trkpt>
      <extensions>
        <RoutingType xmlns="">Hike</RoutingType>
      </extensions>
    </trkseg>
    <trkseg>
      <trkpt lat="30.930288" lon="34.740387">
        <ele>463.5343479999756</ele>
      </trkpt>
      <trkpt lat="30.930318" lon="34.739908">
        <ele>456.7099499999954</ele>
      </trkpt>
      <trkpt lat="30.930375" lon="34.739602">
        <ele>454.6400309999717</ele>
      </trkpt>
      <trkpt lat="30.930438" lon="34.739444">
        <ele>453.1990559999972</ele>
      </trkpt>
      <trkpt lat="30.930793" lon="34.738886">
        <ele>449.04308599999104</ele>
      </trkpt>
      <trkpt lat="30.930817" lon="34.738798">
        <ele>447.74672600001213</ele>
      </trkpt>
      <trkpt lat="30.930826" lon="34.738664">
        <ele>446.47787000000426</ele>
      </trkpt>
      <trkpt lat="30.9308" lon="34.738324">
        <ele>447.2412759999788</ele>
      </trkpt>
      <trkpt lat="30.930814" lon="34.738078">
        <ele>447.7362659999708</ele>
      </trkpt>
      <trkpt lat="30.930855" lon="34.738005">
        <ele>447.39971999997533</ele>
      </trkpt>
      <trkpt lat="30.930998" lon="34.737867">
        <ele>445.32194300001447</ele>
      </trkpt>
      <trkpt lat="30.931154" lon="34.737653">
        <ele>444.1491360000223</ele>
      </trkpt>
      <trkpt lat="30.931206" lon="34.737544">
        <ele>443.4672200000123</ele>
      </trkpt>
      <trkpt lat="30.931349" lon="34.737154">
        <ele>440.84900399998696</ele>
      </trkpt>
      <trkpt lat="30.931386" lon="34.736984">
        <ele>440.15802800000165</ele>
      </trkpt>
      <trkpt lat="30.9314" lon="34.736651">
        <ele>439.70885100000714</ele>
      </trkpt>
      <trkpt lat="30.931419" lon="34.736539">
        <ele>438.88054299998066</ele>
      </trkpt>
      <trkpt lat="30.931456" lon="34.73647">
        <ele>438.48083199999155</ele>
      </trkpt>
      <trkpt lat="30.931576" lon="34.736392">
        <ele>436.67965600001844</ele>
      </trkpt>
      <trkpt lat="30.931752" lon="34.736367">
        <ele>434.1203740000201</ele>
      </trkpt>
      <trkpt lat="30.932109" lon="34.736436">
        <ele>430.14458099997</ele>
      </trkpt>
      <trkpt lat="30.932228" lon="34.736503">
        <ele>429.3885500000042</ele>
      </trkpt>
      <trkpt lat="30.932346" lon="34.737003">
        <ele>432.7036949999979</ele>
      </trkpt>
      <trkpt lat="30.932762" lon="34.736533">
        <ele>434.2698470000191</ele>
      </trkpt>
      <trkpt lat="30.932768" lon="34.73619">
        <ele>430.7532739999988</ele>
      </trkpt>
      <trkpt lat="30.932832" lon="34.736136">
        <ele>431.47720800002116</ele>
      </trkpt>
      <trkpt lat="30.932869" lon="34.736068">
        <ele>430.74260400003277</ele>
      </trkpt>
      <trkpt lat="30.93289" lon="34.73599">
        <ele>429.89997000001085</ele>
      </trkpt>
      <trkpt lat="30.932907" lon="34.735783">
        <ele>428.8675349999762</ele>
      </trkpt>
      <trkpt lat="30.932909" lon="34.735364">
        <ele>425.87560099999246</ele>
      </trkpt>
      <trkpt lat="30.932835" lon="34.734442">
        <ele>429.8611649999975</ele>
      </trkpt>
      <trkpt lat="30.932858" lon="34.734069">
        <ele>429.7783420000019</ele>
      </trkpt>
      <trkpt lat="30.9328" lon="34.733757">
        <ele>430.2333569999878</ele>
      </trkpt>
      <trkpt lat="30.932796" lon="34.733385">
        <ele>429.9209889999952</ele>
      </trkpt>
      <trkpt lat="30.932767" lon="34.733267">
        <ele>429.6004999999982</ele>
      </trkpt>
      <trkpt lat="30.932609" lon="34.732823">
        <ele>430.0249730000064</ele>
      </trkpt>
      <trkpt lat="30.932415" lon="34.732462">
        <ele>431.7471700000078</ele>
      </trkpt>
      <trkpt lat="30.93229" lon="34.73219">
        <ele>433.4711300000181</ele>
      </trkpt>
      <trkpt lat="30.932138" lon="34.732107">
        <ele>433.31163099999685</ele>
      </trkpt>
      <trkpt lat="30.931715" lon="34.731724">
        <ele>432.98196300000063</ele>
      </trkpt>
      <trkpt lat="30.93159" lon="34.73151">
        <ele>431.5119200000004</ele>
      </trkpt>
      <trkpt lat="30.931577" lon="34.731381">
        <ele>431.97085399998195</ele>
      </trkpt>
      <trkpt lat="30.931618" lon="34.731179">
        <ele>429.92548599997735</ele>
      </trkpt>
      <trkpt lat="30.931714" lon="34.730834">
        <ele>427.95589800002153</ele>
      </trkpt>
      <trkpt lat="30.931759" lon="34.730592">
        <ele>426.2768380000143</ele>
      </trkpt>
      <trkpt lat="30.931893" lon="34.730315">
        <ele>422.519842000027</ele>
      </trkpt>
      <trkpt lat="30.931925" lon="34.730207">
        <ele>421.82845000000725</ele>
      </trkpt>
      <trkpt lat="30.931967" lon="34.729889">
        <ele>421.2026529999912</ele>
      </trkpt>
      <trkpt lat="30.931997" lon="34.729329">
        <ele>417.2942910000347</ele>
      </trkpt>
      <trkpt lat="30.932074" lon="34.729001">
        <ele>410.81849599992665</ele>
      </trkpt>
      <trkpt lat="30.932041" lon="34.728747">
        <ele>411.68199699988736</ele>
      </trkpt>
      <trkpt lat="30.931776" lon="34.72809">
        <ele>405.0896740000835</ele>
      </trkpt>
      <trkpt lat="30.931698" lon="34.727644">
        <ele>395.2328299999167</ele>
      </trkpt>
      <trkpt lat="30.931648" lon="34.727522">
        <ele>394.19585200003894</ele>
      </trkpt>
      <trkpt lat="30.931348" lon="34.727137">
        <ele>395.6012819999819</ele>
      </trkpt>
      <trkpt lat="30.931357" lon="34.726793">
        <ele>388.7405450000674</ele>
      </trkpt>
      <extensions>
        <RoutingType xmlns="">Hike</RoutingType>
      </extensions>
    </trkseg>
    <trkseg>
      <trkpt lat="30.931357" lon="34.726793">
        <ele>388.7405450000674</ele>
      </trkpt>
      <trkpt lat="30.931314" lon="34.726526">
        <ele>385.82177599997794</ele>
      </trkpt>
      <trkpt lat="30.931126" lon="34.726136">
        <ele>384.80179599994153</ele>
      </trkpt>
      <trkpt lat="30.931015" lon="34.725836">
        <ele>379.9025260000508</ele>
      </trkpt>
      <trkpt lat="30.93097" lon="34.725775">
        <ele>379.5568300000041</ele>
      </trkpt>
      <trkpt lat="30.930933" lon="34.725758">
        <ele>379.9889499999881</ele>
      </trkpt>
      <trkpt lat="30.93069" lon="34.725879">
        <ele>385.5122939999901</ele>
      </trkpt>
      <trkpt lat="30.930654" lon="34.725837">
        <ele>384.8641139999654</ele>
      </trkpt>
      <trkpt lat="30.930655" lon="34.725805">
        <ele>384.1655200000141</ele>
      </trkpt>
      <trkpt lat="30.930771" lon="34.725649">
        <ele>379.9595519999375</ele>
      </trkpt>
      <trkpt lat="30.93089" lon="34.725585">
        <ele>375.7867800000113</ele>
      </trkpt>
      <trkpt lat="30.930968" lon="34.72559">
        <ele>374.7352879999544</ele>
      </trkpt>
      <trkpt lat="30.931035" lon="34.725615">
        <ele>374.13031999994564</ele>
      </trkpt>
      <trkpt lat="30.93142" lon="34.725846">
        <ele>370.14065799998025</ele>
      </trkpt>
      <trkpt lat="30.93148" lon="34.72586">
        <ele>369.4276599999621</ele>
      </trkpt>
      <trkpt lat="30.931545" lon="34.725845">
        <ele>368.32935499999803</ele>
      </trkpt>
      <trkpt lat="30.931586" lon="34.725809">
        <ele>367.34988299998986</ele>
      </trkpt>
      <trkpt lat="30.93169" lon="34.725616">
        <ele>362</ele>
      </trkpt>
      <trkpt lat="30.931851" lon="34.725436">
        <ele>362</ele>
      </trkpt>
      <trkpt lat="30.931676" lon="34.725031">
        <ele>361.0347240000019</ele>
      </trkpt>
      <trkpt lat="30.931307" lon="34.72435">
        <ele>360.7478430000033</ele>
      </trkpt>
      <trkpt lat="30.931213" lon="34.724197">
        <ele>360</ele>
      </trkpt>
      <trkpt lat="30.931103" lon="34.724075">
        <ele>360.394074999997</ele>
      </trkpt>
      <trkpt lat="30.931041" lon="34.724036">
        <ele>360.2536359999931</ele>
      </trkpt>
      <trkpt lat="30.930891" lon="34.724015">
        <ele>360.17801500000496</ele>
      </trkpt>
      <trkpt lat="30.930759" lon="34.724044">
        <ele>360.9017290000006</ele>
      </trkpt>
      <trkpt lat="30.930646" lon="34.724102">
        <ele>361.72635800001626</ele>
      </trkpt>
      <trkpt lat="30.930225" lon="34.724673">
        <ele>364.5753960000211</ele>
      </trkpt>
      <trkpt lat="30.930164" lon="34.724865">
        <ele>365.7577230000229</ele>
      </trkpt>
      <trkpt lat="30.930155" lon="34.725016">
        <ele>367.3241579999567</ele>
      </trkpt>
      <trkpt lat="30.930104" lon="34.72502">
        <ele>367.0000680000071</ele>
      </trkpt>
      <trkpt lat="30.92988" lon="34.725102">
        <ele>365.585942000007</ele>
      </trkpt>
      <trkpt lat="30.929825" lon="34.725151">
        <ele>365.1682259999993</ele>
      </trkpt>
      <trkpt lat="30.929785" lon="34.725217">
        <ele>364.9737719999912</ele>
      </trkpt>
      <trkpt lat="30.929692" lon="34.725489">
        <ele>364.6417839999949</ele>
      </trkpt>
      <trkpt lat="30.929634" lon="34.725538">
        <ele>364.22406800000044</ele>
      </trkpt>
      <trkpt lat="30.929554" lon="34.725538">
        <ele>363.6479079999972</ele>
      </trkpt>
      <trkpt lat="30.929289" lon="34.725372">
        <ele>364.3251939999959</ele>
      </trkpt>
      <trkpt lat="30.929148" lon="34.725423">
        <ele>365.63449799998943</ele>
      </trkpt>
      <trkpt lat="30.929046" lon="34.725503">
        <ele>366.57796000002554</ele>
      </trkpt>
      <trkpt lat="30.928897" lon="34.725738">
        <ele>369.14761399999816</ele>
      </trkpt>
      <trkpt lat="30.928779" lon="34.725843">
        <ele>370.2819289999743</ele>
      </trkpt>
      <trkpt lat="30.928684" lon="34.725764">
        <ele>369.42849199997863</ele>
      </trkpt>
      <trkpt lat="30.928655" lon="34.725706">
        <ele>368.8019180000265</ele>
      </trkpt>
      <trkpt lat="30.928648" lon="34.725564">
        <ele>370.327584000001</ele>
      </trkpt>
      <trkpt lat="30.928692" lon="34.725283">
        <ele>368.85215800000014</ele>
      </trkpt>
      <trkpt lat="30.928699" lon="34.724815">
        <ele>371.20588799998313</ele>
      </trkpt>
      <trkpt lat="30.928717" lon="34.724673">
        <ele>371.3078050000263</ele>
      </trkpt>
      <trkpt lat="30.928946" lon="34.724006">
        <ele>370.17060399998263</ele>
      </trkpt>
      <trkpt lat="30.928998" lon="34.723899">
        <ele>371.1510139999373</ele>
      </trkpt>
      <trkpt lat="30.929091" lon="34.723806">
        <ele>371.82079999993493</ele>
      </trkpt>
      <trkpt lat="30.929332" lon="34.72367">
        <ele>371.35218200005784</ele>
      </trkpt>
      <trkpt lat="30.929572" lon="34.723587">
        <ele>370.094660999956</ele>
      </trkpt>
      <trkpt lat="30.929633" lon="34.723527">
        <ele>369.6373340000746</ele>
      </trkpt>
      <trkpt lat="30.929711" lon="34.723379">
        <ele>370.22064299995463</ele>
      </trkpt>
      <trkpt lat="30.929547" lon="34.723265">
        <ele>376.35674700003347</ele>
      </trkpt>
      <trkpt lat="30.929452" lon="34.723296">
        <ele>377.81780800001616</ele>
      </trkpt>
      <trkpt lat="30.929149" lon="34.723591">
        <ele>375.84501600003796</ele>
      </trkpt>
      <trkpt lat="30.928892" lon="34.723591">
        <ele>379.3324860000048</ele>
      </trkpt>
      <trkpt lat="30.928568" lon="34.724">
        <ele>379.1209520000948</ele>
      </trkpt>
      <trkpt lat="30.928267" lon="34.724419">
        <ele>384.51740599996083</ele>
      </trkpt>
      <trkpt lat="30.928097" lon="34.724834">
        <ele>386.04985899995563</ele>
      </trkpt>
      <trkpt lat="30.927993" lon="34.725205">
        <ele>386.4740759999381</ele>
      </trkpt>
      <extensions>
        <RoutingType xmlns="">Hike</RoutingType>
      </extensions>
    </trkseg>
    <trkseg>
      <trkpt lat="30.927994" lon="34.725205">
        <ele>386.42726299989226</ele>
      </trkpt>
      <trkpt lat="30.927923" lon="34.725459">
        <ele>387.21346500000345</ele>
      </trkpt>
      <trkpt lat="30.927779" lon="34.725843">
        <ele>386.7034589999953</ele>
      </trkpt>
      <trkpt lat="30.927731" lon="34.7259">
        <ele>387.78375899990215</ele>
      </trkpt>
      <trkpt lat="30.927406" lon="34.726149">
        <ele>391.75663399995483</ele>
      </trkpt>
      <trkpt lat="30.927127" lon="34.726453">
        <ele>393.87163200006535</ele>
      </trkpt>
      <trkpt lat="30.927051" lon="34.726497">
        <ele>393.24695799999836</ele>
      </trkpt>
      <trkpt lat="30.926857" lon="34.72651">
        <ele>396.7025580001264</ele>
      </trkpt>
      <trkpt lat="30.92673" lon="34.726539">
        <ele>398.402229999926</ele>
      </trkpt>
      <trkpt lat="30.926539" lon="34.726625">
        <ele>398.32243000009066</ele>
      </trkpt>
      <trkpt lat="30.926366" lon="34.726761">
        <ele>399.31820799986417</ele>
      </trkpt>
      <trkpt lat="30.926238" lon="34.726929">
        <ele>400.75860799997463</ele>
      </trkpt>
      <trkpt lat="30.925883" lon="34.727522">
        <ele>404.4122330000464</ele>
      </trkpt>
      <trkpt lat="30.925736" lon="34.727711">
        <ele>409.2446659999682</ele>
      </trkpt>
      <trkpt lat="30.925716" lon="34.727755">
        <ele>410.1521179999045</ele>
      </trkpt>
      <trkpt lat="30.925658" lon="34.728186">
        <ele>409.28423000006205</ele>
      </trkpt>
      <trkpt lat="30.925638" lon="34.728264">
        <ele>409.44987600000286</ele>
      </trkpt>
      <trkpt lat="30.925583" lon="34.728351">
        <ele>411.28278499998123</ele>
      </trkpt>
      <trkpt lat="30.925298" lon="34.728478">
        <ele>413.02289399987603</ele>
      </trkpt>
      <trkpt lat="30.925181" lon="34.728564">
        <ele>414.33725900008903</ele>
      </trkpt>
      <trkpt lat="30.925096" lon="34.728676">
        <ele>413.8655280000021</ele>
      </trkpt>
      <trkpt lat="30.924955" lon="34.728975">
        <ele>417.3186299999661</ele>
      </trkpt>
      <trkpt lat="30.924929" lon="34.729091">
        <ele>418.6293940000596</ele>
      </trkpt>
      <trkpt lat="30.924921" lon="34.729267">
        <ele>419.57311899993556</ele>
      </trkpt>
      <trkpt lat="30.924881" lon="34.729434">
        <ele>422.9364530000289</ele>
      </trkpt>
      <trkpt lat="30.924835" lon="34.729503">
        <ele>425.91808099992295</ele>
      </trkpt>
      <trkpt lat="30.924718" lon="34.729612">
        <ele>431.8143380000456</ele>
      </trkpt>
      <trkpt lat="30.924684" lon="34.729677">
        <ele>432.9162440000282</ele>
      </trkpt>
      <trkpt lat="30.924604" lon="34.729972">
        <ele>436.88377600007425</ele>
      </trkpt>
      <trkpt lat="30.924478" lon="34.7302">
        <ele>447.5808740000057</ele>
      </trkpt>
      <trkpt lat="30.924322" lon="34.730428">
        <ele>449.76870599996073</ele>
      </trkpt>
      <trkpt lat="30.924308" lon="34.730517">
        <ele>449.05930900001295</ele>
      </trkpt>
      <extensions>
        <RoutingType xmlns="">Hike</RoutingType>
      </extensions>
    </trkseg>
    <trkseg>
      <trkpt lat="30.924308" lon="34.730517">
        <ele>449.05930900001295</ele>
      </trkpt>
      <trkpt lat="30.924302" lon="34.730766">
        <ele>445.6007919999238</ele>
      </trkpt>
      <trkpt lat="30.924285" lon="34.730853">
        <ele>444.08837199990467</ele>
      </trkpt>
      <trkpt lat="30.924105" lon="34.731127">
        <ele>441.86582799997905</ele>
      </trkpt>
      <trkpt lat="30.923982" lon="34.731258">
        <ele>442.5218679999625</ele>
      </trkpt>
      <trkpt lat="30.923788" lon="34.731392">
        <ele>444.50024000002304</ele>
      </trkpt>
      <trkpt lat="30.923702" lon="34.731477">
        <ele>444.0898369999586</ele>
      </trkpt>
      <trkpt lat="30.923561" lon="34.731727">
        <ele>446.74680000001126</ele>
      </trkpt>
      <trkpt lat="30.9235" lon="34.731793">
        <ele>446.78265100007957</ele>
      </trkpt>
      <trkpt lat="30.923195" lon="34.731947">
        <ele>450.18997699999727</ele>
      </trkpt>
      <trkpt lat="30.92293" lon="34.73214">
        <ele>452.48283999999285</ele>
      </trkpt>
      <trkpt lat="30.922868" lon="34.732204">
        <ele>454.513804000007</ele>
      </trkpt>
      <trkpt lat="30.92277" lon="34.732355">
        <ele>451.2625499999922</ele>
      </trkpt>
      <trkpt lat="30.922693" lon="34.732434">
        <ele>454.049724000015</ele>
      </trkpt>
      <trkpt lat="30.922339" lon="34.732547">
        <ele>456.1203090000463</ele>
      </trkpt>
      <trkpt lat="30.922235" lon="34.732632">
        <ele>458.6380190000027</ele>
      </trkpt>
      <trkpt lat="30.922195" lon="34.73273">
        <ele>460.352095000012</ele>
      </trkpt>
      <trkpt lat="30.92219" lon="34.732812">
        <ele>461.06869400000505</ele>
      </trkpt>
      <trkpt lat="30.922205" lon="34.7329">
        <ele>460.9454599999467</ele>
      </trkpt>
      <trkpt lat="30.922316" lon="34.733102">
        <ele>460.88149400006114</ele>
      </trkpt>
      <trkpt lat="30.922342" lon="34.733176">
        <ele>458.7732539999997</ele>
      </trkpt>
      <trkpt lat="30.922333" lon="34.733324">
        <ele>461.5352210000751</ele>
      </trkpt>
      <trkpt lat="30.92228" lon="34.73346">
        <ele>459.14868000001934</ele>
      </trkpt>
      <trkpt lat="30.922001" lon="34.733861">
        <ele>465.905838999935</ele>
      </trkpt>
      <trkpt lat="30.921963" lon="34.73393">
        <ele>467.60637899997255</ele>
      </trkpt>
      <trkpt lat="30.921945" lon="34.734006">
        <ele>468.99920299998666</ele>
      </trkpt>
      <trkpt lat="30.921958" lon="34.734104">
        <ele>469.7302060000202</ele>
      </trkpt>
      <trkpt lat="30.922081" lon="34.734328">
        <ele>472.06340599996474</ele>
      </trkpt>
      <trkpt lat="30.922088" lon="34.734482">
        <ele>475.3403160000071</ele>
      </trkpt>
      <trkpt lat="30.922106" lon="34.734602">
        <ele>475.6036040000172</ele>
      </trkpt>
      <trkpt lat="30.922131" lon="34.734667">
        <ele>476.07173400001284</ele>
      </trkpt>
      <trkpt lat="30.92219" lon="34.734751">
        <ele>476.67670200002067</ele>
      </trkpt>
      <trkpt lat="30.92233" lon="34.734825">
        <ele>475.95589499998596</ele>
      </trkpt>
      <trkpt lat="30.922386" lon="34.734832">
        <ele>475.5777900000717</ele>
      </trkpt>
      <trkpt lat="30.922478" lon="34.734813">
        <ele>475.725430999928</ele>
      </trkpt>
      <trkpt lat="30.922607" lon="34.73476">
        <ele>473.69552699998167</ele>
      </trkpt>
      <trkpt lat="30.922867" lon="34.734582">
        <ele>475.36295599994264</ele>
      </trkpt>
      <trkpt lat="30.922963" lon="34.734546">
        <ele>475.319743999974</ele>
      </trkpt>
      <trkpt lat="30.923089" lon="34.73454">
        <ele>474.28470199991716</ele>
      </trkpt>
      <trkpt lat="30.923201" lon="34.734559">
        <ele>472.9307260000869</ele>
      </trkpt>
      <trkpt lat="30.92327" lon="34.7346">
        <ele>471.252660000001</ele>
      </trkpt>
      <trkpt lat="30.923373" lon="34.734716">
        <ele>464.2536890000365</ele>
      </trkpt>
      <trkpt lat="30.923404" lon="34.734789">
        <ele>460.76432000001387</ele>
      </trkpt>
      <trkpt lat="30.923403" lon="34.734842">
        <ele>461.2899489999654</ele>
      </trkpt>
      <trkpt lat="30.923371" lon="34.734891">
        <ele>459.4498380001446</ele>
      </trkpt>
      <trkpt lat="30.922969" lon="34.735171">
        <ele>455.0702209999745</ele>
      </trkpt>
      <trkpt lat="30.922789" lon="34.735278">
        <ele>454.6150409999241</ele>
      </trkpt>
      <trkpt lat="30.922676" lon="34.735324">
        <ele>454.4962080000819</ele>
      </trkpt>
      <trkpt lat="30.922577" lon="34.735337">
        <ele>455.67013399993584</ele>
      </trkpt>
      <trkpt lat="30.922386" lon="34.735314">
        <ele>459.09944599989785</ele>
      </trkpt>
      <trkpt lat="30.922274" lon="34.735332">
        <ele>458.7249420000071</ele>
      </trkpt>
      <trkpt lat="30.922221" lon="34.735362">
        <ele>459.02021999993485</ele>
      </trkpt>
      <trkpt lat="30.922116" lon="34.73547">
        <ele>457.42137600003116</ele>
      </trkpt>
      <trkpt lat="30.921845" lon="34.735926">
        <ele>458.30082799995944</ele>
      </trkpt>
      <trkpt lat="30.921785" lon="34.73606">
        <ele>463.02534000005653</ele>
      </trkpt>
      <trkpt lat="30.921743" lon="34.736223">
        <ele>464.69511500004637</ele>
      </trkpt>
      <trkpt lat="30.92167" lon="34.736414">
        <ele>469.78769800008604</ele>
      </trkpt>
      <trkpt lat="30.921612" lon="34.736781">
        <ele>471.5332829999902</ele>
      </trkpt>
      <trkpt lat="30.921608" lon="34.737032">
        <ele>470.21394400005283</ele>
      </trkpt>
      <trkpt lat="30.921582" lon="34.737116">
        <ele>469.8250359999606</ele>
      </trkpt>
      <trkpt lat="30.921504" lon="34.737208">
        <ele>471.5391120000081</ele>
      </trkpt>
      <trkpt lat="30.921274" lon="34.7374">
        <ele>478.2125779999751</ele>
      </trkpt>
      <trkpt lat="30.921055" lon="34.737776">
        <ele>463.942543000142</ele>
      </trkpt>
      <trkpt lat="30.920846" lon="34.73797">
        <ele>460.8286720000542</ele>
      </trkpt>
      <trkpt lat="30.920625" lon="34.738371">
        <ele>462.54580799995165</ele>
      </trkpt>
      <trkpt lat="30.920576" lon="34.738429">
        <ele>461.62662300005013</ele>
      </trkpt>
      <trkpt lat="30.920504" lon="34.738485">
        <ele>462.4332470000236</ele>
      </trkpt>
      <trkpt lat="30.920401" lon="34.738536">
        <ele>464.11131299998397</ele>
      </trkpt>
      <trkpt lat="30.919866" lon="34.738732">
        <ele>467.5951460000497</ele>
      </trkpt>
      <trkpt lat="30.919749" lon="34.738797">
        <ele>468.0632760000549</ele>
      </trkpt>
      <trkpt lat="30.919681" lon="34.738862">
        <ele>468.93328500003554</ele>
      </trkpt>
      <trkpt lat="30.919634" lon="34.738956">
        <ele>468.08704999999554</ele>
      </trkpt>
      <trkpt lat="30.919601" lon="34.739259">
        <ele>467.9758879999431</ele>
      </trkpt>
      <trkpt lat="30.91956" lon="34.739391">
        <ele>471.3860349999418</ele>
      </trkpt>
      <trkpt lat="30.919456" lon="34.739566">
        <ele>470.8254960000477</ele>
      </trkpt>
      <trkpt lat="30.919285" lon="34.739785">
        <ele>475.8272849999821</ele>
      </trkpt>
      <extensions>
        <RoutingType xmlns="">Hike</RoutingType>
      </extensions>
    </trkseg>
    <trkseg>
      <trkpt lat="30.919285" lon="34.739785">
        <ele>475.8272849999821</ele>
      </trkpt>
      <trkpt lat="30.919243" lon="34.73984">
        <ele>475.14688000002343</ele>
      </trkpt>
      <trkpt lat="30.919169" lon="34.740031">
        <ele>477.55138600002647</ele>
      </trkpt>
      <trkpt lat="30.919072" lon="34.740489">
        <ele>486.2410389999127</ele>
      </trkpt>
      <trkpt lat="30.919067" lon="34.740666">
        <ele>488.9146659999251</ele>
      </trkpt>
      <trkpt lat="30.91914" lon="34.740986">
        <ele>494.8105979999673</ele>
      </trkpt>
      <trkpt lat="30.919118" lon="34.741156">
        <ele>496.1717759999856</ele>
      </trkpt>
      <trkpt lat="30.918995" lon="34.741529">
        <ele>497.0162840000012</ele>
      </trkpt>
      <trkpt lat="30.918851" lon="34.741817">
        <ele>498.28075300002865</ele>
      </trkpt>
      <trkpt lat="30.918823" lon="34.741901">
        <ele>496.9699890000111</ele>
      </trkpt>
      <trkpt lat="30.918789" lon="34.742183">
        <ele>494.876707000049</ele>
      </trkpt>
      <trkpt lat="30.918687" lon="34.74246">
        <ele>496.07106400002704</ele>
      </trkpt>
      <trkpt lat="30.918621" lon="34.742697">
        <ele>497.23354299998437</ele>
      </trkpt>
      <trkpt lat="30.918534" lon="34.742826">
        <ele>497.2443459999831</ele>
      </trkpt>
      <trkpt lat="30.918453" lon="34.742905">
        <ele>501.05310300000747</ele>
      </trkpt>
      <trkpt lat="30.918068" lon="34.743109">
        <ele>503.85147200002393</ele>
      </trkpt>
      <trkpt lat="30.918001" lon="34.743131">
        <ele>504.7173490000496</ele>
      </trkpt>
      <trkpt lat="30.917922" lon="34.743133">
        <ele>505.5131699999838</ele>
      </trkpt>
      <trkpt lat="30.917785" lon="34.743093">
        <ele>506.1452510000436</ele>
      </trkpt>
      <trkpt lat="30.917727" lon="34.743093">
        <ele>506.1452510000436</ele>
      </trkpt>
      <trkpt lat="30.917685" lon="34.743116">
        <ele>506.72501200001307</ele>
      </trkpt>
      <trkpt lat="30.917645" lon="34.743174">
        <ele>506.66085199997633</ele>
      </trkpt>
      <trkpt lat="30.917549" lon="34.74343">
        <ele>509.34739500000705</ele>
      </trkpt>
      <trkpt lat="30.917456" lon="34.743891">
        <ele>512.539206000004</ele>
      </trkpt>
      <trkpt lat="30.917403" lon="34.744028">
        <ele>514.1291099999976</ele>
      </trkpt>
      <trkpt lat="30.917283" lon="34.74419">
        <ele>513.2432639999565</ele>
      </trkpt>
      <trkpt lat="30.917242" lon="34.744501">
        <ele>516.9825510000387</ele>
      </trkpt>
      <trkpt lat="30.917025" lon="34.745078">
        <ele>515.8779940000431</ele>
      </trkpt>
      <trkpt lat="30.916988" lon="34.745264">
        <ele>515.8707920000115</ele>
      </trkpt>
      <trkpt lat="30.916959" lon="34.745325">
        <ele>517.9387179999894</ele>
      </trkpt>
      <trkpt lat="30.91679" lon="34.745546">
        <ele>519.1345480000346</ele>
      </trkpt>
      <trkpt lat="30.916726" lon="34.745576">
        <ele>519.8403439999929</ele>
      </trkpt>
      <trkpt lat="30.916642" lon="34.745574">
        <ele>521.0158680000063</ele>
      </trkpt>
      <trkpt lat="30.916484" lon="34.745502">
        <ele>520.7061819999949</ele>
      </trkpt>
      <trkpt lat="30.916348" lon="34.745489">
        <ele>523.7602969999866</ele>
      </trkpt>
      <trkpt lat="30.91628" lon="34.745501">
        <ele>524.2212249999511</ele>
      </trkpt>
      <trkpt lat="30.916241" lon="34.745546">
        <ele>525.1718889999547</ele>
      </trkpt>
      <trkpt lat="30.916232" lon="34.74579">
        <ele>525.5277659999992</ele>
      </trkpt>
      <trkpt lat="30.916198" lon="34.745936">
        <ele>528.4747999999527</ele>
      </trkpt>
      <trkpt lat="30.916159" lon="34.746003">
        <ele>528.150709999948</ele>
      </trkpt>
      <trkpt lat="30.916049" lon="34.746151">
        <ele>527.1005430000419</ele>
      </trkpt>
      <trkpt lat="30.915857" lon="34.746307">
        <ele>530.8331089999824</ele>
      </trkpt>
      <trkpt lat="30.915706" lon="34.746467">
        <ele>528.8087179999056</ele>
      </trkpt>
      <trkpt lat="30.915651" lon="34.746568">
        <ele>525.5678179998731</ele>
      </trkpt>
      <trkpt lat="30.915638" lon="34.74673">
        <ele>519.82782400001</ele>
      </trkpt>
      <trkpt lat="30.915748" lon="34.747238">
        <ele>514.3275779999699</ele>
      </trkpt>
      <trkpt lat="30.915746" lon="34.747561">
        <ele>513.6207250000548</ele>
      </trkpt>
      <trkpt lat="30.91569" lon="34.747868">
        <ele>512.985715999971</ele>
      </trkpt>
      <trkpt lat="30.915621" lon="34.748115">
        <ele>513.2990029999492</ele>
      </trkpt>
      <trkpt lat="30.915519" lon="34.748359">
        <ele>514.6385330000021</ele>
      </trkpt>
      <trkpt lat="30.915434" lon="34.748706">
        <ele>517.0853799999586</ele>
      </trkpt>
      <trkpt lat="30.915315" lon="34.749005">
        <ele>517.2221550000336</ele>
      </trkpt>
      <extensions>
        <RoutingType xmlns="">Hike</RoutingType>
      </extensions>
    </trkseg>
    <trkseg>
      <trkpt lat="30.915315" lon="34.749005">
        <ele>517.2221550000336</ele>
      </trkpt>
      <trkpt lat="30.915122" lon="34.749433">
        <ele>518.6859919999692</ele>
      </trkpt>
      <trkpt lat="30.915051" lon="34.749724">
        <ele>520.769614000063</ele>
      </trkpt>
      <trkpt lat="30.91508" lon="34.749891">
        <ele>521.0416729999902</ele>
      </trkpt>
      <trkpt lat="30.915149" lon="34.750073">
        <ele>519.9875510000193</ele>
      </trkpt>
      <trkpt lat="30.915159" lon="34.750181">
        <ele>521.2190929999947</ele>
      </trkpt>
      <trkpt lat="30.91513" lon="34.750326">
        <ele>524.2475339999737</ele>
      </trkpt>
      <trkpt lat="30.915122" lon="34.750492">
        <ele>527.2955760000214</ele>
      </trkpt>
      <trkpt lat="30.91514" lon="34.750654">
        <ele>530.5429019999378</ele>
      </trkpt>
      <trkpt lat="30.915185" lon="34.75077">
        <ele>530.3376449999973</ele>
      </trkpt>
      <trkpt lat="30.915298" lon="34.750923">
        <ele>528.1927430000028</ele>
      </trkpt>
      <trkpt lat="30.915359" lon="34.751053">
        <ele>527.213875000034</ele>
      </trkpt>
      <trkpt lat="30.91538" lon="34.75116">
        <ele>527.3039000000244</ele>
      </trkpt>
      <trkpt lat="30.915383" lon="34.751474">
        <ele>528.3458370000835</ele>
      </trkpt>
      <trkpt lat="30.915359" lon="34.751623">
        <ele>532.7066480000867</ele>
      </trkpt>
      <trkpt lat="30.915286" lon="34.751825">
        <ele>535.5283449999447</ele>
      </trkpt>
      <trkpt lat="30.915268" lon="34.752059">
        <ele>540.8222950000481</ele>
      </trkpt>
      <trkpt lat="30.915197" lon="34.75225">
        <ele>544.2612499999382</ele>
      </trkpt>
      <trkpt lat="30.915176" lon="34.7525">
        <ele>542.5925520000083</ele>
      </trkpt>
      <trkpt lat="30.915121" lon="34.752655">
        <ele>543.0559380000468</ele>
      </trkpt>
      <trkpt lat="30.915065" lon="34.752737">
        <ele>542.2781219999624</ele>
      </trkpt>
      <trkpt lat="30.915006" lon="34.752784">
        <ele>544.6830300000306</ele>
      </trkpt>
      <trkpt lat="30.914817" lon="34.752853">
        <ele>546.3697009999723</ele>
      </trkpt>
      <trkpt lat="30.914638" lon="34.752859">
        <ele>546.9094819999937</ele>
      </trkpt>
      <trkpt lat="30.914496" lon="34.752834">
        <ele>543.9869259999978</ele>
      </trkpt>
      <trkpt lat="30.914406" lon="34.752841">
        <ele>547.4763919998782</ele>
      </trkpt>
      <trkpt lat="30.914321" lon="34.752873">
        <ele>546.3225340000217</ele>
      </trkpt>
      <trkpt lat="30.914248" lon="34.752934">
        <ele>546.6754320000528</ele>
      </trkpt>
      <trkpt lat="30.914157" lon="34.753114">
        <ele>551.020739999899</ele>
      </trkpt>
      <trkpt lat="30.914072" lon="34.75322">
        <ele>548.4854800000321</ele>
      </trkpt>
      <trkpt lat="30.913938" lon="34.753278">
        <ele>545.2373780000071</ele>
      </trkpt>
      <trkpt lat="30.913723" lon="34.753267">
        <ele>547.176447000018</ele>
      </trkpt>
      <trkpt lat="30.913581" lon="34.753297">
        <ele>548.3453440000803</ele>
      </trkpt>
      <trkpt lat="30.913506" lon="34.753353">
        <ele>549.0151299999497</ele>
      </trkpt>
      <trkpt lat="30.913359" lon="34.753537">
        <ele>547.5720739999733</ele>
      </trkpt>
      <trkpt lat="30.913159" lon="34.753676">
        <ele>544.0116370000105</ele>
      </trkpt>
      <trkpt lat="30.912927" lon="34.753681">
        <ele>542.6743569999894</ele>
      </trkpt>
      <trkpt lat="30.912354" lon="34.753377">
        <ele>539.8270230000026</ele>
      </trkpt>
      <trkpt lat="30.912229" lon="34.753365">
        <ele>540.2041900000495</ele>
      </trkpt>
      <trkpt lat="30.911851" lon="34.75317">
        <ele>532.6178759999611</ele>
      </trkpt>
      <trkpt lat="30.911763" lon="34.75315">
        <ele>530.6445280000057</ele>
      </trkpt>
      <trkpt lat="30.911683" lon="34.753162">
        <ele>528.6387249999771</ele>
      </trkpt>
      <extensions>
        <RoutingType xmlns="">Hike</RoutingType>
      </extensions>
    </trkseg>
    <trkseg>
      <trkpt lat="30.911683" lon="34.753162">
        <ele>528.6387249999771</ele>
      </trkpt>
      <trkpt lat="30.911639" lon="34.753169">
        <ele>528.1129790000127</ele>
      </trkpt>
      <trkpt lat="30.911437" lon="34.753305">
        <ele>524.9513010000114</ele>
      </trkpt>
      <trkpt lat="30.911259" lon="34.753376">
        <ele>518.7441919999146</ele>
      </trkpt>
      <trkpt lat="30.911191" lon="34.753373">
        <ele>518.830615999901</ele>
      </trkpt>
      <trkpt lat="30.911053" lon="34.753267">
        <ele>519.5282489999531</ele>
      </trkpt>
      <trkpt lat="30.910972" lon="34.75323">
        <ele>520.8354119999167</ele>
      </trkpt>
      <trkpt lat="30.910893" lon="34.753226">
        <ele>520.7237810000934</ele>
      </trkpt>
      <trkpt lat="30.910674" lon="34.753266">
        <ele>517.0875759998894</ele>
      </trkpt>
      <trkpt lat="30.910382" lon="34.753256">
        <ele>515.2471719999808</ele>
      </trkpt>
      <trkpt lat="30.910195" lon="34.753269">
        <ele>511.48603099988986</ele>
      </trkpt>
      <trkpt lat="30.90995" lon="34.753332">
        <ele>505.99903399997584</ele>
      </trkpt>
      <trkpt lat="30.909862" lon="34.753378">
        <ele>503.52874800010204</ele>
      </trkpt>
      <trkpt lat="30.909786" lon="34.753513">
        <ele>501.9190370000438</ele>
      </trkpt>
      <trkpt lat="30.90974" lon="34.753701">
        <ele>502.0832170000331</ele>
      </trkpt>
      <trkpt lat="30.909711" lon="34.754019">
        <ele>499.77032199994574</ele>
      </trkpt>
      <trkpt lat="30.90963" lon="34.754238">
        <ele>499.73510199998236</ele>
      </trkpt>
      <trkpt lat="30.909166" lon="34.75499">
        <ele>497.87122000003</ele>
      </trkpt>
      <trkpt lat="30.908959" lon="34.755247">
        <ele>500.1313400000581</ele>
      </trkpt>
      <trkpt lat="30.908688" lon="34.755501">
        <ele>507.9569949999468</ele>
      </trkpt>
      <trkpt lat="30.90854" lon="34.7556">
        <ele>510.78881999999385</ele>
      </trkpt>
      <trkpt lat="30.908415" lon="34.755647">
        <ele>517.6679419999723</ele>
      </trkpt>
      <trkpt lat="30.908143" lon="34.755686">
        <ele>517.795258999939</ele>
      </trkpt>
      <trkpt lat="30.907635" lon="34.755679">
        <ele>508.9628370000123</ele>
      </trkpt>
      <trkpt lat="30.907526" lon="34.755721">
        <ele>508.5739290000688</ele>
      </trkpt>
      <trkpt lat="30.907415" lon="34.755799">
        <ele>507.60053800014794</ele>
      </trkpt>
      <trkpt lat="30.907321" lon="34.755979">
        <ele>506.5220310000186</ele>
      </trkpt>
      <trkpt lat="30.907276" lon="34.756026">
        <ele>504.761141999958</ele>
      </trkpt>
      <trkpt lat="30.907033" lon="34.756134">
        <ele>499.4826350000267</ele>
      </trkpt>
      <trkpt lat="30.906645" lon="34.756148">
        <ele>486.8613500001338</ele>
      </trkpt>
      <trkpt lat="30.906406" lon="34.756264">
        <ele>480.3253820000282</ele>
      </trkpt>
      <trkpt lat="30.906118" lon="34.756358">
        <ele>471.2306659999822</ele>
      </trkpt>
      <trkpt lat="30.905922" lon="34.756343">
        <ele>466.9418750000109</ele>
      </trkpt>
      <trkpt lat="30.905829" lon="34.756354">
        <ele>464.89022900000236</ele>
      </trkpt>
      <trkpt lat="30.905536" lon="34.756586">
        <ele>462.6026440000005</ele>
      </trkpt>
      <trkpt lat="30.905329" lon="34.756726">
        <ele>462.12010999999075</ele>
      </trkpt>
      <trkpt lat="30.905154" lon="34.756889">
        <ele>461.6246610000144</ele>
      </trkpt>
      <trkpt lat="30.905106" lon="34.756972">
        <ele>462.4276839999552</ele>
      </trkpt>
      <trkpt lat="30.905078" lon="34.757293">
        <ele>460.6729019999857</ele>
      </trkpt>
      <trkpt lat="30.905003" lon="34.757601">
        <ele>457.45781400000897</ele>
      </trkpt>
      <trkpt lat="30.904757" lon="34.758401">
        <ele>448.0878700000035</ele>
      </trkpt>
      <trkpt lat="30.904688" lon="34.758723">
        <ele>447.6199649999885</ele>
      </trkpt>
      <trkpt lat="30.904628" lon="34.758881">
        <ele>446.8349469999871</ele>
      </trkpt>
      <trkpt lat="30.904439" lon="34.759128">
        <ele>445.2649110000111</ele>
      </trkpt>
      <trkpt lat="30.90453" lon="34.759242">
        <ele>445.42506000000867</ele>
      </trkpt>
      <extensions>
        <RoutingType xmlns="">Hike</RoutingType>
      </extensions>
    </trkseg>
    <trkseg>
      <trkpt lat="30.90453" lon="34.759242">
        <ele>445.42506000000867</ele>
      </trkpt>
      <trkpt lat="30.904439" lon="34.759128">
        <ele>445.2649110000111</ele>
      </trkpt>
      <trkpt lat="30.904087" lon="34.759651">
        <ele>443.50325099999327</ele>
      </trkpt>
      <trkpt lat="30.903726" lon="34.760039">
        <ele>442.2177649999926</ele>
      </trkpt>
      <trkpt lat="30.903624" lon="34.760182">
        <ele>442</ele>
      </trkpt>
      <trkpt lat="30.903417" lon="34.760608">
        <ele>442.94940799999176</ele>
      </trkpt>
      <trkpt lat="30.903228" lon="34.761134">
        <ele>441.5240279999948</ele>
      </trkpt>
      <trkpt lat="30.903069" lon="34.761371">
        <ele>440.69697099998893</ele>
      </trkpt>
      <trkpt lat="30.902809" lon="34.761866">
        <ele>439.5357430000131</ele>
      </trkpt>
      <trkpt lat="30.902699" lon="34.76209">
        <ele>439.71390999999767</ele>
      </trkpt>
      <trkpt lat="30.902627" lon="34.76231">
        <ele>439</ele>
      </trkpt>
      <trkpt lat="30.902577" lon="34.762408">
        <ele>439</ele>
      </trkpt>
      <trkpt lat="30.902505" lon="34.762481">
        <ele>438.2264240000013</ele>
      </trkpt>
      <trkpt lat="30.901658" lon="34.762979">
        <ele>438</ele>
      </trkpt>
      <trkpt lat="30.901515" lon="34.763096">
        <ele>438</ele>
      </trkpt>
      <trkpt lat="30.901422" lon="34.763206">
        <ele>438.97937799999954</ele>
      </trkpt>
      <trkpt lat="30.90124" lon="34.763502">
        <ele>439.26405799998565</ele>
      </trkpt>
      <trkpt lat="30.901208" lon="34.763647">
        <ele>438.8571450000022</ele>
      </trkpt>
      <trkpt lat="30.901182" lon="34.763902">
        <ele>438.8436180000049</ele>
      </trkpt>
      <trkpt lat="30.901323" lon="34.764226">
        <ele>439.31370299999753</ele>
      </trkpt>
      <trkpt lat="30.901541" lon="34.764625">
        <ele>439</ele>
      </trkpt>
      <trkpt lat="30.901619" lon="34.76491">
        <ele>439</ele>
      </trkpt>
      <trkpt lat="30.901659" lon="34.765611">
        <ele>440</ele>
      </trkpt>
      <trkpt lat="30.901645" lon="34.765701">
        <ele>440</ele>
      </trkpt>
      <trkpt lat="30.901572" lon="34.765863">
        <ele>440</ele>
      </trkpt>
      <trkpt lat="30.901458" lon="34.766003">
        <ele>440.84974199999397</ele>
      </trkpt>
      <trkpt lat="30.901227" lon="34.76634">
        <ele>442.3631460000097</ele>
      </trkpt>
      <trkpt lat="30.901157" lon="34.766398">
        <ele>442.8672859999906</ele>
      </trkpt>
      <trkpt lat="30.900932" lon="34.766517">
        <ele>443.48773599999276</ele>
      </trkpt>
      <trkpt lat="30.900741" lon="34.766648">
        <ele>444.1638699999871</ele>
      </trkpt>
      <trkpt lat="30.900645" lon="34.766769">
        <ele>444.554709999994</ele>
      </trkpt>
      <trkpt lat="30.90059" lon="34.766897">
        <ele>444.95081999999184</ele>
      </trkpt>
      <trkpt lat="30.900547" lon="34.767098">
        <ele>444.26050600000326</ele>
      </trkpt>
      <trkpt lat="30.900549" lon="34.7672">
        <ele>444.24610199998824</ele>
      </trkpt>
      <trkpt lat="30.900598" lon="34.767385">
        <ele>444</ele>
      </trkpt>
      <trkpt lat="30.900623" lon="34.767567">
        <ele>443.9824660000022</ele>
      </trkpt>
      <trkpt lat="30.900636" lon="34.767851">
        <ele>442</ele>
      </trkpt>
      <trkpt lat="30.900615" lon="34.76796">
        <ele>442</ele>
      </trkpt>
      <trkpt lat="30.900582" lon="34.768019">
        <ele>442.00421800000004</ele>
      </trkpt>
      <trkpt lat="30.900854" lon="34.768284">
        <ele>442</ele>
      </trkpt>
      <trkpt lat="30.901104" lon="34.768722">
        <ele>442.16792199998827</ele>
      </trkpt>
      <trkpt lat="30.901353" lon="34.769079">
        <ele>442.6813259999908</ele>
      </trkpt>
      <trkpt lat="30.90145" lon="34.769174">
        <ele>442.1214500000019</ele>
      </trkpt>
      <trkpt lat="30.901677" lon="34.7695">
        <ele>443.9695000000029</ele>
      </trkpt>
      <trkpt lat="30.901943" lon="34.77005">
        <ele>446.90009999998347</ele>
      </trkpt>
      <trkpt lat="30.901976" lon="34.770148">
        <ele>447.6214719999971</ele>
      </trkpt>
      <trkpt lat="30.902002" lon="34.770311">
        <ele>448.88902399999506</ele>
      </trkpt>
      <trkpt lat="30.902146" lon="34.770671">
        <ele>452.18655899999567</ele>
      </trkpt>
      <trkpt lat="30.902269" lon="34.770749">
        <ele>453.00496700001713</ele>
      </trkpt>
      <trkpt lat="30.902322" lon="34.770756">
        <ele>453.2462339999961</ele>
      </trkpt>
      <trkpt lat="30.902487" lon="34.770836">
        <ele>454.4165590000225</ele>
      </trkpt>
      <trkpt lat="30.902742" lon="34.770931">
        <ele>453.69717799998125</ele>
      </trkpt>
      <trkpt lat="30.903133" lon="34.771134">
        <ele>455.56060200003776</ele>
      </trkpt>
      <trkpt lat="30.903631" lon="34.771274">
        <ele>455.3824429999909</ele>
      </trkpt>
      <trkpt lat="30.903796" lon="34.771352">
        <ele>455.13831200000277</ele>
      </trkpt>
      <trkpt lat="30.903867" lon="34.771365">
        <ele>454.7205960000092</ele>
      </trkpt>
      <trkpt lat="30.904384" lon="34.771576">
        <ele>453.6867840000009</ele>
      </trkpt>
      <trkpt lat="30.904646" lon="34.771739">
        <ele>454.6302459999988</ele>
      </trkpt>
      <trkpt lat="30.904904" lon="34.771867">
        <ele>455</ele>
      </trkpt>
      <extensions>
        <RoutingType xmlns="">Hike</RoutingType>
      </extensions>
    </trkseg>
    <trkseg>
      <trkpt lat="30.904904" lon="34.771867">
        <ele>455</ele>
      </trkpt>
      <trkpt lat="30.905418" lon="34.772041">
        <ele>453.5897819999964</ele>
      </trkpt>
      <trkpt lat="30.906024" lon="34.772298">
        <ele>452.59242399999494</ele>
      </trkpt>
      <trkpt lat="30.906267" lon="34.772421">
        <ele>453.02055400000563</ele>
      </trkpt>
      <trkpt lat="30.906178" lon="34.772518">
        <ele>453.690339999991</ele>
      </trkpt>
      <trkpt lat="30.906159" lon="34.772579">
        <ele>453</ele>
      </trkpt>
      <trkpt lat="30.906148" lon="34.772647">
        <ele>453</ele>
      </trkpt>
      <trkpt lat="30.906182" lon="34.77278">
        <ele>453</ele>
      </trkpt>
      <trkpt lat="30.906178" lon="34.772913">
        <ele>454.11273500000743</ele>
      </trkpt>
      <trkpt lat="30.906358" lon="34.773232">
        <ele>454.61327399999755</ele>
      </trkpt>
      <trkpt lat="30.906481" lon="34.773595">
        <ele>455.4775140000029</ele>
      </trkpt>
      <extensions>
        <RoutingType xmlns="">Hike</RoutingType>
      </extensions>
    </trkseg>
  </trk>
</gpx>
