<?xml version="1.0" encoding="UTF-8" standalone="yes"?>
<gpx version="1.1" creator="IsraelHikingMap" xmlns:xsi="http://www.w3.org/2001/XMLSchema-instance" xsi:schemaLocation="http://www.topografix.com/GPX/1/1 http://www.topografix.com/GPX/1/1/gpx.xsd">
  <metadata>
    <bounds maxlat="32.84911" maxlon="35.7890601" minlat="32.8041715" minlon="35.7398706"></bounds>
  </metadata>
  <trk>
    <name>טיילת דרום הגולן אופניים משפחתי קל</name>
    <desc>טיילת סלולה לאורך מצוקי דרום הגולן. הטיילת עוברת מעל מצוקי הכנרת, נחל אל-על, עין פיק, אמפי גולן, מצפה סוסיתא. נקודות נוספות: אתר עין קשתות, מאגר בני ישראל, מועדון הקצינים הסורי בקיבוץ אפיק (תצפית נהדרת לכנרת), מצפה השלום, מצוקי האון ומצפה מבוא חמה.</desc>
    <extensions>
      <Color xmlns="">#0000FF</Color>
      <Opacity xmlns="">0.4</Opacity>
      <Weight xmlns="">9</Weight>
    </extensions>
    <trkseg>
      <trkpt lat="32.808267" lon="35.741036">
        <ele>358.5</ele>
      </trkpt>
      <trkpt lat="32.808267" lon="35.741036">
        <ele>358.5</ele>
      </trkpt>
      <extensions>
        <RoutingType xmlns="">Bike</RoutingType>
      </extensions>
    </trkseg>
    <trkseg>
      <trkpt lat="32.808267" lon="35.741036">
        <ele>358.5</ele>
      </trkpt>
      <trkpt lat="32.808063" lon="35.741321">
        <ele>358</ele>
      </trkpt>
      <trkpt lat="32.807658" lon="35.741773">
        <ele>360</ele>
      </trkpt>
      <trkpt lat="32.807496" lon="35.742047">
        <ele>360</ele>
      </trkpt>
      <trkpt lat="32.807162" lon="35.742273">
        <ele>358</ele>
      </trkpt>
      <extensions>
        <RoutingType xmlns="">Bike</RoutingType>
      </extensions>
    </trkseg>
    <trkseg>
      <trkpt lat="32.8071622" lon="35.7422732">
        <ele>354.90910173777513</ele>
      </trkpt>
      <trkpt lat="32.8070775" lon="35.7422609">
        <ele>357.5904523680398</ele>
      </trkpt>
      <trkpt lat="32.8069157" lon="35.7422912">
        <ele>358.7682431339338</ele>
      </trkpt>
      <trkpt lat="32.8067677" lon="35.7423582">
        <ele>359.155669660694</ele>
      </trkpt>
      <trkpt lat="32.8066221" lon="35.7424098">
        <ele>360.00233706229324</ele>
      </trkpt>
      <trkpt lat="32.8063898" lon="35.7425604">
        <ele>360.5272129059932</ele>
      </trkpt>
      <trkpt lat="32.8062747" lon="35.7427953">
        <ele>359.43461662572844</ele>
      </trkpt>
      <trkpt lat="32.8059623" lon="35.7429686">
        <ele>362.2453913421283</ele>
      </trkpt>
      <trkpt lat="32.8058625" lon="35.7430619">
        <ele>362.73230780125897</ele>
      </trkpt>
      <trkpt lat="32.8057559" lon="35.7431121">
        <ele>362.8648415242359</ele>
      </trkpt>
      <trkpt lat="32.8054782" lon="35.7430664">
        <ele>363.4448444044811</ele>
      </trkpt>
      <trkpt lat="32.8053752" lon="35.7430901">
        <ele>363.68661784766124</ele>
      </trkpt>
      <trkpt lat="32.8050198" lon="35.7433862">
        <ele>364.0637950489863</ele>
      </trkpt>
      <trkpt lat="32.8045454" lon="35.7437105">
        <ele>364.45657399865235</ele>
      </trkpt>
      <trkpt lat="32.8042711" lon="35.7437308">
        <ele>364.4009848220093</ele>
      </trkpt>
      <trkpt lat="32.8041715" lon="35.7437955">
        <ele>364.347794615767</ele>
      </trkpt>
      <trkpt lat="32.8041921" lon="35.7439278">
        <ele>364.46541133720984</ele>
      </trkpt>
      <trkpt lat="32.8043683" lon="35.7444794">
        <ele>364.9726035448407</ele>
      </trkpt>
      <trkpt lat="32.804347" lon="35.7446824">
        <ele>365.5049792065577</ele>
      </trkpt>
      <trkpt lat="32.8043776" lon="35.7449487">
        <ele>366.36668740064954</ele>
      </trkpt>
      <trkpt lat="32.8042244" lon="35.7453458">
        <ele>366.217178679941</ele>
      </trkpt>
      <trkpt lat="32.8042792" lon="35.745491">
        <ele>365.7447139133793</ele>
      </trkpt>
      <trkpt lat="32.8045413" lon="35.7457841">
        <ele>364.2694518357249</ele>
      </trkpt>
      <trkpt lat="32.8049225" lon="35.7458497">
        <ele>363.2346679759371</ele>
      </trkpt>
      <trkpt lat="32.8050052" lon="35.7458938">
        <ele>363.05907933888193</ele>
      </trkpt>
      <trkpt lat="32.8051773" lon="35.7462154">
        <ele>360.77683415479993</ele>
      </trkpt>
      <trkpt lat="32.8053111" lon="35.7464827">
        <ele>360.6722038691402</ele>
      </trkpt>
      <trkpt lat="32.8053324" lon="35.7466349">
        <ele>361.0376447281657</ele>
      </trkpt>
      <trkpt lat="32.8052899" lon="35.7470397">
        <ele>362.4812761965828</ele>
      </trkpt>
      <trkpt lat="32.8053359" lon="35.7471508">
        <ele>362.9853453300945</ele>
      </trkpt>
      <trkpt lat="32.8053851" lon="35.7471995">
        <ele>363.2946315130188</ele>
      </trkpt>
      <trkpt lat="32.805583" lon="35.7472583">
        <ele>363.928865273569</ele>
      </trkpt>
      <trkpt lat="32.8057836" lon="35.7473083">
        <ele>363.6326209716559</ele>
      </trkpt>
      <trkpt lat="32.8059918" lon="35.7474221">
        <ele>362.7809130694348</ele>
      </trkpt>
      <trkpt lat="32.8062726" lon="35.7474636">
        <ele>361.4059638864604</ele>
      </trkpt>
      <trkpt lat="32.8064486" lon="35.7475359">
        <ele>360.4608724928621</ele>
      </trkpt>
      <trkpt lat="32.8065678" lon="35.7475384">
        <ele>360.5433471820737</ele>
      </trkpt>
      <trkpt lat="32.806667" lon="35.7475263">
        <ele>360.76350959726113</ele>
      </trkpt>
      <trkpt lat="32.806884" lon="35.7475217">
        <ele>362.2021197248129</ele>
      </trkpt>
      <trkpt lat="32.8070303" lon="35.7476303">
        <ele>363.1561060955901</ele>
      </trkpt>
      <trkpt lat="32.8071396" lon="35.7477559">
        <ele>363.350514738738</ele>
      </trkpt>
      <trkpt lat="32.8072676" lon="35.7478108">
        <ele>363.7082514364315</ele>
      </trkpt>
      <trkpt lat="32.8074592" lon="35.7478233">
        <ele>364.3491009218826</ele>
      </trkpt>
      <trkpt lat="32.8080342" lon="35.7477535">
        <ele>366.09722598941596</ele>
      </trkpt>
      <trkpt lat="32.8083422" lon="35.7477268">
        <ele>366.27008478425614</ele>
      </trkpt>
      <trkpt lat="32.8086966" lon="35.747656">
        <ele>366.0128221065959</ele>
      </trkpt>
      <trkpt lat="32.8093151" lon="35.7475092">
        <ele>366.2350499211816</ele>
      </trkpt>
      <trkpt lat="32.8094592" lon="35.7474282">
        <ele>366.2659093144896</ele>
      </trkpt>
      <trkpt lat="32.8096201" lon="35.7471683">
        <ele>366.96255934227963</ele>
      </trkpt>
      <extensions>
        <RoutingType xmlns="">Hike</RoutingType>
      </extensions>
    </trkseg>
    <trkseg>
      <trkpt lat="32.8096201" lon="35.7471683">
        <ele>366.96255934227963</ele>
      </trkpt>
      <trkpt lat="32.8100108" lon="35.747091">
        <ele>366.2564038018843</ele>
      </trkpt>
      <trkpt lat="32.8105377" lon="35.747139">
        <ele>366.60524398938327</ele>
      </trkpt>
      <trkpt lat="32.8107815" lon="35.7471483">
        <ele>366.9287031825318</ele>
      </trkpt>
      <trkpt lat="32.811065" lon="35.7472443">
        <ele>366.98408621231664</ele>
      </trkpt>
      <trkpt lat="32.8124482" lon="35.7474193">
        <ele>369.3520994670636</ele>
      </trkpt>
      <trkpt lat="32.8127298" lon="35.7472794">
        <ele>368.7153994997354</ele>
      </trkpt>
      <trkpt lat="32.8133611" lon="35.7470334">
        <ele>364.8557388610561</ele>
      </trkpt>
      <trkpt lat="32.8134541" lon="35.7470541">
        <ele>364.79851404187565</ele>
      </trkpt>
      <trkpt lat="32.8138812" lon="35.7474354">
        <ele>366.45377519074486</ele>
      </trkpt>
      <trkpt lat="32.8140982" lon="35.7475361">
        <ele>368.21349759970076</ele>
      </trkpt>
      <trkpt lat="32.8143615" lon="35.7475977">
        <ele>369.21243291719406</ele>
      </trkpt>
      <trkpt lat="32.8144756" lon="35.7476271">
        <ele>369.1295967640094</ele>
      </trkpt>
      <trkpt lat="32.8149875" lon="35.7478989">
        <ele>367.5372246845012</ele>
      </trkpt>
      <trkpt lat="32.8153537" lon="35.7480588">
        <ele>362.93637734467785</ele>
      </trkpt>
      <trkpt lat="32.8156063" lon="35.7481909">
        <ele>365.6662505693972</ele>
      </trkpt>
      <trkpt lat="32.8157076" lon="35.7482133">
        <ele>366.55361732541456</ele>
      </trkpt>
      <trkpt lat="32.8163866" lon="35.748554">
        <ele>372.6329855457605</ele>
      </trkpt>
      <trkpt lat="32.8170629" lon="35.7487874">
        <ele>370.4140016932435</ele>
      </trkpt>
      <trkpt lat="32.8174815" lon="35.7489553">
        <ele>370.8041334838206</ele>
      </trkpt>
      <trkpt lat="32.8181033" lon="35.7493421">
        <ele>373.2782007868884</ele>
      </trkpt>
      <trkpt lat="32.8191004" lon="35.7497487">
        <ele>375.7128693184577</ele>
      </trkpt>
      <trkpt lat="32.8195909" lon="35.7500213">
        <ele>375.9442034099661</ele>
      </trkpt>
      <trkpt lat="32.8205171" lon="35.7504127">
        <ele>374.5297898565785</ele>
      </trkpt>
      <trkpt lat="32.8215482" lon="35.7510986">
        <ele>374.50313645450495</ele>
      </trkpt>
      <trkpt lat="32.8216628" lon="35.7512181">
        <ele>376.17177998935614</ele>
      </trkpt>
      <trkpt lat="32.8226641" lon="35.7518829">
        <ele>374.4915143949886</ele>
      </trkpt>
      <trkpt lat="32.8232414" lon="35.7524756">
        <ele>371.6677408313795</ele>
      </trkpt>
      <trkpt lat="32.8234733" lon="35.7528609">
        <ele>375.28331582190026</ele>
      </trkpt>
      <trkpt lat="32.8240773" lon="35.7531441">
        <ele>371.01581756958507</ele>
      </trkpt>
      <trkpt lat="32.8241432" lon="35.7532769">
        <ele>369.38559330763417</ele>
      </trkpt>
      <trkpt lat="32.8243742" lon="35.7546589">
        <ele>377.900388876276</ele>
      </trkpt>
      <trkpt lat="32.8242938" lon="35.7549613">
        <ele>378.9215018140086</ele>
      </trkpt>
      <trkpt lat="32.8243176" lon="35.7553132">
        <ele>379.5698228008633</ele>
      </trkpt>
      <trkpt lat="32.8245895" lon="35.7560893">
        <ele>380.84199160824437</ele>
      </trkpt>
      <trkpt lat="32.8248245" lon="35.7568042">
        <ele>380.2980247008121</ele>
      </trkpt>
      <trkpt lat="32.8250118" lon="35.7570803">
        <ele>379.7591174859606</ele>
      </trkpt>
      <trkpt lat="32.8252934" lon="35.7572559">
        <ele>378.4823295077017</ele>
      </trkpt>
      <trkpt lat="32.8254647" lon="35.7575068">
        <ele>380.5900090670177</ele>
      </trkpt>
      <trkpt lat="32.8258444" lon="35.7581668">
        <ele>377.2023092794468</ele>
      </trkpt>
      <trkpt lat="32.8262062" lon="35.7588535">
        <ele>381.089591281664</ele>
      </trkpt>
      <trkpt lat="32.826518" lon="35.7592597">
        <ele>382.97240573520685</ele>
      </trkpt>
      <trkpt lat="32.8267296" lon="35.7593672">
        <ele>382.6966901719885</ele>
      </trkpt>
      <trkpt lat="32.8268848" lon="35.759438">
        <ele>382.16878206876174</ele>
      </trkpt>
      <trkpt lat="32.8275395" lon="35.7596881">
        <ele>381.22106010658183</ele>
      </trkpt>
      <trkpt lat="32.8277807" lon="35.7598338">
        <ele>377.3068034605857</ele>
      </trkpt>
      <trkpt lat="32.8279049" lon="35.7600332">
        <ele>374.2638159198527</ele>
      </trkpt>
      <trkpt lat="32.8278955" lon="35.7601912">
        <ele>377.45235642169035</ele>
      </trkpt>
      <trkpt lat="32.8277548" lon="35.7604456">
        <ele>381.9259326175263</ele>
      </trkpt>
      <extensions>
        <RoutingType xmlns="">Hike</RoutingType>
      </extensions>
    </trkseg>
    <trkseg>
      <trkpt lat="32.8277548" lon="35.7604456">
        <ele>381.9259326175263</ele>
      </trkpt>
      <trkpt lat="32.8277732" lon="35.7605457">
        <ele>382.3220800012867</ele>
      </trkpt>
      <trkpt lat="32.8280295" lon="35.7608">
        <ele>380.91579611494967</ele>
      </trkpt>
      <trkpt lat="32.8286107" lon="35.7615538">
        <ele>378.09613539751655</ele>
      </trkpt>
      <trkpt lat="32.8288287" lon="35.7618054">
        <ele>377.03693760067284</ele>
      </trkpt>
      <trkpt lat="32.8294583" lon="35.762763">
        <ele>380.24047932158925</ele>
      </trkpt>
      <trkpt lat="32.8296191" lon="35.7632132">
        <ele>373.08960602281724</ele>
      </trkpt>
      <trkpt lat="32.8298925" lon="35.7635546">
        <ele>364.7408464178318</ele>
      </trkpt>
      <trkpt lat="32.8299907" lon="35.7638637">
        <ele>369.0043490813895</ele>
      </trkpt>
      <trkpt lat="32.829989" lon="35.764267">
        <ele>377.40791549741436</ele>
      </trkpt>
      <trkpt lat="32.8300257" lon="35.7644306">
        <ele>378.1395922236363</ele>
      </trkpt>
      <trkpt lat="32.830352" lon="35.7646666">
        <ele>371.2755676595136</ele>
      </trkpt>
      <trkpt lat="32.8304543" lon="35.7649226">
        <ele>371.17869968799</ele>
      </trkpt>
      <trkpt lat="32.8305076" lon="35.7654328">
        <ele>376.72757841776786</ele>
      </trkpt>
      <trkpt lat="32.830497" lon="35.7657103">
        <ele>380.1980302332604</ele>
      </trkpt>
      <trkpt lat="32.8305673" lon="35.7659991">
        <ele>381.78015063290076</ele>
      </trkpt>
      <trkpt lat="32.8308736" lon="35.7664531">
        <ele>383.37597252568526</ele>
      </trkpt>
      <trkpt lat="32.8315282" lon="35.7674">
        <ele>386.6876310853065</ele>
      </trkpt>
      <trkpt lat="32.8319891" lon="35.7677575">
        <ele>386.4368439183518</ele>
      </trkpt>
      <trkpt lat="32.8321735" lon="35.7680441">
        <ele>387.38362074090287</ele>
      </trkpt>
      <trkpt lat="32.8325364" lon="35.768602">
        <ele>389.8525508632881</ele>
      </trkpt>
      <trkpt lat="32.8326915" lon="35.7687747">
        <ele>390.6255133403011</ele>
      </trkpt>
      <trkpt lat="32.8327773" lon="35.768876">
        <ele>391.0884182311004</ele>
      </trkpt>
      <trkpt lat="32.8327815" lon="35.769065">
        <ele>394.2251014604347</ele>
      </trkpt>
      <trkpt lat="32.8327663" lon="35.7691288">
        <ele>395.705868901527</ele>
      </trkpt>
      <trkpt lat="32.8326629" lon="35.7692794">
        <ele>398.314299447513</ele>
      </trkpt>
      <trkpt lat="32.8324815" lon="35.7694882">
        <ele>395.32290378635975</ele>
      </trkpt>
      <trkpt lat="32.8323714" lon="35.7696723">
        <ele>395.3154811333233</ele>
      </trkpt>
      <trkpt lat="32.83219" lon="35.7699094">
        <ele>396.35449646547147</ele>
      </trkpt>
      <trkpt lat="32.8320354" lon="35.7701394">
        <ele>397.1480187889405</ele>
      </trkpt>
      <trkpt lat="32.8318391" lon="35.7703801">
        <ele>398.2343742953022</ele>
      </trkpt>
      <trkpt lat="32.8317112" lon="35.7705748">
        <ele>399.23831907157023</ele>
      </trkpt>
      <trkpt lat="32.831625" lon="35.7707517">
        <ele>400.2573562529542</ele>
      </trkpt>
      <trkpt lat="32.8314793" lon="35.7709216">
        <ele>401.10938540551894</ele>
      </trkpt>
      <trkpt lat="32.831445" lon="35.771225">
        <ele>401.82116088889336</ele>
      </trkpt>
      <trkpt lat="32.831522" lon="35.771429">
        <ele>402</ele>
      </trkpt>
      <trkpt lat="32.831814" lon="35.772053">
        <ele>402.2801489411434</ele>
      </trkpt>
      <trkpt lat="32.832014" lon="35.772737">
        <ele>403.84214992816675</ele>
      </trkpt>
      <trkpt lat="32.832074" lon="35.772892">
        <ele>403.9050465131308</ele>
      </trkpt>
      <trkpt lat="32.832338" lon="35.773374">
        <ele>403.8969363431205</ele>
      </trkpt>
      <trkpt lat="32.832397" lon="35.773562">
        <ele>403.8090038355983</ele>
      </trkpt>
      <trkpt lat="32.832487" lon="35.774008">
        <ele>403.68997557400394</ele>
      </trkpt>
      <trkpt lat="32.83254" lon="35.774513">
        <ele>404.5124311296679</ele>
      </trkpt>
      <trkpt lat="32.832584" lon="35.774663">
        <ele>404.7946667592779</ele>
      </trkpt>
      <trkpt lat="32.832669" lon="35.774826">
        <ele>404.73683655269105</ele>
      </trkpt>
      <trkpt lat="32.832775" lon="35.774969">
        <ele>404.5075314223295</ele>
      </trkpt>
      <trkpt lat="32.832898" lon="35.775057">
        <ele>404.2129828491567</ele>
      </trkpt>
      <trkpt lat="32.833206" lon="35.775228">
        <ele>404.6145052379386</ele>
      </trkpt>
      <trkpt lat="32.833359" lon="35.77534">
        <ele>405.21418505443336</ele>
      </trkpt>
      <extensions>
        <RoutingType xmlns="">Hike</RoutingType>
      </extensions>
    </trkseg>
    <trkseg>
      <trkpt lat="32.833359" lon="35.77534">
        <ele>405.21418505443336</ele>
      </trkpt>
      <trkpt lat="32.833428" lon="35.775408">
        <ele>405.6495884483718</ele>
      </trkpt>
      <trkpt lat="32.833778" lon="35.775851">
        <ele>407.05716921177304</ele>
      </trkpt>
      <trkpt lat="32.833821" lon="35.775919">
        <ele>407.27560306855906</ele>
      </trkpt>
      <trkpt lat="32.833858" lon="35.776047">
        <ele>407.8006486390188</ele>
      </trkpt>
      <trkpt lat="32.833883" lon="35.776376">
        <ele>409.9516972556677</ele>
      </trkpt>
      <trkpt lat="32.833934" lon="35.776565">
        <ele>410.9980698461995</ele>
      </trkpt>
      <trkpt lat="32.834035" lon="35.776699">
        <ele>411.1854033998953</ele>
      </trkpt>
      <trkpt lat="32.834255" lon="35.776866">
        <ele>410.84011405191</ele>
      </trkpt>
      <trkpt lat="32.834311" lon="35.776931">
        <ele>410.95528803712523</ele>
      </trkpt>
      <trkpt lat="32.834356" lon="35.777045">
        <ele>411.2235957347275</ele>
      </trkpt>
      <trkpt lat="32.8343663" lon="35.7771901">
        <ele>411.4852523743144</ele>
      </trkpt>
      <trkpt lat="32.8344966" lon="35.7772594">
        <ele>411.6560602859257</ele>
      </trkpt>
      <trkpt lat="32.8351878" lon="35.7786254">
        <ele>413.64026529500376</ele>
      </trkpt>
      <trkpt lat="32.8370371" lon="35.7820717">
        <ele>416.1450307076003</ele>
      </trkpt>
      <trkpt lat="32.83729" lon="35.7825105">
        <ele>416.0708448987705</ele>
      </trkpt>
      <trkpt lat="32.8380123" lon="35.7838952">
        <ele>417.1609548259453</ele>
      </trkpt>
      <trkpt lat="32.8380595" lon="35.7842761">
        <ele>418.8014157768963</ele>
      </trkpt>
      <trkpt lat="32.8379429" lon="35.7847609">
        <ele>418.70315786326506</ele>
      </trkpt>
      <trkpt lat="32.8387115" lon="35.7849561">
        <ele>421.15286879826715</ele>
      </trkpt>
      <trkpt lat="32.8388684" lon="35.7850477">
        <ele>420.92458471818486</ele>
      </trkpt>
      <trkpt lat="32.8389695" lon="35.7851432">
        <ele>420.79259608959103</ele>
      </trkpt>
      <trkpt lat="32.8390854" lon="35.7851716">
        <ele>420.93708992992117</ele>
      </trkpt>
      <trkpt lat="32.839158" lon="35.7851776">
        <ele>420.9783239147977</ele>
      </trkpt>
      <trkpt lat="32.8392133" lon="35.7851822">
        <ele>421.0109040635531</ele>
      </trkpt>
      <trkpt lat="32.8393619" lon="35.7852509">
        <ele>421.1189664784706</ele>
      </trkpt>
      <trkpt lat="32.8397794" lon="35.7854738">
        <ele>422.06655785245573</ele>
      </trkpt>
      <trkpt lat="32.841733" lon="35.7866319">
        <ele>422.00093577074915</ele>
      </trkpt>
      <trkpt lat="32.8417632" lon="35.7866451">
        <ele>422.02028659213335</ele>
      </trkpt>
      <trkpt lat="32.841793" lon="35.7866538">
        <ele>422.0358277454339</ele>
      </trkpt>
      <trkpt lat="32.8418226" lon="35.7866593">
        <ele>422.04853481163326</ele>
      </trkpt>
      <trkpt lat="32.841852" lon="35.7866624">
        <ele>422.05896839125825</ele>
      </trkpt>
      <trkpt lat="32.8418813" lon="35.7866644">
        <ele>422.06835864238514</ele>
      </trkpt>
      <trkpt lat="32.8419108" lon="35.7866662">
        <ele>422.0776926305166</ele>
      </trkpt>
      <trkpt lat="32.8419404" lon="35.7866689">
        <ele>422.0881965811975</ele>
      </trkpt>
      <trkpt lat="32.8419702" lon="35.7866736">
        <ele>422.0983129810825</ele>
      </trkpt>
      <trkpt lat="32.8420005" lon="35.7866813">
        <ele>422.1096229958637</ele>
      </trkpt>
      <trkpt lat="32.8420313" lon="35.7866931">
        <ele>422.12494945647234</ele>
      </trkpt>
      <trkpt lat="32.842237" lon="35.7868125">
        <ele>422.21584602407034</ele>
      </trkpt>
      <trkpt lat="32.8422802" lon="35.7868435">
        <ele>422.13810322160145</ele>
      </trkpt>
      <trkpt lat="32.8423192" lon="35.7868779">
        <ele>422.07123269301803</ele>
      </trkpt>
      <trkpt lat="32.8423537" lon="35.7869159">
        <ele>422.0236434264775</ele>
      </trkpt>
      <trkpt lat="32.8423834" lon="35.7869578">
        <ele>421.9956775247485</ele>
      </trkpt>
      <trkpt lat="32.842408" lon="35.7870038">
        <ele>421.98722801889915</ele>
      </trkpt>
      <trkpt lat="32.8424271" lon="35.7870542">
        <ele>421.99795331731804</ele>
      </trkpt>
      <trkpt lat="32.8424366" lon="35.7870934">
        <ele>422.017951481079</ele>
      </trkpt>
      <trkpt lat="32.8424405" lon="35.7871093">
        <ele>422.0252169489339</ele>
      </trkpt>
      <trkpt lat="32.8424477" lon="35.7871694">
        <ele>422.0480224607152</ele>
      </trkpt>
      <trkpt lat="32.8424486" lon="35.7872346">
        <ele>422.08269800369055</ele>
      </trkpt>
      <extensions>
        <RoutingType xmlns="">Hike</RoutingType>
      </extensions>
    </trkseg>
    <trkseg>
      <trkpt lat="32.8424486" lon="35.7872346">
        <ele>422.08269800369055</ele>
      </trkpt>
      <trkpt lat="32.8424447" lon="35.787309">
        <ele>422.12562929675073</ele>
      </trkpt>
      <trkpt lat="32.8427445" lon="35.7874794">
        <ele>421.9355548160165</ele>
      </trkpt>
      <trkpt lat="32.8433622" lon="35.7878303">
        <ele>422.0948380739475</ele>
      </trkpt>
      <trkpt lat="32.8434867" lon="35.7879011">
        <ele>422.3072273186669</ele>
      </trkpt>
      <trkpt lat="32.8442185" lon="35.7883169">
        <ele>422.8306649977539</ele>
      </trkpt>
      <trkpt lat="32.8449464" lon="35.7887305">
        <ele>423.4777289330217</ele>
      </trkpt>
      <trkpt lat="32.8455264" lon="35.7890601">
        <ele>424.98361571874676</ele>
      </trkpt>
      <trkpt lat="32.8456166" lon="35.7888347">
        <ele>423.8418939241884</ele>
      </trkpt>
      <trkpt lat="32.845598" lon="35.788759">
        <ele>423.5322854103083</ele>
      </trkpt>
      <trkpt lat="32.84557" lon="35.788684">
        <ele>423.2072458868073</ele>
      </trkpt>
      <trkpt lat="32.845568" lon="35.788608">
        <ele>422.7974574464703</ele>
      </trkpt>
      <trkpt lat="32.845587" lon="35.788526">
        <ele>422.32983329022284</ele>
      </trkpt>
      <trkpt lat="32.845669" lon="35.788374">
        <ele>421.97608426091887</ele>
      </trkpt>
      <trkpt lat="32.845796" lon="35.788197">
        <ele>420.4161482971315</ele>
      </trkpt>
      <trkpt lat="32.8458341" lon="35.7881267">
        <ele>419.3097414391056</ele>
      </trkpt>
      <trkpt lat="32.845862" lon="35.788059">
        <ele>418.37286487187924</ele>
      </trkpt>
      <trkpt lat="32.846024" lon="35.78736">
        <ele>416.2101625556826</ele>
      </trkpt>
      <trkpt lat="32.846063" lon="35.787266">
        <ele>416.49503181235593</ele>
      </trkpt>
      <trkpt lat="32.846188" lon="35.787071">
        <ele>417.0053396439648</ele>
      </trkpt>
      <trkpt lat="32.846213" lon="35.7870187">
        <ele>417.1763062516696</ele>
      </trkpt>
      <trkpt lat="32.846284" lon="35.78687">
        <ele>417.61750720002556</ele>
      </trkpt>
      <trkpt lat="32.846453" lon="35.786336">
        <ele>418.0063123744165</ele>
      </trkpt>
      <trkpt lat="32.846858" lon="35.784928">
        <ele>417.9625060678316</ele>
      </trkpt>
      <trkpt lat="32.847026" lon="35.784146">
        <ele>416.7030193215131</ele>
      </trkpt>
      <trkpt lat="32.847138" lon="35.783737">
        <ele>416.0590337664529</ele>
      </trkpt>
      <trkpt lat="32.847238" lon="35.783237">
        <ele>416.7213590359662</ele>
      </trkpt>
      <trkpt lat="32.847725" lon="35.781644">
        <ele>418.4368742265828</ele>
      </trkpt>
      <trkpt lat="32.847864" lon="35.781026">
        <ele>416.44846659619884</ele>
      </trkpt>
      <trkpt lat="32.848064" lon="35.780284">
        <ele>417.1628902760572</ele>
      </trkpt>
      <trkpt lat="32.848191" lon="35.779738">
        <ele>416.7534338584841</ele>
      </trkpt>
      <trkpt lat="32.848357" lon="35.779247">
        <ele>417.54880283065506</ele>
      </trkpt>
      <trkpt lat="32.848677" lon="35.778111">
        <ele>417.0395169062191</ele>
      </trkpt>
      <trkpt lat="32.848857" lon="35.777651">
        <ele>417.1529038209929</ele>
      </trkpt>
      <trkpt lat="32.848936" lon="35.777385">
        <ele>417.0788600539675</ele>
      </trkpt>
      <trkpt lat="32.848994" lon="35.776997">
        <ele>417.0299371043926</ele>
      </trkpt>
      <trkpt lat="32.84911" lon="35.776449">
        <ele>415.998826253537</ele>
      </trkpt>
      <trkpt lat="32.849089" lon="35.776301">
        <ele>415.9620278373045</ele>
      </trkpt>
      <trkpt lat="32.848881" lon="35.775881">
        <ele>415.00246713668696</ele>
      </trkpt>
      <trkpt lat="32.848259" lon="35.774755">
        <ele>412.5625831001044</ele>
      </trkpt>
      <trkpt lat="32.84807" lon="35.774486">
        <ele>411.3433712378584</ele>
      </trkpt>
      <trkpt lat="32.8477159" lon="35.774122">
        <ele>410.5205452983859</ele>
      </trkpt>
      <trkpt lat="32.847669" lon="35.774031">
        <ele>410.0715633899347</ele>
      </trkpt>
      <trkpt lat="32.847661" lon="35.773972">
        <ele>409.9148679228027</ele>
      </trkpt>
      <trkpt lat="32.84768" lon="35.773805">
        <ele>409.5681259983291</ele>
      </trkpt>
      <trkpt lat="32.847664" lon="35.773704">
        <ele>409.3410824344936</ele>
      </trkpt>
      <trkpt lat="32.8474413" lon="35.7732403">
        <ele>409.25339011770853</ele>
      </trkpt>
      <trkpt lat="32.847337" lon="35.773023">
        <ele>408.40858654636907</ele>
      </trkpt>
      <trkpt lat="32.846834" lon="35.772147">
        <ele>407.597328362632</ele>
      </trkpt>
      <extensions>
        <RoutingType xmlns="">Hike</RoutingType>
      </extensions>
    </trkseg>
    <trkseg>
      <trkpt lat="32.846834" lon="35.772147">
        <ele>407.597328362632</ele>
      </trkpt>
      <trkpt lat="32.846589" lon="35.771769">
        <ele>407.98682438303206</ele>
      </trkpt>
      <trkpt lat="32.846477" lon="35.771569">
        <ele>408.05454974471496</ele>
      </trkpt>
      <trkpt lat="32.846297" lon="35.771182">
        <ele>409.08870578046066</ele>
      </trkpt>
      <trkpt lat="32.846185" lon="35.771003">
        <ele>409.46043471359366</ele>
      </trkpt>
      <trkpt lat="32.846054" lon="35.770833">
        <ele>409.67701275530015</ele>
      </trkpt>
      <trkpt lat="32.84599" lon="35.770629">
        <ele>410.091698338014</ele>
      </trkpt>
      <trkpt lat="32.845887" lon="35.770397">
        <ele>411.37966347727826</ele>
      </trkpt>
      <trkpt lat="32.845628" lon="35.76993">
        <ele>411.7917899800069</ele>
      </trkpt>
      <trkpt lat="32.845351" lon="35.769537">
        <ele>412.07082088517933</ele>
      </trkpt>
      <trkpt lat="32.845196" lon="35.769093">
        <ele>412.6557615431641</ele>
      </trkpt>
      <trkpt lat="32.844788" lon="35.768313">
        <ele>413.6661774574829</ele>
      </trkpt>
      <trkpt lat="32.844612" lon="35.767999">
        <ele>411.8309454584916</ele>
      </trkpt>
      <trkpt lat="32.844325" lon="35.767579">
        <ele>408.24484403797044</ele>
      </trkpt>
      <trkpt lat="32.844183" lon="35.767325">
        <ele>407.21539525257964</ele>
      </trkpt>
      <trkpt lat="32.843806" lon="35.766535">
        <ele>404.34509742411456</ele>
      </trkpt>
      <trkpt lat="32.843656" lon="35.766259">
        <ele>403.5952900434969</ele>
      </trkpt>
      <trkpt lat="32.842955" lon="35.765041">
        <ele>403.7626713631588</ele>
      </trkpt>
      <trkpt lat="32.842799" lon="35.764796">
        <ele>403.8943912533359</ele>
      </trkpt>
      <trkpt lat="32.842729" lon="35.764662">
        <ele>403.75135701331396</ele>
      </trkpt>
      <trkpt lat="32.842597" lon="35.764328">
        <ele>403.1477888710918</ele>
      </trkpt>
      <trkpt lat="32.842344" lon="35.763867">
        <ele>404.5154469932721</ele>
      </trkpt>
      <trkpt lat="32.841931" lon="35.763049">
        <ele>405.12584171959804</ele>
      </trkpt>
      <trkpt lat="32.841713" lon="35.762659">
        <ele>405.06534959501187</ele>
      </trkpt>
      <trkpt lat="32.841673" lon="35.762566">
        <ele>404.8352673440815</ele>
      </trkpt>
      <trkpt lat="32.8415802" lon="35.7623821">
        <ele>404.39175788848</ele>
      </trkpt>
      <trkpt lat="32.8415815" lon="35.7622723">
        <ele>404.60367135270417</ele>
      </trkpt>
      <trkpt lat="32.841701" lon="35.7621699">
        <ele>405.1081407114934</ele>
      </trkpt>
      <trkpt lat="32.841885" lon="35.762107">
        <ele>405.72986849716915</ele>
      </trkpt>
      <trkpt lat="32.842035" lon="35.762089">
        <ele>406.05122727577003</ele>
      </trkpt>
      <trkpt lat="32.842553" lon="35.762107">
        <ele>406.9067921777605</ele>
      </trkpt>
      <trkpt lat="32.842738" lon="35.76209">
        <ele>407.4315502222162</ele>
      </trkpt>
      <trkpt lat="32.843824" lon="35.762087">
        <ele>409.99631138008624</ele>
      </trkpt>
      <trkpt lat="32.844339" lon="35.762046">
        <ele>410.93359188870244</ele>
      </trkpt>
      <trkpt lat="32.844797" lon="35.762046">
        <ele>410.87430004605926</ele>
      </trkpt>
      <trkpt lat="32.845471" lon="35.761986">
        <ele>411.20656995181025</ele>
      </trkpt>
      <trkpt lat="32.845657" lon="35.761926">
        <ele>411.1212970683401</ele>
      </trkpt>
      <trkpt lat="32.846034" lon="35.761771">
        <ele>411.26974407619315</ele>
      </trkpt>
      <trkpt lat="32.847291" lon="35.761215">
        <ele>413.17495802706134</ele>
      </trkpt>
      <trkpt lat="32.847775" lon="35.760985">
        <ele>413.9920906227072</ele>
      </trkpt>
      <trkpt lat="32.847885" lon="35.760901">
        <ele>414.58621087735037</ele>
      </trkpt>
      <trkpt lat="32.847944" lon="35.760507">
        <ele>416.4560113622239</ele>
      </trkpt>
      <trkpt lat="32.847859" lon="35.760057">
        <ele>417.9212134174486</ele>
      </trkpt>
      <trkpt lat="32.847742" lon="35.759213">
        <ele>417.150264931539</ele>
      </trkpt>
      <trkpt lat="32.847741" lon="35.759135">
        <ele>418.2838219136525</ele>
      </trkpt>
      <trkpt lat="32.8471504" lon="35.7544569">
        <ele>413.5607466265912</ele>
      </trkpt>
      <trkpt lat="32.8471003" lon="35.7543461">
        <ele>412.9581784908551</ele>
      </trkpt>
      <trkpt lat="32.8470862" lon="35.7542813">
        <ele>412.63498438328537</ele>
      </trkpt>
      <trkpt lat="32.8471162" lon="35.7542016">
        <ele>412.36362304101164</ele>
      </trkpt>
      <extensions>
        <RoutingType xmlns="">Hike</RoutingType>
      </extensions>
    </trkseg>
    <trkseg>
      <trkpt lat="32.8471162" lon="35.7542016">
        <ele>412.36362304101164</ele>
      </trkpt>
      <trkpt lat="32.8471778" lon="35.7541696">
        <ele>412.3668699941476</ele>
      </trkpt>
      <trkpt lat="32.8472351" lon="35.7541207">
        <ele>412.30093057321346</ele>
      </trkpt>
      <trkpt lat="32.8472254" lon="35.7540345">
        <ele>411.99098280114185</ele>
      </trkpt>
      <trkpt lat="32.8471827" lon="35.7536547">
        <ele>410.1459141251962</ele>
      </trkpt>
      <trkpt lat="32.84715" lon="35.753314">
        <ele>407.9469082275805</ele>
      </trkpt>
      <trkpt lat="32.847153" lon="35.753165">
        <ele>407.258098012995</ele>
      </trkpt>
      <trkpt lat="32.847185" lon="35.752903">
        <ele>406.4037133284024</ele>
      </trkpt>
      <trkpt lat="32.847257" lon="35.752623">
        <ele>405.39734140619606</ele>
      </trkpt>
      <trkpt lat="32.847305" lon="35.752498">
        <ele>404.9827127982212</ele>
      </trkpt>
      <trkpt lat="32.847435" lon="35.752232">
        <ele>403.2616381132937</ele>
      </trkpt>
      <trkpt lat="32.848021" lon="35.75124">
        <ele>401.0424466606438</ele>
      </trkpt>
      <trkpt lat="32.8481427" lon="35.7510006">
        <ele>399.97127980473647</ele>
      </trkpt>
      <trkpt lat="32.8482265" lon="35.7507807">
        <ele>398.7521761885471</ele>
      </trkpt>
      <trkpt lat="32.848258" lon="35.7505552">
        <ele>397.9729066992214</ele>
      </trkpt>
      <trkpt lat="32.8482676" lon="35.7503683">
        <ele>397.52535641048587</ele>
      </trkpt>
      <trkpt lat="32.84824" lon="35.750187">
        <ele>397.41626382162684</ele>
      </trkpt>
      <trkpt lat="32.848191" lon="35.749931">
        <ele>396.9719591500846</ele>
      </trkpt>
      <trkpt lat="32.8480853" lon="35.7496229">
        <ele>396.75903234765593</ele>
      </trkpt>
      <trkpt lat="32.847863" lon="35.74904">
        <ele>393.68928212054215</ele>
      </trkpt>
      <trkpt lat="32.8477477" lon="35.7486503">
        <ele>391.0379109731764</ele>
      </trkpt>
      <trkpt lat="32.847681" lon="35.748201">
        <ele>390.7119907178034</ele>
      </trkpt>
      <trkpt lat="32.847553" lon="35.746932">
        <ele>385.7399526279229</ele>
      </trkpt>
      <trkpt lat="32.84753" lon="35.746402">
        <ele>384.19180758386597</ele>
      </trkpt>
      <trkpt lat="32.8475316" lon="35.7436682">
        <ele>373.1987050089719</ele>
      </trkpt>
      <trkpt lat="32.8475513" lon="35.7416079">
        <ele>369.98832349225796</ele>
      </trkpt>
      <trkpt lat="32.8475572" lon="35.7414878">
        <ele>371.33524743702856</ele>
      </trkpt>
      <trkpt lat="32.8475735" lon="35.7413846">
        <ele>370.72793672690966</ele>
      </trkpt>
      <trkpt lat="32.8475963" lon="35.7412645">
        <ele>368.84837652175855</ele>
      </trkpt>
      <trkpt lat="32.8476244" lon="35.7411578">
        <ele>367.3540435150325</ele>
      </trkpt>
      <trkpt lat="32.8476619" lon="35.7410572">
        <ele>366.3873039057847</ele>
      </trkpt>
      <trkpt lat="32.8477046" lon="35.7409705">
        <ele>365.7801078043287</ele>
      </trkpt>
      <trkpt lat="32.8477641" lon="35.7408741">
        <ele>365.3021660534731</ele>
      </trkpt>
      <trkpt lat="32.8478387" lon="35.7407835">
        <ele>364.9863635959307</ele>
      </trkpt>
      <trkpt lat="32.8479378" lon="35.7406806">
        <ele>364.67736351605583</ele>
      </trkpt>
      <trkpt lat="32.8480301" lon="35.7406037">
        <ele>364.2950779372572</ele>
      </trkpt>
      <trkpt lat="32.8480933" lon="35.7405624">
        <ele>364.14241067135066</ele>
      </trkpt>
      <trkpt lat="32.8481449" lon="35.740535">
        <ele>364.0563559583619</ele>
      </trkpt>
      <trkpt lat="32.8482319" lon="35.7405006">
        <ele>363.97770284525245</ele>
      </trkpt>
      <trkpt lat="32.848353" lon="35.7404669">
        <ele>363.99499707992413</ele>
      </trkpt>
      <trkpt lat="32.848431" lon="35.7404493">
        <ele>364.07778630572</ele>
      </trkpt>
      <trkpt lat="32.8485467" lon="35.7404182">
        <ele>364.22620263193704</ele>
      </trkpt>
      <trkpt lat="32.8486193" lon="35.7403789">
        <ele>364.1933297836522</ele>
      </trkpt>
      <trkpt lat="32.8486996" lon="35.7403189">
        <ele>364.04115172190774</ele>
      </trkpt>
      <trkpt lat="32.8487578" lon="35.7402572">
        <ele>363.8803538745822</ele>
      </trkpt>
      <trkpt lat="32.8488238" lon="35.7401694">
        <ele>363.6565827018033</ele>
      </trkpt>
      <trkpt lat="32.8488665" lon="35.7400739">
        <ele>363.3996326102474</ele>
      </trkpt>
      <trkpt lat="32.8489053" lon="35.7399753">
        <ele>363.45137246929863</ele>
      </trkpt>
      <trkpt lat="32.8489312" lon="35.7398706">
        <ele>363.4638818564</ele>
      </trkpt>
      <extensions>
        <RoutingType xmlns="">Hike</RoutingType>
      </extensions>
    </trkseg>
  </trk>
</gpx>
