<?xml version="1.0" encoding="UTF-8"?><gpx creator="Wikiloc - https://www.wikiloc.com" version="1.1" xmlns="http://www.topografix.com/GPX/1/1" xmlns:xsi="http://www.w3.org/2001/XMLSchema-instance" xsi:schemaLocation="http://www.topografix.com/GPX/1/1 http://www.topografix.com/GPX/1/1/gpx.xsd"><metadata><name>Wikiloc - מרות - קציון</name><author><name>shemesh</name><link href="https://www.wikiloc.com/wikiloc/user.do?id=460874"><text>shemesh on Wikiloc</text></link></author><link href="https://www.wikiloc.com/hiking-trails/mrvt-qtsyvn-9079407"><text>מרות - קציון on Wikiloc</text></link><time>2015-03-14T15:59:43Z</time></metadata><trk><name>מרות - קציון</name><cmt></cmt><desc></desc><trkseg><trkpt lat="33.039093" lon="35.548134"><ele>184.688</ele><time>2015-03-14T10:16:32Z</time></trkpt><trkpt lat="33.038992" lon="35.547840"><ele>185.324</ele><time>2015-03-14T10:17:35Z</time></trkpt><trkpt lat="33.038106" lon="35.547598"><ele>197.426</ele><time>2015-03-14T10:18:59Z</time></trkpt><trkpt lat="33.037995" lon="35.547383"><ele>194.207</ele><time>2015-03-14T10:19:32Z</time></trkpt><trkpt lat="33.037321" lon="35.547061"><ele>204.187</ele><time>2015-03-14T10:20:38Z</time></trkpt><trkpt lat="33.036964" lon="35.546688"><ele>202.118</ele><time>2015-03-14T10:21:32Z</time></trkpt><trkpt lat="33.036961" lon="35.546359"><ele>210.455</ele><time>2015-03-14T10:22:08Z</time></trkpt><trkpt lat="33.036841" lon="35.546194"><ele>205.757</ele><time>2015-03-14T10:22:44Z</time></trkpt><trkpt lat="33.036956" lon="35.546014"><ele>207.472</ele><time>2015-03-14T10:23:20Z</time></trkpt><trkpt lat="33.037012" lon="35.544723"><ele>230.788</ele><time>2015-03-14T10:37:38Z</time></trkpt><trkpt lat="33.036804" lon="35.544402"><ele>234.925</ele><time>2015-03-14T10:38:17Z</time></trkpt><trkpt lat="33.036591" lon="35.544332"><ele>215.089</ele><time>2015-03-14T10:39:53Z</time></trkpt><trkpt lat="33.036256" lon="35.543980"><ele>219.706</ele><time>2015-03-14T10:40:47Z</time></trkpt><trkpt lat="33.035868" lon="35.543085"><ele>232.826</ele><time>2015-03-14T10:45:32Z</time></trkpt><trkpt lat="33.035584" lon="35.542728"><ele>228.707</ele><time>2015-03-14T10:55:41Z</time></trkpt><trkpt lat="33.035496" lon="35.542279"><ele>237.367</ele><time>2015-03-14T10:56:59Z</time></trkpt><trkpt lat="33.035006" lon="35.541717"><ele>233.298</ele><time>2015-03-14T10:58:08Z</time></trkpt><trkpt lat="33.034847" lon="35.541415"><ele>244.315</ele><time>2015-03-14T10:58:38Z</time></trkpt><trkpt lat="33.034801" lon="35.539943"><ele>267.527</ele><time>2015-03-14T11:01:02Z</time></trkpt><trkpt lat="33.034697" lon="35.538930"><ele>259.262</ele><time>2015-03-14T11:02:32Z</time></trkpt><trkpt lat="33.034819" lon="35.538132"><ele>272.778</ele><time>2015-03-14T11:04:20Z</time></trkpt><trkpt lat="33.034791" lon="35.538003"><ele>286.525</ele><time>2015-03-14T11:04:32Z</time></trkpt><trkpt lat="33.034846" lon="35.537673"><ele>267.593</ele><time>2015-03-14T11:05:02Z</time></trkpt><trkpt lat="33.034799" lon="35.537496"><ele>283.765</ele><time>2015-03-14T11:06:41Z</time></trkpt><trkpt lat="33.035028" lon="35.536552"><ele>279.921</ele><time>2015-03-14T11:09:23Z</time></trkpt><trkpt lat="33.035319" lon="35.535821"><ele>293.007</ele><time>2015-03-14T11:10:32Z</time></trkpt><trkpt lat="33.035569" lon="35.535659"><ele>298.358</ele><time>2015-03-14T11:11:11Z</time></trkpt><trkpt lat="33.035683" lon="35.535047"><ele>302.859</ele><time>2015-03-14T11:12:05Z</time></trkpt><trkpt lat="33.035491" lon="35.534434"><ele>316.856</ele><time>2015-03-14T11:13:11Z</time></trkpt><trkpt lat="33.035488" lon="35.534214"><ele>305.738</ele><time>2015-03-14T11:15:23Z</time></trkpt><trkpt lat="33.035387" lon="35.533577"><ele>311.683</ele><time>2015-03-14T11:18:02Z</time></trkpt><trkpt lat="33.035232" lon="35.533360"><ele>327.539</ele><time>2015-03-14T11:18:44Z</time></trkpt><trkpt lat="33.035060" lon="35.532813"><ele>330.896</ele><time>2015-03-14T11:32:41Z</time></trkpt><trkpt lat="33.034520" lon="35.532217"><ele>334.593</ele><time>2015-03-14T11:33:59Z</time></trkpt><trkpt lat="33.033931" lon="35.531081"><ele>361.565</ele><time>2015-03-14T11:37:23Z</time></trkpt><trkpt lat="33.033911" lon="35.530745"><ele>351.421</ele><time>2015-03-14T11:37:53Z</time></trkpt><trkpt lat="33.033767" lon="35.530509"><ele>354.607</ele><time>2015-03-14T11:38:29Z</time></trkpt><trkpt lat="33.033566" lon="35.530374"><ele>377.358</ele><time>2015-03-14T11:39:26Z</time></trkpt><trkpt lat="33.033047" lon="35.529482"><ele>394.039</ele><time>2015-03-14T11:42:11Z</time></trkpt><trkpt lat="33.032716" lon="35.529346"><ele>401.766</ele><time>2015-03-14T11:43:11Z</time></trkpt><trkpt lat="33.032692" lon="35.530152"><ele>412.398</ele><time>2015-03-14T11:45:17Z</time></trkpt><trkpt lat="33.032725" lon="35.530505"><ele>413.853</ele><time>2015-03-14T11:45:53Z</time></trkpt><trkpt lat="33.033151" lon="35.531164"><ele>422.359</ele><time>2015-03-14T11:49:37Z</time></trkpt><trkpt lat="33.032075" lon="35.530290"><ele>423.096</ele><time>2015-03-14T11:53:41Z</time></trkpt><trkpt lat="33.031473" lon="35.530589"><ele>425.732</ele><time>2015-03-14T11:57:12Z</time></trkpt><trkpt lat="33.031781" lon="35.530473"><ele>420.292</ele><time>2015-03-14T11:59:00Z</time></trkpt><trkpt lat="33.031612" lon="35.530767"><ele>426.111</ele><time>2015-03-14T12:01:24Z</time></trkpt><trkpt lat="33.031768" lon="35.530691"><ele>412.107</ele><time>2015-03-14T12:02:15Z</time></trkpt><trkpt lat="33.032057" lon="35.530410"><ele>425.762</ele><time>2015-03-14T12:08:18Z</time></trkpt><trkpt lat="33.031911" lon="35.530529"><ele>422.633</ele><time>2015-03-14T12:08:42Z</time></trkpt><trkpt lat="33.032017" lon="35.530663"><ele>422.740</ele><time>2015-03-14T12:09:36Z</time></trkpt><trkpt lat="33.031824" lon="35.530363"><ele>410.412</ele><time>2015-03-14T12:10:57Z</time></trkpt><trkpt lat="33.031753" lon="35.530594"><ele>420.787</ele><time>2015-03-14T12:11:33Z</time></trkpt><trkpt lat="33.031573" lon="35.530602"><ele>427.873</ele><time>2015-03-14T12:12:00Z</time></trkpt><trkpt lat="33.031446" lon="35.530256"><ele>425.510</ele><time>2015-03-14T12:15:51Z</time></trkpt><trkpt lat="33.031618" lon="35.530666"><ele>421.644</ele><time>2015-03-14T12:24:21Z</time></trkpt><trkpt lat="33.031684" lon="35.530428"><ele>431.905</ele><time>2015-03-14T12:25:12Z</time></trkpt><trkpt lat="33.031981" lon="35.530420"><ele>424.515</ele><time>2015-03-14T12:25:57Z</time></trkpt><trkpt lat="33.032006" lon="35.530566"><ele>419.307</ele><time>2015-03-14T12:26:21Z</time></trkpt><trkpt lat="33.031995" lon="35.530391"><ele>409.683</ele><time>2015-03-14T12:27:00Z</time></trkpt><trkpt lat="33.032037" lon="35.530316"><ele>420.824</ele><time>2015-03-14T12:27:12Z</time></trkpt><trkpt lat="33.031934" lon="35.530417"><ele>422.911</ele><time>2015-03-14T12:28:12Z</time></trkpt><trkpt lat="33.032089" lon="35.530333"><ele>427.043</ele><time>2015-03-14T12:28:54Z</time></trkpt><trkpt lat="33.032189" lon="35.530590"><ele>420.498</ele><time>2015-03-14T12:29:27Z</time></trkpt><trkpt lat="33.031771" lon="35.529771"><ele>421.994</ele><time>2015-03-14T12:31:48Z</time></trkpt><trkpt lat="33.031565" lon="35.528755"><ele>428.771</ele><time>2015-03-14T12:33:21Z</time></trkpt><trkpt lat="33.031589" lon="35.528728"><ele>438.724</ele><time>2015-03-14T12:34:51Z</time></trkpt><trkpt lat="33.031468" lon="35.528981"><ele>438.804</ele><time>2015-03-14T12:38:12Z</time></trkpt><trkpt lat="33.031134" lon="35.528944"><ele>446.114</ele><time>2015-03-14T12:39:54Z</time></trkpt><trkpt lat="33.031596" lon="35.528749"><ele>437.107</ele><time>2015-03-14T12:41:37Z</time></trkpt><trkpt lat="33.031564" lon="35.528404"><ele>438.171</ele><time>2015-03-14T12:43:21Z</time></trkpt><trkpt lat="33.031472" lon="35.528477"><ele>444.912</ele><time>2015-03-14T12:43:45Z</time></trkpt><trkpt lat="33.031638" lon="35.528385"><ele>449.399</ele><time>2015-03-14T12:44:51Z</time></trkpt><trkpt lat="33.031637" lon="35.528302"><ele>439.911</ele><time>2015-03-14T12:45:51Z</time></trkpt><trkpt lat="33.031675" lon="35.528563"><ele>430.366</ele><time>2015-03-14T12:46:45Z</time></trkpt><trkpt lat="33.031570" lon="35.528744"><ele>432.862</ele><time>2015-03-14T12:47:21Z</time></trkpt><trkpt lat="33.031652" lon="35.528884"><ele>421.249</ele><time>2015-03-14T12:47:45Z</time></trkpt><trkpt lat="33.031775" lon="35.528658"><ele>435.127</ele><time>2015-03-14T12:48:06Z</time></trkpt><trkpt lat="33.031952" lon="35.528575"><ele>424.868</ele><time>2015-03-14T12:48:27Z</time></trkpt><trkpt lat="33.032165" lon="35.528021"><ele>424.914</ele><time>2015-03-14T12:49:21Z</time></trkpt><trkpt lat="33.031996" lon="35.527337"><ele>418.807</ele><time>2015-03-14T12:50:24Z</time></trkpt><trkpt lat="33.032131" lon="35.526979"><ele>433.681</ele><time>2015-03-14T12:51:06Z</time></trkpt><trkpt lat="33.032254" lon="35.527049"><ele>435.342</ele><time>2015-03-14T13:01:00Z</time></trkpt><trkpt lat="33.032332" lon="35.527835"><ele>423.219</ele><time>2015-03-14T13:03:24Z</time></trkpt><trkpt lat="33.032691" lon="35.528585"><ele>434.961</ele><time>2015-03-14T13:04:57Z</time></trkpt><trkpt lat="33.032695" lon="35.528876"><ele>422.966</ele><time>2015-03-14T13:05:33Z</time></trkpt><trkpt lat="33.032973" lon="35.529060"><ele>421.082</ele><time>2015-03-14T13:06:33Z</time></trkpt><trkpt lat="33.033008" lon="35.529466"><ele>398.979</ele><time>2015-03-14T13:13:45Z</time></trkpt><trkpt lat="33.033201" lon="35.529494"><ele>395.918</ele><time>2015-03-14T13:14:00Z</time></trkpt><trkpt lat="33.033199" lon="35.529744"><ele>387.098</ele><time>2015-03-14T13:15:06Z</time></trkpt><trkpt lat="33.033559" lon="35.529940"><ele>398.417</ele><time>2015-03-14T13:15:51Z</time></trkpt><trkpt lat="33.033718" lon="35.529971"><ele>382.607</ele><time>2015-03-14T13:16:39Z</time></trkpt><trkpt lat="33.034375" lon="35.530349"><ele>378.120</ele><time>2015-03-14T13:21:54Z</time></trkpt><trkpt lat="33.034390" lon="35.530349"><ele>395.031</ele><time>2015-03-14T13:27:06Z</time></trkpt><trkpt lat="33.034729" lon="35.530055"><ele>410.428</ele><time>2015-03-14T13:28:03Z</time></trkpt><trkpt lat="33.035691" lon="35.530328"><ele>394.590</ele><time>2015-03-14T13:29:36Z</time></trkpt><trkpt lat="33.035900" lon="35.530428"><ele>396.795</ele><time>2015-03-14T13:29:57Z</time></trkpt><trkpt lat="33.035948" lon="35.530403"><ele>412.341</ele><time>2015-03-14T13:30:39Z</time></trkpt><trkpt lat="33.036145" lon="35.530518"><ele>408.428</ele><time>2015-03-14T13:30:57Z</time></trkpt><trkpt lat="33.036769" lon="35.530200"><ele>409.419</ele><time>2015-03-14T13:32:54Z</time></trkpt><trkpt lat="33.037492" lon="35.530154"><ele>404.009</ele><time>2015-03-14T13:34:15Z</time></trkpt><trkpt lat="33.037724" lon="35.529891"><ele>403.419</ele><time>2015-03-14T13:34:51Z</time></trkpt><trkpt lat="33.038039" lon="35.529887"><ele>407.407</ele><time>2015-03-14T13:35:15Z</time></trkpt><trkpt lat="33.038620" lon="35.529500"><ele>399.870</ele><time>2015-03-14T13:36:24Z</time></trkpt><trkpt lat="33.038899" lon="35.529288"><ele>415.221</ele><time>2015-03-14T13:36:54Z</time></trkpt><trkpt lat="33.039238" lon="35.529273"><ele>412.318</ele><time>2015-03-14T13:37:57Z</time></trkpt><trkpt lat="33.039860" lon="35.528763"><ele>419.690</ele><time>2015-03-14T13:39:57Z</time></trkpt><trkpt lat="33.040191" lon="35.528270"><ele>413.865</ele><time>2015-03-14T13:41:03Z</time></trkpt><trkpt lat="33.040525" lon="35.528226"><ele>420.891</ele><time>2015-03-14T13:41:27Z</time></trkpt><trkpt lat="33.040693" lon="35.528240"><ele>405.568</ele><time>2015-03-14T13:41:57Z</time></trkpt><trkpt lat="33.040995" lon="35.527938"><ele>410.454</ele><time>2015-03-14T13:42:27Z</time></trkpt><trkpt lat="33.041941" lon="35.528101"><ele>418.756</ele><time>2015-03-14T13:43:48Z</time></trkpt><trkpt lat="33.042250" lon="35.528291"><ele>408.611</ele><time>2015-03-14T13:44:12Z</time></trkpt><trkpt lat="33.042526" lon="35.528591"><ele>418.007</ele><time>2015-03-14T13:45:15Z</time></trkpt><trkpt lat="33.042782" lon="35.528674"><ele>407.114</ele><time>2015-03-14T13:46:00Z</time></trkpt><trkpt lat="33.042666" lon="35.529279"><ele>407.265</ele><time>2015-03-14T13:47:24Z</time></trkpt><trkpt lat="33.043035" lon="35.529365"><ele>413.592</ele><time>2015-03-14T13:50:09Z</time></trkpt><trkpt lat="33.042585" lon="35.529703"><ele>410.794</ele><time>2015-03-14T13:51:42Z</time></trkpt><trkpt lat="33.042538" lon="35.530102"><ele>417.949</ele><time>2015-03-14T13:52:15Z</time></trkpt><trkpt lat="33.042199" lon="35.530402"><ele>404.355</ele><time>2015-03-14T13:52:57Z</time></trkpt><trkpt lat="33.042133" lon="35.530704"><ele>403.572</ele><time>2015-03-14T14:28:00Z</time></trkpt><trkpt lat="33.042529" lon="35.529981"><ele>449.385</ele><time>2015-03-14T14:32:12Z</time></trkpt><trkpt lat="33.042871" lon="35.529550"><ele>448.489</ele><time>2015-03-14T14:33:06Z</time></trkpt><trkpt lat="33.043024" lon="35.529764"><ele>412.817</ele><time>2015-03-14T14:34:09Z</time></trkpt><trkpt lat="33.043204" lon="35.529913"><ele>408.507</ele><time>2015-03-14T14:34:27Z</time></trkpt><trkpt lat="33.043462" lon="35.529933"><ele>426.627</ele><time>2015-03-14T14:35:15Z</time></trkpt><trkpt lat="33.043536" lon="35.529927"><ele>413.748</ele><time>2015-03-14T14:35:33Z</time></trkpt><trkpt lat="33.043472" lon="35.530403"><ele>406.625</ele><time>2015-03-14T14:36:45Z</time></trkpt><trkpt lat="33.043481" lon="35.530413"><ele>433.497</ele><time>2015-03-14T14:44:45Z</time></trkpt><trkpt lat="33.043467" lon="35.530340"><ele>416.892</ele><time>2015-03-14T14:47:12Z</time></trkpt><trkpt lat="33.043586" lon="35.530437"><ele>409.298</ele><time>2015-03-14T14:48:00Z</time></trkpt><trkpt lat="33.043778" lon="35.529454"><ele>410.015</ele><time>2015-03-14T14:58:30Z</time></trkpt><trkpt lat="33.043656" lon="35.529248"><ele>414.049</ele><time>2015-03-14T14:58:54Z</time></trkpt><trkpt lat="33.043627" lon="35.528596"><ele>407.502</ele><time>2015-03-14T14:59:54Z</time></trkpt><trkpt lat="33.043841" lon="35.528209"><ele>392.922</ele><time>2015-03-14T15:00:30Z</time></trkpt><trkpt lat="33.044144" lon="35.528197"><ele>386.107</ele><time>2015-03-14T15:01:00Z</time></trkpt><trkpt lat="33.044676" lon="35.527548"><ele>365.593</ele><time>2015-03-14T15:02:45Z</time></trkpt><trkpt lat="33.044774" lon="35.527718"><ele>362.374</ele><time>2015-03-14T15:03:12Z</time></trkpt><trkpt lat="33.044586" lon="35.528619"><ele>362.361</ele><time>2015-03-14T15:05:12Z</time></trkpt><trkpt lat="33.044647" lon="35.528964"><ele>360.533</ele><time>2015-03-14T15:05:45Z</time></trkpt><trkpt lat="33.045107" lon="35.530031"><ele>350.778</ele><time>2015-03-14T15:07:39Z</time></trkpt><trkpt lat="33.045159" lon="35.530579"><ele>355.674</ele><time>2015-03-14T15:08:51Z</time></trkpt><trkpt lat="33.045507" lon="35.531482"><ele>327.861</ele><time>2015-03-14T15:10:57Z</time></trkpt><trkpt lat="33.045589" lon="35.531589"><ele>338.137</ele><time>2015-03-14T15:11:21Z</time></trkpt><trkpt lat="33.045803" lon="35.532035"><ele>326.149</ele><time>2015-03-14T15:12:24Z</time></trkpt><trkpt lat="33.045621" lon="35.532400"><ele>318.313</ele><time>2015-03-14T15:13:06Z</time></trkpt><trkpt lat="33.045707" lon="35.532840"><ele>318.407</ele><time>2015-03-14T15:13:51Z</time></trkpt><trkpt lat="33.045315" lon="35.533822"><ele>294.242</ele><time>2015-03-14T15:18:06Z</time></trkpt><trkpt lat="33.045337" lon="35.534493"><ele>289.063</ele><time>2015-03-14T15:19:54Z</time></trkpt><trkpt lat="33.046101" lon="35.535834"><ele>274.430</ele><time>2015-03-14T15:23:12Z</time></trkpt><trkpt lat="33.046206" lon="35.535890"><ele>255.752</ele><time>2015-03-14T15:23:36Z</time></trkpt><trkpt lat="33.046339" lon="35.536170"><ele>263.777</ele><time>2015-03-14T15:24:24Z</time></trkpt><trkpt lat="33.046300" lon="35.536369"><ele>246.233</ele><time>2015-03-14T15:25:24Z</time></trkpt><trkpt lat="33.046411" lon="35.536575"><ele>255.350</ele><time>2015-03-14T15:26:00Z</time></trkpt><trkpt lat="33.046547" lon="35.536726"><ele>238.521</ele><time>2015-03-14T15:26:36Z</time></trkpt><trkpt lat="33.046901" lon="35.537293"><ele>230.641</ele><time>2015-03-14T15:31:48Z</time></trkpt><trkpt lat="33.046816" lon="35.537799"><ele>234.605</ele><time>2015-03-14T15:33:15Z</time></trkpt><trkpt lat="33.046719" lon="35.537854"><ele>228.207</ele><time>2015-03-14T15:34:00Z</time></trkpt><trkpt lat="33.046959" lon="35.537989"><ele>234.571</ele><time>2015-03-14T15:35:48Z</time></trkpt><trkpt lat="33.047043" lon="35.538202"><ele>227.132</ele><time>2015-03-14T15:36:09Z</time></trkpt><trkpt lat="33.046974" lon="35.539530"><ele>212.579</ele><time>2015-03-14T15:38:33Z</time></trkpt><trkpt lat="33.047323" lon="35.540428"><ele>201.871</ele><time>2015-03-14T15:40:33Z</time></trkpt><trkpt lat="33.047624" lon="35.540693"><ele>199.356</ele><time>2015-03-14T15:41:45Z</time></trkpt><trkpt lat="33.047110" lon="35.541026"><ele>199.032</ele><time>2015-03-14T15:42:30Z</time></trkpt><trkpt lat="33.046815" lon="35.541413"><ele>191.699</ele><time>2015-03-14T15:43:06Z</time></trkpt><trkpt lat="33.046543" lon="35.541393"><ele>193.441</ele><time>2015-03-14T15:43:27Z</time></trkpt><trkpt lat="33.045424" lon="35.541915"><ele>192.681</ele><time>2015-03-14T15:46:06Z</time></trkpt><trkpt lat="33.045330" lon="35.542228"><ele>191.309</ele><time>2015-03-14T15:47:03Z</time></trkpt><trkpt lat="33.044295" lon="35.542456"><ele>189.207</ele><time>2015-03-14T15:49:24Z</time></trkpt><trkpt lat="33.043392" lon="35.543110"><ele>187.793</ele><time>2015-03-14T15:50:45Z</time></trkpt><trkpt lat="33.041900" lon="35.543489"><ele>183.574</ele><time>2015-03-14T15:52:48Z</time></trkpt><trkpt lat="33.041386" lon="35.543937"><ele>184.321</ele><time>2015-03-14T15:53:36Z</time></trkpt><trkpt lat="33.041028" lon="35.544384"><ele>184.613</ele><time>2015-03-14T15:54:18Z</time></trkpt><trkpt lat="33.040811" lon="35.545372"><ele>174.118</ele><time>2015-03-14T15:55:30Z</time></trkpt><trkpt lat="33.040147" lon="35.546100"><ele>173.484</ele><time>2015-03-14T15:56:39Z</time></trkpt><trkpt lat="33.039692" lon="35.547373"><ele>176.981</ele><time>2015-03-14T15:58:09Z</time></trkpt><trkpt lat="33.039506" lon="35.547428"><ele>174.951</ele><time>2015-03-14T15:58:27Z</time></trkpt><trkpt lat="33.039399" lon="35.547951"><ele>174.901</ele><time>2015-03-14T15:59:00Z</time></trkpt><trkpt lat="33.039097" lon="35.548405"><ele>170.411</ele><time>2015-03-14T15:59:43Z</time></trkpt></trkseg></trk></gpx>