<?xml version="1.0"?>
<gpx creator="GPS Visualizer http://www.gpsvisualizer.com/" version="1.0" xmlns="http://www.topografix.com/GPX/1/0" xmlns:xsi="http://www.w3.org/2001/XMLSchema-instance" xsi:schemaLocation="http://www.topografix.com/GPX/1/0 http://www.topografix.com/GPX/1/0/gpx.xsd">
<trk>
  <name>tlv</name>
  <trkseg>
    <trkpt lat="32.1012333" lon="34.7805333">
      <ele>00023</ele>
      <time>2009-09-14T14:22:37Z</time>
    </trkpt>
    <trkpt lat="32.1008833" lon="34.7806667">
      <ele>00011</ele>
      <time>2009-09-14T14:36:23Z</time>
    </trkpt>
    <trkpt lat="32.1006833" lon="34.7807500">
      <ele>00011</ele>
      <time>2009-09-14T14:36:32Z</time>
    </trkpt>
    <trkpt lat="32.1005333" lon="34.7809667">
      <ele>00011</ele>
      <time>2009-09-14T14:36:42Z</time>
    </trkpt>
    <trkpt lat="32.1002667" lon="34.7808833">
      <ele>00012</ele>
      <time>2009-09-14T14:36:49Z</time>
    </trkpt>
    <trkpt lat="32.1000500" lon="34.7808500">
      <ele>00012</ele>
      <time>2009-09-14T14:36:58Z</time>
    </trkpt>
    <trkpt lat="32.1001167" lon="34.7811833">
      <ele>00010</ele>
      <time>2009-09-14T14:37:07Z</time>
    </trkpt>
    <trkpt lat="32.0999833" lon="34.7812000">
      <ele>00006</ele>
      <time>2009-09-14T14:39:35Z</time>
    </trkpt>
    <trkpt lat="32.1003333" lon="34.7812167">
      <ele>00003</ele>
      <time>2009-09-14T14:46:57Z</time>
    </trkpt>
    <trkpt lat="32.1013167" lon="34.7807833">
      <ele>00004</ele>
      <time>2009-09-14T14:47:30Z</time>
    </trkpt>
    <trkpt lat="32.1017333" lon="34.7809167">
      <ele>00004</ele>
      <time>2009-09-14T14:47:42Z</time>
    </trkpt>
    <trkpt lat="32.1021833" lon="34.7812833">
      <ele>00004</ele>
      <time>2009-09-14T14:47:58Z</time>
    </trkpt>
    <trkpt lat="32.1023167" lon="34.7815833">
      <ele>00004</ele>
      <time>2009-09-14T14:48:08Z</time>
    </trkpt>
    <trkpt lat="32.1021167" lon="34.7818667">
      <ele>00006</ele>
      <time>2009-09-14T14:48:20Z</time>
    </trkpt>
    <trkpt lat="32.1023167" lon="34.7835667">
      <ele>00007</ele>
      <time>2009-09-14T14:48:57Z</time>
    </trkpt>
    <trkpt lat="32.1024333" lon="34.7840833">
      <ele>00007</ele>
      <time>2009-09-14T14:49:08Z</time>
    </trkpt>
    <trkpt lat="32.1024667" lon="34.7847833">
      <ele>00005</ele>
      <time>2009-09-14T14:49:23Z</time>
    </trkpt>
    <trkpt lat="32.1025167" lon="34.7852667">
      <ele>00005</ele>
      <time>2009-09-14T14:49:46Z</time>
    </trkpt>
    <trkpt lat="32.1027833" lon="34.7875333">
      <ele>00008</ele>
      <time>2009-09-14T14:53:02Z</time>
    </trkpt>
    <trkpt lat="32.1028833" lon="34.7879333">
      <ele>00008</ele>
      <time>2009-09-14T14:53:09Z</time>
    </trkpt>
    <trkpt lat="32.1029667" lon="34.7885167">
      <ele>00008</ele>
      <time>2009-09-14T14:53:19Z</time>
    </trkpt>
    <trkpt lat="32.1047167" lon="34.7883833">
      <ele>00008</ele>
      <time>2009-09-14T14:53:58Z</time>
    </trkpt>
    <trkpt lat="32.1053500" lon="34.7882667">
      <ele>00007</ele>
      <time>2009-09-14T14:54:12Z</time>
    </trkpt>
    <trkpt lat="32.1064333" lon="34.7882000">
      <ele>00006</ele>
      <time>2009-09-14T14:54:30Z</time>
    </trkpt>
    <trkpt lat="32.1105500" lon="34.7890000">
      <ele>00014</ele>
      <time>2009-09-14T14:55:50Z</time>
    </trkpt>
    <trkpt lat="32.1145833" lon="34.7898000">
      <ele>00015</ele>
      <time>2009-09-14T14:57:08Z</time>
    </trkpt>
    <trkpt lat="32.1148833" lon="34.7898667">
      <ele>00015</ele>
      <time>2009-09-14T14:57:17Z</time>
    </trkpt>
    <trkpt lat="32.1153333" lon="34.7898667">
      <ele>00014</ele>
      <time>2009-09-14T14:57:31Z</time>
    </trkpt>
    <trkpt lat="32.1162833" lon="34.7900667">
      <ele>00018</ele>
      <time>2009-09-14T14:57:54Z</time>
    </trkpt>
    <trkpt lat="32.1168333" lon="34.7901667">
      <ele>00019</ele>
      <time>2009-09-14T14:58:07Z</time>
    </trkpt>
    <trkpt lat="32.1171500" lon="34.7902333">
      <ele>00022</ele>
      <time>2009-09-14T14:58:22Z</time>
    </trkpt>
    <trkpt lat="32.1177333" lon="34.7903500">
      <ele>00026</ele>
      <time>2009-09-14T14:58:38Z</time>
    </trkpt>
    <trkpt lat="32.1204500" lon="34.7910000">
      <ele>00029</ele>
      <time>2009-09-14T14:59:35Z</time>
    </trkpt>
    <trkpt lat="32.1208000" lon="34.7910167">
      <ele>00027</ele>
      <time>2009-09-14T14:59:42Z</time>
    </trkpt>
    <trkpt lat="32.1227500" lon="34.7914667">
      <ele>00027</ele>
      <time>2009-09-14T15:00:22Z</time>
    </trkpt>
    <trkpt lat="32.1230167" lon="34.7914667">
      <ele>00025</ele>
      <time>2009-09-14T15:00:31Z</time>
    </trkpt>
    <trkpt lat="32.1230167" lon="34.7917333">
      <ele>00017</ele>
      <time>2009-09-14T15:02:29Z</time>
    </trkpt>
    <trkpt lat="32.1225833" lon="34.7941833">
      <ele>00013</ele>
      <time>2009-09-14T15:03:15Z</time>
    </trkpt>
    <trkpt lat="32.1225000" lon="34.7945667">
      <ele>00012</ele>
      <time>2009-09-14T15:03:23Z</time>
    </trkpt>
    <trkpt lat="32.1224000" lon="34.7947333">
      <ele>00013</ele>
      <time>2009-09-14T15:03:29Z</time>
    </trkpt>
    <trkpt lat="32.1222833" lon="34.7963333">
      <ele>00023</ele>
      <time>2009-09-14T15:04:26Z</time>
    </trkpt>
    <trkpt lat="32.1216167" lon="34.8003167">
      <ele>00022</ele>
      <time>2009-09-14T15:05:39Z</time>
    </trkpt>
    <trkpt lat="32.1215167" lon="34.8006500">
      <ele>00022</ele>
      <time>2009-09-14T15:05:44Z</time>
    </trkpt>
    <trkpt lat="32.1213667" lon="34.8015167">
      <ele>00021</ele>
      <time>2009-09-14T15:05:59Z</time>
    </trkpt>
    <trkpt lat="32.1213333" lon="34.8018833">
      <ele>00022</ele>
      <time>2009-09-14T15:06:10Z</time>
    </trkpt>
    <trkpt lat="32.1213000" lon="34.8021667">
      <ele>00022</ele>
      <time>2009-09-14T15:06:43Z</time>
    </trkpt>
    <trkpt lat="32.1211000" lon="34.8022000">
      <ele>00027</ele>
      <time>2009-09-14T15:07:07Z</time>
    </trkpt>
    <trkpt lat="32.1210000" lon="34.8026000">
      <ele>00029</ele>
      <time>2009-09-14T15:07:24Z</time>
    </trkpt>
    <trkpt lat="32.1209833" lon="34.8028333">
      <ele>00032</ele>
      <time>2009-09-14T15:07:36Z</time>
    </trkpt>
    <trkpt lat="32.1205833" lon="34.8044667">
      <ele>00032</ele>
      <time>2009-09-14T15:08:17Z</time>
    </trkpt>
    <trkpt lat="32.1205000" lon="34.8047833">
      <ele>00035</ele>
      <time>2009-09-14T15:08:26Z</time>
    </trkpt>
    <trkpt lat="32.1202167" lon="34.8057667">
      <ele>00033</ele>
      <time>2009-09-14T15:08:48Z</time>
    </trkpt>
    <trkpt lat="32.1190333" lon="34.8090167">
      <ele>00024</ele>
      <time>2009-09-14T15:09:42Z</time>
    </trkpt>
    <trkpt lat="32.1176500" lon="34.8091833">
      <ele>00026</ele>
      <time>2009-09-14T15:10:05Z</time>
    </trkpt>
    <trkpt lat="32.1174333" lon="34.8085500">
      <ele>00030</ele>
      <time>2009-09-14T15:10:18Z</time>
    </trkpt>
    <trkpt lat="32.1173333" lon="34.8080500">
      <ele>00029</ele>
      <time>2009-09-14T15:10:29Z</time>
    </trkpt>
    <trkpt lat="32.1172167" lon="34.8076000">
      <ele>00030</ele>
      <time>2009-09-14T15:10:41Z</time>
    </trkpt>
    <trkpt lat="32.1171833" lon="34.8073333">
      <ele>00032</ele>
      <time>2009-09-14T15:10:53Z</time>
    </trkpt>
    <trkpt lat="32.1167000" lon="34.8073667">
      <ele>00037</ele>
      <time>2009-09-14T15:11:14Z</time>
    </trkpt>
    <trkpt lat="32.1139500" lon="34.8075500">
      <ele>00035</ele>
      <time>2009-09-14T15:12:20Z</time>
    </trkpt>
    <trkpt lat="32.1120833" lon="34.8075833">
      <ele>00037</ele>
      <time>2009-09-14T15:12:52Z</time>
    </trkpt>
    <trkpt lat="32.1111500" lon="34.8075833">
      <ele>00037</ele>
      <time>2009-09-14T15:13:10Z</time>
    </trkpt>
    <trkpt lat="32.1109167" lon="34.8076833">
      <ele>00039</ele>
      <time>2009-09-14T15:13:15Z</time>
    </trkpt>
    <trkpt lat="32.1108333" lon="34.8081833">
      <ele>00038</ele>
      <time>2009-09-14T15:13:28Z</time>
    </trkpt>
    <trkpt lat="32.1107833" lon="34.8079833">
      <ele>00040</ele>
      <time>2009-09-14T15:16:32Z</time>
    </trkpt>
    <trkpt lat="32.1106833" lon="34.8077333">
      <ele>00040</ele>
      <time>2009-09-14T15:16:39Z</time>
    </trkpt>
    <trkpt lat="32.1104000" lon="34.8075000">
      <ele>00042</ele>
      <time>2009-09-14T15:16:48Z</time>
    </trkpt>
    <trkpt lat="32.1090833" lon="34.8068667">
      <ele>00042</ele>
      <time>2009-09-14T15:17:22Z</time>
    </trkpt>
    <trkpt lat="32.1074833" lon="34.8057833">
      <ele>00035</ele>
      <time>2009-09-14T15:17:49Z</time>
    </trkpt>
    <trkpt lat="32.1065000" lon="34.8048167">
      <ele>00032</ele>
      <time>2009-09-14T15:18:08Z</time>
    </trkpt>
    <trkpt lat="32.1057667" lon="34.8045667">
      <ele>00030</ele>
      <time>2009-09-14T15:18:27Z</time>
    </trkpt>
    <trkpt lat="32.1051000" lon="34.8038167">
      <ele>00021</ele>
      <time>2009-09-14T15:18:43Z</time>
    </trkpt>
    <trkpt lat="32.1047833" lon="34.8036333">
      <ele>00017</ele>
      <time>2009-09-14T15:18:49Z</time>
    </trkpt>
    <trkpt lat="32.1044000" lon="34.8036000">
      <ele>00014</ele>
      <time>2009-09-14T15:18:58Z</time>
    </trkpt>
    <trkpt lat="32.1049667" lon="34.8039500">
      <ele>00018</ele>
      <time>2009-09-14T15:19:20Z</time>
    </trkpt>
    <trkpt lat="32.1052167" lon="34.8042167">
      <ele>00018</ele>
      <time>2009-09-14T15:19:28Z</time>
    </trkpt>
    <trkpt lat="32.1050500" lon="34.8043333">
      <ele>00019</ele>
      <time>2009-09-14T15:19:47Z</time>
    </trkpt>
    <trkpt lat="32.1047500" lon="34.8041000">
      <ele>00019</ele>
      <time>2009-09-14T15:20:01Z</time>
    </trkpt>
    <trkpt lat="32.1044333" lon="34.8039667">
      <ele>00020</ele>
      <time>2009-09-14T15:20:10Z</time>
    </trkpt>
    <trkpt lat="32.1043167" lon="34.8037333">
      <ele>00015</ele>
      <time>2009-09-14T15:20:17Z</time>
    </trkpt>
    <trkpt lat="32.1042833" lon="34.8035167">
      <ele>00016</ele>
      <time>2009-09-14T15:20:34Z</time>
    </trkpt>
    <trkpt lat="32.1039167" lon="34.8033833">
      <ele>00015</ele>
      <time>2009-09-14T15:20:44Z</time>
    </trkpt>
    <trkpt lat="32.1034333" lon="34.8029167">
      <ele>00011</ele>
      <time>2009-09-14T15:20:55Z</time>
    </trkpt>
    <trkpt lat="32.1025500" lon="34.8021667">
      <ele>00007</ele>
      <time>2009-09-14T15:21:09Z</time>
    </trkpt>
    <trkpt lat="32.1020000" lon="34.8020833">
      <ele>00007</ele>
      <time>2009-09-14T15:22:14Z</time>
    </trkpt>
    <trkpt lat="32.1017667" lon="34.8022167">
      <ele>00009</ele>
      <time>2009-09-14T15:22:49Z</time>
    </trkpt>
    <trkpt lat="32.1016000" lon="34.8020167">
      <ele>00009</ele>
      <time>2009-09-14T15:23:03Z</time>
    </trkpt>
    <trkpt lat="32.1014167" lon="34.8019500">
      <ele>00011</ele>
      <time>2009-09-14T15:23:18Z</time>
    </trkpt>
    <trkpt lat="32.1012000" lon="34.8011833">
      <ele>00010</ele>
      <time>2009-09-14T15:23:32Z</time>
    </trkpt>
    <trkpt lat="32.1009833" lon="34.8010000">
      <ele>00009</ele>
      <time>2009-09-14T15:23:40Z</time>
    </trkpt>
    <trkpt lat="32.1009500" lon="34.8005167">
      <ele>00010</ele>
      <time>2009-09-14T15:23:48Z</time>
    </trkpt>
    <trkpt lat="32.1006167" lon="34.8005833">
      <ele>00009</ele>
      <time>2009-09-14T15:23:55Z</time>
    </trkpt>
    <trkpt lat="32.1004000" lon="34.8012333">
      <ele>00007</ele>
      <time>2009-09-14T15:24:04Z</time>
    </trkpt>
    <trkpt lat="32.1002167" lon="34.8020667">
      <ele>00008</ele>
      <time>2009-09-14T15:24:15Z</time>
    </trkpt>
    <trkpt lat="32.1001500" lon="34.8040000">
      <ele>00006</ele>
      <time>2009-09-14T15:24:40Z</time>
    </trkpt>
    <trkpt lat="32.1001167" lon="34.8059333">
      <ele>00004</ele>
      <time>2009-09-14T15:25:06Z</time>
    </trkpt>
    <trkpt lat="32.0996167" lon="34.8073500">
      <ele>00003</ele>
      <time>2009-09-14T15:25:28Z</time>
    </trkpt>
    <trkpt lat="32.0996333" lon="34.8076000">
      <ele>00003</ele>
      <time>2009-09-14T15:25:36Z</time>
    </trkpt>
    <trkpt lat="32.0995667" lon="34.8085333">
      <ele>00003</ele>
      <time>2009-09-14T15:25:52Z</time>
    </trkpt>
    <trkpt lat="32.0994667" lon="34.8090167">
      <ele>00006</ele>
      <time>2009-09-14T15:26:00Z</time>
    </trkpt>
    <trkpt lat="32.0990000" lon="34.8091500">
      <ele>00007</ele>
      <time>2009-09-14T15:26:10Z</time>
    </trkpt>
    <trkpt lat="32.0985167" lon="34.8091833">
      <ele>00008</ele>
      <time>2009-09-14T15:26:19Z</time>
    </trkpt>
    <trkpt lat="32.0982167" lon="34.8090333">
      <ele>00007</ele>
      <time>2009-09-14T15:26:25Z</time>
    </trkpt>
    <trkpt lat="32.0973333" lon="34.8092500">
      <ele>00007</ele>
      <time>2009-09-14T15:26:41Z</time>
    </trkpt>
    <trkpt lat="32.0971000" lon="34.8093000">
      <ele>00008</ele>
      <time>2009-09-14T15:26:46Z</time>
    </trkpt>
    <trkpt lat="32.0967167" lon="34.8089500">
      <ele>00005</ele>
      <time>2009-09-14T15:26:57Z</time>
    </trkpt>
    <trkpt lat="32.0964000" lon="34.8083833">
      <ele>00005</ele>
      <time>2009-09-14T15:27:11Z</time>
    </trkpt>
    <trkpt lat="32.0957833" lon="34.8081500">
      <ele>00007</ele>
      <time>2009-09-14T15:27:31Z</time>
    </trkpt>
    <trkpt lat="32.0955167" lon="34.8082167">
      <ele>00007</ele>
      <time>2009-09-14T15:27:38Z</time>
    </trkpt>
    <trkpt lat="32.0952833" lon="34.8080500">
      <ele>00007</ele>
      <time>2009-09-14T15:27:46Z</time>
    </trkpt>
    <trkpt lat="32.0952167" lon="34.8077167">
      <ele>00007</ele>
      <time>2009-09-14T15:27:53Z</time>
    </trkpt>
    <trkpt lat="32.0960167" lon="34.8070333">
      <ele>00005</ele>
      <time>2009-09-14T15:28:12Z</time>
    </trkpt>
    <trkpt lat="32.0965000" lon="34.8070667">
      <ele>00004</ele>
      <time>2009-09-14T15:28:21Z</time>
    </trkpt>
    <trkpt lat="32.0967167" lon="34.8069000">
      <ele>00004</ele>
      <time>2009-09-14T15:28:27Z</time>
    </trkpt>
    <trkpt lat="32.0967000" lon="34.8064500">
      <ele>00005</ele>
      <time>2009-09-14T15:28:37Z</time>
    </trkpt>
    <trkpt lat="32.0965500" lon="34.8057000">
      <ele>00014</ele>
      <time>2009-09-14T15:29:00Z</time>
    </trkpt>
    <trkpt lat="32.0965500" lon="34.8054500">
      <ele>00017</ele>
      <time>2009-09-14T15:30:11Z</time>
    </trkpt>
    <trkpt lat="32.0955500" lon="34.8051000">
      <ele>00008</ele>
      <time>2009-09-14T15:30:33Z</time>
    </trkpt>
    <trkpt lat="32.0954833" lon="34.8047500">
      <ele>00009</ele>
      <time>2009-09-14T15:30:41Z</time>
    </trkpt>
    <trkpt lat="32.0948167" lon="34.8043833">
      <ele>00008</ele>
      <time>2009-09-14T15:30:58Z</time>
    </trkpt>
    <trkpt lat="32.0942333" lon="34.8042167">
      <ele>00007</ele>
      <time>2009-09-14T15:31:10Z</time>
    </trkpt>
    <trkpt lat="32.0938333" lon="34.8042833">
      <ele>00008</ele>
      <time>2009-09-14T15:31:18Z</time>
    </trkpt>
    <trkpt lat="32.0932833" lon="34.8044000">
      <ele>00007</ele>
      <time>2009-09-14T15:31:33Z</time>
    </trkpt>
    <trkpt lat="32.0928667" lon="34.8047167">
      <ele>00007</ele>
      <time>2009-09-14T15:31:45Z</time>
    </trkpt>
    <trkpt lat="32.0924667" lon="34.8049167">
      <ele>00007</ele>
      <time>2009-09-14T15:31:55Z</time>
    </trkpt>
    <trkpt lat="32.0923333" lon="34.8052167">
      <ele>00007</ele>
      <time>2009-09-14T15:32:03Z</time>
    </trkpt>
    <trkpt lat="32.0923167" lon="34.8057167">
      <ele>00008</ele>
      <time>2009-09-14T15:32:15Z</time>
    </trkpt>
    <trkpt lat="32.0924667" lon="34.8061667">
      <ele>00009</ele>
      <time>2009-09-14T15:32:28Z</time>
    </trkpt>
    <trkpt lat="32.0923333" lon="34.8067667">
      <ele>00012</ele>
      <time>2009-09-14T15:32:50Z</time>
    </trkpt>
    <trkpt lat="32.0923333" lon="34.8069833">
      <ele>00018</ele>
      <time>2009-09-14T15:33:09Z</time>
    </trkpt>
    <trkpt lat="32.0922833" lon="34.8072167">
      <ele>00018</ele>
      <time>2009-09-14T15:33:47Z</time>
    </trkpt>
    <trkpt lat="32.0922167" lon="34.8074500">
      <ele>00021</ele>
      <time>2009-09-14T15:34:28Z</time>
    </trkpt>
    <trkpt lat="32.0918000" lon="34.8074667">
      <ele>00023</ele>
      <time>2009-09-14T15:34:58Z</time>
    </trkpt>
    <trkpt lat="32.0916667" lon="34.8072500">
      <ele>00021</ele>
      <time>2009-09-14T15:35:10Z</time>
    </trkpt>
    <trkpt lat="32.0913500" lon="34.8073833">
      <ele>00024</ele>
      <time>2009-09-14T15:35:19Z</time>
    </trkpt>
    <trkpt lat="32.0911500" lon="34.8073333">
      <ele>00028</ele>
      <time>2009-09-14T15:35:44Z</time>
    </trkpt>
    <trkpt lat="32.0909000" lon="34.8074167">
      <ele>00031</ele>
      <time>2009-09-14T15:36:01Z</time>
    </trkpt>
    <trkpt lat="32.0906500" lon="34.8075500">
      <ele>00033</ele>
      <time>2009-09-14T15:36:17Z</time>
    </trkpt>
    <trkpt lat="32.0909167" lon="34.8082667">
      <ele>00033</ele>
      <time>2009-09-14T15:36:42Z</time>
    </trkpt>
    <trkpt lat="32.0912167" lon="34.8083500">
      <ele>00033</ele>
      <time>2009-09-14T15:36:56Z</time>
    </trkpt>
    <trkpt lat="32.0912333" lon="34.8085833">
      <ele>00033</ele>
      <time>2009-09-14T15:42:58Z</time>
    </trkpt>
    <trkpt lat="32.0916833" lon="34.8086333">
      <ele>00029</ele>
      <time>2009-09-14T15:43:08Z</time>
    </trkpt>
    <trkpt lat="32.0919167" lon="34.8082833">
      <ele>00025</ele>
      <time>2009-09-14T15:43:16Z</time>
    </trkpt>
    <trkpt lat="32.0920833" lon="34.8082833">
      <ele>00025</ele>
      <time>2009-09-14T15:43:42Z</time>
    </trkpt>
    <trkpt lat="32.0921500" lon="34.8085500">
      <ele>00020</ele>
      <time>2009-09-14T15:43:55Z</time>
    </trkpt>
    <trkpt lat="32.0922667" lon="34.8089333">
      <ele>00011</ele>
      <time>2009-09-14T15:44:06Z</time>
    </trkpt>
    <trkpt lat="32.0924000" lon="34.8090833">
      <ele>00010</ele>
      <time>2009-09-14T15:45:34Z</time>
    </trkpt>
    <trkpt lat="32.0928167" lon="34.8088000">
      <ele>00031</ele>
      <time>2009-09-14T15:45:51Z</time>
    </trkpt>
    <trkpt lat="32.0933333" lon="34.8086833">
      <ele>00031</ele>
      <time>2009-09-14T15:46:10Z</time>
    </trkpt>
    <trkpt lat="32.0942167" lon="34.8088000">
      <ele>00016</ele>
      <time>2009-09-14T15:46:33Z</time>
    </trkpt>
    <trkpt lat="32.0945833" lon="34.8085667">
      <ele>00011</ele>
      <time>2009-09-14T15:46:43Z</time>
    </trkpt>
    <trkpt lat="32.0948333" lon="34.8084167">
      <ele>00012</ele>
      <time>2009-09-14T15:46:51Z</time>
    </trkpt>
    <trkpt lat="32.0950167" lon="34.8081000">
      <ele>00011</ele>
      <time>2009-09-14T15:47:01Z</time>
    </trkpt>
    <trkpt lat="32.0951000" lon="34.8078667">
      <ele>00010</ele>
      <time>2009-09-14T15:47:10Z</time>
    </trkpt>
    <trkpt lat="32.0952333" lon="34.8081333">
      <ele>00009</ele>
      <time>2009-09-14T15:47:20Z</time>
    </trkpt>
    <trkpt lat="32.0956333" lon="34.8081333">
      <ele>00008</ele>
      <time>2009-09-14T15:47:31Z</time>
    </trkpt>
    <trkpt lat="32.0960667" lon="34.8083667">
      <ele>00007</ele>
      <time>2009-09-14T15:47:44Z</time>
    </trkpt>
    <trkpt lat="32.0963167" lon="34.8084000">
      <ele>00005</ele>
      <time>2009-09-14T15:47:53Z</time>
    </trkpt>
    <trkpt lat="32.0966000" lon="34.8088167">
      <ele>00006</ele>
      <time>2009-09-14T15:48:05Z</time>
    </trkpt>
    <trkpt lat="32.0968000" lon="34.8091167">
      <ele>00007</ele>
      <time>2009-09-14T15:48:17Z</time>
    </trkpt>
    <trkpt lat="32.0968333" lon="34.8094000">
      <ele>00009</ele>
      <time>2009-09-14T15:48:27Z</time>
    </trkpt>
    <trkpt lat="32.0965500" lon="34.8096833">
      <ele>00009</ele>
      <time>2009-09-14T15:48:37Z</time>
    </trkpt>
    <trkpt lat="32.0965167" lon="34.8102500">
      <ele>00007</ele>
      <time>2009-09-14T15:48:49Z</time>
    </trkpt>
    <trkpt lat="32.0963500" lon="34.8111333">
      <ele>00006</ele>
      <time>2009-09-14T15:49:06Z</time>
    </trkpt>
    <trkpt lat="32.0963500" lon="34.8115833">
      <ele>00004</ele>
      <time>2009-09-14T15:49:13Z</time>
    </trkpt>
    <trkpt lat="32.0961833" lon="34.8131000">
      <ele>00003</ele>
      <time>2009-09-14T15:49:38Z</time>
    </trkpt>
    <trkpt lat="32.0963667" lon="34.8136500">
      <ele>00002</ele>
      <time>2009-09-14T15:49:48Z</time>
    </trkpt>
    <trkpt lat="32.0966167" lon="34.8140500">
      <ele>00002</ele>
      <time>2009-09-14T15:49:56Z</time>
    </trkpt>
    <trkpt lat="32.0972833" lon="34.8146000">
      <ele>00002</ele>
      <time>2009-09-14T15:50:11Z</time>
    </trkpt>
    <trkpt lat="32.0977500" lon="34.8148667">
      <ele>00001</ele>
      <time>2009-09-14T15:50:21Z</time>
    </trkpt>
    <trkpt lat="32.0981667" lon="34.8151833">
      <ele>00000</ele>
      <time>2009-09-14T15:50:30Z</time>
    </trkpt>
    <trkpt lat="32.0983333" lon="34.8155167">
      <ele>00001</ele>
      <time>2009-09-14T15:50:36Z</time>
    </trkpt>
    <trkpt lat="32.0983000" lon="34.8160500">
      <ele>00000</ele>
      <time>2009-09-14T15:50:44Z</time>
    </trkpt>
    <trkpt lat="32.0980500" lon="34.8174833">
      <ele>00006</ele>
      <time>2009-09-14T15:51:10Z</time>
    </trkpt>
    <trkpt lat="32.0979833" lon="34.8178667">
      <ele>00006</ele>
      <time>2009-09-14T15:51:18Z</time>
    </trkpt>
    <trkpt lat="32.0978833" lon="34.8183167">
      <ele>00006</ele>
      <time>2009-09-14T15:51:27Z</time>
    </trkpt>
    <trkpt lat="32.0974333" lon="34.8188167">
      <ele>00006</ele>
      <time>2009-09-14T15:51:40Z</time>
    </trkpt>
    <trkpt lat="32.0965167" lon="34.8190000">
      <ele>00006</ele>
      <time>2009-09-14T15:51:59Z</time>
    </trkpt>
    <trkpt lat="32.0964167" lon="34.8193667">
      <ele>00006</ele>
      <time>2009-09-14T15:52:17Z</time>
    </trkpt>
    <trkpt lat="32.0965333" lon="34.8190333">
      <ele>00006</ele>
      <time>2009-09-14T15:52:38Z</time>
    </trkpt>
    <trkpt lat="32.0975000" lon="34.8207667">
      <ele>00016</ele>
      <time>2009-09-14T15:52:40Z</time>
    </trkpt>
    <trkpt lat="32.0979167" lon="34.8208833">
      <ele>00016</ele>
      <time>2009-09-14T15:52:49Z</time>
    </trkpt>
    <trkpt lat="32.0982667" lon="34.8213167">
      <ele>00011</ele>
      <time>2009-09-14T15:52:56Z</time>
    </trkpt>
    <trkpt lat="32.0987667" lon="34.8218000">
      <ele>00006</ele>
      <time>2009-09-14T15:53:08Z</time>
    </trkpt>
    <trkpt lat="32.0990667" lon="34.8221833">
      <ele>00006</ele>
      <time>2009-09-14T15:53:16Z</time>
    </trkpt>
    <trkpt lat="32.0993667" lon="34.8223167">
      <ele>00007</ele>
      <time>2009-09-14T15:53:23Z</time>
    </trkpt>
    <trkpt lat="32.0997000" lon="34.8221167">
      <ele>00007</ele>
      <time>2009-09-14T15:53:33Z</time>
    </trkpt>
    <trkpt lat="32.1003667" lon="34.8214000">
      <ele>00013</ele>
      <time>2009-09-14T15:53:52Z</time>
    </trkpt>
    <trkpt lat="32.1007333" lon="34.8210500">
      <ele>00009</ele>
      <time>2009-09-14T15:54:02Z</time>
    </trkpt>
    <trkpt lat="32.1014833" lon="34.8211333">
      <ele>00007</ele>
      <time>2009-09-14T15:54:18Z</time>
    </trkpt>
    <trkpt lat="32.1019167" lon="34.8217833">
      <ele>00007</ele>
      <time>2009-09-14T15:54:35Z</time>
    </trkpt>
    <trkpt lat="32.1022167" lon="34.8227833">
      <ele>00007</ele>
      <time>2009-09-14T15:54:54Z</time>
    </trkpt>
    <trkpt lat="32.1022833" lon="34.8232833">
      <ele>00008</ele>
      <time>2009-09-14T15:55:08Z</time>
    </trkpt>
    <trkpt lat="32.1021000" lon="34.8236333">
      <ele>00009</ele>
      <time>2009-09-14T15:56:32Z</time>
    </trkpt>
    <trkpt lat="32.1019500" lon="34.8237833">
      <ele>00007</ele>
      <time>2009-09-14T15:56:42Z</time>
    </trkpt>
    <trkpt lat="32.1019500" lon="34.8239333">
      <ele>00006</ele>
      <time>2009-09-14T15:58:21Z</time>
    </trkpt>
    <trkpt lat="32.1022167" lon="34.8235833">
      <ele>00007</ele>
      <time>2009-09-14T15:58:48Z</time>
    </trkpt>
    <trkpt lat="32.1024167" lon="34.8234167">
      <ele>00007</ele>
      <time>2009-09-14T15:58:58Z</time>
    </trkpt>
    <trkpt lat="32.1027000" lon="34.8233833">
      <ele>00006</ele>
      <time>2009-09-14T15:59:05Z</time>
    </trkpt>
    <trkpt lat="32.1028000" lon="34.8229167">
      <ele>00006</ele>
      <time>2009-09-14T15:59:15Z</time>
    </trkpt>
    <trkpt lat="32.1028333" lon="34.8224167">
      <ele>00006</ele>
      <time>2009-09-14T15:59:25Z</time>
    </trkpt>
    <trkpt lat="32.1027000" lon="34.8214667">
      <ele>00006</ele>
      <time>2009-09-14T15:59:43Z</time>
    </trkpt>
    <trkpt lat="32.1031833" lon="34.8207167">
      <ele>00006</ele>
      <time>2009-09-14T15:59:58Z</time>
    </trkpt>
    <trkpt lat="32.1032333" lon="34.8203500">
      <ele>00005</ele>
      <time>2009-09-14T16:00:05Z</time>
    </trkpt>
    <trkpt lat="32.1030833" lon="34.8200000">
      <ele>00005</ele>
      <time>2009-09-14T16:00:12Z</time>
    </trkpt>
    <trkpt lat="32.1024667" lon="34.8195667">
      <ele>00006</ele>
      <time>2009-09-14T16:00:26Z</time>
    </trkpt>
    <trkpt lat="32.1018000" lon="34.8184500">
      <ele>00012</ele>
      <time>2009-09-14T16:00:52Z</time>
    </trkpt>
    <trkpt lat="32.1015500" lon="34.8177667">
      <ele>00015</ele>
      <time>2009-09-14T16:01:15Z</time>
    </trkpt>
    <trkpt lat="32.1016333" lon="34.8173667">
      <ele>00015</ele>
      <time>2009-09-14T16:01:25Z</time>
    </trkpt>
    <trkpt lat="32.1021333" lon="34.8170833">
      <ele>00014</ele>
      <time>2009-09-14T16:01:39Z</time>
    </trkpt>
    <trkpt lat="32.1036667" lon="34.8166667">
      <ele>00007</ele>
      <time>2009-09-14T16:02:06Z</time>
    </trkpt>
    <trkpt lat="32.1037500" lon="34.8156833">
      <ele>00007</ele>
      <time>2009-09-14T16:02:24Z</time>
    </trkpt>
    <trkpt lat="32.1036500" lon="34.8150667">
      <ele>00007</ele>
      <time>2009-09-14T16:02:34Z</time>
    </trkpt>
    <trkpt lat="32.1031333" lon="34.8144667">
      <ele>00006</ele>
      <time>2009-09-14T16:02:47Z</time>
    </trkpt>
    <trkpt lat="32.1018333" lon="34.8139833">
      <ele>00005</ele>
      <time>2009-09-14T16:03:09Z</time>
    </trkpt>
    <trkpt lat="32.1012667" lon="34.8135167">
      <ele>00005</ele>
      <time>2009-09-14T16:03:20Z</time>
    </trkpt>
    <trkpt lat="32.1007833" lon="34.8126500">
      <ele>00004</ele>
      <time>2009-09-14T16:03:34Z</time>
    </trkpt>
    <trkpt lat="32.1006500" lon="34.8122167">
      <ele>00004</ele>
      <time>2009-09-14T16:03:40Z</time>
    </trkpt>
    <trkpt lat="32.1007667" lon="34.8116833">
      <ele>00003</ele>
      <time>2009-09-14T16:03:48Z</time>
    </trkpt>
    <trkpt lat="32.1007000" lon="34.8108167">
      <ele>00003</ele>
      <time>2009-09-14T16:04:00Z</time>
    </trkpt>
    <trkpt lat="32.1008667" lon="34.8102667">
      <ele>00002</ele>
      <time>2009-09-14T16:04:08Z</time>
    </trkpt>
    <trkpt lat="32.1008167" lon="34.8097167">
      <ele>00002</ele>
      <time>2009-09-14T16:04:16Z</time>
    </trkpt>
    <trkpt lat="32.1003333" lon="34.8090167">
      <ele>00003</ele>
      <time>2009-09-14T16:04:29Z</time>
    </trkpt>
    <trkpt lat="32.0999167" lon="34.8090167">
      <ele>00002</ele>
      <time>2009-09-14T16:04:37Z</time>
    </trkpt>
    <trkpt lat="32.0996333" lon="34.8085667">
      <ele>00000</ele>
      <time>2009-09-14T16:04:46Z</time>
    </trkpt>
    <trkpt lat="32.0996167" lon="34.8079667">
      <ele>00000</ele>
      <time>2009-09-14T16:04:55Z</time>
    </trkpt>
    <trkpt lat="32.0996667" lon="34.8072167">
      <ele>00002</ele>
      <time>2009-09-14T16:05:11Z</time>
    </trkpt>
    <trkpt lat="32.1001333" lon="34.8059000">
      <ele>00003</ele>
      <time>2009-09-14T16:05:36Z</time>
    </trkpt>
    <trkpt lat="32.1001500" lon="34.8018667">
      <ele>00005</ele>
      <time>2009-09-14T16:06:36Z</time>
    </trkpt>
    <trkpt lat="32.1004500" lon="34.8009000">
      <ele>00004</ele>
      <time>2009-09-14T16:06:50Z</time>
    </trkpt>
    <trkpt lat="32.1005000" lon="34.8002167">
      <ele>00003</ele>
      <time>2009-09-14T16:07:00Z</time>
    </trkpt>
    <trkpt lat="32.1004000" lon="34.7994333">
      <ele>00003</ele>
      <time>2009-09-14T16:07:12Z</time>
    </trkpt>
    <trkpt lat="32.1001667" lon="34.7990833">
      <ele>00003</ele>
      <time>2009-09-14T16:07:19Z</time>
    </trkpt>
    <trkpt lat="32.0998833" lon="34.7987500">
      <ele>00002</ele>
      <time>2009-09-14T16:07:26Z</time>
    </trkpt>
    <trkpt lat="32.0997000" lon="34.7981333">
      <ele>00001</ele>
      <time>2009-09-14T16:07:35Z</time>
    </trkpt>
    <trkpt lat="32.0994500" lon="34.7974167">
      <ele>00001</ele>
      <time>2009-09-14T16:07:45Z</time>
    </trkpt>
    <trkpt lat="32.0993167" lon="34.7970333">
      <ele>00001</ele>
      <time>2009-09-14T16:07:51Z</time>
    </trkpt>
    <trkpt lat="32.0990333" lon="34.7967167">
      <ele>00001</ele>
      <time>2009-09-14T16:07:58Z</time>
    </trkpt>
    <trkpt lat="32.0989667" lon="34.7964667">
      <ele>00002</ele>
      <time>2009-09-14T16:08:09Z</time>
    </trkpt>
    <trkpt lat="32.0987667" lon="34.7961667">
      <ele>00001</ele>
      <time>2009-09-14T16:13:17Z</time>
    </trkpt>
    <trkpt lat="32.0985833" lon="34.7953333">
      <ele>00003</ele>
      <time>2009-09-14T16:13:38Z</time>
    </trkpt>
    <trkpt lat="32.0983833" lon="34.7949667">
      <ele>00002</ele>
      <time>2009-09-14T16:13:47Z</time>
    </trkpt>
    <trkpt lat="32.0982333" lon="34.7944167">
      <ele>00002</ele>
      <time>2009-09-14T16:13:58Z</time>
    </trkpt>
    <trkpt lat="32.0980333" lon="34.7938333">
      <ele>00002</ele>
      <time>2009-09-14T16:14:17Z</time>
    </trkpt>
    <trkpt lat="32.0980167" lon="34.7933167">
      <ele>00002</ele>
      <time>2009-09-14T16:14:24Z</time>
    </trkpt>
    <trkpt lat="32.0979167" lon="34.7928167">
      <ele>00002</ele>
      <time>2009-09-14T16:14:34Z</time>
    </trkpt>
    <trkpt lat="32.0973000" lon="34.7903500">
      <ele>00001</ele>
      <time>2009-09-14T16:15:16Z</time>
    </trkpt>
    <trkpt lat="32.0970833" lon="34.7883500">
      <ele>00003</ele>
      <time>2009-09-14T16:15:51Z</time>
    </trkpt>
    <trkpt lat="32.0970833" lon="34.7877833">
      <ele>00003</ele>
      <time>2009-09-14T16:16:04Z</time>
    </trkpt>
    <trkpt lat="32.0968500" lon="34.7861000">
      <ele>00002</ele>
      <time>2009-09-14T16:16:30Z</time>
    </trkpt>
    <trkpt lat="32.0968667" lon="34.7843167">
      <ele>00002</ele>
      <time>2009-09-14T16:16:57Z</time>
    </trkpt>
    <trkpt lat="32.0968000" lon="34.7836500">
      <ele>00002</ele>
      <time>2009-09-14T16:17:11Z</time>
    </trkpt>
    <trkpt lat="32.0966000" lon="34.7833667">
      <ele>00000</ele>
      <time>2009-09-14T16:17:20Z</time>
    </trkpt>
    <trkpt lat="32.0966167" lon="34.7832000">
      <ele>00004</ele>
      <time>2009-09-14T16:17:30Z</time>
    </trkpt>
    <trkpt lat="32.0968500" lon="34.7831500">
      <ele>00006</ele>
      <time>2009-09-14T16:17:37Z</time>
    </trkpt>
    <trkpt lat="32.0968833" lon="34.7821667">
      <ele>00004</ele>
      <time>2009-09-14T16:17:56Z</time>
    </trkpt>
    <trkpt lat="32.0967000" lon="34.7819333">
      <ele>00003</ele>
      <time>2009-09-14T16:18:03Z</time>
    </trkpt>
    <trkpt lat="32.0966500" lon="34.7808500">
      <ele>00003</ele>
      <time>2009-09-14T16:18:19Z</time>
    </trkpt>
    <trkpt lat="32.0965667" lon="34.7789000">
      <ele>00002</ele>
      <time>2009-09-14T16:18:53Z</time>
    </trkpt>
    <trkpt lat="32.0967500" lon="34.7784333">
      <ele>00002</ele>
      <time>2009-09-14T16:19:01Z</time>
    </trkpt>
    <trkpt lat="32.0971000" lon="34.7780500">
      <ele>00002</ele>
      <time>2009-09-14T16:19:14Z</time>
    </trkpt>
    <trkpt lat="32.0976333" lon="34.7777667">
      <ele>00002</ele>
      <time>2009-09-14T16:19:26Z</time>
    </trkpt>
    <trkpt lat="32.0983500" lon="34.7777500">
      <ele>00007</ele>
      <time>2009-09-14T16:19:43Z</time>
    </trkpt>
    <trkpt lat="32.0988667" lon="34.7779833">
      <ele>00007</ele>
      <time>2009-09-14T16:20:00Z</time>
    </trkpt>
    <trkpt lat="32.0991500" lon="34.7774000">
      <ele>00006</ele>
      <time>2009-09-14T16:20:24Z</time>
    </trkpt>
    <trkpt lat="32.0994667" lon="34.7775000">
      <ele>00004</ele>
      <time>2009-09-14T16:20:33Z</time>
    </trkpt>
    <trkpt lat="32.1001000" lon="34.7776500">
      <ele>00003</ele>
      <time>2009-09-14T16:20:47Z</time>
    </trkpt>
    <trkpt lat="32.1004667" lon="34.7773500">
      <ele>00003</ele>
      <time>2009-09-14T16:20:57Z</time>
    </trkpt>
    <trkpt lat="32.1012000" lon="34.7769167">
      <ele>00003</ele>
      <time>2009-09-14T16:21:16Z</time>
    </trkpt>
    <trkpt lat="32.1014167" lon="34.7764333">
      <ele>00001</ele>
      <time>2009-09-14T16:21:28Z</time>
    </trkpt>
    <trkpt lat="32.1015833" lon="34.7759333">
      <ele>00003</ele>
      <time>2009-09-14T16:21:44Z</time>
    </trkpt>
    <trkpt lat="32.1020000" lon="34.7754667">
      <ele>00005</ele>
      <time>2009-09-14T16:22:04Z</time>
    </trkpt>
    <trkpt lat="32.1010667" lon="34.7748167">
      <ele>00005</ele>
      <time>2009-09-14T16:22:46Z</time>
    </trkpt>
    <trkpt lat="32.1008000" lon="34.7745667">
      <ele>00006</ele>
      <time>2009-09-14T16:23:06Z</time>
    </trkpt>
    <trkpt lat="32.1001667" lon="34.7740833">
      <ele>00006</ele>
      <time>2009-09-14T16:23:23Z</time>
    </trkpt>
    <trkpt lat="32.0996833" lon="34.7739000">
      <ele>00006</ele>
      <time>2009-09-14T16:23:34Z</time>
    </trkpt>
    <trkpt lat="32.0993500" lon="34.7738167">
      <ele>00005</ele>
      <time>2009-09-14T16:23:41Z</time>
    </trkpt>
    <trkpt lat="32.0990833" lon="34.7736333">
      <ele>00004</ele>
      <time>2009-09-14T16:23:48Z</time>
    </trkpt>
    <trkpt lat="32.0985333" lon="34.7739333">
      <ele>00005</ele>
      <time>2009-09-14T16:24:09Z</time>
    </trkpt>
    <trkpt lat="32.0982833" lon="34.7741333">
      <ele>00006</ele>
      <time>2009-09-14T16:24:18Z</time>
    </trkpt>
    <trkpt lat="32.0966000" lon="34.7737167">
      <ele>00015</ele>
      <time>2009-09-14T16:25:02Z</time>
    </trkpt>
    <trkpt lat="32.0965333" lon="34.7734000">
      <ele>00021</ele>
      <time>2009-09-14T16:25:11Z</time>
    </trkpt>
    <trkpt lat="32.0952500" lon="34.7728833">
      <ele>00019</ele>
      <time>2009-09-14T16:25:44Z</time>
    </trkpt>
    <trkpt lat="32.0952000" lon="34.7724500">
      <ele>00018</ele>
      <time>2009-09-14T16:25:54Z</time>
    </trkpt>
    <trkpt lat="32.0952500" lon="34.7722000">
      <ele>00018</ele>
      <time>2009-09-14T16:26:00Z</time>
    </trkpt>
    <trkpt lat="32.0950167" lon="34.7721333">
      <ele>00018</ele>
      <time>2009-09-14T16:26:09Z</time>
    </trkpt>
    <trkpt lat="32.0948500" lon="34.7723500">
      <ele>00019</ele>
      <time>2009-09-14T16:26:16Z</time>
    </trkpt>
    <trkpt lat="32.0945833" lon="34.7722500">
      <ele>00019</ele>
      <time>2009-09-14T16:26:23Z</time>
    </trkpt>
    <trkpt lat="32.0941000" lon="34.7717167">
      <ele>00017</ele>
      <time>2009-09-14T16:26:48Z</time>
    </trkpt>
    <trkpt lat="32.0937833" lon="34.7715833">
      <ele>00015</ele>
      <time>2009-09-14T16:27:01Z</time>
    </trkpt>
    <trkpt lat="32.0935333" lon="34.7715833">
      <ele>00014</ele>
      <time>2009-09-14T16:27:10Z</time>
    </trkpt>
    <trkpt lat="32.0932333" lon="34.7713833">
      <ele>00015</ele>
      <time>2009-09-14T16:27:19Z</time>
    </trkpt>
    <trkpt lat="32.0927833" lon="34.7712500">
      <ele>00015</ele>
      <time>2009-09-14T16:27:29Z</time>
    </trkpt>
    <trkpt lat="32.0920500" lon="34.7711167">
      <ele>00012</ele>
      <time>2009-09-14T16:27:45Z</time>
    </trkpt>
    <trkpt lat="32.0911167" lon="34.7704167">
      <ele>00010</ele>
      <time>2009-09-14T16:28:06Z</time>
    </trkpt>
    <trkpt lat="32.0904667" lon="34.7702167">
      <ele>00008</ele>
      <time>2009-09-14T16:28:20Z</time>
    </trkpt>
    <trkpt lat="32.0899833" lon="34.7702333">
      <ele>00013</ele>
      <time>2009-09-14T16:28:37Z</time>
    </trkpt>
    <trkpt lat="32.0898000" lon="34.7702500">
      <ele>00015</ele>
      <time>2009-09-14T16:28:48Z</time>
    </trkpt>
    <trkpt lat="32.0902000" lon="34.7704000">
      <ele>00014</ele>
      <time>2009-09-14T16:29:06Z</time>
    </trkpt>
    <trkpt lat="32.0907333" lon="34.7706333">
      <ele>00019</ele>
      <time>2009-09-14T16:29:34Z</time>
    </trkpt>
    <trkpt lat="32.0911833" lon="34.7708833">
      <ele>00020</ele>
      <time>2009-09-14T16:29:56Z</time>
    </trkpt>
    <trkpt lat="32.0909000" lon="34.7707167">
      <ele>00018</ele>
      <time>2009-09-14T16:33:29Z</time>
    </trkpt>
    <trkpt lat="32.0903333" lon="34.7703833">
      <ele>00012</ele>
      <time>2009-09-14T16:33:42Z</time>
    </trkpt>
    <trkpt lat="32.0891000" lon="34.7700833">
      <ele>00007</ele>
      <time>2009-09-14T16:34:02Z</time>
    </trkpt>
    <trkpt lat="32.0877833" lon="34.7697500">
      <ele>00013</ele>
      <time>2009-09-14T16:34:36Z</time>
    </trkpt>
    <trkpt lat="32.0871667" lon="34.7698000">
      <ele>00009</ele>
      <time>2009-09-14T16:34:49Z</time>
    </trkpt>
    <trkpt lat="32.0869833" lon="34.7699667">
      <ele>00008</ele>
      <time>2009-09-14T16:34:57Z</time>
    </trkpt>
    <trkpt lat="32.0865167" lon="34.7697833">
      <ele>00009</ele>
      <time>2009-09-14T16:35:12Z</time>
    </trkpt>
    <trkpt lat="32.0863667" lon="34.7695333">
      <ele>00009</ele>
      <time>2009-09-14T16:35:31Z</time>
    </trkpt>
    <trkpt lat="32.0859000" lon="34.7692000">
      <ele>00008</ele>
      <time>2009-09-14T16:35:35Z</time>
    </trkpt>
    <trkpt lat="32.0855667" lon="34.7692167">
      <ele>00008</ele>
      <time>2009-09-14T16:35:42Z</time>
    </trkpt>
    <trkpt lat="32.0853667" lon="34.7691333">
      <ele>00010</ele>
      <time>2009-09-14T16:35:50Z</time>
    </trkpt>
    <trkpt lat="32.0849833" lon="34.7689000">
      <ele>00014</ele>
      <time>2009-09-14T16:37:07Z</time>
    </trkpt>
    <trkpt lat="32.0846500" lon="34.7689500">
      <ele>00008</ele>
      <time>2009-09-14T16:38:21Z</time>
    </trkpt>
    <trkpt lat="32.0840167" lon="34.7686833">
      <ele>00006</ele>
      <time>2009-09-14T16:38:41Z</time>
    </trkpt>
    <trkpt lat="32.0834333" lon="34.7684833">
      <ele>00004</ele>
      <time>2009-09-14T16:39:00Z</time>
    </trkpt>
    <trkpt lat="32.0830000" lon="34.7682833">
      <ele>00006</ele>
      <time>2009-09-14T16:39:10Z</time>
    </trkpt>
    <trkpt lat="32.0827500" lon="34.7680667">
      <ele>00006</ele>
      <time>2009-09-14T16:39:17Z</time>
    </trkpt>
    <trkpt lat="32.0825667" lon="34.7678833">
      <ele>00009</ele>
      <time>2009-09-14T16:39:28Z</time>
    </trkpt>
    <trkpt lat="32.0818500" lon="34.7677667">
      <ele>00007</ele>
      <time>2009-09-14T16:39:48Z</time>
    </trkpt>
    <trkpt lat="32.0814167" lon="34.7676000">
      <ele>00007</ele>
      <time>2009-09-14T16:40:03Z</time>
    </trkpt>
    <trkpt lat="32.0810667" lon="34.7676000">
      <ele>00009</ele>
      <time>2009-09-14T16:40:11Z</time>
    </trkpt>
    <trkpt lat="32.0795333" lon="34.7669833">
      <ele>00009</ele>
      <time>2009-09-14T16:40:43Z</time>
    </trkpt>
    <trkpt lat="32.0784667" lon="34.7668167">
      <ele>00007</ele>
      <time>2009-09-14T16:41:04Z</time>
    </trkpt>
    <trkpt lat="32.0781500" lon="34.7667500">
      <ele>00006</ele>
      <time>2009-09-14T16:41:12Z</time>
    </trkpt>
    <trkpt lat="32.0777833" lon="34.7665667">
      <ele>00006</ele>
      <time>2009-09-14T16:41:21Z</time>
    </trkpt>
    <trkpt lat="32.0774000" lon="34.7663667">
      <ele>00007</ele>
      <time>2009-09-14T16:41:30Z</time>
    </trkpt>
    <trkpt lat="32.0768167" lon="34.7660833">
      <ele>00007</ele>
      <time>2009-09-14T16:41:44Z</time>
    </trkpt>
    <trkpt lat="32.0762000" lon="34.7659167">
      <ele>00007</ele>
      <time>2009-09-14T16:41:56Z</time>
    </trkpt>
    <trkpt lat="32.0755000" lon="34.7656500">
      <ele>00006</ele>
      <time>2009-09-14T16:42:10Z</time>
    </trkpt>
    <trkpt lat="32.0751500" lon="34.7655333">
      <ele>00006</ele>
      <time>2009-09-14T16:42:17Z</time>
    </trkpt>
    <trkpt lat="32.0749167" lon="34.7653500">
      <ele>00005</ele>
      <time>2009-09-14T16:42:23Z</time>
    </trkpt>
    <trkpt lat="32.0741500" lon="34.7650667">
      <ele>00004</ele>
      <time>2009-09-14T16:42:39Z</time>
    </trkpt>
    <trkpt lat="32.0736833" lon="34.7648000">
      <ele>00005</ele>
      <time>2009-09-14T16:42:52Z</time>
    </trkpt>
    <trkpt lat="32.0729000" lon="34.7646500">
      <ele>00007</ele>
      <time>2009-09-14T16:43:12Z</time>
    </trkpt>
    <trkpt lat="32.0715667" lon="34.7641500">
      <ele>00007</ele>
      <time>2009-09-14T16:43:43Z</time>
    </trkpt>
    <trkpt lat="32.0711500" lon="34.7639667">
      <ele>00007</ele>
      <time>2009-09-14T16:43:53Z</time>
    </trkpt>
    <trkpt lat="32.0708167" lon="34.7639000">
      <ele>00007</ele>
      <time>2009-09-14T16:44:00Z</time>
    </trkpt>
    <trkpt lat="32.0704333" lon="34.7637500">
      <ele>00010</ele>
      <time>2009-09-14T16:44:09Z</time>
    </trkpt>
    <trkpt lat="32.0700667" lon="34.7636333">
      <ele>00010</ele>
      <time>2009-09-14T16:44:19Z</time>
    </trkpt>
    <trkpt lat="32.0697500" lon="34.7635000">
      <ele>00010</ele>
      <time>2009-09-14T16:44:29Z</time>
    </trkpt>
    <trkpt lat="32.0693167" lon="34.7632833">
      <ele>00008</ele>
      <time>2009-09-14T16:44:40Z</time>
    </trkpt>
    <trkpt lat="32.0689500" lon="34.7631333">
      <ele>00009</ele>
      <time>2009-09-14T16:44:50Z</time>
    </trkpt>
    <trkpt lat="32.0684667" lon="34.7630167">
      <ele>00008</ele>
      <time>2009-09-14T16:45:02Z</time>
    </trkpt>
    <trkpt lat="32.0670667" lon="34.7626333">
      <ele>00006</ele>
      <time>2009-09-14T16:45:32Z</time>
    </trkpt>
    <trkpt lat="32.0668333" lon="34.7623000">
      <ele>00006</ele>
      <time>2009-09-14T16:46:03Z</time>
    </trkpt>
    <trkpt lat="32.0665000" lon="34.7614000">
      <ele>00006</ele>
      <time>2009-09-14T16:46:30Z</time>
    </trkpt>
    <trkpt lat="32.0662667" lon="34.7611167">
      <ele>00005</ele>
      <time>2009-09-14T16:46:40Z</time>
    </trkpt>
    <trkpt lat="32.0658167" lon="34.7609000">
      <ele>00005</ele>
      <time>2009-09-14T16:46:52Z</time>
    </trkpt>
    <trkpt lat="32.0650500" lon="34.7606833">
      <ele>00004</ele>
      <time>2009-09-14T16:47:09Z</time>
    </trkpt>
    <trkpt lat="32.0646000" lon="34.7605667">
      <ele>00003</ele>
      <time>2009-09-14T16:47:20Z</time>
    </trkpt>
    <trkpt lat="32.0641833" lon="34.7602000">
      <ele>00002</ele>
      <time>2009-09-14T16:47:32Z</time>
    </trkpt>
    <trkpt lat="32.0635000" lon="34.7599000">
      <ele>00002</ele>
      <time>2009-09-14T16:47:47Z</time>
    </trkpt>
    <trkpt lat="32.0628667" lon="34.7599833">
      <ele>00006</ele>
      <time>2009-09-14T16:48:02Z</time>
    </trkpt>
    <trkpt lat="32.0626667" lon="34.7601500">
      <ele>00006</ele>
      <time>2009-09-14T16:48:13Z</time>
    </trkpt>
    <trkpt lat="32.0622333" lon="34.7600833">
      <ele>00001</ele>
      <time>2009-09-14T16:48:23Z</time>
    </trkpt>
    <trkpt lat="32.0618333" lon="34.7598667">
      <ele>00001</ele>
      <time>2009-09-14T16:48:32Z</time>
    </trkpt>
    <trkpt lat="32.0613667" lon="34.7601167">
      <ele>00002</ele>
      <time>2009-09-14T16:48:45Z</time>
    </trkpt>
    <trkpt lat="32.0610667" lon="34.7600000">
      <ele>00002</ele>
      <time>2009-09-14T16:48:53Z</time>
    </trkpt>
    <trkpt lat="32.0607500" lon="34.7597000">
      <ele>00002</ele>
      <time>2009-09-14T16:49:02Z</time>
    </trkpt>
    <trkpt lat="32.0605167" lon="34.7595333">
      <ele>00001</ele>
      <time>2009-09-14T16:49:08Z</time>
    </trkpt>
    <trkpt lat="32.0603667" lon="34.7591833">
      <ele>00000</ele>
      <time>2009-09-14T16:49:15Z</time>
    </trkpt>
    <trkpt lat="32.0600833" lon="34.7589333">
      <ele>00001</ele>
      <time>2009-09-14T16:49:22Z</time>
    </trkpt>
    <trkpt lat="32.0595167" lon="34.7586000">
      <ele>00001</ele>
      <time>2009-09-14T16:49:35Z</time>
    </trkpt>
    <trkpt lat="32.0589333" lon="34.7581500">
      <ele>00002</ele>
      <time>2009-09-14T16:49:49Z</time>
    </trkpt>
    <trkpt lat="32.0583333" lon="34.7580000">
      <ele>00003</ele>
      <time>2009-09-14T16:50:04Z</time>
    </trkpt>
    <trkpt lat="32.0578500" lon="34.7576000">
      <ele>00003</ele>
      <time>2009-09-14T16:50:23Z</time>
    </trkpt>
    <trkpt lat="32.0563667" lon="34.7559667">
      <ele>00005</ele>
      <time>2009-09-14T16:51:06Z</time>
    </trkpt>
    <trkpt lat="32.0560167" lon="34.7555167">
      <ele>00006</ele>
      <time>2009-09-14T16:51:18Z</time>
    </trkpt>
    <trkpt lat="32.0557333" lon="34.7552000">
      <ele>00006</ele>
      <time>2009-09-14T16:51:27Z</time>
    </trkpt>
    <trkpt lat="32.0556000" lon="34.7546667">
      <ele>00003</ele>
      <time>2009-09-14T16:51:37Z</time>
    </trkpt>
    <trkpt lat="32.0556667" lon="34.7535333">
      <ele>00000</ele>
      <time>2009-09-14T16:51:55Z</time>
    </trkpt>
    <trkpt lat="32.0554333" lon="34.7532500">
      <ele>00001</ele>
      <time>2009-09-14T16:52:07Z</time>
    </trkpt>
    <trkpt lat="32.0553167" lon="34.7528500">
      <ele>00004</ele>
      <time>2009-09-14T16:52:29Z</time>
    </trkpt>
    <trkpt lat="32.0551500" lon="34.7528000">
      <ele>00010</ele>
      <time>2009-09-14T16:53:48Z</time>
    </trkpt>
    <trkpt lat="32.0550167" lon="34.7525333">
      <ele>00021</ele>
      <time>2009-09-14T16:55:39Z</time>
    </trkpt>
    <trkpt lat="32.0548667" lon="34.7526000">
      <ele>00022</ele>
      <time>2009-09-14T16:55:59Z</time>
    </trkpt>
    <trkpt lat="32.0545333" lon="34.7523667">
      <ele>00022</ele>
      <time>2009-09-14T16:56:17Z</time>
    </trkpt>
    <trkpt lat="32.0544333" lon="34.7521667">
      <ele>00023</ele>
      <time>2009-09-14T16:56:27Z</time>
    </trkpt>
    <trkpt lat="32.0544500" lon="34.7518333">
      <ele>00025</ele>
      <time>2009-09-14T16:57:44Z</time>
    </trkpt>
    <trkpt lat="32.0546333" lon="34.7516667">
      <ele>00028</ele>
      <time>2009-09-14T17:02:42Z</time>
    </trkpt>
    <trkpt lat="32.0549000" lon="34.7518333">
      <ele>00028</ele>
      <time>2009-09-14T17:03:05Z</time>
    </trkpt>
    <trkpt lat="32.0550667" lon="34.7519833">
      <ele>00027</ele>
      <time>2009-09-14T17:03:13Z</time>
    </trkpt>
    <trkpt lat="32.0549500" lon="34.7525000">
      <ele>00022</ele>
      <time>2009-09-14T17:03:26Z</time>
    </trkpt>
    <trkpt lat="32.0548333" lon="34.7526500">
      <ele>00021</ele>
      <time>2009-09-14T17:03:39Z</time>
    </trkpt>
    <trkpt lat="32.0545667" lon="34.7524833">
      <ele>00020</ele>
      <time>2009-09-14T17:03:51Z</time>
    </trkpt>
    <trkpt lat="32.0543167" lon="34.7525333">
      <ele>00024</ele>
      <time>2009-09-14T17:04:05Z</time>
    </trkpt>
    <trkpt lat="32.0541167" lon="34.7522833">
      <ele>00026</ele>
      <time>2009-09-14T17:04:23Z</time>
    </trkpt>
    <trkpt lat="32.0540333" lon="34.7519833">
      <ele>00028</ele>
      <time>2009-09-14T17:04:37Z</time>
    </trkpt>
    <trkpt lat="32.0538167" lon="34.7523000">
      <ele>00030</ele>
      <time>2009-09-14T17:04:59Z</time>
    </trkpt>
    <trkpt lat="32.0540500" lon="34.7526333">
      <ele>00032</ele>
      <time>2009-09-14T17:05:13Z</time>
    </trkpt>
    <trkpt lat="32.0542000" lon="34.7527667">
      <ele>00035</ele>
      <time>2009-09-14T17:05:20Z</time>
    </trkpt>
    <trkpt lat="32.0540833" lon="34.7529667">
      <ele>00037</ele>
      <time>2009-09-14T17:05:30Z</time>
    </trkpt>
    <trkpt lat="32.0541333" lon="34.7530833">
      <ele>00037</ele>
      <time>2009-09-14T17:05:49Z</time>
    </trkpt>
    <trkpt lat="32.0542167" lon="34.7528167">
      <ele>00029</ele>
      <time>2009-09-14T17:07:53Z</time>
    </trkpt>
    <trkpt lat="32.0540000" lon="34.7529167">
      <ele>00027</ele>
      <time>2009-09-14T17:08:05Z</time>
    </trkpt>
    <trkpt lat="32.0537667" lon="34.7527333">
      <ele>00027</ele>
      <time>2009-09-14T17:08:15Z</time>
    </trkpt>
    <trkpt lat="32.0535167" lon="34.7523667">
      <ele>00028</ele>
      <time>2009-09-14T17:08:35Z</time>
    </trkpt>
    <trkpt lat="32.0535333" lon="34.7520833">
      <ele>00023</ele>
      <time>2009-09-14T17:09:26Z</time>
    </trkpt>
    <trkpt lat="32.0534833" lon="34.7517500">
      <ele>00023</ele>
      <time>2009-09-14T17:09:42Z</time>
    </trkpt>
    <trkpt lat="32.0534833" lon="34.7515167">
      <ele>00023</ele>
      <time>2009-09-14T17:09:54Z</time>
    </trkpt>
    <trkpt lat="32.0535833" lon="34.7512000">
      <ele>00021</ele>
      <time>2009-09-14T17:10:18Z</time>
    </trkpt>
    <trkpt lat="32.0532167" lon="34.7511000">
      <ele>00019</ele>
      <time>2009-09-14T17:11:48Z</time>
    </trkpt>
    <trkpt lat="32.0529667" lon="34.7515333">
      <ele>00016</ele>
      <time>2009-09-14T17:12:00Z</time>
    </trkpt>
    <trkpt lat="32.0527333" lon="34.7511833">
      <ele>00012</ele>
      <time>2009-09-14T17:12:13Z</time>
    </trkpt>
    <trkpt lat="32.0518833" lon="34.7510167">
      <ele>00003</ele>
      <time>2009-09-14T17:12:27Z</time>
    </trkpt>
    <trkpt lat="32.0521000" lon="34.7506000">
      <ele>00005</ele>
      <time>2009-09-14T17:12:40Z</time>
    </trkpt>
    <trkpt lat="32.0521500" lon="34.7503167">
      <ele>00005</ele>
      <time>2009-09-14T17:12:45Z</time>
    </trkpt>
    <trkpt lat="32.0517000" lon="34.7501500">
      <ele>00002</ele>
      <time>2009-09-14T17:12:57Z</time>
    </trkpt>
    <trkpt lat="32.0512000" lon="34.7496500">
      <ele>00000</ele>
      <time>2009-09-14T17:13:10Z</time>
    </trkpt>
    <trkpt lat="32.0506333" lon="34.7493833">
      <ele>00000</ele>
      <time>2009-09-14T17:13:21Z</time>
    </trkpt>
    <trkpt lat="32.0504167" lon="34.7492500">
      <ele>00001</ele>
      <time>2009-09-14T17:13:26Z</time>
    </trkpt>
    <trkpt lat="32.0504167" lon="34.7484333">
      <ele>00000</ele>
      <time>2009-09-14T17:13:43Z</time>
    </trkpt>
    <trkpt lat="32.0483500" lon="34.7470500">
      <ele>00000</ele>
      <time>2009-09-14T17:14:30Z</time>
    </trkpt>
    <trkpt lat="32.0481500" lon="34.7467667">
      <ele>00001</ele>
      <time>2009-09-14T17:14:58Z</time>
    </trkpt>
    <trkpt lat="32.0480000" lon="34.7461667">
      <ele>00002</ele>
      <time>2009-09-14T17:15:23Z</time>
    </trkpt>
    <trkpt lat="32.0478000" lon="34.7457000">
      <ele>00003</ele>
      <time>2009-09-14T17:15:35Z</time>
    </trkpt>
    <trkpt lat="32.0474667" lon="34.7454333">
      <ele>00004</ele>
      <time>2009-09-14T17:15:47Z</time>
    </trkpt>
    <trkpt lat="32.0471167" lon="34.7453167">
      <ele>00005</ele>
      <time>2009-09-14T17:15:56Z</time>
    </trkpt>
    <trkpt lat="32.0464833" lon="34.7454333">
      <ele>00002</ele>
      <time>2009-09-14T17:16:09Z</time>
    </trkpt>
    <trkpt lat="32.0456500" lon="34.7450667">
      <ele>00003</ele>
      <time>2009-09-14T17:16:25Z</time>
    </trkpt>
    <trkpt lat="32.0452167" lon="34.7450833">
      <ele>00003</ele>
      <time>2009-09-14T17:16:33Z</time>
    </trkpt>
    <trkpt lat="32.0448833" lon="34.7454833">
      <ele>00002</ele>
      <time>2009-09-14T17:16:42Z</time>
    </trkpt>
    <trkpt lat="32.0445667" lon="34.7460500">
      <ele>00000</ele>
      <time>2009-09-14T17:16:52Z</time>
    </trkpt>
    <trkpt lat="32.0440833" lon="34.7463833">
      <ele>00000</ele>
      <time>2009-09-14T17:17:01Z</time>
    </trkpt>
    <trkpt lat="32.0435667" lon="34.7463667">
      <ele>00000</ele>
      <time>2009-09-14T17:17:10Z</time>
    </trkpt>
    <trkpt lat="32.0431000" lon="34.7461167">
      <ele>00000</ele>
      <time>2009-09-14T17:17:19Z</time>
    </trkpt>
    <trkpt lat="32.0418667" lon="34.7451333">
      <ele>00000</ele>
      <time>2009-09-14T17:17:43Z</time>
    </trkpt>
    <trkpt lat="32.0414667" lon="34.7451833">
      <ele>00000</ele>
      <time>2009-09-14T17:17:52Z</time>
    </trkpt>
    <trkpt lat="32.0413333" lon="34.7452833">
      <ele>00000</ele>
      <time>2009-09-14T17:18:26Z</time>
    </trkpt>
    <trkpt lat="32.0413000" lon="34.7455333">
      <ele>00000</ele>
      <time>2009-09-14T17:18:39Z</time>
    </trkpt>
    <trkpt lat="32.0415500" lon="34.7456500">
      <ele>00004</ele>
      <time>2009-09-14T17:18:53Z</time>
    </trkpt>
    <trkpt lat="32.0417000" lon="34.7458833">
      <ele>00006</ele>
      <time>2009-09-14T17:19:05Z</time>
    </trkpt>
    <trkpt lat="32.0419000" lon="34.7461500">
      <ele>00006</ele>
      <time>2009-09-14T17:19:21Z</time>
    </trkpt>
    <trkpt lat="32.0435667" lon="34.7464000">
      <ele>00001</ele>
      <time>2009-09-14T17:19:59Z</time>
    </trkpt>
    <trkpt lat="32.0463167" lon="34.7470333">
      <ele>00005</ele>
      <time>2009-09-14T17:20:54Z</time>
    </trkpt>
    <trkpt lat="32.0474333" lon="34.7475500">
      <ele>00003</ele>
      <time>2009-09-14T17:21:18Z</time>
    </trkpt>
    <trkpt lat="32.0514000" lon="34.7499500">
      <ele>00000</ele>
      <time>2009-09-14T17:22:35Z</time>
    </trkpt>
    <trkpt lat="32.0518167" lon="34.7502667">
      <ele>00000</ele>
      <time>2009-09-14T17:22:44Z</time>
    </trkpt>
    <trkpt lat="32.0520500" lon="34.7503833">
      <ele>00003</ele>
      <time>2009-09-14T17:22:49Z</time>
    </trkpt>
    <trkpt lat="32.0520667" lon="34.7506333">
      <ele>00001</ele>
      <time>2009-09-14T17:22:56Z</time>
    </trkpt>
    <trkpt lat="32.0518000" lon="34.7508167">
      <ele>00002</ele>
      <time>2009-09-14T17:23:07Z</time>
    </trkpt>
    <trkpt lat="32.0519833" lon="34.7511000">
      <ele>00003</ele>
      <time>2009-09-14T17:23:22Z</time>
    </trkpt>
    <trkpt lat="32.0525667" lon="34.7511667">
      <ele>00012</ele>
      <time>2009-09-14T17:23:48Z</time>
    </trkpt>
    <trkpt lat="32.0527500" lon="34.7513833">
      <ele>00014</ele>
      <time>2009-09-14T17:24:03Z</time>
    </trkpt>
    <trkpt lat="32.0528333" lon="34.7516167">
      <ele>00016</ele>
      <time>2009-09-14T17:24:15Z</time>
    </trkpt>
    <trkpt lat="32.0530500" lon="34.7513000">
      <ele>00017</ele>
      <time>2009-09-14T17:24:31Z</time>
    </trkpt>
    <trkpt lat="32.0533500" lon="34.7511167">
      <ele>00020</ele>
      <time>2009-09-14T17:24:49Z</time>
    </trkpt>
    <trkpt lat="32.0536833" lon="34.7513000">
      <ele>00023</ele>
      <time>2009-09-14T17:25:16Z</time>
    </trkpt>
    <trkpt lat="32.0538333" lon="34.7513667">
      <ele>00026</ele>
      <time>2009-09-14T17:25:31Z</time>
    </trkpt>
    <trkpt lat="32.0541333" lon="34.7515000">
      <ele>00026</ele>
      <time>2009-09-14T17:25:55Z</time>
    </trkpt>
    <trkpt lat="32.0543667" lon="34.7517667">
      <ele>00026</ele>
      <time>2009-09-14T17:26:06Z</time>
    </trkpt>
    <trkpt lat="32.0544833" lon="34.7521500">
      <ele>00024</ele>
      <time>2009-09-14T17:26:19Z</time>
    </trkpt>
    <trkpt lat="32.0547667" lon="34.7524167">
      <ele>00026</ele>
      <time>2009-09-14T17:26:29Z</time>
    </trkpt>
    <trkpt lat="32.0551000" lon="34.7537833">
      <ele>00021</ele>
      <time>2009-09-14T17:26:56Z</time>
    </trkpt>
    <trkpt lat="32.0547500" lon="34.7556167">
      <ele>00007</ele>
      <time>2009-09-14T17:27:30Z</time>
    </trkpt>
    <trkpt lat="32.0546667" lon="34.7559667">
      <ele>00010</ele>
      <time>2009-09-14T17:27:54Z</time>
    </trkpt>
    <trkpt lat="32.0553667" lon="34.7564500">
      <ele>00006</ele>
      <time>2009-09-14T17:28:15Z</time>
    </trkpt>
    <trkpt lat="32.0552667" lon="34.7570333">
      <ele>00003</ele>
      <time>2009-09-14T17:28:27Z</time>
    </trkpt>
    <trkpt lat="32.0547667" lon="34.7612667">
      <ele>00013</ele>
      <time>2009-09-14T17:30:28Z</time>
    </trkpt>
    <trkpt lat="32.0547167" lon="34.7614333">
      <ele>00012</ele>
      <time>2009-09-14T17:30:46Z</time>
    </trkpt>
    <trkpt lat="32.0550000" lon="34.7616833">
      <ele>00015</ele>
      <time>2009-09-14T17:30:59Z</time>
    </trkpt>
    <trkpt lat="32.0552667" lon="34.7618167">
      <ele>00022</ele>
      <time>2009-09-14T17:31:10Z</time>
    </trkpt>
    <trkpt lat="32.0552667" lon="34.7623500">
      <ele>00018</ele>
      <time>2009-09-14T17:31:22Z</time>
    </trkpt>
    <trkpt lat="32.0552333" lon="34.7626333">
      <ele>00015</ele>
      <time>2009-09-14T17:31:31Z</time>
    </trkpt>
    <trkpt lat="32.0556667" lon="34.7628667">
      <ele>00014</ele>
      <time>2009-09-14T17:31:44Z</time>
    </trkpt>
    <trkpt lat="32.0560167" lon="34.7628000">
      <ele>00015</ele>
      <time>2009-09-14T17:31:56Z</time>
    </trkpt>
    <trkpt lat="32.0565833" lon="34.7633333">
      <ele>00013</ele>
      <time>2009-09-14T17:32:17Z</time>
    </trkpt>
    <trkpt lat="32.0568167" lon="34.7637333">
      <ele>00014</ele>
      <time>2009-09-14T17:32:26Z</time>
    </trkpt>
    <trkpt lat="32.0575500" lon="34.7635167">
      <ele>00011</ele>
      <time>2009-09-14T17:32:48Z</time>
    </trkpt>
    <trkpt lat="32.0577333" lon="34.7634833">
      <ele>00009</ele>
      <time>2009-09-14T17:32:54Z</time>
    </trkpt>
    <trkpt lat="32.0578833" lon="34.7639667">
      <ele>00009</ele>
      <time>2009-09-14T17:33:11Z</time>
    </trkpt>
    <trkpt lat="32.0582500" lon="34.7647167">
      <ele>00007</ele>
      <time>2009-09-14T17:33:30Z</time>
    </trkpt>
    <trkpt lat="32.0590000" lon="34.7661667">
      <ele>00010</ele>
      <time>2009-09-14T17:34:04Z</time>
    </trkpt>
    <trkpt lat="32.0594500" lon="34.7659833">
      <ele>00011</ele>
      <time>2009-09-14T17:34:25Z</time>
    </trkpt>
    <trkpt lat="32.0599333" lon="34.7654833">
      <ele>00010</ele>
      <time>2009-09-14T17:34:41Z</time>
    </trkpt>
    <trkpt lat="32.0606667" lon="34.7650667">
      <ele>00005</ele>
      <time>2009-09-14T17:35:00Z</time>
    </trkpt>
    <trkpt lat="32.0605167" lon="34.7645333">
      <ele>00003</ele>
      <time>2009-09-14T17:35:23Z</time>
    </trkpt>
    <trkpt lat="32.0604500" lon="34.7644000">
      <ele>00019</ele>
      <time>2009-09-14T17:36:12Z</time>
    </trkpt>
    <trkpt lat="32.0606167" lon="34.7643667">
      <ele>00030</ele>
      <time>2009-09-14T17:41:11Z</time>
    </trkpt>
    <trkpt lat="32.0610333" lon="34.7641500">
      <ele>00026</ele>
      <time>2009-09-14T17:41:44Z</time>
    </trkpt>
    <trkpt lat="32.0613500" lon="34.7639167">
      <ele>00024</ele>
      <time>2009-09-14T17:41:53Z</time>
    </trkpt>
    <trkpt lat="32.0619667" lon="34.7645500">
      <ele>00018</ele>
      <time>2009-09-14T17:42:14Z</time>
    </trkpt>
    <trkpt lat="32.0622000" lon="34.7648833">
      <ele>00016</ele>
      <time>2009-09-14T17:42:22Z</time>
    </trkpt>
    <trkpt lat="32.0626833" lon="34.7663500">
      <ele>00012</ele>
      <time>2009-09-14T17:42:53Z</time>
    </trkpt>
    <trkpt lat="32.0630000" lon="34.7674500">
      <ele>00010</ele>
      <time>2009-09-14T17:43:20Z</time>
    </trkpt>
    <trkpt lat="32.0631667" lon="34.7677167">
      <ele>00012</ele>
      <time>2009-09-14T17:43:31Z</time>
    </trkpt>
    <trkpt lat="32.0628500" lon="34.7680667">
      <ele>00018</ele>
      <time>2009-09-14T17:43:48Z</time>
    </trkpt>
    <trkpt lat="32.0629833" lon="34.7683500">
      <ele>00026</ele>
      <time>2009-09-14T17:43:58Z</time>
    </trkpt>
    <trkpt lat="32.0631167" lon="34.7684500">
      <ele>00026</ele>
      <time>2009-09-14T17:44:06Z</time>
    </trkpt>
    <trkpt lat="32.0628667" lon="34.7684833">
      <ele>00026</ele>
      <time>2009-09-14T17:44:17Z</time>
    </trkpt>
    <trkpt lat="32.0626167" lon="34.7685667">
      <ele>00026</ele>
      <time>2009-09-14T17:44:24Z</time>
    </trkpt>
    <trkpt lat="32.0621167" lon="34.7686333">
      <ele>00024</ele>
      <time>2009-09-14T17:44:36Z</time>
    </trkpt>
    <trkpt lat="32.0621667" lon="34.7696000">
      <ele>00031</ele>
      <time>2009-09-14T17:45:02Z</time>
    </trkpt>
    <trkpt lat="32.0622000" lon="34.7697667">
      <ele>00031</ele>
      <time>2009-09-14T17:45:16Z</time>
    </trkpt>
    <trkpt lat="32.0621000" lon="34.7699500">
      <ele>00052</ele>
      <time>2009-09-14T17:45:33Z</time>
    </trkpt>
    <trkpt lat="32.0620500" lon="34.7700833">
      <ele>00070</ele>
      <time>2009-09-14T17:46:10Z</time>
    </trkpt>
    <trkpt lat="32.0618500" lon="34.7702000">
      <ele>00070</ele>
      <time>2009-09-14T17:49:06Z</time>
    </trkpt>
    <trkpt lat="32.0618833" lon="34.7703667">
      <ele>00087</ele>
      <time>2009-09-14T17:54:59Z</time>
    </trkpt>
    <trkpt lat="32.0620500" lon="34.7704000">
      <ele>00062</ele>
      <time>2009-09-14T18:09:03Z</time>
    </trkpt>
    <trkpt lat="32.0622667" lon="34.7703833">
      <ele>00059</ele>
      <time>2009-09-14T18:09:19Z</time>
    </trkpt>
    <trkpt lat="32.0624833" lon="34.7705667">
      <ele>00076</ele>
      <time>2009-09-14T18:09:28Z</time>
    </trkpt>
    <trkpt lat="32.0626167" lon="34.7711167">
      <ele>00057</ele>
      <time>2009-09-14T18:09:43Z</time>
    </trkpt>
    <trkpt lat="32.0627500" lon="34.7714500">
      <ele>00041</ele>
      <time>2009-09-14T18:09:57Z</time>
    </trkpt>
    <trkpt lat="32.0628667" lon="34.7718000">
      <ele>00038</ele>
      <time>2009-09-14T18:10:12Z</time>
    </trkpt>
    <trkpt lat="32.0630667" lon="34.7723167">
      <ele>00037</ele>
      <time>2009-09-14T18:10:30Z</time>
    </trkpt>
    <trkpt lat="32.0632667" lon="34.7728000">
      <ele>00041</ele>
      <time>2009-09-14T18:10:48Z</time>
    </trkpt>
    <trkpt lat="32.0633667" lon="34.7729667">
      <ele>00041</ele>
      <time>2009-09-14T18:11:11Z</time>
    </trkpt>
    <trkpt lat="32.0637333" lon="34.7739333">
      <ele>00039</ele>
      <time>2009-09-14T18:12:03Z</time>
    </trkpt>
    <trkpt lat="32.0641333" lon="34.7750167">
      <ele>00039</ele>
      <time>2009-09-14T18:12:37Z</time>
    </trkpt>
    <trkpt lat="32.0643000" lon="34.7755333">
      <ele>00039</ele>
      <time>2009-09-14T18:13:22Z</time>
    </trkpt>
    <trkpt lat="32.0645333" lon="34.7758167">
      <ele>00039</ele>
      <time>2009-09-14T18:13:32Z</time>
    </trkpt>
    <trkpt lat="32.0651000" lon="34.7764000">
      <ele>00041</ele>
      <time>2009-09-14T18:13:52Z</time>
    </trkpt>
    <trkpt lat="32.0654000" lon="34.7766500">
      <ele>00048</ele>
      <time>2009-09-14T18:14:05Z</time>
    </trkpt>
    <trkpt lat="32.0656000" lon="34.7769167">
      <ele>00044</ele>
      <time>2009-09-14T18:14:20Z</time>
    </trkpt>
    <trkpt lat="32.0658500" lon="34.7771333">
      <ele>00037</ele>
      <time>2009-09-14T18:14:43Z</time>
    </trkpt>
    <trkpt lat="32.0668167" lon="34.7775167">
      <ele>00042</ele>
      <time>2009-09-14T18:15:12Z</time>
    </trkpt>
    <trkpt lat="32.0681500" lon="34.7779667">
      <ele>00043</ele>
      <time>2009-09-14T18:15:54Z</time>
    </trkpt>
    <trkpt lat="32.0685833" lon="34.7781000">
      <ele>00042</ele>
      <time>2009-09-14T18:16:04Z</time>
    </trkpt>
    <trkpt lat="32.0703500" lon="34.7786833">
      <ele>00044</ele>
      <time>2009-09-14T18:16:48Z</time>
    </trkpt>
    <trkpt lat="32.0712667" lon="34.7790667">
      <ele>00036</ele>
      <time>2009-09-14T18:17:09Z</time>
    </trkpt>
    <trkpt lat="32.0716667" lon="34.7791667">
      <ele>00033</ele>
      <time>2009-09-14T18:17:22Z</time>
    </trkpt>
    <trkpt lat="32.0717667" lon="34.7794167">
      <ele>00032</ele>
      <time>2009-09-14T18:17:31Z</time>
    </trkpt>
    <trkpt lat="32.0716333" lon="34.7797500">
      <ele>00030</ele>
      <time>2009-09-14T18:17:39Z</time>
    </trkpt>
    <trkpt lat="32.0722167" lon="34.7801500">
      <ele>00027</ele>
      <time>2009-09-14T18:17:57Z</time>
    </trkpt>
    <trkpt lat="32.0730500" lon="34.7803333">
      <ele>00031</ele>
      <time>2009-09-14T18:18:15Z</time>
    </trkpt>
    <trkpt lat="32.0735667" lon="34.7804333">
      <ele>00031</ele>
      <time>2009-09-14T18:18:30Z</time>
    </trkpt>
    <trkpt lat="32.0737333" lon="34.7799333">
      <ele>00025</ele>
      <time>2009-09-14T18:18:47Z</time>
    </trkpt>
    <trkpt lat="32.0738167" lon="34.7797167">
      <ele>00022</ele>
      <time>2009-09-14T18:18:59Z</time>
    </trkpt>
    <trkpt lat="32.0740667" lon="34.7798667">
      <ele>00023</ele>
      <time>2009-09-14T18:19:16Z</time>
    </trkpt>
    <trkpt lat="32.0762667" lon="34.7799833">
      <ele>00022</ele>
      <time>2009-09-14T18:19:53Z</time>
    </trkpt>
    <trkpt lat="32.0767833" lon="34.7800667">
      <ele>00022</ele>
      <time>2009-09-14T18:20:02Z</time>
    </trkpt>
    <trkpt lat="32.0781167" lon="34.7800500">
      <ele>00020</ele>
      <time>2009-09-14T18:20:25Z</time>
    </trkpt>
    <trkpt lat="32.0785000" lon="34.7802000">
      <ele>00019</ele>
      <time>2009-09-14T18:20:29Z</time>
    </trkpt>
    <trkpt lat="32.0793000" lon="34.7800833">
      <ele>00021</ele>
      <time>2009-09-14T18:20:46Z</time>
    </trkpt>
    <trkpt lat="32.0795000" lon="34.7802167">
      <ele>00019</ele>
      <time>2009-09-14T18:20:56Z</time>
    </trkpt>
    <trkpt lat="32.0798333" lon="34.7803833">
      <ele>00017</ele>
      <time>2009-09-14T18:21:04Z</time>
    </trkpt>
    <trkpt lat="32.0801500" lon="34.7804667">
      <ele>00015</ele>
      <time>2009-09-14T18:21:14Z</time>
    </trkpt>
    <trkpt lat="32.0803667" lon="34.7806500">
      <ele>00017</ele>
      <time>2009-09-14T18:21:22Z</time>
    </trkpt>
    <trkpt lat="32.0804833" lon="34.7810167">
      <ele>00016</ele>
      <time>2009-09-14T18:21:35Z</time>
    </trkpt>
    <trkpt lat="32.0818667" lon="34.7811333">
      <ele>00009</ele>
      <time>2009-09-14T18:22:19Z</time>
    </trkpt>
    <trkpt lat="32.0820667" lon="34.7811500">
      <ele>00024</ele>
      <time>2009-09-14T18:23:25Z</time>
    </trkpt>
    <trkpt lat="32.0824833" lon="34.7811000">
      <ele>00024</ele>
      <time>2009-09-14T18:23:37Z</time>
    </trkpt>
    <trkpt lat="32.0828833" lon="34.7810833">
      <ele>00023</ele>
      <time>2009-09-14T18:23:50Z</time>
    </trkpt>
    <trkpt lat="32.0831500" lon="34.7811167">
      <ele>00027</ele>
      <time>2009-09-14T18:24:00Z</time>
    </trkpt>
    <trkpt lat="32.0842500" lon="34.7814167">
      <ele>00028</ele>
      <time>2009-09-14T18:24:28Z</time>
    </trkpt>
    <trkpt lat="32.0851000" lon="34.7815833">
      <ele>00018</ele>
      <time>2009-09-14T18:24:50Z</time>
    </trkpt>
    <trkpt lat="32.0853000" lon="34.7815833">
      <ele>00021</ele>
      <time>2009-09-14T18:25:36Z</time>
    </trkpt>
    <trkpt lat="32.0879333" lon="34.7822333">
      <ele>00021</ele>
      <time>2009-09-14T18:26:36Z</time>
    </trkpt>
    <trkpt lat="32.0882167" lon="34.7822667">
      <ele>00015</ele>
      <time>2009-09-14T18:26:45Z</time>
    </trkpt>
    <trkpt lat="32.0887167" lon="34.7821333">
      <ele>00015</ele>
      <time>2009-09-14T18:26:53Z</time>
    </trkpt>
    <trkpt lat="32.0890667" lon="34.7821500">
      <ele>00015</ele>
      <time>2009-09-14T18:27:00Z</time>
    </trkpt>
    <trkpt lat="32.0893333" lon="34.7822000">
      <ele>00015</ele>
      <time>2009-09-14T18:27:06Z</time>
    </trkpt>
    <trkpt lat="32.0895167" lon="34.7821833">
      <ele>00015</ele>
      <time>2009-09-14T18:27:13Z</time>
    </trkpt>
    <trkpt lat="32.0897500" lon="34.7822667">
      <ele>00021</ele>
      <time>2009-09-14T18:27:25Z</time>
    </trkpt>
    <trkpt lat="32.0903167" lon="34.7824333">
      <ele>00017</ele>
      <time>2009-09-14T18:27:46Z</time>
    </trkpt>
    <trkpt lat="32.0909000" lon="34.7825667">
      <ele>00015</ele>
      <time>2009-09-14T18:28:04Z</time>
    </trkpt>
    <trkpt lat="32.0911667" lon="34.7825167">
      <ele>00015</ele>
      <time>2009-09-14T18:28:10Z</time>
    </trkpt>
    <trkpt lat="32.0914167" lon="34.7826167">
      <ele>00017</ele>
      <time>2009-09-14T18:28:18Z</time>
    </trkpt>
    <trkpt lat="32.0915333" lon="34.7827667">
      <ele>00014</ele>
      <time>2009-09-14T18:28:36Z</time>
    </trkpt>
    <trkpt lat="32.0918500" lon="34.7829167">
      <ele>00015</ele>
      <time>2009-09-14T18:29:11Z</time>
    </trkpt>
    <trkpt lat="32.0921500" lon="34.7829833">
      <ele>00015</ele>
      <time>2009-09-14T18:29:19Z</time>
    </trkpt>
    <trkpt lat="32.0925333" lon="34.7830167">
      <ele>00016</ele>
      <time>2009-09-14T18:29:30Z</time>
    </trkpt>
    <trkpt lat="32.0933500" lon="34.7831500">
      <ele>00016</ele>
      <time>2009-09-14T18:29:51Z</time>
    </trkpt>
    <trkpt lat="32.0935833" lon="34.7832667">
      <ele>00014</ele>
      <time>2009-09-14T18:30:01Z</time>
    </trkpt>
    <trkpt lat="32.0938000" lon="34.7833333">
      <ele>00007</ele>
      <time>2009-09-14T18:30:10Z</time>
    </trkpt>
    <trkpt lat="32.0942000" lon="34.7834500">
      <ele>00019</ele>
      <time>2009-09-14T18:30:30Z</time>
    </trkpt>
    <trkpt lat="32.0944333" lon="34.7835667">
      <ele>00026</ele>
      <time>2009-09-14T18:30:41Z</time>
    </trkpt>
    <trkpt lat="32.0945500" lon="34.7833000">
      <ele>00022</ele>
      <time>2009-09-14T18:30:52Z</time>
    </trkpt>
    <trkpt lat="32.0945500" lon="34.7827667">
      <ele>00022</ele>
      <time>2009-09-14T18:31:06Z</time>
    </trkpt>
    <trkpt lat="32.0944667" lon="34.7822500">
      <ele>00021</ele>
      <time>2009-09-14T18:31:19Z</time>
    </trkpt>
    <trkpt lat="32.0945667" lon="34.7820833">
      <ele>00020</ele>
      <time>2009-09-14T18:31:49Z</time>
    </trkpt>
    <trkpt lat="32.0947167" lon="34.7820000">
      <ele>00017</ele>
      <time>2009-09-14T18:32:16Z</time>
    </trkpt>
    <trkpt lat="32.0951500" lon="34.7819167">
      <ele>00017</ele>
      <time>2009-09-14T18:32:30Z</time>
    </trkpt>
    <trkpt lat="32.0952500" lon="34.7823667">
      <ele>00019</ele>
      <time>2009-09-14T18:32:41Z</time>
    </trkpt>
    <trkpt lat="32.0956000" lon="34.7826667">
      <ele>00020</ele>
      <time>2009-09-14T18:32:52Z</time>
    </trkpt>
    <trkpt lat="32.0956667" lon="34.7829833">
      <ele>00019</ele>
      <time>2009-09-14T18:32:59Z</time>
    </trkpt>
    <trkpt lat="32.0959000" lon="34.7832000">
      <ele>00018</ele>
      <time>2009-09-14T18:33:07Z</time>
    </trkpt>
    <trkpt lat="32.0975833" lon="34.7831000">
      <ele>00012</ele>
      <time>2009-09-14T18:33:41Z</time>
    </trkpt>
    <trkpt lat="32.0980833" lon="34.7832000">
      <ele>00011</ele>
      <time>2009-09-14T18:33:51Z</time>
    </trkpt>
    <trkpt lat="32.0984000" lon="34.7832833">
      <ele>00011</ele>
      <time>2009-09-14T18:33:58Z</time>
    </trkpt>
    <trkpt lat="32.0985000" lon="34.7831333">
      <ele>00007</ele>
      <time>2009-09-14T18:35:03Z</time>
    </trkpt>
    <trkpt lat="32.0987333" lon="34.7830667">
      <ele>00007</ele>
      <time>2009-09-14T18:35:13Z</time>
    </trkpt>
    <trkpt lat="32.0987333" lon="34.7827500">
      <ele>00005</ele>
      <time>2009-09-14T18:35:22Z</time>
    </trkpt>
    <trkpt lat="32.0990833" lon="34.7827667">
      <ele>00005</ele>
      <time>2009-09-14T18:35:32Z</time>
    </trkpt>
    <trkpt lat="32.1012000" lon="34.7815833">
      <ele>00006</ele>
      <time>2009-09-14T18:36:22Z</time>
    </trkpt>
    <trkpt lat="32.1015167" lon="34.7815167">
      <ele>00005</ele>
      <time>2009-09-14T18:36:30Z</time>
    </trkpt>
    <trkpt lat="32.1017500" lon="34.7812500">
      <ele>00006</ele>
      <time>2009-09-14T18:36:44Z</time>
    </trkpt>
    <trkpt lat="32.1016833" lon="34.7809500">
      <ele>00005</ele>
      <time>2009-09-14T18:36:52Z</time>
    </trkpt>
    <trkpt lat="32.1014000" lon="34.7807500">
      <ele>00004</ele>
      <time>2009-09-14T18:36:59Z</time>
    </trkpt>
    <trkpt lat="32.1000000" lon="34.7812833">
      <ele>00006</ele>
      <time>2009-09-14T18:37:30Z</time>
    </trkpt>
    <trkpt lat="32.0999667" lon="34.7811833">
      <ele>00004</ele>
      <time>2009-09-14T18:38:45Z</time>
    </trkpt>
  </trkseg>
</trk>
</gpx>
