<?xml version="1.0" encoding="UTF-8" standalone="no" ?>
<gpx xmlns="http://www.topografix.com/GPX/1/1" creator="CompeGPS" version="1.1" xmlns:xsi="http://www.w3.org/2001/XMLSchema-instance" xsi:schemaLocation="http://www.topografix.com/GPX/1/1 http://www.topografix.com/GPX/1/1/gpx.xsd http://www.garmin.com/xmlschemas/GpxExtensions/v3 http://www.garmin.com/xmlschemas/GpxExtensionsv3.xsd http://www.garmin.com/xmlschemas/TrackPointExtension/v1 http://www.garmin.com/xmlschemas/TrackPointExtensionv1.xsd" xmlns:gpxtpx="http://www.garmin.com/xmlschemas/TrackPointExtension/v1">
  <metadata>
    <author>
      <email id="" domain=""/>
    </author>
    <copyright author="">
      <license></license>
    </copyright>
    <link href="http://www.compegps.com">
      <text>CompeGPS TEAM, SL</text>
    </link>
    <time>2022-04-20T07:54:52Z</time>
    <bounds maxlat="33.004334" maxlon="35.302655" minlat="32.978755" minlon="35.139788"/>
  </metadata>
  <trk>
    <name>Easy Yechiam3</name>
    <trkseg>
      <trkpt lat="33.000823" lon="35.143701">
        <ele>26.7</ele>
        <time>2022-04-20T06:46:40Z</time>
      </trkpt>
      <trkpt lat="32.999966" lon="35.143352">
        <ele>31.3</ele>
        <time>2022-04-20T06:46:50Z</time>
      </trkpt>
      <trkpt lat="32.997797" lon="35.140321">
        <ele>35.1</ele>
        <time>2022-04-20T06:47:27Z</time>
      </trkpt>
      <trkpt lat="32.997109" lon="35.140476">
        <ele>37.2</ele>
        <time>2022-04-20T06:47:35Z</time>
      </trkpt>
      <trkpt lat="32.994975" lon="35.139788">
        <ele>34.3</ele>
        <time>2022-04-20T06:48:00Z</time>
      </trkpt>
      <trkpt lat="32.992784" lon="35.140755">
        <ele>34.1</ele>
        <time>2022-04-20T06:48:26Z</time>
      </trkpt>
      <trkpt lat="32.992750" lon="35.142590">
        <ele>40.3</ele>
        <time>2022-04-20T06:48:43Z</time>
      </trkpt>
      <trkpt lat="32.993076" lon="35.143195">
        <ele>40.6</ele>
        <time>2022-04-20T06:48:49Z</time>
      </trkpt>
      <trkpt lat="32.992886" lon="35.143390">
        <ele>40.6</ele>
        <time>2022-04-20T06:48:52Z</time>
      </trkpt>
      <trkpt lat="32.990939" lon="35.144303">
        <ele>43.0</ele>
        <time>2022-04-20T06:49:15Z</time>
      </trkpt>
      <trkpt lat="32.989593" lon="35.144920">
        <ele>36.0</ele>
        <time>2022-04-20T06:49:32Z</time>
      </trkpt>
      <trkpt lat="32.988567" lon="35.144943">
        <ele>35.7</ele>
        <time>2022-04-20T06:49:43Z</time>
      </trkpt>
      <trkpt lat="32.988787" lon="35.146116">
        <ele>34.7</ele>
        <time>2022-04-20T06:49:54Z</time>
      </trkpt>
      <trkpt lat="32.988792" lon="35.146990">
        <ele>37.8</ele>
        <time>2022-04-20T06:50:02Z</time>
      </trkpt>
      <trkpt lat="32.988544" lon="35.148731">
        <ele>43.0</ele>
        <time>2022-04-20T06:50:19Z</time>
      </trkpt>
      <trkpt lat="32.987790" lon="35.150716">
        <ele>39.2</ele>
        <time>2022-04-20T06:50:39Z</time>
      </trkpt>
      <trkpt lat="32.987710" lon="35.151450">
        <ele>41.4</ele>
        <time>2022-04-20T06:50:46Z</time>
      </trkpt>
      <trkpt lat="32.987868" lon="35.152835">
        <ele>49.2</ele>
        <time>2022-04-20T06:50:59Z</time>
      </trkpt>
      <trkpt lat="32.987464" lon="35.155637">
        <ele>51.6</ele>
        <time>2022-04-20T06:51:26Z</time>
      </trkpt>
      <trkpt lat="32.987065" lon="35.159454">
        <ele>55.2</ele>
        <time>2022-04-20T06:52:01Z</time>
      </trkpt>
      <trkpt lat="32.986121" lon="35.163781">
        <ele>61.7</ele>
        <time>2022-04-20T06:52:43Z</time>
      </trkpt>
      <trkpt lat="32.985848" lon="35.167133">
        <ele>67.1</ele>
        <time>2022-04-20T06:53:15Z</time>
      </trkpt>
      <trkpt lat="32.984993" lon="35.168749">
        <ele>65.4</ele>
        <time>2022-04-20T06:53:32Z</time>
      </trkpt>
      <trkpt lat="32.985068" lon="35.173591">
        <ele>81.0</ele>
        <time>2022-04-20T06:54:18Z</time>
      </trkpt>
      <trkpt lat="32.983754" lon="35.175526">
        <ele>79.8</ele>
        <time>2022-04-20T06:54:41Z</time>
      </trkpt>
      <trkpt lat="32.981774" lon="35.176894">
        <ele>78.2</ele>
        <time>2022-04-20T06:55:06Z</time>
      </trkpt>
      <trkpt lat="32.979606" lon="35.179336">
        <ele>85.0</ele>
        <time>2022-04-20T06:55:39Z</time>
      </trkpt>
      <trkpt lat="32.980459" lon="35.182523">
        <ele>99.3</ele>
        <time>2022-04-20T06:56:11Z</time>
      </trkpt>
      <trkpt lat="32.981703" lon="35.182626">
        <ele>98.6</ele>
        <time>2022-04-20T06:56:24Z</time>
      </trkpt>
      <trkpt lat="32.982745" lon="35.184767">
        <ele>104.3</ele>
        <time>2022-04-20T06:56:47Z</time>
      </trkpt>
      <trkpt lat="32.984969" lon="35.188904">
        <ele>122.6</ele>
        <time>2022-04-20T06:57:33Z</time>
      </trkpt>
      <trkpt lat="32.985734" lon="35.192145">
        <ele>136.6</ele>
        <time>2022-04-20T06:58:05Z</time>
      </trkpt>
      <trkpt lat="32.985827" lon="35.194036">
        <ele>150.6</ele>
        <time>2022-04-20T06:58:22Z</time>
      </trkpt>
      <trkpt lat="32.985580" lon="35.194731">
        <ele>158.9</ele>
        <time>2022-04-20T06:58:29Z</time>
      </trkpt>
      <trkpt lat="32.985778" lon="35.196021">
        <ele>175.8</ele>
        <time>2022-04-20T06:58:42Z</time>
      </trkpt>
      <trkpt lat="32.987100" lon="35.197736">
        <ele>182.0</ele>
        <time>2022-04-20T06:59:03Z</time>
      </trkpt>
      <trkpt lat="32.986444" lon="35.197368">
        <ele>179.4</ele>
        <time>2022-04-20T06:59:11Z</time>
      </trkpt>
      <trkpt lat="32.986330" lon="35.198028">
        <ele>180.3</ele>
        <time>2022-04-20T06:59:18Z</time>
      </trkpt>
      <trkpt lat="32.986069" lon="35.197889">
        <ele>177.6</ele>
        <time>2022-04-20T06:59:21Z</time>
      </trkpt>
      <trkpt lat="32.984898" lon="35.198045">
        <ele>172.2</ele>
        <time>2022-04-20T06:59:34Z</time>
      </trkpt>
      <trkpt lat="32.984587" lon="35.198657">
        <ele>174.4</ele>
        <time>2022-04-20T06:59:41Z</time>
      </trkpt>
      <trkpt lat="32.985190" lon="35.199057">
        <ele>182.6</ele>
        <time>2022-04-20T06:59:48Z</time>
      </trkpt>
      <trkpt lat="32.985296" lon="35.200390">
        <ele>200.0</ele>
        <time>2022-04-20T07:00:01Z</time>
      </trkpt>
      <trkpt lat="32.985130" lon="35.201482">
        <ele>214.0</ele>
        <time>2022-04-20T07:00:11Z</time>
      </trkpt>
      <trkpt lat="32.985572" lon="35.201291">
        <ele>220.1</ele>
        <time>2022-04-20T07:00:16Z</time>
      </trkpt>
      <trkpt lat="32.985933" lon="35.201047">
        <ele>224.1</ele>
        <time>2022-04-20T07:00:21Z</time>
      </trkpt>
      <trkpt lat="32.986187" lon="35.201890">
        <ele>241.3</ele>
        <time>2022-04-20T07:00:29Z</time>
      </trkpt>
      <trkpt lat="32.985477" lon="35.203318">
        <ele>253.0</ele>
        <time>2022-04-20T07:00:45Z</time>
      </trkpt>
      <trkpt lat="32.985730" lon="35.204001">
        <ele>267.8</ele>
        <time>2022-04-20T07:00:52Z</time>
      </trkpt>
      <trkpt lat="32.985667" lon="35.205667">
        <ele>286.6</ele>
        <time>2022-04-20T07:01:07Z</time>
      </trkpt>
      <trkpt lat="32.984728" lon="35.209576">
        <ele>316.5</ele>
        <time>2022-04-20T07:01:45Z</time>
      </trkpt>
      <trkpt lat="32.985106" lon="35.210332">
        <ele>322.4</ele>
        <time>2022-04-20T07:01:54Z</time>
      </trkpt>
      <trkpt lat="32.985875" lon="35.210679">
        <ele>324.9</ele>
        <time>2022-04-20T07:02:03Z</time>
      </trkpt>
      <trkpt lat="32.985847" lon="35.212110">
        <ele>333.7</ele>
        <time>2022-04-20T07:02:16Z</time>
      </trkpt>
      <trkpt lat="32.985914" lon="35.214252">
        <ele>344.0</ele>
        <time>2022-04-20T07:02:36Z</time>
      </trkpt>
      <trkpt lat="32.985224" lon="35.216924">
        <ele>358.9</ele>
        <time>2022-04-20T07:03:02Z</time>
      </trkpt>
      <trkpt lat="32.984851" lon="35.220019">
        <ele>386.2</ele>
        <time>2022-04-20T07:03:31Z</time>
      </trkpt>
      <trkpt lat="32.984892" lon="35.222289">
        <ele>401.1</ele>
        <time>2022-04-20T07:03:52Z</time>
      </trkpt>
      <trkpt lat="32.985063" lon="35.222952">
        <ele>404.5</ele>
        <time>2022-04-20T07:03:59Z</time>
      </trkpt>
      <trkpt lat="32.985012" lon="35.224936">
        <ele>418.3</ele>
        <time>2022-04-20T07:04:17Z</time>
      </trkpt>
      <trkpt lat="32.985063" lon="35.226132">
        <ele>418.2</ele>
        <time>2022-04-20T07:04:29Z</time>
      </trkpt>
      <trkpt lat="32.985128" lon="35.229146">
        <ele>432.1</ele>
        <time>2022-04-20T07:04:57Z</time>
      </trkpt>
      <trkpt lat="32.984836" lon="35.230144">
        <ele>444.6</ele>
        <time>2022-04-20T07:05:07Z</time>
      </trkpt>
      <trkpt lat="32.985154" lon="35.231262">
        <ele>442.9</ele>
        <time>2022-04-20T07:05:18Z</time>
      </trkpt>
      <trkpt lat="32.985100" lon="35.235012">
        <ele>471.5</ele>
        <time>2022-04-20T07:05:53Z</time>
      </trkpt>
      <trkpt lat="32.984307" lon="35.235016">
        <ele>488.0</ele>
        <time>2022-04-20T07:06:01Z</time>
      </trkpt>
      <trkpt lat="32.984069" lon="35.236109">
        <ele>490.6</ele>
        <time>2022-04-20T07:06:12Z</time>
      </trkpt>
      <trkpt lat="32.983518" lon="35.237216">
        <ele>499.9</ele>
        <time>2022-04-20T07:06:24Z</time>
      </trkpt>
      <trkpt lat="32.983220" lon="35.237565">
        <ele>505.2</ele>
        <time>2022-04-20T07:06:29Z</time>
      </trkpt>
      <trkpt lat="32.982866" lon="35.237574">
        <ele>507.6</ele>
        <time>2022-04-20T07:06:32Z</time>
      </trkpt>
      <trkpt lat="32.982545" lon="35.239567">
        <ele>522.8</ele>
        <time>2022-04-20T07:06:51Z</time>
      </trkpt>
      <trkpt lat="32.982787" lon="35.242534">
        <ele>539.2</ele>
        <time>2022-04-20T07:07:19Z</time>
      </trkpt>
      <trkpt lat="32.982573" lon="35.245580">
        <ele>554.3</ele>
        <time>2022-04-20T07:07:48Z</time>
      </trkpt>
      <trkpt lat="32.982595" lon="35.247021">
        <ele>567.5</ele>
        <time>2022-04-20T07:08:01Z</time>
      </trkpt>
      <trkpt lat="32.982966" lon="35.248056">
        <ele>578.5</ele>
        <time>2022-04-20T07:08:12Z</time>
      </trkpt>
      <trkpt lat="32.982734" lon="35.249750">
        <ele>590.9</ele>
        <time>2022-04-20T07:08:28Z</time>
      </trkpt>
      <trkpt lat="32.982831" lon="35.250999">
        <ele>600.8</ele>
        <time>2022-04-20T07:08:39Z</time>
      </trkpt>
      <trkpt lat="32.982106" lon="35.252305">
        <ele>603.0</ele>
        <time>2022-04-20T07:08:54Z</time>
      </trkpt>
      <trkpt lat="32.982598" lon="35.252502">
        <ele>608.6</ele>
        <time>2022-04-20T07:09:00Z</time>
      </trkpt>
      <trkpt lat="32.982525" lon="35.253312">
        <ele>613.0</ele>
        <time>2022-04-20T07:09:07Z</time>
      </trkpt>
      <trkpt lat="32.982077" lon="35.254195">
        <ele>613.1</ele>
        <time>2022-04-20T07:09:17Z</time>
      </trkpt>
      <trkpt lat="32.981575" lon="35.256834">
        <ele>607.3</ele>
        <time>2022-04-20T07:09:42Z</time>
      </trkpt>
      <trkpt lat="32.981565" lon="35.258108">
        <ele>611.6</ele>
        <time>2022-04-20T07:09:54Z</time>
      </trkpt>
      <trkpt lat="32.981806" lon="35.259529">
        <ele>617.2</ele>
        <time>2022-04-20T07:10:08Z</time>
      </trkpt>
      <trkpt lat="32.983176" lon="35.263139">
        <ele>613.1</ele>
        <time>2022-04-20T07:10:45Z</time>
      </trkpt>
      <trkpt lat="32.983523" lon="35.266284">
        <ele>613.3</ele>
        <time>2022-04-20T07:11:14Z</time>
      </trkpt>
      <trkpt lat="32.983209" lon="35.267215">
        <ele>617.4</ele>
        <time>2022-04-20T07:11:24Z</time>
      </trkpt>
      <trkpt lat="32.983837" lon="35.268998">
        <ele>623.2</ele>
        <time>2022-04-20T07:11:42Z</time>
      </trkpt>
      <trkpt lat="32.983806" lon="35.271638">
        <ele>632.0</ele>
        <time>2022-04-20T07:12:06Z</time>
      </trkpt>
      <trkpt lat="32.984182" lon="35.271966">
        <ele>631.3</ele>
        <time>2022-04-20T07:12:11Z</time>
      </trkpt>
      <trkpt lat="32.983751" lon="35.273402">
        <ele>636.0</ele>
        <time>2022-04-20T07:12:26Z</time>
      </trkpt>
      <trkpt lat="32.983822" lon="35.276341">
        <ele>635.7</ele>
        <time>2022-04-20T07:12:53Z</time>
      </trkpt>
      <trkpt lat="32.983536" lon="35.278663">
        <ele>641.0</ele>
        <time>2022-04-20T07:13:15Z</time>
      </trkpt>
      <trkpt lat="32.984957" lon="35.282015">
        <ele>630.3</ele>
        <time>2022-04-20T07:13:50Z</time>
      </trkpt>
      <trkpt lat="32.984165" lon="35.281471">
        <ele>627.6</ele>
        <time>2022-04-20T07:14:00Z</time>
      </trkpt>
      <trkpt lat="32.982891" lon="35.280805">
        <ele>627.0</ele>
        <time>2022-04-20T07:14:16Z</time>
      </trkpt>
      <trkpt lat="32.982642" lon="35.282543">
        <ele>606.4</ele>
        <time>2022-04-20T07:14:32Z</time>
      </trkpt>
      <trkpt lat="32.982713" lon="35.284086">
        <ele>587.1</ele>
        <time>2022-04-20T07:14:46Z</time>
      </trkpt>
      <trkpt lat="32.982864" lon="35.284993">
        <ele>576.3</ele>
        <time>2022-04-20T07:14:55Z</time>
      </trkpt>
      <trkpt lat="32.982413" lon="35.286873">
        <ele>571.3</ele>
        <time>2022-04-20T07:15:13Z</time>
      </trkpt>
      <trkpt lat="32.982499" lon="35.287628">
        <ele>570.5</ele>
        <time>2022-04-20T07:15:20Z</time>
      </trkpt>
      <trkpt lat="32.982359" lon="35.288247">
        <ele>571.9</ele>
        <time>2022-04-20T07:15:26Z</time>
      </trkpt>
      <trkpt lat="32.982472" lon="35.289650">
        <ele>562.5</ele>
        <time>2022-04-20T07:15:40Z</time>
      </trkpt>
      <trkpt lat="32.982195" lon="35.290511">
        <ele>558.0</ele>
        <time>2022-04-20T07:15:48Z</time>
      </trkpt>
      <trkpt lat="32.982562" lon="35.290866">
        <ele>549.4</ele>
        <time>2022-04-20T07:15:53Z</time>
      </trkpt>
      <trkpt lat="32.981966" lon="35.291721">
        <ele>547.9</ele>
        <time>2022-04-20T07:16:04Z</time>
      </trkpt>
      <trkpt lat="32.981616" lon="35.293517">
        <ele>529.9</ele>
        <time>2022-04-20T07:16:21Z</time>
      </trkpt>
      <trkpt lat="32.980626" lon="35.295554">
        <ele>526.4</ele>
        <time>2022-04-20T07:16:43Z</time>
      </trkpt>
      <trkpt lat="32.980574" lon="35.296077">
        <ele>525.7</ele>
        <time>2022-04-20T07:16:48Z</time>
      </trkpt>
      <trkpt lat="32.979775" lon="35.298376">
        <ele>529.3</ele>
        <time>2022-04-20T07:17:11Z</time>
      </trkpt>
      <trkpt lat="32.979422" lon="35.298770">
        <ele>532.2</ele>
        <time>2022-04-20T07:17:16Z</time>
      </trkpt>
      <trkpt lat="32.978945" lon="35.300740">
        <ele>530.5</ele>
        <time>2022-04-20T07:17:36Z</time>
      </trkpt>
      <trkpt lat="32.978964" lon="35.301169">
        <ele>530.8</ele>
        <time>2022-04-20T07:17:40Z</time>
      </trkpt>
      <trkpt lat="32.978755" lon="35.302115">
        <ele>535.2</ele>
        <time>2022-04-20T07:17:49Z</time>
      </trkpt>
      <trkpt lat="32.979429" lon="35.302655">
        <ele>544.0</ele>
        <time>2022-04-20T07:17:58Z</time>
      </trkpt>
      <trkpt lat="32.979877" lon="35.301597">
        <ele>536.9</ele>
        <time>2022-04-20T07:18:09Z</time>
      </trkpt>
      <trkpt lat="32.980254" lon="35.301285">
        <ele>537.3</ele>
        <time>2022-04-20T07:18:14Z</time>
      </trkpt>
      <trkpt lat="32.980646" lon="35.300694">
        <ele>532.6</ele>
        <time>2022-04-20T07:18:21Z</time>
      </trkpt>
      <trkpt lat="32.981413" lon="35.299996">
        <ele>529.6</ele>
        <time>2022-04-20T07:18:32Z</time>
      </trkpt>
      <trkpt lat="32.983011" lon="35.298562">
        <ele>518.8</ele>
        <time>2022-04-20T07:18:54Z</time>
      </trkpt>
      <trkpt lat="32.982967" lon="35.298080">
        <ele>518.6</ele>
        <time>2022-04-20T07:18:58Z</time>
      </trkpt>
      <trkpt lat="32.983589" lon="35.298413">
        <ele>515.3</ele>
        <time>2022-04-20T07:19:06Z</time>
      </trkpt>
      <trkpt lat="32.984395" lon="35.297766">
        <ele>503.9</ele>
        <time>2022-04-20T07:19:17Z</time>
      </trkpt>
      <trkpt lat="32.984797" lon="35.297056">
        <ele>498.2</ele>
        <time>2022-04-20T07:19:25Z</time>
      </trkpt>
      <trkpt lat="32.985789" lon="35.296208">
        <ele>498.8</ele>
        <time>2022-04-20T07:19:38Z</time>
      </trkpt>
      <trkpt lat="32.986467" lon="35.294377">
        <ele>501.1</ele>
        <time>2022-04-20T07:19:57Z</time>
      </trkpt>
      <trkpt lat="32.986599" lon="35.293344">
        <ele>507.0</ele>
        <time>2022-04-20T07:20:07Z</time>
      </trkpt>
      <trkpt lat="32.987439" lon="35.291446">
        <ele>508.6</ele>
        <time>2022-04-20T07:20:27Z</time>
      </trkpt>
      <trkpt lat="32.988320" lon="35.290211">
        <ele>515.8</ele>
        <time>2022-04-20T07:20:42Z</time>
      </trkpt>
      <trkpt lat="32.988541" lon="35.289298">
        <ele>519.0</ele>
        <time>2022-04-20T07:20:51Z</time>
      </trkpt>
      <trkpt lat="32.989076" lon="35.288447">
        <ele>525.3</ele>
        <time>2022-04-20T07:21:01Z</time>
      </trkpt>
      <trkpt lat="32.989171" lon="35.287043">
        <ele>534.1</ele>
        <time>2022-04-20T07:21:14Z</time>
      </trkpt>
      <trkpt lat="32.989537" lon="35.285522">
        <ele>537.7</ele>
        <time>2022-04-20T07:21:29Z</time>
      </trkpt>
      <trkpt lat="32.990059" lon="35.284655">
        <ele>542.5</ele>
        <time>2022-04-20T07:21:39Z</time>
      </trkpt>
      <trkpt lat="32.988883" lon="35.283406">
        <ele>563.9</ele>
        <time>2022-04-20T07:21:56Z</time>
      </trkpt>
      <trkpt lat="32.988935" lon="35.283061">
        <ele>567.4</ele>
        <time>2022-04-20T07:21:59Z</time>
      </trkpt>
      <trkpt lat="32.988512" lon="35.282426">
        <ele>579.7</ele>
        <time>2022-04-20T07:22:07Z</time>
      </trkpt>
      <trkpt lat="32.988431" lon="35.281379">
        <ele>592.0</ele>
        <time>2022-04-20T07:22:17Z</time>
      </trkpt>
      <trkpt lat="32.989010" lon="35.280877">
        <ele>595.8</ele>
        <time>2022-04-20T07:22:25Z</time>
      </trkpt>
      <trkpt lat="32.989019" lon="35.279124">
        <ele>619.1</ele>
        <time>2022-04-20T07:22:41Z</time>
      </trkpt>
      <trkpt lat="32.988805" lon="35.274975">
        <ele>650.5</ele>
        <time>2022-04-20T07:23:20Z</time>
      </trkpt>
      <trkpt lat="32.989111" lon="35.273022">
        <ele>642.8</ele>
        <time>2022-04-20T07:23:38Z</time>
      </trkpt>
      <trkpt lat="32.988565" lon="35.272131">
        <ele>639.6</ele>
        <time>2022-04-20T07:23:49Z</time>
      </trkpt>
      <trkpt lat="32.988578" lon="35.268517">
        <ele>620.4</ele>
        <time>2022-04-20T07:24:22Z</time>
      </trkpt>
      <trkpt lat="32.988335" lon="35.267176">
        <ele>617.5</ele>
        <time>2022-04-20T07:24:35Z</time>
      </trkpt>
      <trkpt lat="32.988442" lon="35.266611">
        <ele>612.0</ele>
        <time>2022-04-20T07:24:40Z</time>
      </trkpt>
      <trkpt lat="32.988353" lon="35.266283">
        <ele>609.6</ele>
        <time>2022-04-20T07:24:44Z</time>
      </trkpt>
      <trkpt lat="32.987796" lon="35.263159">
        <ele>589.5</ele>
        <time>2022-04-20T07:25:13Z</time>
      </trkpt>
      <trkpt lat="32.987269" lon="35.262238">
        <ele>591.7</ele>
        <time>2022-04-20T07:25:24Z</time>
      </trkpt>
      <trkpt lat="32.987693" lon="35.262290">
        <ele>585.3</ele>
        <time>2022-04-20T07:25:29Z</time>
      </trkpt>
      <trkpt lat="32.988178" lon="35.262697">
        <ele>579.9</ele>
        <time>2022-04-20T07:25:35Z</time>
      </trkpt>
      <trkpt lat="32.988392" lon="35.261979">
        <ele>566.3</ele>
        <time>2022-04-20T07:25:42Z</time>
      </trkpt>
      <trkpt lat="32.988940" lon="35.259911">
        <ele>538.0</ele>
        <time>2022-04-20T07:26:03Z</time>
      </trkpt>
      <trkpt lat="32.989525" lon="35.257622">
        <ele>537.2</ele>
        <time>2022-04-20T07:26:25Z</time>
      </trkpt>
      <trkpt lat="32.990577" lon="35.257954">
        <ele>541.3</ele>
        <time>2022-04-20T07:26:37Z</time>
      </trkpt>
      <trkpt lat="32.992777" lon="35.258191">
        <ele>551.0</ele>
        <time>2022-04-20T07:27:02Z</time>
      </trkpt>
      <trkpt lat="32.992731" lon="35.256848">
        <ele>542.0</ele>
        <time>2022-04-20T07:27:14Z</time>
      </trkpt>
      <trkpt lat="32.992844" lon="35.256267">
        <ele>536.9</ele>
        <time>2022-04-20T07:27:20Z</time>
      </trkpt>
      <trkpt lat="32.993150" lon="35.255768">
        <ele>531.6</ele>
        <time>2022-04-20T07:27:25Z</time>
      </trkpt>
      <trkpt lat="32.993451" lon="35.255587">
        <ele>529.1</ele>
        <time>2022-04-20T07:27:29Z</time>
      </trkpt>
      <trkpt lat="32.993321" lon="35.254040">
        <ele>527.2</ele>
        <time>2022-04-20T07:27:44Z</time>
      </trkpt>
      <trkpt lat="32.993413" lon="35.253233">
        <ele>523.0</ele>
        <time>2022-04-20T07:27:51Z</time>
      </trkpt>
      <trkpt lat="32.993437" lon="35.251798">
        <ele>517.5</ele>
        <time>2022-04-20T07:28:05Z</time>
      </trkpt>
      <trkpt lat="32.993016" lon="35.251406">
        <ele>519.6</ele>
        <time>2022-04-20T07:28:11Z</time>
      </trkpt>
      <trkpt lat="32.992880" lon="35.250752">
        <ele>514.0</ele>
        <time>2022-04-20T07:28:17Z</time>
      </trkpt>
      <trkpt lat="32.992975" lon="35.250324">
        <ele>510.0</ele>
        <time>2022-04-20T07:28:21Z</time>
      </trkpt>
      <trkpt lat="32.993349" lon="35.250444">
        <ele>512.7</ele>
        <time>2022-04-20T07:28:25Z</time>
      </trkpt>
      <trkpt lat="32.993683" lon="35.251027">
        <ele>512.0</ele>
        <time>2022-04-20T07:28:32Z</time>
      </trkpt>
      <trkpt lat="32.993941" lon="35.253428">
        <ele>512.6</ele>
        <time>2022-04-20T07:28:54Z</time>
      </trkpt>
      <trkpt lat="32.994131" lon="35.254466">
        <ele>517.2</ele>
        <time>2022-04-20T07:29:04Z</time>
      </trkpt>
      <trkpt lat="32.995067" lon="35.255391">
        <ele>507.6</ele>
        <time>2022-04-20T07:29:18Z</time>
      </trkpt>
      <trkpt lat="32.995180" lon="35.256392">
        <ele>506.0</ele>
        <time>2022-04-20T07:29:27Z</time>
      </trkpt>
      <trkpt lat="32.994912" lon="35.256778">
        <ele>512.7</ele>
        <time>2022-04-20T07:29:32Z</time>
      </trkpt>
      <trkpt lat="32.995201" lon="35.259027">
        <ele>499.4</ele>
        <time>2022-04-20T07:29:53Z</time>
      </trkpt>
      <trkpt lat="32.996076" lon="35.260391">
        <ele>480.5</ele>
        <time>2022-04-20T07:30:09Z</time>
      </trkpt>
      <trkpt lat="32.996398" lon="35.259520">
        <ele>474.1</ele>
        <time>2022-04-20T07:30:18Z</time>
      </trkpt>
      <trkpt lat="32.996781" lon="35.260701">
        <ele>471.3</ele>
        <time>2022-04-20T07:30:30Z</time>
      </trkpt>
      <trkpt lat="32.997794" lon="35.261026">
        <ele>467.8</ele>
        <time>2022-04-20T07:30:42Z</time>
      </trkpt>
      <trkpt lat="32.998307" lon="35.260903">
        <ele>470.4</ele>
        <time>2022-04-20T07:30:47Z</time>
      </trkpt>
      <trkpt lat="32.998492" lon="35.259724">
        <ele>468.8</ele>
        <time>2022-04-20T07:30:59Z</time>
      </trkpt>
      <trkpt lat="32.998570" lon="35.258788">
        <ele>466.6</ele>
        <time>2022-04-20T07:31:07Z</time>
      </trkpt>
      <trkpt lat="32.999407" lon="35.256890">
        <ele>466.2</ele>
        <time>2022-04-20T07:31:27Z</time>
      </trkpt>
      <trkpt lat="32.999877" lon="35.256298">
        <ele>461.7</ele>
        <time>2022-04-20T07:31:35Z</time>
      </trkpt>
      <trkpt lat="33.000370" lon="35.256039">
        <ele>459.7</ele>
        <time>2022-04-20T07:31:41Z</time>
      </trkpt>
      <trkpt lat="33.001637" lon="35.256142">
        <ele>479.2</ele>
        <time>2022-04-20T07:31:55Z</time>
      </trkpt>
      <trkpt lat="33.001938" lon="35.256219">
        <ele>483.4</ele>
        <time>2022-04-20T07:31:58Z</time>
      </trkpt>
      <trkpt lat="33.001962" lon="35.255847">
        <ele>477.1</ele>
        <time>2022-04-20T07:32:02Z</time>
      </trkpt>
      <trkpt lat="33.002572" lon="35.255180">
        <ele>469.2</ele>
        <time>2022-04-20T07:32:11Z</time>
      </trkpt>
      <trkpt lat="33.002314" lon="35.254470">
        <ele>468.8</ele>
        <time>2022-04-20T07:32:18Z</time>
      </trkpt>
      <trkpt lat="33.001962" lon="35.253546">
        <ele>474.4</ele>
        <time>2022-04-20T07:32:28Z</time>
      </trkpt>
      <trkpt lat="33.001859" lon="35.252493">
        <ele>481.8</ele>
        <time>2022-04-20T07:32:38Z</time>
      </trkpt>
      <trkpt lat="33.001991" lon="35.251429">
        <ele>481.0</ele>
        <time>2022-04-20T07:32:48Z</time>
      </trkpt>
      <trkpt lat="33.002362" lon="35.250102">
        <ele>480.0</ele>
        <time>2022-04-20T07:33:01Z</time>
      </trkpt>
      <trkpt lat="33.002963" lon="35.249256">
        <ele>488.1</ele>
        <time>2022-04-20T07:33:11Z</time>
      </trkpt>
      <trkpt lat="33.004107" lon="35.248198">
        <ele>478.8</ele>
        <time>2022-04-20T07:33:27Z</time>
      </trkpt>
      <trkpt lat="33.004334" lon="35.246792">
        <ele>472.3</ele>
        <time>2022-04-20T07:33:41Z</time>
      </trkpt>
      <trkpt lat="33.003584" lon="35.246159">
        <ele>471.1</ele>
        <time>2022-04-20T07:33:51Z</time>
      </trkpt>
      <trkpt lat="33.003555" lon="35.245859">
        <ele>469.1</ele>
        <time>2022-04-20T07:33:54Z</time>
      </trkpt>
      <trkpt lat="33.003469" lon="35.245021">
        <ele>464.6</ele>
        <time>2022-04-20T07:34:01Z</time>
      </trkpt>
      <trkpt lat="33.003290" lon="35.244866">
        <ele>466.0</ele>
        <time>2022-04-20T07:34:04Z</time>
      </trkpt>
      <trkpt lat="33.003225" lon="35.243732">
        <ele>466.2</ele>
        <time>2022-04-20T07:34:15Z</time>
      </trkpt>
      <trkpt lat="33.003006" lon="35.243327">
        <ele>465.5</ele>
        <time>2022-04-20T07:34:19Z</time>
      </trkpt>
      <trkpt lat="33.002866" lon="35.242445">
        <ele>456.4</ele>
        <time>2022-04-20T07:34:27Z</time>
      </trkpt>
      <trkpt lat="33.003016" lon="35.241820">
        <ele>452.3</ele>
        <time>2022-04-20T07:34:33Z</time>
      </trkpt>
      <trkpt lat="33.002987" lon="35.241421">
        <ele>452.5</ele>
        <time>2022-04-20T07:34:37Z</time>
      </trkpt>
      <trkpt lat="33.002912" lon="35.241050">
        <ele>453.1</ele>
        <time>2022-04-20T07:34:41Z</time>
      </trkpt>
      <trkpt lat="33.002991" lon="35.240067">
        <ele>448.2</ele>
        <time>2022-04-20T07:34:50Z</time>
      </trkpt>
      <trkpt lat="33.002772" lon="35.238755">
        <ele>440.1</ele>
        <time>2022-04-20T07:35:02Z</time>
      </trkpt>
      <trkpt lat="33.002465" lon="35.235839">
        <ele>429.6</ele>
        <time>2022-04-20T07:35:30Z</time>
      </trkpt>
      <trkpt lat="33.002241" lon="35.234823">
        <ele>421.5</ele>
        <time>2022-04-20T07:35:40Z</time>
      </trkpt>
      <trkpt lat="33.002287" lon="35.234442">
        <ele>415.1</ele>
        <time>2022-04-20T07:35:43Z</time>
      </trkpt>
      <trkpt lat="33.001821" lon="35.233348">
        <ele>414.3</ele>
        <time>2022-04-20T07:35:55Z</time>
      </trkpt>
      <trkpt lat="33.001186" lon="35.232867">
        <ele>418.2</ele>
        <time>2022-04-20T07:36:03Z</time>
      </trkpt>
      <trkpt lat="33.000124" lon="35.232920">
        <ele>423.0</ele>
        <time>2022-04-20T07:36:15Z</time>
      </trkpt>
      <trkpt lat="33.000151" lon="35.231955">
        <ele>411.6</ele>
        <time>2022-04-20T07:36:24Z</time>
      </trkpt>
      <trkpt lat="33.000636" lon="35.230833">
        <ele>397.6</ele>
        <time>2022-04-20T07:36:36Z</time>
      </trkpt>
      <trkpt lat="33.000161" lon="35.230475">
        <ele>395.2</ele>
        <time>2022-04-20T07:36:42Z</time>
      </trkpt>
      <trkpt lat="32.999389" lon="35.229798">
        <ele>390.9</ele>
        <time>2022-04-20T07:36:53Z</time>
      </trkpt>
      <trkpt lat="32.998519" lon="35.229283">
        <ele>390.7</ele>
        <time>2022-04-20T07:37:03Z</time>
      </trkpt>
      <trkpt lat="32.998503" lon="35.229656">
        <ele>393.3</ele>
        <time>2022-04-20T07:37:07Z</time>
      </trkpt>
      <trkpt lat="32.997878" lon="35.229452">
        <ele>390.8</ele>
        <time>2022-04-20T07:37:14Z</time>
      </trkpt>
      <trkpt lat="32.997409" lon="35.228915">
        <ele>389.7</ele>
        <time>2022-04-20T07:37:21Z</time>
      </trkpt>
      <trkpt lat="32.996896" lon="35.228594">
        <ele>388.3</ele>
        <time>2022-04-20T07:37:28Z</time>
      </trkpt>
      <trkpt lat="32.996971" lon="35.228023">
        <ele>390.8</ele>
        <time>2022-04-20T07:37:33Z</time>
      </trkpt>
      <trkpt lat="32.996766" lon="35.227456">
        <ele>391.3</ele>
        <time>2022-04-20T07:37:39Z</time>
      </trkpt>
      <trkpt lat="32.995464" lon="35.227691">
        <ele>386.1</ele>
        <time>2022-04-20T07:37:53Z</time>
      </trkpt>
      <trkpt lat="32.995420" lon="35.227364">
        <ele>387.0</ele>
        <time>2022-04-20T07:37:57Z</time>
      </trkpt>
      <trkpt lat="32.995422" lon="35.227162">
        <ele>387.8</ele>
        <time>2022-04-20T07:37:58Z</time>
      </trkpt>
      <trkpt lat="32.995416" lon="35.226942">
        <ele>388.0</ele>
        <time>2022-04-20T07:38:00Z</time>
      </trkpt>
      <trkpt lat="32.995282" lon="35.226662">
        <ele>387.1</ele>
        <time>2022-04-20T07:38:03Z</time>
      </trkpt>
      <trkpt lat="32.995380" lon="35.226207">
        <ele>387.7</ele>
        <time>2022-04-20T07:38:08Z</time>
      </trkpt>
      <trkpt lat="32.995112" lon="35.226251">
        <ele>386.8</ele>
        <time>2022-04-20T07:38:11Z</time>
      </trkpt>
      <trkpt lat="32.994963" lon="35.226096">
        <ele>385.2</ele>
        <time>2022-04-20T07:38:13Z</time>
      </trkpt>
      <trkpt lat="32.994748" lon="35.225188">
        <ele>378.1</ele>
        <time>2022-04-20T07:38:22Z</time>
      </trkpt>
      <trkpt lat="32.994436" lon="35.225393">
        <ele>377.5</ele>
        <time>2022-04-20T07:38:26Z</time>
      </trkpt>
      <trkpt lat="32.994287" lon="35.225175">
        <ele>376.8</ele>
        <time>2022-04-20T07:38:28Z</time>
      </trkpt>
      <trkpt lat="32.994141" lon="35.224419">
        <ele>379.2</ele>
        <time>2022-04-20T07:38:36Z</time>
      </trkpt>
      <trkpt lat="32.994509" lon="35.223747">
        <ele>380.7</ele>
        <time>2022-04-20T07:38:43Z</time>
      </trkpt>
      <trkpt lat="32.994411" lon="35.223358">
        <ele>381.4</ele>
        <time>2022-04-20T07:38:47Z</time>
      </trkpt>
      <trkpt lat="32.994533" lon="35.222957">
        <ele>382.2</ele>
        <time>2022-04-20T07:38:51Z</time>
      </trkpt>
      <trkpt lat="32.995116" lon="35.222677">
        <ele>378.3</ele>
        <time>2022-04-20T07:38:58Z</time>
      </trkpt>
      <trkpt lat="32.995417" lon="35.222023">
        <ele>373.6</ele>
        <time>2022-04-20T07:39:05Z</time>
      </trkpt>
      <trkpt lat="32.995394" lon="35.221508">
        <ele>370.1</ele>
        <time>2022-04-20T07:39:10Z</time>
      </trkpt>
      <trkpt lat="32.995210" lon="35.220707">
        <ele>363.6</ele>
        <time>2022-04-20T07:39:17Z</time>
      </trkpt>
      <trkpt lat="32.995313" lon="35.219966">
        <ele>356.5</ele>
        <time>2022-04-20T07:39:24Z</time>
      </trkpt>
      <trkpt lat="32.997553" lon="35.217128">
        <ele>325.6</ele>
        <time>2022-04-20T07:40:01Z</time>
      </trkpt>
      <trkpt lat="32.997626" lon="35.216378">
        <ele>326.0</ele>
        <time>2022-04-20T07:40:08Z</time>
      </trkpt>
      <trkpt lat="32.997444" lon="35.215891">
        <ele>324.4</ele>
        <time>2022-04-20T07:40:13Z</time>
      </trkpt>
      <trkpt lat="32.997128" lon="35.215505">
        <ele>321.6</ele>
        <time>2022-04-20T07:40:18Z</time>
      </trkpt>
      <trkpt lat="32.997038" lon="35.215125">
        <ele>316.9</ele>
        <time>2022-04-20T07:40:22Z</time>
      </trkpt>
      <trkpt lat="32.996588" lon="35.215117">
        <ele>316.2</ele>
        <time>2022-04-20T07:40:27Z</time>
      </trkpt>
      <trkpt lat="32.996110" lon="35.215351">
        <ele>316.9</ele>
        <time>2022-04-20T07:40:32Z</time>
      </trkpt>
      <trkpt lat="32.994782" lon="35.215201">
        <ele>322.8</ele>
        <time>2022-04-20T07:40:47Z</time>
      </trkpt>
      <trkpt lat="32.994462" lon="35.215308">
        <ele>322.4</ele>
        <time>2022-04-20T07:40:51Z</time>
      </trkpt>
      <trkpt lat="32.994445" lon="35.214693">
        <ele>322.5</ele>
        <time>2022-04-20T07:40:57Z</time>
      </trkpt>
      <trkpt lat="32.994261" lon="35.213920">
        <ele>320.9</ele>
        <time>2022-04-20T07:41:04Z</time>
      </trkpt>
      <trkpt lat="32.994284" lon="35.212525">
        <ele>316.1</ele>
        <time>2022-04-20T07:41:17Z</time>
      </trkpt>
      <trkpt lat="32.993726" lon="35.212312">
        <ele>312.2</ele>
        <time>2022-04-20T07:41:24Z</time>
      </trkpt>
      <trkpt lat="32.993753" lon="35.211401">
        <ele>305.6</ele>
        <time>2022-04-20T07:41:32Z</time>
      </trkpt>
      <trkpt lat="32.993301" lon="35.210281">
        <ele>294.4</ele>
        <time>2022-04-20T07:41:44Z</time>
      </trkpt>
      <trkpt lat="32.993157" lon="35.209785">
        <ele>291.1</ele>
        <time>2022-04-20T07:41:49Z</time>
      </trkpt>
      <trkpt lat="32.993130" lon="35.208821">
        <ele>295.8</ele>
        <time>2022-04-20T07:41:58Z</time>
      </trkpt>
      <trkpt lat="32.992358" lon="35.207355">
        <ele>282.9</ele>
        <time>2022-04-20T07:42:14Z</time>
      </trkpt>
      <trkpt lat="32.992319" lon="35.205835">
        <ele>282.7</ele>
        <time>2022-04-20T07:42:28Z</time>
      </trkpt>
      <trkpt lat="32.992461" lon="35.204331">
        <ele>288.8</ele>
        <time>2022-04-20T07:42:42Z</time>
      </trkpt>
      <trkpt lat="32.992830" lon="35.203730">
        <ele>297.1</ele>
        <time>2022-04-20T07:42:49Z</time>
      </trkpt>
      <trkpt lat="32.992814" lon="35.203179">
        <ele>295.8</ele>
        <time>2022-04-20T07:42:54Z</time>
      </trkpt>
      <trkpt lat="32.992457" lon="35.202515">
        <ele>289.3</ele>
        <time>2022-04-20T07:43:01Z</time>
      </trkpt>
      <trkpt lat="32.992522" lon="35.201640">
        <ele>288.8</ele>
        <time>2022-04-20T07:43:10Z</time>
      </trkpt>
      <trkpt lat="32.992831" lon="35.201147">
        <ele>288.1</ele>
        <time>2022-04-20T07:43:15Z</time>
      </trkpt>
      <trkpt lat="32.992631" lon="35.200222">
        <ele>284.3</ele>
        <time>2022-04-20T07:43:24Z</time>
      </trkpt>
      <trkpt lat="32.992456" lon="35.199627">
        <ele>281.6</ele>
        <time>2022-04-20T07:43:30Z</time>
      </trkpt>
      <trkpt lat="32.992213" lon="35.199132">
        <ele>278.8</ele>
        <time>2022-04-20T07:43:35Z</time>
      </trkpt>
      <trkpt lat="32.992742" lon="35.198593">
        <ele>279.0</ele>
        <time>2022-04-20T07:43:43Z</time>
      </trkpt>
      <trkpt lat="32.992916" lon="35.198263">
        <ele>279.0</ele>
        <time>2022-04-20T07:43:47Z</time>
      </trkpt>
      <trkpt lat="32.993357" lon="35.198047">
        <ele>277.4</ele>
        <time>2022-04-20T07:43:52Z</time>
      </trkpt>
      <trkpt lat="32.993235" lon="35.197443">
        <ele>276.1</ele>
        <time>2022-04-20T07:43:58Z</time>
      </trkpt>
      <trkpt lat="32.993248" lon="35.196784">
        <ele>274.8</ele>
        <time>2022-04-20T07:44:04Z</time>
      </trkpt>
      <trkpt lat="32.992676" lon="35.196660">
        <ele>276.9</ele>
        <time>2022-04-20T07:44:11Z</time>
      </trkpt>
      <trkpt lat="32.992489" lon="35.196407">
        <ele>276.3</ele>
        <time>2022-04-20T07:44:14Z</time>
      </trkpt>
      <trkpt lat="32.992085" lon="35.196425">
        <ele>275.3</ele>
        <time>2022-04-20T07:44:18Z</time>
      </trkpt>
      <trkpt lat="32.991974" lon="35.196297">
        <ele>273.5</ele>
        <time>2022-04-20T07:44:20Z</time>
      </trkpt>
      <trkpt lat="32.991592" lon="35.196207">
        <ele>269.4</ele>
        <time>2022-04-20T07:44:24Z</time>
      </trkpt>
      <trkpt lat="32.991478" lon="35.195774">
        <ele>264.9</ele>
        <time>2022-04-20T07:44:28Z</time>
      </trkpt>
      <trkpt lat="32.991112" lon="35.195737">
        <ele>259.8</ele>
        <time>2022-04-20T07:44:33Z</time>
      </trkpt>
      <trkpt lat="32.990963" lon="35.195555">
        <ele>257.4</ele>
        <time>2022-04-20T07:44:35Z</time>
      </trkpt>
      <trkpt lat="32.990656" lon="35.193716">
        <ele>253.2</ele>
        <time>2022-04-20T07:44:52Z</time>
      </trkpt>
      <trkpt lat="32.990750" lon="35.192733">
        <ele>251.3</ele>
        <time>2022-04-20T07:45:02Z</time>
      </trkpt>
      <trkpt lat="32.990739" lon="35.190155">
        <ele>241.4</ele>
        <time>2022-04-20T07:45:26Z</time>
      </trkpt>
      <trkpt lat="32.990570" lon="35.189417">
        <ele>237.8</ele>
        <time>2022-04-20T07:45:33Z</time>
      </trkpt>
      <trkpt lat="32.990762" lon="35.187473">
        <ele>230.2</ele>
        <time>2022-04-20T07:45:51Z</time>
      </trkpt>
      <trkpt lat="32.990860" lon="35.187054">
        <ele>230.1</ele>
        <time>2022-04-20T07:45:55Z</time>
      </trkpt>
      <trkpt lat="32.991331" lon="35.186838">
        <ele>231.4</ele>
        <time>2022-04-20T07:46:01Z</time>
      </trkpt>
      <trkpt lat="32.991761" lon="35.187268">
        <ele>233.6</ele>
        <time>2022-04-20T07:46:07Z</time>
      </trkpt>
      <trkpt lat="32.992454" lon="35.187416">
        <ele>233.7</ele>
        <time>2022-04-20T07:46:15Z</time>
      </trkpt>
      <trkpt lat="32.992585" lon="35.186343">
        <ele>229.9</ele>
        <time>2022-04-20T07:46:25Z</time>
      </trkpt>
      <trkpt lat="32.992909" lon="35.186747">
        <ele>229.8</ele>
        <time>2022-04-20T07:46:30Z</time>
      </trkpt>
      <trkpt lat="32.993022" lon="35.186158">
        <ele>227.0</ele>
        <time>2022-04-20T07:46:36Z</time>
      </trkpt>
      <trkpt lat="32.993314" lon="35.185433">
        <ele>220.3</ele>
        <time>2022-04-20T07:46:43Z</time>
      </trkpt>
      <trkpt lat="32.993277" lon="35.185097">
        <ele>217.8</ele>
        <time>2022-04-20T07:46:46Z</time>
      </trkpt>
      <trkpt lat="32.993527" lon="35.184749">
        <ele>212.6</ele>
        <time>2022-04-20T07:46:51Z</time>
      </trkpt>
      <trkpt lat="32.993998" lon="35.183626">
        <ele>203.2</ele>
        <time>2022-04-20T07:47:02Z</time>
      </trkpt>
      <trkpt lat="32.994033" lon="35.182016">
        <ele>202.0</ele>
        <time>2022-04-20T07:47:17Z</time>
      </trkpt>
      <trkpt lat="32.994013" lon="35.181007">
        <ele>203.0</ele>
        <time>2022-04-20T07:47:27Z</time>
      </trkpt>
      <trkpt lat="32.994500" lon="35.179158">
        <ele>201.6</ele>
        <time>2022-04-20T07:47:45Z</time>
      </trkpt>
      <trkpt lat="32.995106" lon="35.176294">
        <ele>188.5</ele>
        <time>2022-04-20T07:48:12Z</time>
      </trkpt>
      <trkpt lat="32.995698" lon="35.173529">
        <ele>177.0</ele>
        <time>2022-04-20T07:48:39Z</time>
      </trkpt>
      <trkpt lat="32.995952" lon="35.172732">
        <ele>172.2</ele>
        <time>2022-04-20T07:48:47Z</time>
      </trkpt>
      <trkpt lat="32.995865" lon="35.171886">
        <ele>169.7</ele>
        <time>2022-04-20T07:48:55Z</time>
      </trkpt>
      <trkpt lat="32.995979" lon="35.171512">
        <ele>169.0</ele>
        <time>2022-04-20T07:48:59Z</time>
      </trkpt>
      <trkpt lat="32.995927" lon="35.171203">
        <ele>170.6</ele>
        <time>2022-04-20T07:49:02Z</time>
      </trkpt>
      <trkpt lat="32.996036" lon="35.170301">
        <ele>171.2</ele>
        <time>2022-04-20T07:49:10Z</time>
      </trkpt>
      <trkpt lat="32.996279" lon="35.169952">
        <ele>169.2</ele>
        <time>2022-04-20T07:49:14Z</time>
      </trkpt>
      <trkpt lat="32.996310" lon="35.169660">
        <ele>168.1</ele>
        <time>2022-04-20T07:49:17Z</time>
      </trkpt>
      <trkpt lat="32.996488" lon="35.169615">
        <ele>167.3</ele>
        <time>2022-04-20T07:49:19Z</time>
      </trkpt>
      <trkpt lat="32.996437" lon="35.169312">
        <ele>165.4</ele>
        <time>2022-04-20T07:49:22Z</time>
      </trkpt>
      <trkpt lat="32.997103" lon="35.168121">
        <ele>154.5</ele>
        <time>2022-04-20T07:49:35Z</time>
      </trkpt>
      <trkpt lat="32.997427" lon="35.167923">
        <ele>153.0</ele>
        <time>2022-04-20T07:49:39Z</time>
      </trkpt>
      <trkpt lat="32.997760" lon="35.167862">
        <ele>152.5</ele>
        <time>2022-04-20T07:49:43Z</time>
      </trkpt>
      <trkpt lat="32.997974" lon="35.167880">
        <ele>152.2</ele>
        <time>2022-04-20T07:49:46Z</time>
      </trkpt>
      <trkpt lat="32.998113" lon="35.167263">
        <ele>145.9</ele>
        <time>2022-04-20T07:49:51Z</time>
      </trkpt>
      <trkpt lat="32.998188" lon="35.166752">
        <ele>141.7</ele>
        <time>2022-04-20T07:49:56Z</time>
      </trkpt>
      <trkpt lat="32.998366" lon="35.166180">
        <ele>138.0</ele>
        <time>2022-04-20T07:50:02Z</time>
      </trkpt>
      <trkpt lat="32.998675" lon="35.165666">
        <ele>135.2</ele>
        <time>2022-04-20T07:50:08Z</time>
      </trkpt>
      <trkpt lat="32.999321" lon="35.164828">
        <ele>128.8</ele>
        <time>2022-04-20T07:50:19Z</time>
      </trkpt>
      <trkpt lat="32.999394" lon="35.164541">
        <ele>128.5</ele>
        <time>2022-04-20T07:50:21Z</time>
      </trkpt>
      <trkpt lat="32.999861" lon="35.163952">
        <ele>121.0</ele>
        <time>2022-04-20T07:50:29Z</time>
      </trkpt>
      <trkpt lat="32.999911" lon="35.163675">
        <ele>120.2</ele>
        <time>2022-04-20T07:50:32Z</time>
      </trkpt>
      <trkpt lat="33.000265" lon="35.162955">
        <ele>111.9</ele>
        <time>2022-04-20T07:50:39Z</time>
      </trkpt>
      <trkpt lat="33.000026" lon="35.162288">
        <ele>114.4</ele>
        <time>2022-04-20T07:50:46Z</time>
      </trkpt>
      <trkpt lat="32.999952" lon="35.161568">
        <ele>112.8</ele>
        <time>2022-04-20T07:50:53Z</time>
      </trkpt>
      <trkpt lat="32.999596" lon="35.160788">
        <ele>113.2</ele>
        <time>2022-04-20T07:51:01Z</time>
      </trkpt>
      <trkpt lat="32.999366" lon="35.159385">
        <ele>103.3</ele>
        <time>2022-04-20T07:51:14Z</time>
      </trkpt>
      <trkpt lat="32.999650" lon="35.158814">
        <ele>102.2</ele>
        <time>2022-04-20T07:51:21Z</time>
      </trkpt>
      <trkpt lat="32.999722" lon="35.158500">
        <ele>102.0</ele>
        <time>2022-04-20T07:51:24Z</time>
      </trkpt>
      <trkpt lat="33.000069" lon="35.157862">
        <ele>100.3</ele>
        <time>2022-04-20T07:51:31Z</time>
      </trkpt>
      <trkpt lat="33.000436" lon="35.158070">
        <ele>96.2</ele>
        <time>2022-04-20T07:51:35Z</time>
      </trkpt>
      <trkpt lat="33.000776" lon="35.157949">
        <ele>90.5</ele>
        <time>2022-04-20T07:51:39Z</time>
      </trkpt>
      <trkpt lat="33.000939" lon="35.157538">
        <ele>86.5</ele>
        <time>2022-04-20T07:51:43Z</time>
      </trkpt>
      <trkpt lat="33.001337" lon="35.157366">
        <ele>82.1</ele>
        <time>2022-04-20T07:51:48Z</time>
      </trkpt>
      <trkpt lat="33.001524" lon="35.156927">
        <ele>81.0</ele>
        <time>2022-04-20T07:51:53Z</time>
      </trkpt>
      <trkpt lat="33.001544" lon="35.155937">
        <ele>84.9</ele>
        <time>2022-04-20T07:52:02Z</time>
      </trkpt>
      <trkpt lat="33.001624" lon="35.155201">
        <ele>84.6</ele>
        <time>2022-04-20T07:52:09Z</time>
      </trkpt>
      <trkpt lat="33.001721" lon="35.154196">
        <ele>87.7</ele>
        <time>2022-04-20T07:52:18Z</time>
      </trkpt>
      <trkpt lat="33.001897" lon="35.153762">
        <ele>88.3</ele>
        <time>2022-04-20T07:52:23Z</time>
      </trkpt>
      <trkpt lat="33.001342" lon="35.153140">
        <ele>85.1</ele>
        <time>2022-04-20T07:52:31Z</time>
      </trkpt>
      <trkpt lat="33.001167" lon="35.152751">
        <ele>82.8</ele>
        <time>2022-04-20T07:52:35Z</time>
      </trkpt>
      <trkpt lat="33.000612" lon="35.152102">
        <ele>79.3</ele>
        <time>2022-04-20T07:52:44Z</time>
      </trkpt>
      <trkpt lat="33.000545" lon="35.151739">
        <ele>77.9</ele>
        <time>2022-04-20T07:52:48Z</time>
      </trkpt>
      <trkpt lat="33.000148" lon="35.151463">
        <ele>76.5</ele>
        <time>2022-04-20T07:52:53Z</time>
      </trkpt>
      <trkpt lat="32.999671" lon="35.151384">
        <ele>75.0</ele>
        <time>2022-04-20T07:52:58Z</time>
      </trkpt>
      <trkpt lat="32.999452" lon="35.151197">
        <ele>74.6</ele>
        <time>2022-04-20T07:53:01Z</time>
      </trkpt>
      <trkpt lat="32.999444" lon="35.150966">
        <ele>75.0</ele>
        <time>2022-04-20T07:53:03Z</time>
      </trkpt>
      <trkpt lat="32.999316" lon="35.150714">
        <ele>74.1</ele>
        <time>2022-04-20T07:53:06Z</time>
      </trkpt>
      <trkpt lat="32.999389" lon="35.149942">
        <ele>73.9</ele>
        <time>2022-04-20T07:53:13Z</time>
      </trkpt>
      <trkpt lat="32.999891" lon="35.149481">
        <ele>72.8</ele>
        <time>2022-04-20T07:53:20Z</time>
      </trkpt>
      <trkpt lat="33.000696" lon="35.149231">
        <ele>68.2</ele>
        <time>2022-04-20T07:53:29Z</time>
      </trkpt>
      <trkpt lat="33.001259" lon="35.148544">
        <ele>60.5</ele>
        <time>2022-04-20T07:53:38Z</time>
      </trkpt>
      <trkpt lat="33.001788" lon="35.148407">
        <ele>57.2</ele>
        <time>2022-04-20T07:53:44Z</time>
      </trkpt>
      <trkpt lat="33.002052" lon="35.148072">
        <ele>52.6</ele>
        <time>2022-04-20T07:53:49Z</time>
      </trkpt>
      <trkpt lat="33.002427" lon="35.147901">
        <ele>52.1</ele>
        <time>2022-04-20T07:53:53Z</time>
      </trkpt>
      <trkpt lat="33.002736" lon="35.147383">
        <ele>49.5</ele>
        <time>2022-04-20T07:53:59Z</time>
      </trkpt>
      <trkpt lat="33.003458" lon="35.146006">
        <ele>44.1</ele>
        <time>2022-04-20T07:54:14Z</time>
      </trkpt>
      <trkpt lat="33.002388" lon="35.145465">
        <ele>39.3</ele>
        <time>2022-04-20T07:54:27Z</time>
      </trkpt>
      <trkpt lat="33.002687" lon="35.144177">
        <ele>36.9</ele>
        <time>2022-04-20T07:54:40Z</time>
      </trkpt>
      <trkpt lat="33.001595" lon="35.143726">
        <ele>27.2</ele>
        <time>2022-04-20T07:54:52Z</time>
      </trkpt>
    </trkseg>
  </trk>
</gpx>
