<?xml version="1.0" encoding="utf-8"?>
<gpx version="1.1" creator="IsraelHikingMap_route" xmlns="http://www.topografix.com/GPX/1/1">
	<metadata>
		<bounds minlat="33.0358299788369" minlon="35.225759" maxlat="33.044748" maxlon="35.235618" />
	</metadata>
	<rte>
		<name>מסלול 1</name>
		<desc />
		<rtept lat="33.0358299788369" lon="35.23556050216027">
			<ele>442.0799308755702</ele>
		</rtept>
		<rtept lat="33.035868" lon="35.235618">
			<ele>442</ele>
		</rtept>
		<rtept lat="33.036065" lon="35.235412">
			<ele>442</ele>
		</rtept>
		<rtept lat="33.036085391544106" lon="35.23537502996475">
			<ele>441.8342150885725</ele>
		</rtept>
		<rtept lat="33.036188" lon="35.235189">
			<ele>441</ele>
		</rtept>
		<rtept lat="33.036655" lon="35.23502">
			<ele>438</ele>
		</rtept>
		<rtept lat="33.036731539987294" lon="35.235006222802284">
			<ele>437.61730006355936</ele>
		</rtept>
		<rtept lat="33.036855" lon="35.234984">
			<ele>437</ele>
		</rtept>
		<rtept lat="33.036985" lon="35.234983">
			<ele>436.5</ele>
		</rtept>
		<rtept lat="33.03741366200593" lon="35.23504257937627">
			<ele>433.79184653295545</ele>
		</rtept>
		<rtept lat="33.037539" lon="35.23506">
			<ele>433</ele>
		</rtept>
		<rtept lat="33.037905" lon="35.23508">
			<ele>432</ele>
		</rtept>
		<rtept lat="33.03796233241082" lon="35.23507722820406">
			<ele>431.5623480090202</ele>
		</rtept>
		<rtept lat="33.038298" lon="35.235061">
			<ele>429</ele>
		</rtept>
		<rtept lat="33.038556" lon="35.235105">
			<ele>427.5</ele>
		</rtept>
		<rtept lat="33.038722" lon="35.235133">
			<ele>426</ele>
		</rtept>
		<rtept lat="33.03875265130559" lon="35.2351353695523">
			<ele>425.54137697367537</ele>
		</rtept>
		<rtept lat="33.039123" lon="35.235164">
			<ele>420</ele>
		</rtept>
		<rtept lat="33.039334" lon="35.235125">
			<ele>418</ele>
		</rtept>
		<rtept lat="33.0394209845609" lon="35.23507827275654">
			<ele>415.84335799408717</ele>
		</rtept>
		<rtept lat="33.039455" lon="35.23506">
			<ele>415</ele>
		</rtept>
		<rtept lat="33.039568" lon="35.234972">
			<ele>414</ele>
		</rtept>
		<rtept lat="33.039588" lon="35.234982">
			<ele>412</ele>
		</rtept>
		<rtept lat="33.039916" lon="35.235143">
			<ele>410</ele>
		</rtept>
		<rtept lat="33.04015" lon="35.235205">
			<ele>409</ele>
		</rtept>
		<rtept lat="33.040447" lon="35.235218">
			<ele>403</ele>
		</rtept>
		<rtept lat="33.041112" lon="35.235102">
			<ele>401</ele>
		</rtept>
		<rtept lat="33.041513" lon="35.234967">
			<ele>398</ele>
		</rtept>
		<rtept lat="33.042034" lon="35.234849">
			<ele>394.5</ele>
		</rtept>
		<rtept lat="33.04278" lon="35.234856">
			<ele>387</ele>
		</rtept>
		<rtept lat="33.042916" lon="35.234818">
			<ele>386</ele>
		</rtept>
		<rtept lat="33.042974" lon="35.234777">
			<ele>385</ele>
		</rtept>
		<rtept lat="33.042993" lon="35.234741">
			<ele>385</ele>
		</rtept>
		<rtept lat="33.043014" lon="35.234702">
			<ele>385</ele>
		</rtept>
		<rtept lat="33.043007" lon="35.234381">
			<ele>385</ele>
		</rtept>
		<rtept lat="33.043006" lon="35.233836">
			<ele>384</ele>
		</rtept>
		<rtept lat="33.043073" lon="35.233376">
			<ele>380.5</ele>
		</rtept>
		<rtept lat="33.043078" lon="35.233291">
			<ele>380</ele>
		</rtept>
		<rtept lat="33.043038" lon="35.23302">
			<ele>378</ele>
		</rtept>
		<rtept lat="33.043041" lon="35.232918">
			<ele>377</ele>
		</rtept>
		<rtept lat="33.043108" lon="35.232596">
			<ele>375</ele>
		</rtept>
		<rtept lat="33.043127" lon="35.232505">
			<ele>373</ele>
		</rtept>
		<rtept lat="33.0432" lon="35.232372">
			<ele>371</ele>
		</rtept>
		<rtept lat="33.043313" lon="35.23222">
			<ele>371</ele>
		</rtept>
		<rtept lat="33.043366" lon="35.232109">
			<ele>371</ele>
		</rtept>
		<rtept lat="33.043383" lon="35.232074">
			<ele>371</ele>
		</rtept>
		<rtept lat="33.043422" lon="35.231768">
			<ele>369</ele>
		</rtept>
		<rtept lat="33.043472" lon="35.231587">
			<ele>367</ele>
		</rtept>
		<rtept lat="33.043522" lon="35.231023">
			<ele>362</ele>
		</rtept>
		<rtept lat="33.043622" lon="35.230685">
			<ele>360</ele>
		</rtept>
		<rtept lat="33.043691" lon="35.230515">
			<ele>359.5</ele>
		</rtept>
		<rtept lat="33.043795" lon="35.230318">
			<ele>358</ele>
		</rtept>
		<rtept lat="33.043834" lon="35.230041">
			<ele>353</ele>
		</rtept>
		<rtept lat="33.043888" lon="35.229882">
			<ele>350.5</ele>
		</rtept>
		<rtept lat="33.043915" lon="35.229688">
			<ele>344</ele>
		</rtept>
		<rtept lat="33.043905" lon="35.229568">
			<ele>341</ele>
		</rtept>
		<rtept lat="33.043866" lon="35.229485">
			<ele>339</ele>
		</rtept>
		<rtept lat="33.043793" lon="35.22939">
			<ele>337</ele>
		</rtept>
		<rtept lat="33.043741" lon="35.229323">
			<ele>335</ele>
		</rtept>
		<rtept lat="33.043734" lon="35.229242">
			<ele>332</ele>
		</rtept>
		<rtept lat="33.043765" lon="35.228994">
			<ele>326</ele>
		</rtept>
		<rtept lat="33.04383" lon="35.228857">
			<ele>320</ele>
		</rtept>
		<rtept lat="33.043853" lon="35.228759">
			<ele>319</ele>
		</rtept>
		<rtept lat="33.043858" lon="35.228587">
			<ele>315</ele>
		</rtept>
		<rtept lat="33.043872" lon="35.228484">
			<ele>313</ele>
		</rtept>
		<rtept lat="33.0439" lon="35.228407">
			<ele>312</ele>
		</rtept>
		<rtept lat="33.044021" lon="35.228197">
			<ele>313</ele>
		</rtept>
		<rtept lat="33.044071" lon="35.227926">
			<ele>308</ele>
		</rtept>
		<rtept lat="33.0441" lon="35.2276">
			<ele>300</ele>
		</rtept>
		<rtept lat="33.043962" lon="35.227654">
			<ele>298</ele>
		</rtept>
		<rtept lat="33.043906" lon="35.227622">
			<ele>294</ele>
		</rtept>
		<rtept lat="33.043911" lon="35.227538">
			<ele>292</ele>
		</rtept>
		<rtept lat="33.043976" lon="35.22749">
			<ele>295</ele>
		</rtept>
		<rtept lat="33.044253" lon="35.227508">
			<ele>298</ele>
		</rtept>
		<rtept lat="33.044337" lon="35.227466">
			<ele>295</ele>
		</rtept>
		<rtept lat="33.044399" lon="35.227342">
			<ele>293</ele>
		</rtept>
		<rtept lat="33.044437" lon="35.227215">
			<ele>293</ele>
		</rtept>
		<rtept lat="33.044447" lon="35.227002">
			<ele>294</ele>
		</rtept>
		<rtept lat="33.044474" lon="35.226905">
			<ele>293</ele>
		</rtept>
		<rtept lat="33.044468" lon="35.226472">
			<ele>290</ele>
		</rtept>
		<rtept lat="33.044515" lon="35.226351">
			<ele>288</ele>
		</rtept>
		<rtept lat="33.044582" lon="35.226268">
			<ele>287</ele>
		</rtept>
		<rtept lat="33.044684" lon="35.226195">
			<ele>282</ele>
		</rtept>
		<rtept lat="33.044709" lon="35.226159">
			<ele>278</ele>
		</rtept>
		<rtept lat="33.044717" lon="35.226097">
			<ele>275</ele>
		</rtept>
		<rtept lat="33.044748" lon="35.225841">
			<ele>272</ele>
		</rtept>
		<rtept lat="33.044725" lon="35.225792">
			<ele>271</ele>
		</rtept>
		<rtept lat="33.04467" lon="35.225759">
			<ele>270</ele>
		</rtept>
		<rtept lat="33.044582" lon="35.225803">
			<ele>269</ele>
		</rtept>
		<rtept lat="33.044552" lon="35.225838">
			<ele>271.5</ele>
		</rtept>
		<rtept lat="33.044267" lon="35.226185">
			<ele>272</ele>
		</rtept>
		<rtept lat="33.043944" lon="35.226625">
			<ele>272</ele>
		</rtept>
		<rtept lat="33.043769" lon="35.226864">
			<ele>272</ele>
		</rtept>
		<rtept lat="33.043758" lon="35.226879">
			<ele>270</ele>
		</rtept>
		<rtept lat="33.043632" lon="35.22701">
			<ele>274.5</ele>
		</rtept>
		<rtept lat="33.043495" lon="35.227015">
			<ele>276</ele>
		</rtept>
		<rtept lat="33.043483" lon="35.227052">
			<ele>280</ele>
		</rtept>
		<rtept lat="33.043406" lon="35.227447">
			<ele>287</ele>
		</rtept>
		<rtept lat="33.043366" lon="35.22779">
			<ele>291.5</ele>
		</rtept>
		<rtept lat="33.043298" lon="35.228078">
			<ele>297</ele>
		</rtept>
		<rtept lat="33.043136" lon="35.228545">
			<ele>307.5</ele>
		</rtept>
		<rtept lat="33.04305" lon="35.228706">
			<ele>309</ele>
		</rtept>
		<rtept lat="33.042845" lon="35.229207">
			<ele>313</ele>
		</rtept>
		<rtept lat="33.042783" lon="35.229386">
			<ele>316</ele>
		</rtept>
		<rtept lat="33.04272" lon="35.229668">
			<ele>319</ele>
		</rtept>
		<rtept lat="33.042662" lon="35.229825">
			<ele>320</ele>
		</rtept>
		<rtept lat="33.042512" lon="35.230084">
			<ele>322</ele>
		</rtept>
		<rtept lat="33.042441" lon="35.230237">
			<ele>323.5</ele>
		</rtept>
		<rtept lat="33.042281" lon="35.230584">
			<ele>325</ele>
		</rtept>
		<rtept lat="33.042229" lon="35.230796">
			<ele>336</ele>
		</rtept>
		<rtept lat="33.042053" lon="35.231517">
			<ele>336</ele>
		</rtept>
		<rtept lat="33.041948" lon="35.231906">
			<ele>348.5</ele>
		</rtept>
		<rtept lat="33.041809" lon="35.232215">
			<ele>352</ele>
		</rtept>
		<rtept lat="33.041712" lon="35.232486">
			<ele>354</ele>
		</rtept>
		<rtept lat="33.041601" lon="35.232709">
			<ele>357</ele>
		</rtept>
		<rtept lat="33.041528" lon="35.232823">
			<ele>358</ele>
		</rtept>
		<rtept lat="33.041414" lon="35.232936">
			<ele>359</ele>
		</rtept>
		<rtept lat="33.041301" lon="35.233112">
			<ele>364</ele>
		</rtept>
		<rtept lat="33.041108" lon="35.233299">
			<ele>370.5</ele>
		</rtept>
		<rtept lat="33.040888" lon="35.233486">
			<ele>375</ele>
		</rtept>
		<rtept lat="33.040771" lon="35.233649">
			<ele>379</ele>
		</rtept>
		<rtept lat="33.040687" lon="35.233792">
			<ele>381</ele>
		</rtept>
		<rtept lat="33.040604" lon="35.233838">
			<ele>381</ele>
		</rtept>
		<rtept lat="33.040465" lon="35.233876">
			<ele>384</ele>
		</rtept>
		<rtept lat="33.040437" lon="35.233903">
			<ele>385</ele>
		</rtept>
		<rtept lat="33.040406" lon="35.233933">
			<ele>386</ele>
		</rtept>
		<rtept lat="33.040299" lon="35.234133">
			<ele>389</ele>
		</rtept>
		<rtept lat="33.040186" lon="35.234193">
			<ele>392</ele>
		</rtept>
		<rtept lat="33.04011" lon="35.234223">
			<ele>394</ele>
		</rtept>
		<rtept lat="33.039941" lon="35.234239">
			<ele>398</ele>
		</rtept>
		<rtept lat="33.039877" lon="35.234263">
			<ele>400</ele>
		</rtept>
		<rtept lat="33.039857" lon="35.234287">
			<ele>400</ele>
		</rtept>
		<rtept lat="33.039822" lon="35.234383">
			<ele>401</ele>
		</rtept>
		<rtept lat="33.039858" lon="35.234591">
			<ele>404.5</ele>
		</rtept>
		<rtept lat="33.03986" lon="35.234688">
			<ele>405</ele>
		</rtept>
		<rtept lat="33.039812" lon="35.234764">
			<ele>406</ele>
		</rtept>
		<rtept lat="33.039661" lon="35.234874">
			<ele>411</ele>
		</rtept>
	</rte>
</gpx>