<?xml version="1.0" encoding="UTF-8"?>
<gpx creator="Patrick Hooper" version="1.1" xmlns="http://www.topografix.com/GPX/1/1" xmlns:xsi="http://www.w3.org/2001/XMLSchema-instance" xsi:schemaLocation="http://www.topografix.com/GPX/1/1 http://www.topografix.com/GPX/1/1/gpx.xsd http://www.garmin.com/xmlschemas/GpxExtensions/v3 http://www.garmin.com/xmlschemas/GpxExtensionsv3.xsd http://www.garmin.com/xmlschemas/TrackPointExtension/v1 http://www.garmin.com/xmlschemas/TrackPointExtensionv1.xsd">
  <metadata>
    <name>Activity</name>
  </metadata>
  <trk>
    <name>a</name>
    <trkseg>
      <trkpt lat="32.58283" lon="34.96705">
        <ele>22</ele>
        <time>2020-09-30T14:52:49.992Z</time>
      </trkpt>
      <trkpt lat="32.582840000000004" lon="34.96705">
        <ele>22</ele>
        <time>2020-09-30T14:52:50.992Z</time>
      </trkpt>
      <trkpt lat="32.58279" lon="34.96716">
        <ele>22</ele>
        <time>2020-09-30T14:52:51.992Z</time>
      </trkpt>
      <trkpt lat="32.58272" lon="34.967270000000006">
        <ele>22</ele>
        <time>2020-09-30T14:52:52.992Z</time>
      </trkpt>
      <trkpt lat="32.58268" lon="34.96741">
        <ele>22</ele>
        <time>2020-09-30T14:52:53.992Z</time>
      </trkpt>
      <trkpt lat="32.582640000000005" lon="34.96768">
        <ele>22</ele>
        <time>2020-09-30T14:52:54.992Z</time>
      </trkpt>
      <trkpt lat="32.5824" lon="34.96838">
        <ele>22</ele>
        <time>2020-09-30T14:52:55.992Z</time>
      </trkpt>
      <trkpt lat="32.582300000000004" lon="34.9688">
        <ele>22</ele>
        <time>2020-09-30T14:52:56.992Z</time>
      </trkpt>
      <trkpt lat="32.582300000000004" lon="34.9688">
        <ele>22</ele>
        <time>2020-09-30T14:52:57.992Z</time>
      </trkpt>
      <trkpt lat="32.58223" lon="34.969120000000004">
        <ele>22</ele>
        <time>2020-09-30T14:52:58.992Z</time>
      </trkpt>
      <trkpt lat="32.58211" lon="34.969460000000005">
        <ele>23</ele>
        <time>2020-09-30T14:52:59.992Z</time>
      </trkpt>
      <trkpt lat="32.58193" lon="34.970130000000005">
        <ele>23</ele>
        <time>2020-09-30T14:53:00.992Z</time>
      </trkpt>
      <trkpt lat="32.58178" lon="34.97101">
        <ele>23</ele>
        <time>2020-09-30T14:53:01.992Z</time>
      </trkpt>
      <trkpt lat="32.58175" lon="34.97142">
        <ele>23</ele>
        <time>2020-09-30T14:53:02.992Z</time>
      </trkpt>
      <trkpt lat="32.581810000000004" lon="34.971990000000005">
        <ele>25</ele>
        <time>2020-09-30T14:53:03.992Z</time>
      </trkpt>
      <trkpt lat="32.58174" lon="34.97211">
        <ele>25</ele>
        <time>2020-09-30T14:53:04.992Z</time>
      </trkpt>
      <trkpt lat="32.58175" lon="34.97225">
        <ele>25</ele>
        <time>2020-09-30T14:53:05.992Z</time>
      </trkpt>
      <trkpt lat="32.581790000000005" lon="34.972370000000005">
        <ele>25</ele>
        <time>2020-09-30T14:53:06.992Z</time>
      </trkpt>
      <trkpt lat="32.581790000000005" lon="34.97263">
        <ele>25</ele>
        <time>2020-09-30T14:53:07.992Z</time>
      </trkpt>
      <trkpt lat="32.581790000000005" lon="34.97263">
        <ele>25</ele>
        <time>2020-09-30T14:53:08.992Z</time>
      </trkpt>
      <trkpt lat="32.5818" lon="34.972950000000004">
        <ele>25</ele>
        <time>2020-09-30T14:53:09.992Z</time>
      </trkpt>
      <trkpt lat="32.581830000000004" lon="34.97308">
        <ele>25</ele>
        <time>2020-09-30T14:53:10.992Z</time>
      </trkpt>
      <trkpt lat="32.58173" lon="34.973130000000005">
        <ele>25</ele>
        <time>2020-09-30T14:53:11.992Z</time>
      </trkpt>
      <trkpt lat="32.58165" lon="34.97326">
        <ele>27</ele>
        <time>2020-09-30T14:53:12.992Z</time>
      </trkpt>
      <trkpt lat="32.58178968844165" lon="34.973385680727496">
        <ele>27</ele>
        <time>2020-09-30T14:53:13.992Z</time>
      </trkpt>
      <trkpt lat="32.582331821403045" lon="34.97486606511665">
        <ele>29</ele>
        <time>2020-09-30T14:53:14.992Z</time>
      </trkpt>
      <trkpt lat="32.582331821403045" lon="34.97486606511665">
        <ele>29</ele>
        <time>2020-09-30T14:53:15.992Z</time>
      </trkpt>
      <trkpt lat="32.58225953719763" lon="34.975252252348646">
        <ele>27</ele>
        <time>2020-09-30T14:53:16.992Z</time>
      </trkpt>
      <trkpt lat="32.582300000000004" lon="34.97524">
        <ele>27</ele>
        <time>2020-09-30T14:53:17.992Z</time>
      </trkpt>
      <trkpt lat="32.582300000000004" lon="34.975210000000004">
        <ele>27</ele>
        <time>2020-09-30T14:53:18.992Z</time>
      </trkpt>
      <trkpt lat="32.582390000000004" lon="34.97513">
        <ele>27</ele>
        <time>2020-09-30T14:53:19.992Z</time>
      </trkpt>
      <trkpt lat="32.582170000000005" lon="34.97511">
        <ele>27</ele>
        <time>2020-09-30T14:53:20.992Z</time>
      </trkpt>
      <trkpt lat="32.582060000000006" lon="34.9752">
        <ele>27</ele>
        <time>2020-09-30T14:53:21.992Z</time>
      </trkpt>
      <trkpt lat="32.582010000000004" lon="34.975640000000006">
        <ele>27</ele>
        <time>2020-09-30T14:53:22.992Z</time>
      </trkpt>
      <trkpt lat="32.581630000000004" lon="34.977320000000006">
        <ele>27</ele>
        <time>2020-09-30T14:53:23.992Z</time>
      </trkpt>
      <trkpt lat="32.581410000000005" lon="34.978320000000004">
        <ele>31</ele>
        <time>2020-09-30T14:53:24.992Z</time>
      </trkpt>
      <trkpt lat="32.581140000000005" lon="34.979310000000005">
        <ele>43</ele>
        <time>2020-09-30T14:53:25.992Z</time>
      </trkpt>
      <trkpt lat="32.581050000000005" lon="34.97955">
        <ele>43</ele>
        <time>2020-09-30T14:53:26.992Z</time>
      </trkpt>
      <trkpt lat="32.58102" lon="34.97961">
        <ele>46</ele>
        <time>2020-09-30T14:53:27.992Z</time>
      </trkpt>
      <trkpt lat="32.58102" lon="34.97961">
        <ele>46</ele>
        <time>2020-09-30T14:53:28.992Z</time>
      </trkpt>
      <trkpt lat="32.581050000000005" lon="34.97955">
        <ele>43</ele>
        <time>2020-09-30T14:53:29.992Z</time>
      </trkpt>
      <trkpt lat="32.580980000000004" lon="34.97955">
        <ele>43</ele>
        <time>2020-09-30T14:53:30.992Z</time>
      </trkpt>
      <trkpt lat="32.58091" lon="34.979510000000005">
        <ele>43</ele>
        <time>2020-09-30T14:53:31.992Z</time>
      </trkpt>
      <trkpt lat="32.58088" lon="34.979440000000004">
        <ele>43</ele>
        <time>2020-09-30T14:53:32.992Z</time>
      </trkpt>
      <trkpt lat="32.580830000000006" lon="34.979200000000006">
        <ele>43</ele>
        <time>2020-09-30T14:53:33.992Z</time>
      </trkpt>
      <trkpt lat="32.58072" lon="34.978860000000005">
        <ele>44</ele>
        <time>2020-09-30T14:53:34.992Z</time>
      </trkpt>
      <trkpt lat="32.580650000000006" lon="34.97867">
        <ele>44</ele>
        <time>2020-09-30T14:53:35.992Z</time>
      </trkpt>
      <trkpt lat="32.58055" lon="34.97852">
        <ele>44</ele>
        <time>2020-09-30T14:53:36.992Z</time>
      </trkpt>
      <trkpt lat="32.58055" lon="34.97852">
        <ele>44</ele>
        <time>2020-09-30T14:53:37.992Z</time>
      </trkpt>
      <trkpt lat="32.580450000000006" lon="34.978440000000006">
        <ele>44</ele>
        <time>2020-09-30T14:53:38.992Z</time>
      </trkpt>
      <trkpt lat="32.58003" lon="34.978170000000006">
        <ele>47</ele>
        <time>2020-09-30T14:53:39.992Z</time>
      </trkpt>
      <trkpt lat="32.57945" lon="34.97791">
        <ele>55</ele>
        <time>2020-09-30T14:53:40.992Z</time>
      </trkpt>
      <trkpt lat="32.57903" lon="34.97769">
        <ele>55</ele>
        <time>2020-09-30T14:53:41.992Z</time>
      </trkpt>
      <trkpt lat="32.578790000000005" lon="34.97744">
        <ele>43</ele>
        <time>2020-09-30T14:53:42.992Z</time>
      </trkpt>
      <trkpt lat="32.57866" lon="34.97733">
        <ele>52</ele>
        <time>2020-09-30T14:53:43.992Z</time>
      </trkpt>
      <trkpt lat="32.578410000000005" lon="34.977180000000004">
        <ele>52</ele>
        <time>2020-09-30T14:53:44.992Z</time>
      </trkpt>
      <trkpt lat="32.57819" lon="34.97708">
        <ele>52</ele>
        <time>2020-09-30T14:53:45.992Z</time>
      </trkpt>
      <trkpt lat="32.577940000000005" lon="34.976940000000006">
        <ele>52</ele>
        <time>2020-09-30T14:53:46.992Z</time>
      </trkpt>
      <trkpt lat="32.577580000000005" lon="34.976850000000006">
        <ele>62</ele>
        <time>2020-09-30T14:53:47.992Z</time>
      </trkpt>
      <trkpt lat="32.577450000000006" lon="34.97683">
        <ele>62</ele>
        <time>2020-09-30T14:53:48.992Z</time>
      </trkpt>
      <trkpt lat="32.57715" lon="34.97684">
        <ele>62</ele>
        <time>2020-09-30T14:53:49.992Z</time>
      </trkpt>
      <trkpt lat="32.57712" lon="34.97683">
        <ele>69.5</ele>
        <time>2020-09-30T14:53:50.992Z</time>
      </trkpt>
      <trkpt lat="32.57712" lon="34.97683">
        <ele>69.5</ele>
        <time>2020-09-30T14:53:51.992Z</time>
      </trkpt>
      <trkpt lat="32.57697" lon="34.976760000000006">
        <ele>77</ele>
        <time>2020-09-30T14:53:52.992Z</time>
      </trkpt>
      <trkpt lat="32.5769" lon="34.97674">
        <ele>77</ele>
        <time>2020-09-30T14:53:53.992Z</time>
      </trkpt>
      <trkpt lat="32.57663" lon="34.97679">
        <ele>77</ele>
        <time>2020-09-30T14:53:54.992Z</time>
      </trkpt>
      <trkpt lat="32.57656" lon="34.97677">
        <ele>77</ele>
        <time>2020-09-30T14:53:55.992Z</time>
      </trkpt>
      <trkpt lat="32.576370000000004" lon="34.97666">
        <ele>75</ele>
        <time>2020-09-30T14:53:56.992Z</time>
      </trkpt>
      <trkpt lat="32.576240000000006" lon="34.97663">
        <ele>75</ele>
        <time>2020-09-30T14:53:57.992Z</time>
      </trkpt>
      <trkpt lat="32.57598" lon="34.97663">
        <ele>87</ele>
        <time>2020-09-30T14:53:58.992Z</time>
      </trkpt>
      <trkpt lat="32.575430000000004" lon="34.976510000000005">
        <ele>87</ele>
        <time>2020-09-30T14:53:59.992Z</time>
      </trkpt>
      <trkpt lat="32.57531" lon="34.97646">
        <ele>96</ele>
        <time>2020-09-30T14:54:00.992Z</time>
      </trkpt>
      <trkpt lat="32.57504" lon="34.97626">
        <ele>96</ele>
        <time>2020-09-30T14:54:01.992Z</time>
      </trkpt>
      <trkpt lat="32.574540000000006" lon="34.97594">
        <ele>96</ele>
        <time>2020-09-30T14:54:02.992Z</time>
      </trkpt>
      <trkpt lat="32.5743" lon="34.975730000000006">
        <ele>102</ele>
        <time>2020-09-30T14:54:03.992Z</time>
      </trkpt>
      <trkpt lat="32.574200000000005" lon="34.97567">
        <ele>102</ele>
        <time>2020-09-30T14:54:04.992Z</time>
      </trkpt>
      <trkpt lat="32.573910000000005" lon="34.975530000000006">
        <ele>102</ele>
        <time>2020-09-30T14:54:05.992Z</time>
      </trkpt>
      <trkpt lat="32.57368" lon="34.9754">
        <ele>118</ele>
        <time>2020-09-30T14:54:06.992Z</time>
      </trkpt>
      <trkpt lat="32.57316" lon="34.97522">
        <ele>118</ele>
        <time>2020-09-30T14:54:07.992Z</time>
      </trkpt>
      <trkpt lat="32.57298" lon="34.97507">
        <ele>118</ele>
        <time>2020-09-30T14:54:08.992Z</time>
      </trkpt>
      <trkpt lat="32.57275" lon="34.974970000000006">
        <ele>123</ele>
        <time>2020-09-30T14:54:09.992Z</time>
      </trkpt>
      <trkpt lat="32.57265" lon="34.97489">
        <ele>123</ele>
        <time>2020-09-30T14:54:10.992Z</time>
      </trkpt>
      <trkpt lat="32.57258" lon="34.97477">
        <ele>123</ele>
        <time>2020-09-30T14:54:11.992Z</time>
      </trkpt>
      <trkpt lat="32.57253" lon="34.974560000000004">
        <ele>123</ele>
        <time>2020-09-30T14:54:12.992Z</time>
      </trkpt>
      <trkpt lat="32.572480000000006" lon="34.974500000000006">
        <ele>123</ele>
        <time>2020-09-30T14:54:13.992Z</time>
      </trkpt>
      <trkpt lat="32.57242" lon="34.97446">
        <ele>124</ele>
        <time>2020-09-30T14:54:14.992Z</time>
      </trkpt>
      <trkpt lat="32.57242" lon="34.97446">
        <ele>124</ele>
        <time>2020-09-30T14:54:15.992Z</time>
      </trkpt>
      <trkpt lat="32.57181" lon="34.974120000000006">
        <ele>125</ele>
        <time>2020-09-30T14:54:16.992Z</time>
      </trkpt>
      <trkpt lat="32.57164" lon="34.974000000000004">
        <ele>125</ele>
        <time>2020-09-30T14:54:17.992Z</time>
      </trkpt>
      <trkpt lat="32.57157" lon="34.974000000000004">
        <ele>125</ele>
        <time>2020-09-30T14:54:18.992Z</time>
      </trkpt>
      <trkpt lat="32.5707" lon="34.97421">
        <ele>131</ele>
        <time>2020-09-30T14:54:19.992Z</time>
      </trkpt>
      <trkpt lat="32.57054" lon="34.9742">
        <ele>131</ele>
        <time>2020-09-30T14:54:20.992Z</time>
      </trkpt>
      <trkpt lat="32.57023" lon="34.974140000000006">
        <ele>119</ele>
        <time>2020-09-30T14:54:21.992Z</time>
      </trkpt>
      <trkpt lat="32.569860000000006" lon="34.974140000000006">
        <ele>119</ele>
        <time>2020-09-30T14:54:22.992Z</time>
      </trkpt>
      <trkpt lat="32.56954" lon="34.97419">
        <ele>127</ele>
        <time>2020-09-30T14:54:23.992Z</time>
      </trkpt>
      <trkpt lat="32.56835" lon="34.97417">
        <ele>111</ele>
        <time>2020-09-30T14:54:24.992Z</time>
      </trkpt>
      <trkpt lat="32.56808" lon="34.974120000000006">
        <ele>111</ele>
        <time>2020-09-30T14:54:25.992Z</time>
      </trkpt>
      <trkpt lat="32.567930000000004" lon="34.97406">
        <ele>111</ele>
        <time>2020-09-30T14:54:26.992Z</time>
      </trkpt>
      <trkpt lat="32.567710000000005" lon="34.9739">
        <ele>104</ele>
        <time>2020-09-30T14:54:27.992Z</time>
      </trkpt>
      <trkpt lat="32.567530000000005" lon="34.973690000000005">
        <ele>104</ele>
        <time>2020-09-30T14:54:28.992Z</time>
      </trkpt>
      <trkpt lat="32.567330000000005" lon="34.973490000000005">
        <ele>104</ele>
        <time>2020-09-30T14:54:29.992Z</time>
      </trkpt>
      <trkpt lat="32.567170000000004" lon="34.973150000000004">
        <ele>103</ele>
        <time>2020-09-30T14:54:30.992Z</time>
      </trkpt>
      <trkpt lat="32.5672" lon="34.97339">
        <ele>104</ele>
        <time>2020-09-30T14:54:31.992Z</time>
      </trkpt>
      <trkpt lat="32.5672" lon="34.973490000000005">
        <ele>104</ele>
        <time>2020-09-30T14:54:32.992Z</time>
      </trkpt>
      <trkpt lat="32.5672" lon="34.973490000000005">
        <ele>104</ele>
        <time>2020-09-30T14:54:33.992Z</time>
      </trkpt>
      <trkpt lat="32.5672" lon="34.97339">
        <ele>104</ele>
        <time>2020-09-30T14:54:34.992Z</time>
      </trkpt>
      <trkpt lat="32.567170000000004" lon="34.973150000000004">
        <ele>103</ele>
        <time>2020-09-30T14:54:35.992Z</time>
      </trkpt>
      <trkpt lat="32.56707" lon="34.9728">
        <ele>103</ele>
        <time>2020-09-30T14:54:36.992Z</time>
      </trkpt>
      <trkpt lat="32.566950000000006" lon="34.97245">
        <ele>98</ele>
        <time>2020-09-30T14:54:37.992Z</time>
      </trkpt>
      <trkpt lat="32.566790000000005" lon="34.97233">
        <ele>98</ele>
        <time>2020-09-30T14:54:38.992Z</time>
      </trkpt>
      <trkpt lat="32.566590000000005" lon="34.97213">
        <ele>98</ele>
        <time>2020-09-30T14:54:39.992Z</time>
      </trkpt>
      <trkpt lat="32.56645" lon="34.972100000000005">
        <ele>98</ele>
        <time>2020-09-30T14:54:40.992Z</time>
      </trkpt>
      <trkpt lat="32.56622" lon="34.971990000000005">
        <ele>98</ele>
        <time>2020-09-30T14:54:41.992Z</time>
      </trkpt>
      <trkpt lat="32.56608" lon="34.971940000000004">
        <ele>101.5</ele>
        <time>2020-09-30T14:54:42.992Z</time>
      </trkpt>
      <trkpt lat="32.56608" lon="34.971940000000004">
        <ele>101.5</ele>
        <time>2020-09-30T14:54:43.992Z</time>
      </trkpt>
      <trkpt lat="32.56557" lon="34.97177">
        <ele>105</ele>
        <time>2020-09-30T14:54:44.992Z</time>
      </trkpt>
      <trkpt lat="32.56543" lon="34.97176">
        <ele>105</ele>
        <time>2020-09-30T14:54:45.992Z</time>
      </trkpt>
      <trkpt lat="32.56535" lon="34.97173">
        <ele>109</ele>
        <time>2020-09-30T14:54:46.992Z</time>
      </trkpt>
      <trkpt lat="32.565020000000004" lon="34.971720000000005">
        <ele>109</ele>
        <time>2020-09-30T14:54:47.992Z</time>
      </trkpt>
      <trkpt lat="32.56494" lon="34.971680000000006">
        <ele>94</ele>
        <time>2020-09-30T14:54:48.992Z</time>
      </trkpt>
      <trkpt lat="32.56485" lon="34.971680000000006">
        <ele>94</ele>
        <time>2020-09-30T14:54:49.992Z</time>
      </trkpt>
      <trkpt lat="32.56477" lon="34.97164">
        <ele>94</ele>
        <time>2020-09-30T14:54:50.992Z</time>
      </trkpt>
      <trkpt lat="32.5647" lon="34.97164">
        <ele>94</ele>
        <time>2020-09-30T14:54:51.992Z</time>
      </trkpt>
      <trkpt lat="32.56465" lon="34.971610000000005">
        <ele>94</ele>
        <time>2020-09-30T14:54:52.992Z</time>
      </trkpt>
      <trkpt lat="32.56456" lon="34.971590000000006">
        <ele>94</ele>
        <time>2020-09-30T14:54:53.992Z</time>
      </trkpt>
      <trkpt lat="32.5644" lon="34.97151">
        <ele>94</ele>
        <time>2020-09-30T14:54:54.992Z</time>
      </trkpt>
      <trkpt lat="32.56419" lon="34.971320000000006">
        <ele>94</ele>
        <time>2020-09-30T14:54:55.992Z</time>
      </trkpt>
      <trkpt lat="32.5636" lon="34.970980000000004">
        <ele>100</ele>
        <time>2020-09-30T14:54:56.992Z</time>
      </trkpt>
      <trkpt lat="32.56306" lon="34.97036">
        <ele>87</ele>
        <time>2020-09-30T14:54:57.992Z</time>
      </trkpt>
      <trkpt lat="32.56284" lon="34.970270000000006">
        <ele>84</ele>
        <time>2020-09-30T14:54:58.992Z</time>
      </trkpt>
      <trkpt lat="32.562540000000006" lon="34.970220000000005">
        <ele>84</ele>
        <time>2020-09-30T14:54:59.992Z</time>
      </trkpt>
      <trkpt lat="32.562360000000005" lon="34.97014">
        <ele>84</ele>
        <time>2020-09-30T14:55:00.992Z</time>
      </trkpt>
      <trkpt lat="32.56219" lon="34.97014">
        <ele>84</ele>
        <time>2020-09-30T14:55:01.992Z</time>
      </trkpt>
      <trkpt lat="32.562000000000005" lon="34.970180000000006">
        <ele>89</ele>
        <time>2020-09-30T14:55:02.992Z</time>
      </trkpt>
      <trkpt lat="32.561820000000004" lon="34.97017">
        <ele>89</ele>
        <time>2020-09-30T14:55:03.992Z</time>
      </trkpt>
      <trkpt lat="32.56159" lon="34.97005">
        <ele>81</ele>
        <time>2020-09-30T14:55:04.992Z</time>
      </trkpt>
      <trkpt lat="32.56159" lon="34.97005">
        <ele>81</ele>
        <time>2020-09-30T14:55:05.992Z</time>
      </trkpt>
      <trkpt lat="32.561510000000006" lon="34.97001">
        <ele>73</ele>
        <time>2020-09-30T14:55:06.992Z</time>
      </trkpt>
      <trkpt lat="32.56129" lon="34.96979">
        <ele>73</ele>
        <time>2020-09-30T14:55:07.992Z</time>
      </trkpt>
      <trkpt lat="32.56098" lon="34.96958">
        <ele>85</ele>
        <time>2020-09-30T14:55:08.992Z</time>
      </trkpt>
      <trkpt lat="32.560860000000005" lon="34.96947">
        <ele>85</ele>
        <time>2020-09-30T14:55:09.992Z</time>
      </trkpt>
      <trkpt lat="32.56067" lon="34.96936">
        <ele>85</ele>
        <time>2020-09-30T14:55:10.992Z</time>
      </trkpt>
      <trkpt lat="32.560500000000005" lon="34.969280000000005">
        <ele>85</ele>
        <time>2020-09-30T14:55:11.992Z</time>
      </trkpt>
      <trkpt lat="32.56022" lon="34.96923">
        <ele>97</ele>
        <time>2020-09-30T14:55:12.992Z</time>
      </trkpt>
      <trkpt lat="32.56011" lon="34.96916">
        <ele>76</ele>
        <time>2020-09-30T14:55:13.992Z</time>
      </trkpt>
      <trkpt lat="32.559850000000004" lon="34.968970000000006">
        <ele>76</ele>
        <time>2020-09-30T14:55:14.992Z</time>
      </trkpt>
      <trkpt lat="32.559650000000005" lon="34.96887">
        <ele>76</ele>
        <time>2020-09-30T14:55:15.992Z</time>
      </trkpt>
      <trkpt lat="32.559110000000004" lon="34.96875">
        <ele>77</ele>
        <time>2020-09-30T14:55:16.992Z</time>
      </trkpt>
      <trkpt lat="32.559000000000005" lon="34.96869">
        <ele>77</ele>
        <time>2020-09-30T14:55:17.992Z</time>
      </trkpt>
      <trkpt lat="32.55888" lon="34.96858">
        <ele>77</ele>
        <time>2020-09-30T14:55:18.992Z</time>
      </trkpt>
      <trkpt lat="32.55877" lon="34.96853">
        <ele>77</ele>
        <time>2020-09-30T14:55:19.992Z</time>
      </trkpt>
      <trkpt lat="32.558530000000005" lon="34.968520000000005">
        <ele>74</ele>
        <time>2020-09-30T14:55:20.992Z</time>
      </trkpt>
      <trkpt lat="32.558400000000006" lon="34.968450000000004">
        <ele>74</ele>
        <time>2020-09-30T14:55:21.992Z</time>
      </trkpt>
      <trkpt lat="32.55809" lon="34.968140000000005">
        <ele>58</ele>
        <time>2020-09-30T14:55:22.992Z</time>
      </trkpt>
      <trkpt lat="32.55794" lon="34.96806">
        <ele>58</ele>
        <time>2020-09-30T14:55:23.992Z</time>
      </trkpt>
      <trkpt lat="32.55787" lon="34.96806">
        <ele>58</ele>
        <time>2020-09-30T14:55:24.992Z</time>
      </trkpt>
      <trkpt lat="32.557750000000006" lon="34.968120000000006">
        <ele>55</ele>
        <time>2020-09-30T14:55:25.992Z</time>
      </trkpt>
      <trkpt lat="32.55767" lon="34.968140000000005">
        <ele>55</ele>
        <time>2020-09-30T14:55:26.992Z</time>
      </trkpt>
      <trkpt lat="32.55754" lon="34.968120000000006">
        <ele>55</ele>
        <time>2020-09-30T14:55:27.992Z</time>
      </trkpt>
      <trkpt lat="32.557410000000004" lon="34.968050000000005">
        <ele>55</ele>
        <time>2020-09-30T14:55:28.992Z</time>
      </trkpt>
      <trkpt lat="32.557320000000004" lon="34.968030000000006">
        <ele>55</ele>
        <time>2020-09-30T14:55:29.992Z</time>
      </trkpt>
      <trkpt lat="32.55722" lon="34.968030000000006">
        <ele>55</ele>
        <time>2020-09-30T14:55:30.992Z</time>
      </trkpt>
      <trkpt lat="32.55722" lon="34.968030000000006">
        <ele>55</ele>
        <time>2020-09-30T14:55:31.992Z</time>
      </trkpt>
      <trkpt lat="32.557140000000004" lon="34.968050000000005">
        <ele>55</ele>
        <time>2020-09-30T14:55:32.992Z</time>
      </trkpt>
      <trkpt lat="32.55666" lon="34.968050000000005">
        <ele>58</ele>
        <time>2020-09-30T14:55:33.992Z</time>
      </trkpt>
      <trkpt lat="32.55612" lon="34.9682">
        <ele>58</ele>
        <time>2020-09-30T14:55:34.992Z</time>
      </trkpt>
      <trkpt lat="32.555960000000006" lon="34.9682">
        <ele>58</ele>
        <time>2020-09-30T14:55:35.992Z</time>
      </trkpt>
      <trkpt lat="32.555910000000004" lon="34.968180000000004">
        <ele>58</ele>
        <time>2020-09-30T14:55:36.992Z</time>
      </trkpt>
      <trkpt lat="32.55577" lon="34.968050000000005">
        <ele>58</ele>
        <time>2020-09-30T14:55:37.992Z</time>
      </trkpt>
      <trkpt lat="32.555440000000004" lon="34.967830000000006">
        <ele>58</ele>
        <time>2020-09-30T14:55:38.992Z</time>
      </trkpt>
      <trkpt lat="32.555150000000005" lon="34.967580000000005">
        <ele>65</ele>
        <time>2020-09-30T14:55:39.992Z</time>
      </trkpt>
      <trkpt lat="32.554700000000004" lon="34.96723">
        <ele>50</ele>
        <time>2020-09-30T14:55:40.992Z</time>
      </trkpt>
      <trkpt lat="32.55442" lon="34.96708">
        <ele>52</ele>
        <time>2020-09-30T14:55:41.992Z</time>
      </trkpt>
      <trkpt lat="32.55397" lon="34.967040000000004">
        <ele>52</ele>
        <time>2020-09-30T14:55:42.992Z</time>
      </trkpt>
      <trkpt lat="32.55378" lon="34.96699">
        <ele>52</ele>
        <time>2020-09-30T14:55:43.992Z</time>
      </trkpt>
      <trkpt lat="32.55366" lon="34.96694">
        <ele>49</ele>
        <time>2020-09-30T14:55:44.992Z</time>
      </trkpt>
      <trkpt lat="32.553490000000004" lon="34.96694">
        <ele>49</ele>
        <time>2020-09-30T14:55:45.992Z</time>
      </trkpt>
      <trkpt lat="32.55326" lon="34.967040000000004">
        <ele>49</ele>
        <time>2020-09-30T14:55:46.992Z</time>
      </trkpt>
      <trkpt lat="32.55299" lon="34.967270000000006">
        <ele>49</ele>
        <time>2020-09-30T14:55:47.992Z</time>
      </trkpt>
      <trkpt lat="32.55299" lon="34.967270000000006">
        <ele>49</ele>
        <time>2020-09-30T14:55:48.992Z</time>
      </trkpt>
      <trkpt lat="32.55295" lon="34.9673">
        <ele>49</ele>
        <time>2020-09-30T14:55:49.992Z</time>
      </trkpt>
      <trkpt lat="32.552690000000005" lon="34.96768">
        <ele>47</ele>
        <time>2020-09-30T14:55:50.992Z</time>
      </trkpt>
      <trkpt lat="32.552620000000005" lon="34.967740000000006">
        <ele>47</ele>
        <time>2020-09-30T14:55:51.992Z</time>
      </trkpt>
      <trkpt lat="32.55241" lon="34.968">
        <ele>47</ele>
        <time>2020-09-30T14:55:52.992Z</time>
      </trkpt>
      <trkpt lat="32.552330000000005" lon="34.968140000000005">
        <ele>47</ele>
        <time>2020-09-30T14:55:53.992Z</time>
      </trkpt>
      <trkpt lat="32.552260000000004" lon="34.968210000000006">
        <ele>47</ele>
        <time>2020-09-30T14:55:54.992Z</time>
      </trkpt>
      <trkpt lat="32.55218" lon="34.968340000000005">
        <ele>47</ele>
        <time>2020-09-30T14:55:55.992Z</time>
      </trkpt>
      <trkpt lat="32.55196" lon="34.968590000000006">
        <ele>62</ele>
        <time>2020-09-30T14:55:56.992Z</time>
      </trkpt>
      <trkpt lat="32.551700000000004" lon="34.96851">
        <ele>62</ele>
        <time>2020-09-30T14:55:57.992Z</time>
      </trkpt>
      <trkpt lat="32.55138" lon="34.96811">
        <ele>49</ele>
        <time>2020-09-30T14:55:58.992Z</time>
      </trkpt>
      <trkpt lat="32.55084" lon="34.9673">
        <ele>47</ele>
        <time>2020-09-30T14:55:59.992Z</time>
      </trkpt>
      <trkpt lat="32.55062" lon="34.967220000000005">
        <ele>47</ele>
        <time>2020-09-30T14:56:00.992Z</time>
      </trkpt>
      <trkpt lat="32.55004" lon="34.967090000000006">
        <ele>49</ele>
        <time>2020-09-30T14:56:01.992Z</time>
      </trkpt>
      <trkpt lat="32.5497" lon="34.96692">
        <ele>49</ele>
        <time>2020-09-30T14:56:02.992Z</time>
      </trkpt>
      <trkpt lat="32.549600000000005" lon="34.9667">
        <ele>49</ele>
        <time>2020-09-30T14:56:03.992Z</time>
      </trkpt>
      <trkpt lat="32.549310000000006" lon="34.96636">
        <ele>36</ele>
        <time>2020-09-30T14:56:04.992Z</time>
      </trkpt>
      <trkpt lat="32.549260000000004" lon="34.96616">
        <ele>36</ele>
        <time>2020-09-30T14:56:05.992Z</time>
      </trkpt>
      <trkpt lat="32.549110000000006" lon="34.965810000000005">
        <ele>33</ele>
        <time>2020-09-30T14:56:06.992Z</time>
      </trkpt>
      <trkpt lat="32.5489" lon="34.965700000000005">
        <ele>33</ele>
        <time>2020-09-30T14:56:07.992Z</time>
      </trkpt>
      <trkpt lat="32.548550000000006" lon="34.96562">
        <ele>34</ele>
        <time>2020-09-30T14:56:08.992Z</time>
      </trkpt>
      <trkpt lat="32.548210000000005" lon="34.96542">
        <ele>34</ele>
        <time>2020-09-30T14:56:09.992Z</time>
      </trkpt>
      <trkpt lat="32.54777" lon="34.96491">
        <ele>33</ele>
        <time>2020-09-30T14:56:10.992Z</time>
      </trkpt>
      <trkpt lat="32.546350000000004" lon="34.9635">
        <ele>33.5</ele>
        <time>2020-09-30T14:56:11.992Z</time>
      </trkpt>
      <trkpt lat="32.546350000000004" lon="34.9635">
        <ele>33.5</ele>
        <time>2020-09-30T14:56:12.992Z</time>
      </trkpt>
      <trkpt lat="32.546200000000006" lon="34.963350000000005">
        <ele>34</ele>
        <time>2020-09-30T14:56:13.992Z</time>
      </trkpt>
      <trkpt lat="32.54634" lon="34.962920000000004">
        <ele>37</ele>
        <time>2020-09-30T14:56:14.992Z</time>
      </trkpt>
      <trkpt lat="32.54656" lon="34.962650000000004">
        <ele>37</ele>
        <time>2020-09-30T14:56:15.992Z</time>
      </trkpt>
      <trkpt lat="32.54712" lon="34.9621">
        <ele>39</ele>
        <time>2020-09-30T14:56:16.992Z</time>
      </trkpt>
      <trkpt lat="32.54806" lon="34.961220000000004">
        <ele>39</ele>
        <time>2020-09-30T14:56:17.992Z</time>
      </trkpt>
      <trkpt lat="32.54796" lon="34.96115">
        <ele>36.5</ele>
        <time>2020-09-30T14:56:18.992Z</time>
      </trkpt>
      <trkpt lat="32.54796" lon="34.96115">
        <ele>36.5</ele>
        <time>2020-09-30T14:56:19.992Z</time>
      </trkpt>
      <trkpt lat="32.546640000000004" lon="34.960150000000006">
        <ele>32</ele>
        <time>2020-09-30T14:56:20.992Z</time>
      </trkpt>
      <trkpt lat="32.54638" lon="34.96">
        <ele>29</ele>
        <time>2020-09-30T14:56:21.992Z</time>
      </trkpt>
      <trkpt lat="32.54618" lon="34.96">
        <ele>27</ele>
        <time>2020-09-30T14:56:22.992Z</time>
      </trkpt>
      <trkpt lat="32.54581" lon="34.959790000000005">
        <ele>27</ele>
        <time>2020-09-30T14:56:23.992Z</time>
      </trkpt>
      <trkpt lat="32.54542" lon="34.95922">
        <ele>27</ele>
        <time>2020-09-30T14:56:24.992Z</time>
      </trkpt>
      <trkpt lat="32.54495" lon="34.958420000000004">
        <ele>24</ele>
        <time>2020-09-30T14:56:25.992Z</time>
      </trkpt>
      <trkpt lat="32.54497" lon="34.95826">
        <ele>25</ele>
        <time>2020-09-30T14:56:26.992Z</time>
      </trkpt>
      <trkpt lat="32.54505" lon="34.95815">
        <ele>25</ele>
        <time>2020-09-30T14:56:27.992Z</time>
      </trkpt>
      <trkpt lat="32.54534" lon="34.95787">
        <ele>25</ele>
        <time>2020-09-30T14:56:28.992Z</time>
      </trkpt>
      <trkpt lat="32.54578" lon="34.95747">
        <ele>31</ele>
        <time>2020-09-30T14:56:29.992Z</time>
      </trkpt>
      <trkpt lat="32.54638" lon="34.95684">
        <ele>33.5</ele>
        <time>2020-09-30T14:56:30.992Z</time>
      </trkpt>
      <trkpt lat="32.54638" lon="34.95684">
        <ele>33.5</ele>
        <time>2020-09-30T14:56:31.992Z</time>
      </trkpt>
      <trkpt lat="32.546600000000005" lon="34.95662">
        <ele>36</ele>
        <time>2020-09-30T14:56:32.992Z</time>
      </trkpt>
      <trkpt lat="32.54701" lon="34.956100000000006">
        <ele>36</ele>
        <time>2020-09-30T14:56:33.992Z</time>
      </trkpt>
      <trkpt lat="32.54726" lon="34.95591">
        <ele>37</ele>
        <time>2020-09-30T14:56:34.992Z</time>
      </trkpt>
      <trkpt lat="32.54778" lon="34.95539">
        <ele>41</ele>
        <time>2020-09-30T14:56:35.992Z</time>
      </trkpt>
      <trkpt lat="32.54782" lon="34.95528">
        <ele>41</ele>
        <time>2020-09-30T14:56:36.992Z</time>
      </trkpt>
      <trkpt lat="32.54778" lon="34.95512">
        <ele>41</ele>
        <time>2020-09-30T14:56:37.992Z</time>
      </trkpt>
      <trkpt lat="32.547700000000006" lon="34.95508">
        <ele>41</ele>
        <time>2020-09-30T14:56:38.992Z</time>
      </trkpt>
      <trkpt lat="32.54784" lon="34.9551">
        <ele>44.5</ele>
        <time>2020-09-30T14:56:39.992Z</time>
      </trkpt>
      <trkpt lat="32.54784" lon="34.9551">
        <ele>44.5</ele>
        <time>2020-09-30T14:56:40.992Z</time>
      </trkpt>
      <trkpt lat="32.54749" lon="34.955040000000004">
        <ele>41</ele>
        <time>2020-09-30T14:56:41.992Z</time>
      </trkpt>
      <trkpt lat="32.547450000000005" lon="34.954950000000004">
        <ele>46</ele>
        <time>2020-09-30T14:56:42.992Z</time>
      </trkpt>
      <trkpt lat="32.54748" lon="34.954890000000006">
        <ele>46</ele>
        <time>2020-09-30T14:56:43.992Z</time>
      </trkpt>
      <trkpt lat="32.54753" lon="34.95485">
        <ele>46</ele>
        <time>2020-09-30T14:56:44.992Z</time>
      </trkpt>
      <trkpt lat="32.547560000000004" lon="34.95468">
        <ele>46</ele>
        <time>2020-09-30T14:56:45.992Z</time>
      </trkpt>
      <trkpt lat="32.547540000000005" lon="34.954510000000006">
        <ele>46</ele>
        <time>2020-09-30T14:56:46.992Z</time>
      </trkpt>
      <trkpt lat="32.5476" lon="34.95432">
        <ele>46</ele>
        <time>2020-09-30T14:56:47.992Z</time>
      </trkpt>
      <trkpt lat="32.547670000000004" lon="34.9542">
        <ele>46.5</ele>
        <time>2020-09-30T14:56:48.992Z</time>
      </trkpt>
      <trkpt lat="32.547670000000004" lon="34.9542">
        <ele>46.5</ele>
        <time>2020-09-30T14:56:49.992Z</time>
      </trkpt>
      <trkpt lat="32.54778" lon="34.954010000000004">
        <ele>47</ele>
        <time>2020-09-30T14:56:50.992Z</time>
      </trkpt>
      <trkpt lat="32.547810000000005" lon="34.95393">
        <ele>47</ele>
        <time>2020-09-30T14:56:51.992Z</time>
      </trkpt>
      <trkpt lat="32.54787" lon="34.953630000000004">
        <ele>51</ele>
        <time>2020-09-30T14:56:52.992Z</time>
      </trkpt>
      <trkpt lat="32.548" lon="34.953680000000006">
        <ele>51</ele>
        <time>2020-09-30T14:56:53.992Z</time>
      </trkpt>
      <trkpt lat="32.548370000000006" lon="34.95375">
        <ele>51</ele>
        <time>2020-09-30T14:56:54.992Z</time>
      </trkpt>
      <trkpt lat="32.548730000000006" lon="34.95375">
        <ele>59</ele>
        <time>2020-09-30T14:56:55.992Z</time>
      </trkpt>
      <trkpt lat="32.54889" lon="34.953700000000005">
        <ele>59</ele>
        <time>2020-09-30T14:56:56.992Z</time>
      </trkpt>
      <trkpt lat="32.549240000000005" lon="34.95371">
        <ele>59</ele>
        <time>2020-09-30T14:56:57.992Z</time>
      </trkpt>
      <trkpt lat="32.549350000000004" lon="34.95369">
        <ele>59</ele>
        <time>2020-09-30T14:56:58.992Z</time>
      </trkpt>
      <trkpt lat="32.549420000000005" lon="34.953630000000004">
        <ele>59</ele>
        <time>2020-09-30T14:56:59.992Z</time>
      </trkpt>
      <trkpt lat="32.54943" lon="34.95355">
        <ele>59</ele>
        <time>2020-09-30T14:57:00.992Z</time>
      </trkpt>
      <trkpt lat="32.54943" lon="34.95355">
        <ele>59</ele>
        <time>2020-09-30T14:57:01.992Z</time>
      </trkpt>
      <trkpt lat="32.549400000000006" lon="34.953120000000006">
        <ele>61</ele>
        <time>2020-09-30T14:57:02.992Z</time>
      </trkpt>
      <trkpt lat="32.54937" lon="34.95299">
        <ele>61</ele>
        <time>2020-09-30T14:57:03.992Z</time>
      </trkpt>
      <trkpt lat="32.54939" lon="34.9529">
        <ele>61</ele>
        <time>2020-09-30T14:57:04.992Z</time>
      </trkpt>
      <trkpt lat="32.54955" lon="34.952740000000006">
        <ele>65</ele>
        <time>2020-09-30T14:57:05.992Z</time>
      </trkpt>
      <trkpt lat="32.549600000000005" lon="34.95266">
        <ele>65</ele>
        <time>2020-09-30T14:57:06.992Z</time>
      </trkpt>
      <trkpt lat="32.549620000000004" lon="34.9525">
        <ele>70</ele>
        <time>2020-09-30T14:57:07.992Z</time>
      </trkpt>
      <trkpt lat="32.549640000000004" lon="34.95243">
        <ele>70</ele>
        <time>2020-09-30T14:57:08.992Z</time>
      </trkpt>
      <trkpt lat="32.549730000000004" lon="34.95233">
        <ele>70</ele>
        <time>2020-09-30T14:57:09.992Z</time>
      </trkpt>
      <trkpt lat="32.54984" lon="34.952360000000006">
        <ele>70</ele>
        <time>2020-09-30T14:57:10.992Z</time>
      </trkpt>
      <trkpt lat="32.55004" lon="34.95266">
        <ele>67.5</ele>
        <time>2020-09-30T14:57:11.992Z</time>
      </trkpt>
      <trkpt lat="32.55004" lon="34.95266">
        <ele>67.5</ele>
        <time>2020-09-30T14:57:12.992Z</time>
      </trkpt>
      <trkpt lat="32.54984" lon="34.952360000000006">
        <ele>70</ele>
        <time>2020-09-30T14:57:13.992Z</time>
      </trkpt>
      <trkpt lat="32.54992" lon="34.952310000000004">
        <ele>70</ele>
        <time>2020-09-30T14:57:14.992Z</time>
      </trkpt>
      <trkpt lat="32.5499" lon="34.952180000000006">
        <ele>70</ele>
        <time>2020-09-30T14:57:15.992Z</time>
      </trkpt>
      <trkpt lat="32.54993" lon="34.95217">
        <ele>70</ele>
        <time>2020-09-30T14:57:16.992Z</time>
      </trkpt>
      <trkpt lat="32.54997" lon="34.952070000000006">
        <ele>70</ele>
        <time>2020-09-30T14:57:17.992Z</time>
      </trkpt>
      <trkpt lat="32.55001" lon="34.95185">
        <ele>70</ele>
        <time>2020-09-30T14:57:18.992Z</time>
      </trkpt>
      <trkpt lat="32.550090000000004" lon="34.95177">
        <ele>70</ele>
        <time>2020-09-30T14:57:19.992Z</time>
      </trkpt>
      <trkpt lat="32.55012" lon="34.951820000000005">
        <ele>70</ele>
        <time>2020-09-30T14:57:20.992Z</time>
      </trkpt>
      <trkpt lat="32.550050000000006" lon="34.951890000000006">
        <ele>70</ele>
        <time>2020-09-30T14:57:21.992Z</time>
      </trkpt>
      <trkpt lat="32.55008" lon="34.951930000000004">
        <ele>70</ele>
        <time>2020-09-30T14:57:22.992Z</time>
      </trkpt>
      <trkpt lat="32.55013" lon="34.951890000000006">
        <ele>70</ele>
        <time>2020-09-30T14:57:23.992Z</time>
      </trkpt>
      <trkpt lat="32.55019" lon="34.95177">
        <ele>70</ele>
        <time>2020-09-30T14:57:24.992Z</time>
      </trkpt>
      <trkpt lat="32.550200000000004" lon="34.951710000000006">
        <ele>70</ele>
        <time>2020-09-30T14:57:25.992Z</time>
      </trkpt>
      <trkpt lat="32.550250000000005" lon="34.951690000000006">
        <ele>80</ele>
        <time>2020-09-30T14:57:26.992Z</time>
      </trkpt>
      <trkpt lat="32.550270000000005" lon="34.951640000000005">
        <ele>80</ele>
        <time>2020-09-30T14:57:27.992Z</time>
      </trkpt>
      <trkpt lat="32.55026" lon="34.9514">
        <ele>80</ele>
        <time>2020-09-30T14:57:28.992Z</time>
      </trkpt>
      <trkpt lat="32.55021" lon="34.95118">
        <ele>80</ele>
        <time>2020-09-30T14:57:29.992Z</time>
      </trkpt>
      <trkpt lat="32.55032" lon="34.95105">
        <ele>80</ele>
        <time>2020-09-30T14:57:30.992Z</time>
      </trkpt>
      <trkpt lat="32.55039" lon="34.95087">
        <ele>92</ele>
        <time>2020-09-30T14:57:31.992Z</time>
      </trkpt>
      <trkpt lat="32.55044" lon="34.95082">
        <ele>96</ele>
        <time>2020-09-30T14:57:32.992Z</time>
      </trkpt>
      <trkpt lat="32.550740000000005" lon="34.95067">
        <ele>96</ele>
        <time>2020-09-30T14:57:33.992Z</time>
      </trkpt>
      <trkpt lat="32.550740000000005" lon="34.95067">
        <ele>96</ele>
        <time>2020-09-30T14:57:34.992Z</time>
      </trkpt>
      <trkpt lat="32.5508" lon="34.95064">
        <ele>96</ele>
        <time>2020-09-30T14:57:35.992Z</time>
      </trkpt>
      <trkpt lat="32.55107" lon="34.95062">
        <ele>96</ele>
        <time>2020-09-30T14:57:36.992Z</time>
      </trkpt>
      <trkpt lat="32.55118" lon="34.9506">
        <ele>96</ele>
        <time>2020-09-30T14:57:37.992Z</time>
      </trkpt>
      <trkpt lat="32.5514" lon="34.950610000000005">
        <ele>103</ele>
        <time>2020-09-30T14:57:38.992Z</time>
      </trkpt>
      <trkpt lat="32.55149" lon="34.95036">
        <ele>103</ele>
        <time>2020-09-30T14:57:39.992Z</time>
      </trkpt>
      <trkpt lat="32.55151" lon="34.950250000000004">
        <ele>103</ele>
        <time>2020-09-30T14:57:40.992Z</time>
      </trkpt>
      <trkpt lat="32.55153" lon="34.950190000000006">
        <ele>103</ele>
        <time>2020-09-30T14:57:41.992Z</time>
      </trkpt>
      <trkpt lat="32.55154" lon="34.949960000000004">
        <ele>105</ele>
        <time>2020-09-30T14:57:42.992Z</time>
      </trkpt>
      <trkpt lat="32.55151" lon="34.9499">
        <ele>105</ele>
        <time>2020-09-30T14:57:43.992Z</time>
      </trkpt>
      <trkpt lat="32.551410000000004" lon="34.949850000000005">
        <ele>105</ele>
        <time>2020-09-30T14:57:44.992Z</time>
      </trkpt>
      <trkpt lat="32.551410000000004" lon="34.94973">
        <ele>105</ele>
        <time>2020-09-30T14:57:45.992Z</time>
      </trkpt>
      <trkpt lat="32.55133" lon="34.949670000000005">
        <ele>105</ele>
        <time>2020-09-30T14:57:46.992Z</time>
      </trkpt>
      <trkpt lat="32.55127" lon="34.94957">
        <ele>105</ele>
        <time>2020-09-30T14:57:47.992Z</time>
      </trkpt>
      <trkpt lat="32.55127" lon="34.949450000000006">
        <ele>105</ele>
        <time>2020-09-30T14:57:48.992Z</time>
      </trkpt>
      <trkpt lat="32.55125" lon="34.94932">
        <ele>105</ele>
        <time>2020-09-30T14:57:49.992Z</time>
      </trkpt>
      <trkpt lat="32.55124" lon="34.94919">
        <ele>111</ele>
        <time>2020-09-30T14:57:50.992Z</time>
      </trkpt>
      <trkpt lat="32.55125" lon="34.94894">
        <ele>111</ele>
        <time>2020-09-30T14:57:51.992Z</time>
      </trkpt>
      <trkpt lat="32.551210000000005" lon="34.94867">
        <ele>111</ele>
        <time>2020-09-30T14:57:52.992Z</time>
      </trkpt>
      <trkpt lat="32.5512" lon="34.948510000000006">
        <ele>109</ele>
        <time>2020-09-30T14:57:53.992Z</time>
      </trkpt>
      <trkpt lat="32.5512" lon="34.948510000000006">
        <ele>109</ele>
        <time>2020-09-30T14:57:54.992Z</time>
      </trkpt>
      <trkpt lat="32.5512" lon="34.94838">
        <ele>107</ele>
        <time>2020-09-30T14:57:55.992Z</time>
      </trkpt>
      <trkpt lat="32.551210000000005" lon="34.948240000000006">
        <ele>117</ele>
        <time>2020-09-30T14:57:56.992Z</time>
      </trkpt>
      <trkpt lat="32.55129" lon="34.94794">
        <ele>117</ele>
        <time>2020-09-30T14:57:57.992Z</time>
      </trkpt>
      <trkpt lat="32.5512" lon="34.94785">
        <ele>111</ele>
        <time>2020-09-30T14:57:58.992Z</time>
      </trkpt>
      <trkpt lat="32.55111" lon="34.94778">
        <ele>111</ele>
        <time>2020-09-30T14:57:59.992Z</time>
      </trkpt>
      <trkpt lat="32.551010000000005" lon="34.947570000000006">
        <ele>111</ele>
        <time>2020-09-30T14:58:00.992Z</time>
      </trkpt>
      <trkpt lat="32.551" lon="34.947520000000004">
        <ele>117</ele>
        <time>2020-09-30T14:58:01.992Z</time>
      </trkpt>
      <trkpt lat="32.551030000000004" lon="34.94736">
        <ele>117</ele>
        <time>2020-09-30T14:58:02.992Z</time>
      </trkpt>
      <trkpt lat="32.55098" lon="34.947210000000005">
        <ele>117</ele>
        <time>2020-09-30T14:58:03.992Z</time>
      </trkpt>
      <trkpt lat="32.55093" lon="34.9468">
        <ele>117</ele>
        <time>2020-09-30T14:58:04.992Z</time>
      </trkpt>
      <trkpt lat="32.55097" lon="34.94668">
        <ele>122</ele>
        <time>2020-09-30T14:58:05.992Z</time>
      </trkpt>
      <trkpt lat="32.55107" lon="34.94657">
        <ele>122</ele>
        <time>2020-09-30T14:58:06.992Z</time>
      </trkpt>
      <trkpt lat="32.55104" lon="34.946290000000005">
        <ele>122</ele>
        <time>2020-09-30T14:58:07.992Z</time>
      </trkpt>
      <trkpt lat="32.55107" lon="34.94601">
        <ele>122.5</ele>
        <time>2020-09-30T14:58:08.992Z</time>
      </trkpt>
      <trkpt lat="32.55107" lon="34.94601">
        <ele>122.5</ele>
        <time>2020-09-30T14:58:09.992Z</time>
      </trkpt>
      <trkpt lat="32.55113" lon="34.94561">
        <ele>123</ele>
        <time>2020-09-30T14:58:10.992Z</time>
      </trkpt>
      <trkpt lat="32.55118" lon="34.94552">
        <ele>123</ele>
        <time>2020-09-30T14:58:11.992Z</time>
      </trkpt>
      <trkpt lat="32.55107" lon="34.9455">
        <ele>123</ele>
        <time>2020-09-30T14:58:12.992Z</time>
      </trkpt>
      <trkpt lat="32.550990000000006" lon="34.94545">
        <ele>123</ele>
        <time>2020-09-30T14:58:13.992Z</time>
      </trkpt>
      <trkpt lat="32.55075" lon="34.94547">
        <ele>123</ele>
        <time>2020-09-30T14:58:14.992Z</time>
      </trkpt>
      <trkpt lat="32.550650000000005" lon="34.945510000000006">
        <ele>123</ele>
        <time>2020-09-30T14:58:15.992Z</time>
      </trkpt>
      <trkpt lat="32.55046" lon="34.945510000000006">
        <ele>121.5</ele>
        <time>2020-09-30T14:58:16.992Z</time>
      </trkpt>
      <trkpt lat="32.55046" lon="34.945510000000006">
        <ele>121.5</ele>
        <time>2020-09-30T14:58:17.992Z</time>
      </trkpt>
      <trkpt lat="32.55033" lon="34.94549">
        <ele>120</ele>
        <time>2020-09-30T14:58:18.992Z</time>
      </trkpt>
      <trkpt lat="32.550290000000004" lon="34.945510000000006">
        <ele>120</ele>
        <time>2020-09-30T14:58:19.992Z</time>
      </trkpt>
      <trkpt lat="32.550250000000005" lon="34.945620000000005">
        <ele>120</ele>
        <time>2020-09-30T14:58:20.992Z</time>
      </trkpt>
      <trkpt lat="32.55021" lon="34.945660000000004">
        <ele>120</ele>
        <time>2020-09-30T14:58:21.992Z</time>
      </trkpt>
      <trkpt lat="32.550110000000004" lon="34.9457">
        <ele>120</ele>
        <time>2020-09-30T14:58:22.992Z</time>
      </trkpt>
      <trkpt lat="32.54995" lon="34.945640000000004">
        <ele>120</ele>
        <time>2020-09-30T14:58:23.992Z</time>
      </trkpt>
      <trkpt lat="32.54974" lon="34.94559">
        <ele>120</ele>
        <time>2020-09-30T14:58:24.992Z</time>
      </trkpt>
      <trkpt lat="32.54965" lon="34.945550000000004">
        <ele>120</ele>
        <time>2020-09-30T14:58:25.992Z</time>
      </trkpt>
      <trkpt lat="32.54948" lon="34.94556">
        <ele>117</ele>
        <time>2020-09-30T14:58:26.992Z</time>
      </trkpt>
      <trkpt lat="32.549420000000005" lon="34.945530000000005">
        <ele>117</ele>
        <time>2020-09-30T14:58:27.992Z</time>
      </trkpt>
      <trkpt lat="32.54938" lon="34.94547">
        <ele>117</ele>
        <time>2020-09-30T14:58:28.992Z</time>
      </trkpt>
      <trkpt lat="32.549260000000004" lon="34.945190000000004">
        <ele>117</ele>
        <time>2020-09-30T14:58:29.992Z</time>
      </trkpt>
      <trkpt lat="32.54921" lon="34.945150000000005">
        <ele>117</ele>
        <time>2020-09-30T14:58:30.992Z</time>
      </trkpt>
      <trkpt lat="32.549150000000004" lon="34.94505">
        <ele>117</ele>
        <time>2020-09-30T14:58:31.992Z</time>
      </trkpt>
      <trkpt lat="32.54901" lon="34.94498">
        <ele>120</ele>
        <time>2020-09-30T14:58:32.992Z</time>
      </trkpt>
      <trkpt lat="32.548950000000005" lon="34.944970000000005">
        <ele>120</ele>
        <time>2020-09-30T14:58:33.992Z</time>
      </trkpt>
      <trkpt lat="32.54891" lon="34.94493">
        <ele>120</ele>
        <time>2020-09-30T14:58:34.992Z</time>
      </trkpt>
      <trkpt lat="32.54889" lon="34.944880000000005">
        <ele>120</ele>
        <time>2020-09-30T14:58:35.992Z</time>
      </trkpt>
      <trkpt lat="32.54885" lon="34.944840000000006">
        <ele>120</ele>
        <time>2020-09-30T14:58:36.992Z</time>
      </trkpt>
      <trkpt lat="32.54881" lon="34.944790000000005">
        <ele>120</ele>
        <time>2020-09-30T14:58:37.992Z</time>
      </trkpt>
      <trkpt lat="32.54872" lon="34.94473">
        <ele>120</ele>
        <time>2020-09-30T14:58:38.992Z</time>
      </trkpt>
      <trkpt lat="32.54871" lon="34.944590000000005">
        <ele>120</ele>
        <time>2020-09-30T14:58:39.992Z</time>
      </trkpt>
      <trkpt lat="32.548730000000006" lon="34.94447">
        <ele>120</ele>
        <time>2020-09-30T14:58:40.992Z</time>
      </trkpt>
      <trkpt lat="32.548640000000006" lon="34.944340000000004">
        <ele>119</ele>
        <time>2020-09-30T14:58:41.992Z</time>
      </trkpt>
      <trkpt lat="32.54852" lon="34.944230000000005">
        <ele>119</ele>
        <time>2020-09-30T14:58:42.992Z</time>
      </trkpt>
      <trkpt lat="32.54843" lon="34.94408">
        <ele>119</ele>
        <time>2020-09-30T14:58:43.992Z</time>
      </trkpt>
      <trkpt lat="32.548410000000004" lon="34.94404">
        <ele>119</ele>
        <time>2020-09-30T14:58:44.992Z</time>
      </trkpt>
      <trkpt lat="32.548390000000005" lon="34.94391">
        <ele>119</ele>
        <time>2020-09-30T14:58:45.992Z</time>
      </trkpt>
      <trkpt lat="32.54831" lon="34.943830000000005">
        <ele>119</ele>
        <time>2020-09-30T14:58:46.992Z</time>
      </trkpt>
      <trkpt lat="32.548280000000005" lon="34.943720000000006">
        <ele>119</ele>
        <time>2020-09-30T14:58:47.992Z</time>
      </trkpt>
      <trkpt lat="32.548190000000005" lon="34.943650000000005">
        <ele>119</ele>
        <time>2020-09-30T14:58:48.992Z</time>
      </trkpt>
      <trkpt lat="32.54816" lon="34.9436">
        <ele>119</ele>
        <time>2020-09-30T14:58:49.992Z</time>
      </trkpt>
      <trkpt lat="32.548010000000005" lon="34.943580000000004">
        <ele>119</ele>
        <time>2020-09-30T14:58:50.992Z</time>
      </trkpt>
      <trkpt lat="32.54797" lon="34.94355">
        <ele>119</ele>
        <time>2020-09-30T14:58:51.992Z</time>
      </trkpt>
      <trkpt lat="32.54791" lon="34.943450000000006">
        <ele>119</ele>
        <time>2020-09-30T14:58:52.992Z</time>
      </trkpt>
      <trkpt lat="32.54788" lon="34.94333">
        <ele>116</ele>
        <time>2020-09-30T14:58:53.992Z</time>
      </trkpt>
      <trkpt lat="32.54784" lon="34.9433">
        <ele>118</ele>
        <time>2020-09-30T14:58:54.992Z</time>
      </trkpt>
      <trkpt lat="32.54782" lon="34.94324">
        <ele>118</ele>
        <time>2020-09-30T14:58:55.992Z</time>
      </trkpt>
      <trkpt lat="32.547830000000005" lon="34.943130000000004">
        <ele>118</ele>
        <time>2020-09-30T14:58:56.992Z</time>
      </trkpt>
      <trkpt lat="32.547740000000005" lon="34.943000000000005">
        <ele>118</ele>
        <time>2020-09-30T14:58:57.992Z</time>
      </trkpt>
      <trkpt lat="32.54773" lon="34.942820000000005">
        <ele>118</ele>
        <time>2020-09-30T14:58:58.992Z</time>
      </trkpt>
      <trkpt lat="32.54771" lon="34.94276">
        <ele>118</ele>
        <time>2020-09-30T14:58:59.992Z</time>
      </trkpt>
      <trkpt lat="32.54766" lon="34.942730000000005">
        <ele>118</ele>
        <time>2020-09-30T14:59:00.992Z</time>
      </trkpt>
      <trkpt lat="32.54744" lon="34.94247">
        <ele>115</ele>
        <time>2020-09-30T14:59:01.992Z</time>
      </trkpt>
      <trkpt lat="32.54735" lon="34.942400000000006">
        <ele>115</ele>
        <time>2020-09-30T14:59:02.992Z</time>
      </trkpt>
      <trkpt lat="32.54732" lon="34.942280000000004">
        <ele>115</ele>
        <time>2020-09-30T14:59:03.992Z</time>
      </trkpt>
      <trkpt lat="32.547290000000004" lon="34.942220000000006">
        <ele>115</ele>
        <time>2020-09-30T14:59:04.992Z</time>
      </trkpt>
      <trkpt lat="32.54717" lon="34.94216">
        <ele>115</ele>
        <time>2020-09-30T14:59:05.992Z</time>
      </trkpt>
      <trkpt lat="32.547050000000006" lon="34.94203">
        <ele>115</ele>
        <time>2020-09-30T14:59:06.992Z</time>
      </trkpt>
      <trkpt lat="32.546960000000006" lon="34.941970000000005">
        <ele>115</ele>
        <time>2020-09-30T14:59:07.992Z</time>
      </trkpt>
      <trkpt lat="32.546890000000005" lon="34.94176">
        <ele>115</ele>
        <time>2020-09-30T14:59:08.992Z</time>
      </trkpt>
      <trkpt lat="32.54681" lon="34.941700000000004">
        <ele>115</ele>
        <time>2020-09-30T14:59:09.992Z</time>
      </trkpt>
      <trkpt lat="32.54666" lon="34.94171">
        <ele>115</ele>
        <time>2020-09-30T14:59:10.992Z</time>
      </trkpt>
      <trkpt lat="32.546260000000004" lon="34.94149">
        <ele>115</ele>
        <time>2020-09-30T14:59:11.992Z</time>
      </trkpt>
      <trkpt lat="32.54616" lon="34.941480000000006">
        <ele>119</ele>
        <time>2020-09-30T14:59:12.992Z</time>
      </trkpt>
      <trkpt lat="32.546060000000004" lon="34.9414">
        <ele>119</ele>
        <time>2020-09-30T14:59:13.992Z</time>
      </trkpt>
      <trkpt lat="32.54601" lon="34.941390000000006">
        <ele>119</ele>
        <time>2020-09-30T14:59:14.992Z</time>
      </trkpt>
      <trkpt lat="32.545820000000006" lon="34.941390000000006">
        <ele>119</ele>
        <time>2020-09-30T14:59:15.992Z</time>
      </trkpt>
      <trkpt lat="32.545680000000004" lon="34.941340000000004">
        <ele>119</ele>
        <time>2020-09-30T14:59:16.992Z</time>
      </trkpt>
      <trkpt lat="32.5454" lon="34.941320000000005">
        <ele>119</ele>
        <time>2020-09-30T14:59:17.992Z</time>
      </trkpt>
      <trkpt lat="32.54514" lon="34.9412">
        <ele>117</ele>
        <time>2020-09-30T14:59:18.992Z</time>
      </trkpt>
      <trkpt lat="32.54514" lon="34.9412">
        <ele>117</ele>
        <time>2020-09-30T14:59:19.992Z</time>
      </trkpt>
      <trkpt lat="32.54502" lon="34.941100000000006">
        <ele>117</ele>
        <time>2020-09-30T14:59:20.992Z</time>
      </trkpt>
      <trkpt lat="32.54495" lon="34.94099">
        <ele>117</ele>
        <time>2020-09-30T14:59:21.992Z</time>
      </trkpt>
      <trkpt lat="32.54491" lon="34.940830000000005">
        <ele>120</ele>
        <time>2020-09-30T14:59:22.992Z</time>
      </trkpt>
      <trkpt lat="32.544850000000004" lon="34.940740000000005">
        <ele>120</ele>
        <time>2020-09-30T14:59:23.992Z</time>
      </trkpt>
      <trkpt lat="32.544790000000006" lon="34.940450000000006">
        <ele>120</ele>
        <time>2020-09-30T14:59:24.992Z</time>
      </trkpt>
      <trkpt lat="32.544740000000004" lon="34.940290000000005">
        <ele>120</ele>
        <time>2020-09-30T14:59:25.992Z</time>
      </trkpt>
      <trkpt lat="32.54473" lon="34.94017">
        <ele>120</ele>
        <time>2020-09-30T14:59:26.992Z</time>
      </trkpt>
      <trkpt lat="32.54457" lon="34.93979">
        <ele>121</ele>
        <time>2020-09-30T14:59:27.992Z</time>
      </trkpt>
      <trkpt lat="32.544470000000004" lon="34.93945">
        <ele>118</ele>
        <time>2020-09-30T14:59:28.992Z</time>
      </trkpt>
      <trkpt lat="32.54426" lon="34.93921">
        <ele>122</ele>
        <time>2020-09-30T14:59:29.992Z</time>
      </trkpt>
      <trkpt lat="32.544180000000004" lon="34.93905">
        <ele>122</ele>
        <time>2020-09-30T14:59:30.992Z</time>
      </trkpt>
      <trkpt lat="32.544090000000004" lon="34.93891">
        <ele>122</ele>
        <time>2020-09-30T14:59:31.992Z</time>
      </trkpt>
      <trkpt lat="32.544050000000006" lon="34.9388">
        <ele>122</ele>
        <time>2020-09-30T14:59:32.992Z</time>
      </trkpt>
      <trkpt lat="32.54402" lon="34.93876">
        <ele>122</ele>
        <time>2020-09-30T14:59:33.992Z</time>
      </trkpt>
      <trkpt lat="32.54392" lon="34.93872">
        <ele>122</ele>
        <time>2020-09-30T14:59:34.992Z</time>
      </trkpt>
      <trkpt lat="32.5439" lon="34.938680000000005">
        <ele>122</ele>
        <time>2020-09-30T14:59:35.992Z</time>
      </trkpt>
      <trkpt lat="32.54386" lon="34.93856">
        <ele>122</ele>
        <time>2020-09-30T14:59:36.992Z</time>
      </trkpt>
      <trkpt lat="32.543850000000006" lon="34.93845">
        <ele>122</ele>
        <time>2020-09-30T14:59:37.992Z</time>
      </trkpt>
      <trkpt lat="32.54381" lon="34.93835">
        <ele>129</ele>
        <time>2020-09-30T14:59:38.992Z</time>
      </trkpt>
      <trkpt lat="32.54383" lon="34.93824">
        <ele>129</ele>
        <time>2020-09-30T14:59:39.992Z</time>
      </trkpt>
      <trkpt lat="32.543910000000004" lon="34.93809">
        <ele>129</ele>
        <time>2020-09-30T14:59:40.992Z</time>
      </trkpt>
      <trkpt lat="32.54384" lon="34.93795">
        <ele>129</ele>
        <time>2020-09-30T14:59:41.992Z</time>
      </trkpt>
      <trkpt lat="32.543850000000006" lon="34.93789">
        <ele>129</ele>
        <time>2020-09-30T14:59:42.992Z</time>
      </trkpt>
      <trkpt lat="32.54393" lon="34.93766">
        <ele>129</ele>
        <time>2020-09-30T14:59:43.992Z</time>
      </trkpt>
      <trkpt lat="32.543980000000005" lon="34.937310000000004">
        <ele>133</ele>
        <time>2020-09-30T14:59:44.992Z</time>
      </trkpt>
      <trkpt lat="32.543910000000004" lon="34.937090000000005">
        <ele>133</ele>
        <time>2020-09-30T14:59:45.992Z</time>
      </trkpt>
      <trkpt lat="32.54377" lon="34.937000000000005">
        <ele>133</ele>
        <time>2020-09-30T14:59:46.992Z</time>
      </trkpt>
      <trkpt lat="32.54372" lon="34.936930000000004">
        <ele>133</ele>
        <time>2020-09-30T14:59:47.992Z</time>
      </trkpt>
      <trkpt lat="32.54363" lon="34.936730000000004">
        <ele>129</ele>
        <time>2020-09-30T14:59:48.992Z</time>
      </trkpt>
      <trkpt lat="32.54356" lon="34.936510000000006">
        <ele>132</ele>
        <time>2020-09-30T14:59:49.992Z</time>
      </trkpt>
      <trkpt lat="32.54352" lon="34.936420000000005">
        <ele>132</ele>
        <time>2020-09-30T14:59:50.992Z</time>
      </trkpt>
      <trkpt lat="32.54352" lon="34.936420000000005">
        <ele>132</ele>
        <time>2020-09-30T14:59:51.992Z</time>
      </trkpt>
      <trkpt lat="32.543490000000006" lon="34.93636">
        <ele>132</ele>
        <time>2020-09-30T14:59:52.992Z</time>
      </trkpt>
      <trkpt lat="32.54355" lon="34.935990000000004">
        <ele>132</ele>
        <time>2020-09-30T14:59:53.992Z</time>
      </trkpt>
      <trkpt lat="32.543330000000005" lon="34.93589">
        <ele>132</ele>
        <time>2020-09-30T14:59:54.992Z</time>
      </trkpt>
      <trkpt lat="32.543290000000006" lon="34.93585">
        <ele>136</ele>
        <time>2020-09-30T14:59:55.992Z</time>
      </trkpt>
      <trkpt lat="32.54314" lon="34.93582">
        <ele>136</ele>
        <time>2020-09-30T14:59:56.992Z</time>
      </trkpt>
      <trkpt lat="32.54281" lon="34.935840000000006">
        <ele>131</ele>
        <time>2020-09-30T14:59:57.992Z</time>
      </trkpt>
      <trkpt lat="32.54267" lon="34.935810000000004">
        <ele>131</ele>
        <time>2020-09-30T14:59:58.992Z</time>
      </trkpt>
      <trkpt lat="32.542460000000005" lon="34.935810000000004">
        <ele>131</ele>
        <time>2020-09-30T14:59:59.992Z</time>
      </trkpt>
      <trkpt lat="32.54229" lon="34.935770000000005">
        <ele>131</ele>
        <time>2020-09-30T15:00:00.992Z</time>
      </trkpt>
      <trkpt lat="32.54218" lon="34.93578">
        <ele>131</ele>
        <time>2020-09-30T15:00:01.992Z</time>
      </trkpt>
      <trkpt lat="32.542030000000004" lon="34.93583">
        <ele>128</ele>
        <time>2020-09-30T15:00:02.992Z</time>
      </trkpt>
      <trkpt lat="32.54191" lon="34.935770000000005">
        <ele>128</ele>
        <time>2020-09-30T15:00:03.992Z</time>
      </trkpt>
      <trkpt lat="32.54178" lon="34.93573">
        <ele>128</ele>
        <time>2020-09-30T15:00:04.992Z</time>
      </trkpt>
      <trkpt lat="32.54157" lon="34.93572">
        <ele>128</ele>
        <time>2020-09-30T15:00:05.992Z</time>
      </trkpt>
      <trkpt lat="32.541160000000005" lon="34.935660000000006">
        <ele>122</ele>
        <time>2020-09-30T15:00:06.992Z</time>
      </trkpt>
      <trkpt lat="32.54064" lon="34.93551">
        <ele>120.5</ele>
        <time>2020-09-30T15:00:07.992Z</time>
      </trkpt>
      <trkpt lat="32.54064" lon="34.93551">
        <ele>120.5</ele>
        <time>2020-09-30T15:00:08.992Z</time>
      </trkpt>
      <trkpt lat="32.540200000000006" lon="34.93538">
        <ele>119</ele>
        <time>2020-09-30T15:00:09.992Z</time>
      </trkpt>
      <trkpt lat="32.53956" lon="34.935230000000004">
        <ele>119</ele>
        <time>2020-09-30T15:00:10.992Z</time>
      </trkpt>
      <trkpt lat="32.53933" lon="34.935140000000004">
        <ele>109</ele>
        <time>2020-09-30T15:00:11.992Z</time>
      </trkpt>
      <trkpt lat="32.53931" lon="34.93495">
        <ele>106</ele>
        <time>2020-09-30T15:00:12.992Z</time>
      </trkpt>
      <trkpt lat="32.53914" lon="34.93493">
        <ele>106</ele>
        <time>2020-09-30T15:00:13.992Z</time>
      </trkpt>
      <trkpt lat="32.53898" lon="34.93482">
        <ele>106</ele>
        <time>2020-09-30T15:00:14.992Z</time>
      </trkpt>
      <trkpt lat="32.538700000000006" lon="34.9347">
        <ele>101</ele>
        <time>2020-09-30T15:00:15.992Z</time>
      </trkpt>
      <trkpt lat="32.538560000000004" lon="34.934610000000006">
        <ele>101</ele>
        <time>2020-09-30T15:00:16.992Z</time>
      </trkpt>
      <trkpt lat="32.5384" lon="34.93457">
        <ele>101</ele>
        <time>2020-09-30T15:00:17.992Z</time>
      </trkpt>
      <trkpt lat="32.53833" lon="34.93457">
        <ele>101</ele>
        <time>2020-09-30T15:00:18.992Z</time>
      </trkpt>
      <trkpt lat="32.53833" lon="34.93457">
        <ele>101</ele>
        <time>2020-09-30T15:00:19.992Z</time>
      </trkpt>
      <trkpt lat="32.53808" lon="34.934560000000005">
        <ele>101</ele>
        <time>2020-09-30T15:00:20.992Z</time>
      </trkpt>
      <trkpt lat="32.53793" lon="34.93453">
        <ele>101</ele>
        <time>2020-09-30T15:00:21.992Z</time>
      </trkpt>
      <trkpt lat="32.53781" lon="34.934560000000005">
        <ele>87</ele>
        <time>2020-09-30T15:00:22.992Z</time>
      </trkpt>
      <trkpt lat="32.53765" lon="34.93468">
        <ele>87</ele>
        <time>2020-09-30T15:00:23.992Z</time>
      </trkpt>
      <trkpt lat="32.537580000000005" lon="34.93478">
        <ele>87</ele>
        <time>2020-09-30T15:00:24.992Z</time>
      </trkpt>
      <trkpt lat="32.53739" lon="34.93497">
        <ele>87</ele>
        <time>2020-09-30T15:00:25.992Z</time>
      </trkpt>
      <trkpt lat="32.53728" lon="34.93506">
        <ele>90</ele>
        <time>2020-09-30T15:00:26.992Z</time>
      </trkpt>
      <trkpt lat="32.53726" lon="34.935230000000004">
        <ele>90</ele>
        <time>2020-09-30T15:00:27.992Z</time>
      </trkpt>
      <trkpt lat="32.53721" lon="34.93538">
        <ele>90</ele>
        <time>2020-09-30T15:00:28.992Z</time>
      </trkpt>
      <trkpt lat="32.537150000000004" lon="34.935410000000005">
        <ele>90</ele>
        <time>2020-09-30T15:00:29.992Z</time>
      </trkpt>
      <trkpt lat="32.5371" lon="34.93535">
        <ele>90</ele>
        <time>2020-09-30T15:00:30.992Z</time>
      </trkpt>
      <trkpt lat="32.53705" lon="34.93525">
        <ele>90</ele>
        <time>2020-09-30T15:00:31.992Z</time>
      </trkpt>
      <trkpt lat="32.536970000000004" lon="34.93516">
        <ele>80</ele>
        <time>2020-09-30T15:00:32.992Z</time>
      </trkpt>
      <trkpt lat="32.53689" lon="34.93516">
        <ele>80</ele>
        <time>2020-09-30T15:00:33.992Z</time>
      </trkpt>
      <trkpt lat="32.536840000000005" lon="34.935080000000006">
        <ele>80</ele>
        <time>2020-09-30T15:00:34.992Z</time>
      </trkpt>
      <trkpt lat="32.53676" lon="34.935010000000005">
        <ele>65</ele>
        <time>2020-09-30T15:00:35.992Z</time>
      </trkpt>
      <trkpt lat="32.53674" lon="34.93493">
        <ele>65</ele>
        <time>2020-09-30T15:00:36.992Z</time>
      </trkpt>
      <trkpt lat="32.536660000000005" lon="34.934920000000005">
        <ele>65</ele>
        <time>2020-09-30T15:00:37.992Z</time>
      </trkpt>
      <trkpt lat="32.536660000000005" lon="34.934920000000005">
        <ele>65</ele>
        <time>2020-09-30T15:00:38.992Z</time>
      </trkpt>
      <trkpt lat="32.536480000000005" lon="34.934870000000004">
        <ele>65</ele>
        <time>2020-09-30T15:00:39.992Z</time>
      </trkpt>
      <trkpt lat="32.53618" lon="34.934740000000005">
        <ele>47</ele>
        <time>2020-09-30T15:00:40.992Z</time>
      </trkpt>
      <trkpt lat="32.53613" lon="34.93475">
        <ele>47</ele>
        <time>2020-09-30T15:00:41.992Z</time>
      </trkpt>
      <trkpt lat="32.536080000000005" lon="34.934740000000005">
        <ele>47</ele>
        <time>2020-09-30T15:00:42.992Z</time>
      </trkpt>
      <trkpt lat="32.536030000000004" lon="34.93466">
        <ele>47</ele>
        <time>2020-09-30T15:00:43.992Z</time>
      </trkpt>
      <trkpt lat="32.535920000000004" lon="34.934560000000005">
        <ele>47</ele>
        <time>2020-09-30T15:00:44.992Z</time>
      </trkpt>
      <trkpt lat="32.5358" lon="34.93453">
        <ele>47</ele>
        <time>2020-09-30T15:00:45.992Z</time>
      </trkpt>
      <trkpt lat="32.53567" lon="34.934450000000005">
        <ele>47</ele>
        <time>2020-09-30T15:00:46.992Z</time>
      </trkpt>
      <trkpt lat="32.53555" lon="34.934470000000005">
        <ele>47</ele>
        <time>2020-09-30T15:00:47.992Z</time>
      </trkpt>
      <trkpt lat="32.53551" lon="34.9345">
        <ele>47</ele>
        <time>2020-09-30T15:00:48.992Z</time>
      </trkpt>
      <trkpt lat="32.53544" lon="34.9345">
        <ele>47</ele>
        <time>2020-09-30T15:00:49.992Z</time>
      </trkpt>
      <trkpt lat="32.53531" lon="34.934580000000004">
        <ele>25</ele>
        <time>2020-09-30T15:00:50.992Z</time>
      </trkpt>
      <trkpt lat="32.53526" lon="34.93464">
        <ele>25</ele>
        <time>2020-09-30T15:00:51.992Z</time>
      </trkpt>
      <trkpt lat="32.535180000000004" lon="34.93468">
        <ele>25</ele>
        <time>2020-09-30T15:00:52.992Z</time>
      </trkpt>
      <trkpt lat="32.53508" lon="34.934830000000005">
        <ele>25</ele>
        <time>2020-09-30T15:00:53.992Z</time>
      </trkpt>
      <trkpt lat="32.535030000000006" lon="34.934850000000004">
        <ele>25</ele>
        <time>2020-09-30T15:00:54.992Z</time>
      </trkpt>
      <trkpt lat="32.534800000000004" lon="34.93502">
        <ele>25</ele>
        <time>2020-09-30T15:00:55.992Z</time>
      </trkpt>
      <trkpt lat="32.53474" lon="34.93511">
        <ele>45</ele>
        <time>2020-09-30T15:00:56.992Z</time>
      </trkpt>
      <trkpt lat="32.53468" lon="34.935140000000004">
        <ele>45</ele>
        <time>2020-09-30T15:00:57.992Z</time>
      </trkpt>
      <trkpt lat="32.53468" lon="34.935140000000004">
        <ele>45</ele>
        <time>2020-09-30T15:00:58.992Z</time>
      </trkpt>
      <trkpt lat="32.534620000000004" lon="34.93518">
        <ele>45</ele>
        <time>2020-09-30T15:00:59.992Z</time>
      </trkpt>
      <trkpt lat="32.5345" lon="34.93542">
        <ele>18</ele>
        <time>2020-09-30T15:01:00.992Z</time>
      </trkpt>
      <trkpt lat="32.534420000000004" lon="34.93542">
        <ele>18</ele>
        <time>2020-09-30T15:01:01.992Z</time>
      </trkpt>
      <trkpt lat="32.534290000000006" lon="34.93551">
        <ele>18</ele>
        <time>2020-09-30T15:01:02.992Z</time>
      </trkpt>
      <trkpt lat="32.53423" lon="34.93567">
        <ele>18</ele>
        <time>2020-09-30T15:01:03.992Z</time>
      </trkpt>
      <trkpt lat="32.53417" lon="34.93574">
        <ele>18</ele>
        <time>2020-09-30T15:01:04.992Z</time>
      </trkpt>
      <trkpt lat="32.53318" lon="34.93674">
        <ele>31</ele>
        <time>2020-09-30T15:01:05.992Z</time>
      </trkpt>
      <trkpt lat="32.532900000000005" lon="34.937050000000006">
        <ele>24.5</ele>
        <time>2020-09-30T15:01:06.992Z</time>
      </trkpt>
      <trkpt lat="32.532900000000005" lon="34.937050000000006">
        <ele>24.5</ele>
        <time>2020-09-30T15:01:07.992Z</time>
      </trkpt>
      <trkpt lat="32.532650000000004" lon="34.93732">
        <ele>18</ele>
        <time>2020-09-30T15:01:08.992Z</time>
      </trkpt>
      <trkpt lat="32.532070000000004" lon="34.93791">
        <ele>30</ele>
        <time>2020-09-30T15:01:09.992Z</time>
      </trkpt>
      <trkpt lat="32.53163" lon="34.93827">
        <ele>20</ele>
        <time>2020-09-30T15:01:10.992Z</time>
      </trkpt>
      <trkpt lat="32.53143" lon="34.938480000000006">
        <ele>24</ele>
        <time>2020-09-30T15:01:11.992Z</time>
      </trkpt>
      <trkpt lat="32.53128" lon="34.938700000000004">
        <ele>24</ele>
        <time>2020-09-30T15:01:12.992Z</time>
      </trkpt>
      <trkpt lat="32.531130000000005" lon="34.93885">
        <ele>14</ele>
        <time>2020-09-30T15:01:13.992Z</time>
      </trkpt>
      <trkpt lat="32.53105" lon="34.938770000000005">
        <ele>14</ele>
        <time>2020-09-30T15:01:14.992Z</time>
      </trkpt>
      <trkpt lat="32.53105" lon="34.938770000000005">
        <ele>14</ele>
        <time>2020-09-30T15:01:15.992Z</time>
      </trkpt>
      <trkpt lat="32.53098" lon="34.93871">
        <ele>14</ele>
        <time>2020-09-30T15:01:16.992Z</time>
      </trkpt>
      <trkpt lat="32.53096" lon="34.938480000000006">
        <ele>14</ele>
        <time>2020-09-30T15:01:17.992Z</time>
      </trkpt>
      <trkpt lat="32.53088" lon="34.938430000000004">
        <ele>14</ele>
        <time>2020-09-30T15:01:18.992Z</time>
      </trkpt>
      <trkpt lat="32.53079" lon="34.938300000000005">
        <ele>11</ele>
        <time>2020-09-30T15:01:19.992Z</time>
      </trkpt>
      <trkpt lat="32.53078" lon="34.938140000000004">
        <ele>11</ele>
        <time>2020-09-30T15:01:20.992Z</time>
      </trkpt>
      <trkpt lat="32.53085" lon="34.937110000000004">
        <ele>9</ele>
        <time>2020-09-30T15:01:21.992Z</time>
      </trkpt>
      <trkpt lat="32.530840000000005" lon="34.93697">
        <ele>9</ele>
        <time>2020-09-30T15:01:22.992Z</time>
      </trkpt>
      <trkpt lat="32.53108" lon="34.93641">
        <ele>9</ele>
        <time>2020-09-30T15:01:23.992Z</time>
      </trkpt>
      <trkpt lat="32.53127" lon="34.93614">
        <ele>8</ele>
        <time>2020-09-30T15:01:24.992Z</time>
      </trkpt>
      <trkpt lat="32.53141" lon="34.93587">
        <ele>6</ele>
        <time>2020-09-30T15:01:25.992Z</time>
      </trkpt>
      <trkpt lat="32.53183" lon="34.935570000000006">
        <ele>6</ele>
        <time>2020-09-30T15:01:26.992Z</time>
      </trkpt>
      <trkpt lat="32.53183" lon="34.935460000000006">
        <ele>6</ele>
        <time>2020-09-30T15:01:27.992Z</time>
      </trkpt>
      <trkpt lat="32.53183" lon="34.935460000000006">
        <ele>6</ele>
        <time>2020-09-30T15:01:28.992Z</time>
      </trkpt>
      <trkpt lat="32.53181" lon="34.935140000000004">
        <ele>6</ele>
        <time>2020-09-30T15:01:29.992Z</time>
      </trkpt>
      <trkpt lat="32.53183" lon="34.934580000000004">
        <ele>9</ele>
        <time>2020-09-30T15:01:30.992Z</time>
      </trkpt>
      <trkpt lat="32.53192" lon="34.93352">
        <ele>9</ele>
        <time>2020-09-30T15:01:31.992Z</time>
      </trkpt>
      <trkpt lat="32.531960000000005" lon="34.93328">
        <ele>9</ele>
        <time>2020-09-30T15:01:32.992Z</time>
      </trkpt>
      <trkpt lat="32.532090000000004" lon="34.93307">
        <ele>8</ele>
        <time>2020-09-30T15:01:33.992Z</time>
      </trkpt>
      <trkpt lat="32.53211" lon="34.93298">
        <ele>8</ele>
        <time>2020-09-30T15:01:34.992Z</time>
      </trkpt>
      <trkpt lat="32.532030000000006" lon="34.932840000000006">
        <ele>9</ele>
        <time>2020-09-30T15:01:35.992Z</time>
      </trkpt>
      <trkpt lat="32.53202" lon="34.932680000000005">
        <ele>9</ele>
        <time>2020-09-30T15:01:36.992Z</time>
      </trkpt>
      <trkpt lat="32.532070000000004" lon="34.931520000000006">
        <ele>8</ele>
        <time>2020-09-30T15:01:37.992Z</time>
      </trkpt>
      <trkpt lat="32.532070000000004" lon="34.931520000000006">
        <ele>8</ele>
        <time>2020-09-30T15:01:38.992Z</time>
      </trkpt>
      <trkpt lat="32.53208" lon="34.931400000000004">
        <ele>8</ele>
        <time>2020-09-30T15:01:39.992Z</time>
      </trkpt>
      <trkpt lat="32.53254655637777" lon="34.931435934560476">
        <ele>8</ele>
        <time>2020-09-30T15:01:40.992Z</time>
      </trkpt>
      <trkpt lat="32.53265504274683" lon="34.929268995092215">
        <ele>7</ele>
        <time>2020-09-30T15:01:41.992Z</time>
      </trkpt>
      <trkpt lat="32.53265504274683" lon="34.929268995092215">
        <ele>7</ele>
        <time>2020-09-30T15:01:42.992Z</time>
      </trkpt>
      <trkpt lat="32.532221096484456" lon="34.92838934639721">
        <ele>9</ele>
        <time>2020-09-30T15:01:43.992Z</time>
      </trkpt>
      <trkpt lat="32.5323" lon="34.92839">
        <ele>9</ele>
        <time>2020-09-30T15:01:44.992Z</time>
      </trkpt>
      <trkpt lat="32.53238" lon="34.92703">
        <ele>11</ele>
        <time>2020-09-30T15:01:45.992Z</time>
      </trkpt>
      <trkpt lat="32.532320000000006" lon="34.926480000000005">
        <ele>9</ele>
        <time>2020-09-30T15:01:46.992Z</time>
      </trkpt>
      <trkpt lat="32.53244" lon="34.9254">
        <ele>6</ele>
        <time>2020-09-30T15:01:47.992Z</time>
      </trkpt>
      <trkpt lat="32.5323" lon="34.925380000000004">
        <ele>6</ele>
        <time>2020-09-30T15:01:48.992Z</time>
      </trkpt>
      <trkpt lat="32.5322" lon="34.925250000000005">
        <ele>6</ele>
        <time>2020-09-30T15:01:49.992Z</time>
      </trkpt>
      <trkpt lat="32.532070000000004" lon="34.925320000000006">
        <ele>7.5</ele>
        <time>2020-09-30T15:01:50.992Z</time>
      </trkpt>
      <trkpt lat="32.532070000000004" lon="34.925320000000006">
        <ele>7.5</ele>
        <time>2020-09-30T15:01:51.992Z</time>
      </trkpt>
      <trkpt lat="32.532120000000006" lon="34.92528">
        <ele>6</ele>
        <time>2020-09-30T15:01:52.992Z</time>
      </trkpt>
      <trkpt lat="32.531800000000004" lon="34.92481">
        <ele>8</ele>
        <time>2020-09-30T15:01:53.992Z</time>
      </trkpt>
      <trkpt lat="32.53163" lon="34.924600000000005">
        <ele>8</ele>
        <time>2020-09-30T15:01:54.992Z</time>
      </trkpt>
      <trkpt lat="32.531110000000005" lon="34.92389">
        <ele>8</ele>
        <time>2020-09-30T15:01:55.992Z</time>
      </trkpt>
      <trkpt lat="32.531000000000006" lon="34.92351">
        <ele>8</ele>
        <time>2020-09-30T15:01:56.992Z</time>
      </trkpt>
      <trkpt lat="32.5308" lon="34.92291">
        <ele>7</ele>
        <time>2020-09-30T15:01:57.992Z</time>
      </trkpt>
      <trkpt lat="32.53067" lon="34.92219">
        <ele>5</ele>
        <time>2020-09-30T15:01:58.992Z</time>
      </trkpt>
      <trkpt lat="32.53061" lon="34.921870000000006">
        <ele>5</ele>
        <time>2020-09-30T15:01:59.992Z</time>
      </trkpt>
      <trkpt lat="32.53061" lon="34.921870000000006">
        <ele>5</ele>
        <time>2020-09-30T15:02:00.992Z</time>
      </trkpt>
      <trkpt lat="32.5306" lon="34.921780000000005">
        <ele>5</ele>
        <time>2020-09-30T15:02:01.992Z</time>
      </trkpt>
      <trkpt lat="32.53074" lon="34.921580000000006">
        <ele>6</ele>
        <time>2020-09-30T15:02:02.992Z</time>
      </trkpt>
      <trkpt lat="32.53173" lon="34.919650000000004">
        <ele>5</ele>
        <time>2020-09-30T15:02:03.992Z</time>
      </trkpt>
      <trkpt lat="32.53238" lon="34.91939">
        <ele>5</ele>
        <time>2020-09-30T15:02:04.992Z</time>
      </trkpt>
      <trkpt lat="32.5328" lon="34.91935">
        <ele>4.5</ele>
        <time>2020-09-30T15:02:05.992Z</time>
      </trkpt>
      <trkpt lat="32.5328" lon="34.91935">
        <ele>4.5</ele>
        <time>2020-09-30T15:02:06.992Z</time>
      </trkpt>
      <trkpt lat="32.53296" lon="34.919340000000005">
        <ele>4</ele>
        <time>2020-09-30T15:02:07.992Z</time>
      </trkpt>
      <trkpt lat="32.533080000000005" lon="34.918620000000004">
        <ele>5</ele>
        <time>2020-09-30T15:02:08.992Z</time>
      </trkpt>
      <trkpt lat="32.533190000000005" lon="34.91747">
        <ele>5</ele>
        <time>2020-09-30T15:02:09.992Z</time>
      </trkpt>
      <trkpt lat="32.53345" lon="34.91606">
        <ele>6</ele>
        <time>2020-09-30T15:02:10.992Z</time>
      </trkpt>
      <trkpt lat="32.53345" lon="34.91606">
        <ele>6</ele>
        <time>2020-09-30T15:02:11.992Z</time>
      </trkpt>
      <trkpt lat="32.533640000000005" lon="34.91597">
        <ele>6</ele>
        <time>2020-09-30T15:02:12.992Z</time>
      </trkpt>
      <trkpt lat="32.533730000000006" lon="34.91583">
        <ele>7</ele>
        <time>2020-09-30T15:02:13.992Z</time>
      </trkpt>
      <trkpt lat="32.535160000000005" lon="34.916000000000004">
        <ele>7</ele>
        <time>2020-09-30T15:02:14.992Z</time>
      </trkpt>
      <trkpt lat="32.535160000000005" lon="34.916000000000004">
        <ele>7</ele>
        <time>2020-09-30T15:02:15.992Z</time>
      </trkpt>
      <trkpt lat="32.53538" lon="34.916030000000006">
        <ele>7</ele>
        <time>2020-09-30T15:02:16.992Z</time>
      </trkpt>
      <trkpt lat="32.5354" lon="34.91525">
        <ele>7</ele>
        <time>2020-09-30T15:02:17.992Z</time>
      </trkpt>
      <trkpt lat="32.535160000000005" lon="34.913830000000004">
        <ele>17</ele>
        <time>2020-09-30T15:02:18.992Z</time>
      </trkpt>
      <trkpt lat="32.535070000000005" lon="34.913630000000005">
        <ele>17</ele>
        <time>2020-09-30T15:02:19.992Z</time>
      </trkpt>
      <trkpt lat="32.53501" lon="34.91281">
        <ele>19</ele>
        <time>2020-09-30T15:02:20.992Z</time>
      </trkpt>
      <trkpt lat="32.535160000000005" lon="34.91212">
        <ele>23</ele>
        <time>2020-09-30T15:02:21.992Z</time>
      </trkpt>
      <trkpt lat="32.53524" lon="34.911880000000004">
        <ele>24</ele>
        <time>2020-09-30T15:02:22.992Z</time>
      </trkpt>
      <trkpt lat="32.53524" lon="34.911880000000004">
        <ele>24</ele>
        <time>2020-09-30T15:02:23.992Z</time>
      </trkpt>
      <trkpt lat="32.535320000000006" lon="34.91165">
        <ele>25</ele>
        <time>2020-09-30T15:02:24.992Z</time>
      </trkpt>
      <trkpt lat="32.535630000000005" lon="34.91167">
        <ele>24</ele>
        <time>2020-09-30T15:02:25.992Z</time>
      </trkpt>
      <trkpt lat="32.53564" lon="34.91142">
        <ele>24</ele>
        <time>2020-09-30T15:02:26.992Z</time>
      </trkpt>
      <trkpt lat="32.53571" lon="34.9099">
        <ele>16</ele>
        <time>2020-09-30T15:02:27.992Z</time>
      </trkpt>
      <trkpt lat="32.53602" lon="34.908170000000005">
        <ele>6</ele>
        <time>2020-09-30T15:02:28.992Z</time>
      </trkpt>
      <trkpt lat="32.53618" lon="34.90735">
        <ele>7</ele>
        <time>2020-09-30T15:02:29.992Z</time>
      </trkpt>
      <trkpt lat="32.53614" lon="34.90731">
        <ele>7</ele>
        <time>2020-09-30T15:02:30.992Z</time>
      </trkpt>
      <trkpt lat="32.53614" lon="34.90731">
        <ele>7</ele>
        <time>2020-09-30T15:02:31.992Z</time>
      </trkpt>
      <trkpt lat="32.536120000000004" lon="34.90726">
        <ele>7</ele>
        <time>2020-09-30T15:02:32.992Z</time>
      </trkpt>
      <trkpt lat="32.53613" lon="34.907180000000004">
        <ele>7</ele>
        <time>2020-09-30T15:02:33.992Z</time>
      </trkpt>
      <trkpt lat="32.53614" lon="34.907140000000005">
        <ele>7</ele>
        <time>2020-09-30T15:02:34.992Z</time>
      </trkpt>
      <trkpt lat="32.5362" lon="34.90711">
        <ele>7</ele>
        <time>2020-09-30T15:02:35.992Z</time>
      </trkpt>
      <trkpt lat="32.53624" lon="34.90711">
        <ele>4</ele>
        <time>2020-09-30T15:02:36.992Z</time>
      </trkpt>
      <trkpt lat="32.536660000000005" lon="34.90589">
        <ele>4</ele>
        <time>2020-09-30T15:02:37.992Z</time>
      </trkpt>
      <trkpt lat="32.536970000000004" lon="34.905240000000006">
        <ele>4</ele>
        <time>2020-09-30T15:02:38.992Z</time>
      </trkpt>
      <trkpt lat="32.537200000000006" lon="34.90509">
        <ele>3</ele>
        <time>2020-09-30T15:02:39.992Z</time>
      </trkpt>
      <trkpt lat="32.537440000000004" lon="34.90502">
        <ele>4</ele>
        <time>2020-09-30T15:02:40.992Z</time>
      </trkpt>
      <trkpt lat="32.537670000000006" lon="34.90491">
        <ele>4</ele>
        <time>2020-09-30T15:02:41.992Z</time>
      </trkpt>
      <trkpt lat="32.53782" lon="34.904900000000005">
        <ele>4</ele>
        <time>2020-09-30T15:02:42.992Z</time>
      </trkpt>
      <trkpt lat="32.53782" lon="34.904900000000005">
        <ele>4</ele>
        <time>2020-09-30T15:02:43.992Z</time>
      </trkpt>
      <trkpt lat="32.53786" lon="34.904900000000005">
        <ele>4</ele>
        <time>2020-09-30T15:02:44.992Z</time>
      </trkpt>
      <trkpt lat="32.53806" lon="34.90469">
        <ele>1</ele>
        <time>2020-09-30T15:02:45.992Z</time>
      </trkpt>
      <trkpt lat="32.53821" lon="34.90381">
        <ele>1</ele>
        <time>2020-09-30T15:02:46.992Z</time>
      </trkpt>
      <trkpt lat="32.538410000000006" lon="34.903110000000005">
        <ele>2</ele>
        <time>2020-09-30T15:02:47.992Z</time>
      </trkpt>
      <trkpt lat="32.538560000000004" lon="34.90281">
        <ele>2</ele>
        <time>2020-09-30T15:02:48.992Z</time>
      </trkpt>
      <trkpt lat="32.53882" lon="34.90256">
        <ele>0</ele>
        <time>2020-09-30T15:02:49.992Z</time>
      </trkpt>
      <trkpt lat="32.53882" lon="34.90256">
        <ele>0</ele>
        <time>2020-09-30T15:02:50.992Z</time>
      </trkpt>
      <trkpt lat="32.53953" lon="34.901830000000004">
        <ele>2</ele>
        <time>2020-09-30T15:02:51.992Z</time>
      </trkpt>
      <trkpt lat="32.539570000000005" lon="34.901590000000006">
        <ele>3</ele>
        <time>2020-09-30T15:02:52.992Z</time>
      </trkpt>
      <trkpt lat="32.53936236324421" lon="34.901547723013415">
        <ele>3</ele>
        <time>2020-09-30T15:02:53.992Z</time>
      </trkpt>
      <trkpt lat="32.53912732683257" lon="34.90111862608902">
        <ele>7</ele>
        <time>2020-09-30T15:02:54.992Z</time>
      </trkpt>
      <trkpt lat="32.53912732683257" lon="34.90111862608902">
        <ele>7</ele>
        <time>2020-09-30T15:02:55.992Z</time>
      </trkpt>
      <trkpt lat="32.538259494752964" lon="34.90167645209073">
        <ele>5</ele>
        <time>2020-09-30T15:02:56.992Z</time>
      </trkpt>
    </trkseg>
  </trk>
</gpx>