<?xml version="1.0" encoding="UTF-8"?>
<gpx xmlns="Amud Anan http://amudanan.co.il/" version="1.0" xmlns:xsi="http://www.w3.org/2001/XMLSchema-instance" xsi:schemaLocation="http://www.topografix.com/GPX/1/0 http://www.topografix.com/GPX/1/0/gpx.xsd"><trk><name>Amud Anan</name><trkseg><trkpt lon="35.222752" lat="33.008687"/><trkpt lon="35.224644" lat="33.010055"/><trkpt lon="35.225158" lat="33.010145"/><trkpt lon="35.226857" lat="33.009931"/><trkpt lon="35.22689" lat="33.010223"/><trkpt lon="35.226668" lat="33.010547"/><trkpt lon="35.225883" lat="33.011161"/><trkpt lon="35.226004" lat="33.011975"/><trkpt lon="35.227001" lat="33.012758"/><trkpt lon="35.227749" lat="33.013092"/><trkpt lon="35.2281" lat="33.01364"/><trkpt lon="35.229462" lat="33.014329"/><trkpt lon="35.232687" lat="33.01478"/><trkpt lon="35.235114" lat="33.014486"/><trkpt lon="35.236503" lat="33.013946"/><trkpt lon="35.237814" lat="33.014128"/><trkpt lon="35.239979" lat="33.013669"/><trkpt lon="35.242204" lat="33.014081"/><trkpt lon="35.244493" lat="33.013885"/><trkpt lon="35.246534484131" lat="33.012706512335"/><trkpt lon="35.247803492065" lat="33.012391776852"/><trkpt lon="35.248987560852" lat="33.011957208485"/><trkpt lon="35.249886605804" lat="33.011272061237"/><trkpt lon="35.251151519821" lat="33.010893490164"/><trkpt lon="35.25289977578" lat="33.010632256122"/><trkpt lon="35.253875555542" lat="33.011954464891"/><trkpt lon="35.255726423279" lat="33.012618106968"/><trkpt lon="35.255923" lat="33.012249"/><trkpt lon="35.255058" lat="33.011078"/><trkpt lon="35.25528" lat="33.011019"/><trkpt lon="35.256031" lat="33.011366"/><trkpt lon="35.256044" lat="33.011104"/><trkpt lon="35.256462" lat="33.011065"/><trkpt lon="35.257357" lat="33.011412"/><trkpt lon="35.258023" lat="33.011162"/><trkpt lon="35.258064" lat="33.011401"/><trkpt lon="35.25793" lat="33.011499"/><trkpt lon="35.258255" lat="33.011639"/><trkpt lon="35.258534" lat="33.011207"/><trkpt lon="35.25845" lat="33.011107"/><trkpt lon="35.258328" lat="33.011266"/><trkpt lon="35.25804" lat="33.01112"/><trkpt lon="35.258159" lat="33.009954"/><trkpt lon="35.259268" lat="33.009663"/><trkpt lon="35.259723" lat="33.009691"/><trkpt lon="35.259428" lat="33.009484"/><trkpt lon="35.259428" lat="33.009245"/><trkpt lon="35.259855" lat="33.008566"/><trkpt lon="35.260146" lat="33.008401"/><trkpt lon="35.260231" lat="33.007894"/><trkpt lon="35.260856" lat="33.007624"/><trkpt lon="35.260002" lat="33.006907"/><trkpt lon="35.260211" lat="33.006544"/><trkpt lon="35.260123" lat="33.004966"/><trkpt lon="35.259615" lat="33.00293"/><trkpt lon="35.257662" lat="33.00453"/><trkpt lon="35.257146" lat="33.004645"/><trkpt lon="35.256161" lat="33.004388"/><trkpt lon="35.25565" lat="33.004083"/><trkpt lon="35.255107" lat="33.002603"/><trkpt lon="35.254917" lat="33.0024"/><trkpt lon="35.25294" lat="33.001848"/><trkpt lon="35.251595" lat="33.001878"/><trkpt lon="35.250196" lat="33.002282"/><trkpt lon="35.249398" lat="33.002745"/><trkpt lon="35.248039" lat="33.004071"/><trkpt lon="35.247106" lat="33.004319"/><trkpt lon="35.246709" lat="33.004292"/><trkpt lon="35.24665" lat="33.004049"/><trkpt lon="35.246073" lat="33.003561"/><trkpt lon="35.246264" lat="33.003551"/><trkpt lon="35.24504" lat="33.003505"/><trkpt lon="35.244763" lat="33.003241"/><trkpt lon="35.243721" lat="33.003236"/><trkpt lon="35.242846" lat="33.002886"/><trkpt lon="35.242274" lat="33.002843"/><trkpt lon="35.241488" lat="33.003007"/><trkpt lon="35.240888" lat="33.002839"/><trkpt lon="35.239995" lat="33.002984"/><trkpt lon="35.23912897701" lat="33.003212533097"/><trkpt lon="35.237326532552" lat="33.003284514118"/><trkpt lon="35.236425310323" lat="33.003068570877"/><trkpt lon="35.235674291799" lat="33.003158547202"/><trkpt lon="35.236639887045" lat="33.003680408688"/><trkpt lon="35.237541109274" lat="33.004796102007"/><trkpt lon="35.238270670126" lat="33.005803812876"/><trkpt lon="35.237787872503" lat="33.00618169791"/><trkpt lon="35.236875921438" lat="33.005983752979"/><trkpt lon="35.234451204489" lat="33.005623865351"/><trkpt lon="35.231318384359" lat="33.005551885974"/><trkpt lon="35.229644685934" lat="33.004868081737"/><trkpt lon="35.22706976528" lat="33.005551886238"/><trkpt lon="35.223894029806" lat="33.006343653249"/><trkpt lon="35.222349077413" lat="33.006343652008"/><trkpt lon="35.221919923971" lat="33.006775521307"/><trkpt lon="35.221490770529" lat="33.007279368735"/><trkpt lon="35.221362024496" lat="33.008251062772"/></trkseg></trk></gpx>
