<?xml version="1.0" encoding="UTF-8" standalone="yes"?>
<gpx version="1.1" creator="outdooractive - http://www.outdooractive.com" xmlns="http://www.topografix.com/GPX/1/1" xmlns:oa="http://www.outdooractive.com/GPX/Extensions/1" xmlns:xsi="http://www.w3.org/2001/XMLSchema-instance" xsi:schemaLocation="http://www.topografix.com/GPX/1/1 http://www.topografix.com/GPX/1/1/gpx.xsd http://www.outdooractive.com/GPX/Extensions/1 https://www.outdooractive.com/schema/gpx_extensions.xsd">
  <metadata>
    <name>סינגל כברי נווה זיו</name>
    <author>
      <name>משרד התיירות - אתר מאגרי המידע הממשלתיים</name>
    </author>
    <link href="https://www.outdooractive.com/r/44886712"/>
    <time>2026-02-04T21:50:38.871Z</time>
    <extensions>
      <oa:oaCategory>mountainbiking</oa:oaCategory>
    </extensions>
  </metadata>
  <trk>
    <name>סינגל כברי נווה זיו</name>
    <desc>מסלול הררי ומאתגר, חוצה יערות</desc>
    <type>mountainbiking</type>
    <trkseg>
      <trkpt lat="33.009435" lon="35.145733">
        <ele>54.0</ele>
      </trkpt>
      <trkpt lat="33.009454" lon="35.145732">
        <ele>54.1</ele>
      </trkpt>
      <trkpt lat="33.009476" lon="35.145742">
        <ele>54.2</ele>
      </trkpt>
      <trkpt lat="33.009506" lon="35.145757">
        <ele>54.4</ele>
      </trkpt>
      <trkpt lat="33.009537" lon="35.145795">
        <ele>54.6</ele>
      </trkpt>
      <trkpt lat="33.00956" lon="35.145901">
        <ele>54.9</ele>
      </trkpt>
      <trkpt lat="33.009623" lon="35.146321">
        <ele>56.4</ele>
      </trkpt>
      <trkpt lat="33.009633" lon="35.146392">
        <ele>56.7</ele>
      </trkpt>
      <trkpt lat="33.009709" lon="35.146675">
        <ele>58.1</ele>
      </trkpt>
      <trkpt lat="33.009792" lon="35.146815">
        <ele>59.2</ele>
      </trkpt>
      <trkpt lat="33.009901" lon="35.146925">
        <ele>60.3</ele>
      </trkpt>
      <trkpt lat="33.010125" lon="35.147036">
        <ele>61.4</ele>
      </trkpt>
      <trkpt lat="33.010201" lon="35.147074">
        <ele>61.7</ele>
      </trkpt>
      <trkpt lat="33.010276" lon="35.14714">
        <ele>62.0</ele>
      </trkpt>
      <trkpt lat="33.010522" lon="35.147356">
        <ele>62.3</ele>
      </trkpt>
      <trkpt lat="33.010649" lon="35.147424">
        <ele>62.1</ele>
      </trkpt>
      <trkpt lat="33.010916" lon="35.147569">
        <ele>62.4</ele>
      </trkpt>
      <trkpt lat="33.011013" lon="35.147662">
        <ele>63.1</ele>
      </trkpt>
      <trkpt lat="33.011071" lon="35.147744">
        <ele>63.7</ele>
      </trkpt>
      <trkpt lat="33.011088" lon="35.1478">
        <ele>64.2</ele>
      </trkpt>
      <trkpt lat="33.011079" lon="35.147948">
        <ele>65.5</ele>
      </trkpt>
      <trkpt lat="33.011068" lon="35.147993">
        <ele>66.0</ele>
      </trkpt>
      <trkpt lat="33.010978" lon="35.14818">
        <ele>68.1</ele>
      </trkpt>
      <trkpt lat="33.01094" lon="35.148311">
        <ele>69.3</ele>
      </trkpt>
      <trkpt lat="33.010911" lon="35.148471">
        <ele>70.5</ele>
      </trkpt>
      <trkpt lat="33.010925" lon="35.148599">
        <ele>71.1</ele>
      </trkpt>
      <trkpt lat="33.010927" lon="35.148606">
        <ele>71.1</ele>
      </trkpt>
      <trkpt lat="33.010989" lon="35.148801">
        <ele>71.5</ele>
      </trkpt>
      <trkpt lat="33.011111" lon="35.149013">
        <ele>71.5</ele>
      </trkpt>
      <trkpt lat="33.011182" lon="35.149111">
        <ele>71.3</ele>
      </trkpt>
      <trkpt lat="33.011291" lon="35.149223">
        <ele>70.9</ele>
      </trkpt>
      <trkpt lat="33.011446" lon="35.149334">
        <ele>70.0</ele>
      </trkpt>
      <trkpt lat="33.011513" lon="35.149435">
        <ele>69.8</ele>
      </trkpt>
      <trkpt lat="33.011541" lon="35.149603">
        <ele>70.0</ele>
      </trkpt>
      <trkpt lat="33.011548" lon="35.149862">
        <ele>70.5</ele>
      </trkpt>
      <trkpt lat="33.011583" lon="35.150074">
        <ele>70.8</ele>
      </trkpt>
      <trkpt lat="33.01164" lon="35.150233">
        <ele>70.9</ele>
      </trkpt>
      <trkpt lat="33.011729" lon="35.150369">
        <ele>71.0</ele>
      </trkpt>
      <trkpt lat="33.011787" lon="35.15042">
        <ele>71.0</ele>
      </trkpt>
      <trkpt lat="33.012021" lon="35.150532">
        <ele>71.1</ele>
      </trkpt>
      <trkpt lat="33.0123" lon="35.15062">
        <ele>71.4</ele>
      </trkpt>
      <trkpt lat="33.012551" lon="35.150662">
        <ele>71.3</ele>
      </trkpt>
      <trkpt lat="33.012768" lon="35.150667">
        <ele>71.0</ele>
      </trkpt>
      <trkpt lat="33.012911" lon="35.150688">
        <ele>70.9</ele>
      </trkpt>
      <trkpt lat="33.013159" lon="35.15075">
        <ele>70.8</ele>
      </trkpt>
      <trkpt lat="33.013407" lon="35.150812">
        <ele>70.9</ele>
      </trkpt>
      <trkpt lat="33.013659" lon="35.15079">
        <ele>70.8</ele>
      </trkpt>
      <trkpt lat="33.014045" lon="35.150687">
        <ele>70.6</ele>
      </trkpt>
      <trkpt lat="33.014405" lon="35.150657">
        <ele>70.9</ele>
      </trkpt>
      <trkpt lat="33.01454" lon="35.150595">
        <ele>70.9</ele>
      </trkpt>
      <trkpt lat="33.014611" lon="35.150499">
        <ele>71.0</ele>
      </trkpt>
      <trkpt lat="33.014673" lon="35.150343">
        <ele>71.0</ele>
      </trkpt>
      <trkpt lat="33.014705" lon="35.150095">
        <ele>71.0</ele>
      </trkpt>
      <trkpt lat="33.014723" lon="35.149959">
        <ele>71.0</ele>
      </trkpt>
      <trkpt lat="33.014857" lon="35.149906">
        <ele>71.5</ele>
      </trkpt>
      <trkpt lat="33.014946" lon="35.149765">
        <ele>71.9</ele>
      </trkpt>
      <trkpt lat="33.015037" lon="35.149735">
        <ele>72.2</ele>
      </trkpt>
      <trkpt lat="33.01541" lon="35.149537">
        <ele>72.8</ele>
      </trkpt>
      <trkpt lat="33.015783" lon="35.149339">
        <ele>72.5</ele>
      </trkpt>
      <trkpt lat="33.015824" lon="35.149321">
        <ele>72.4</ele>
      </trkpt>
      <trkpt lat="33.016032" lon="35.14923">
        <ele>71.7</ele>
      </trkpt>
      <trkpt lat="33.016339" lon="35.149243">
        <ele>70.8</ele>
      </trkpt>
      <trkpt lat="33.016493" lon="35.149229">
        <ele>70.3</ele>
      </trkpt>
      <trkpt lat="33.016602" lon="35.149175">
        <ele>70.0</ele>
      </trkpt>
      <trkpt lat="33.016571" lon="35.149412">
        <ele>70.6</ele>
      </trkpt>
      <trkpt lat="33.01665" lon="35.149648">
        <ele>70.9</ele>
      </trkpt>
      <trkpt lat="33.016808" lon="35.149777">
        <ele>71.3</ele>
      </trkpt>
      <trkpt lat="33.016882" lon="35.14991">
        <ele>71.7</ele>
      </trkpt>
      <trkpt lat="33.016798" lon="35.15009">
        <ele>72.5</ele>
      </trkpt>
      <trkpt lat="33.016731" lon="35.15017">
        <ele>72.9</ele>
      </trkpt>
      <trkpt lat="33.016775" lon="35.150331">
        <ele>74.0</ele>
      </trkpt>
      <trkpt lat="33.016795" lon="35.150352">
        <ele>74.1</ele>
      </trkpt>
      <trkpt lat="33.016963" lon="35.150516">
        <ele>75.3</ele>
      </trkpt>
      <trkpt lat="33.017034" lon="35.150659">
        <ele>76.3</ele>
      </trkpt>
      <trkpt lat="33.017235" lon="35.150854">
        <ele>77.5</ele>
      </trkpt>
      <trkpt lat="33.017436" lon="35.15105">
        <ele>78.6</ele>
      </trkpt>
      <trkpt lat="33.017566" lon="35.151291">
        <ele>79.8</ele>
      </trkpt>
      <trkpt lat="33.017534" lon="35.151591">
        <ele>80.8</ele>
      </trkpt>
      <trkpt lat="33.017319" lon="35.151722">
        <ele>80.7</ele>
      </trkpt>
      <trkpt lat="33.017104" lon="35.151852">
        <ele>80.9</ele>
      </trkpt>
      <trkpt lat="33.017396" lon="35.152084">
        <ele>83.1</ele>
      </trkpt>
      <trkpt lat="33.017282" lon="35.152258">
        <ele>84.0</ele>
      </trkpt>
      <trkpt lat="33.017088" lon="35.152326">
        <ele>83.8</ele>
      </trkpt>
      <trkpt lat="33.016837" lon="35.152432">
        <ele>83.5</ele>
      </trkpt>
      <trkpt lat="33.016763" lon="35.152849">
        <ele>84.3</ele>
      </trkpt>
      <trkpt lat="33.016877" lon="35.153129">
        <ele>85.4</ele>
      </trkpt>
      <trkpt lat="33.016873" lon="35.153419">
        <ele>85.5</ele>
      </trkpt>
      <trkpt lat="33.016869" lon="35.153709">
        <ele>85.0</ele>
      </trkpt>
      <trkpt lat="33.016844" lon="35.153951">
        <ele>84.5</ele>
      </trkpt>
      <trkpt lat="33.016666" lon="35.154299">
        <ele>83.1</ele>
      </trkpt>
      <trkpt lat="33.016609" lon="35.154453">
        <ele>83.0</ele>
      </trkpt>
      <trkpt lat="33.016326" lon="35.154318">
        <ele>80.7</ele>
      </trkpt>
      <trkpt lat="33.016115" lon="35.154434">
        <ele>79.4</ele>
      </trkpt>
      <trkpt lat="33.016026" lon="35.154927">
        <ele>79.5</ele>
      </trkpt>
      <trkpt lat="33.016049" lon="35.155319">
        <ele>80.7</ele>
      </trkpt>
      <trkpt lat="33.016059" lon="35.155319">
        <ele>80.8</ele>
      </trkpt>
      <trkpt lat="33.016277" lon="35.155328">
        <ele>82.4</ele>
      </trkpt>
      <trkpt lat="33.016653" lon="35.155311">
        <ele>85.7</ele>
      </trkpt>
      <trkpt lat="33.016764" lon="35.155356">
        <ele>86.7</ele>
      </trkpt>
      <trkpt lat="33.016798" lon="35.155612">
        <ele>87.6</ele>
      </trkpt>
      <trkpt lat="33.016842" lon="35.155889">
        <ele>88.5</ele>
      </trkpt>
      <trkpt lat="33.016901" lon="35.155995">
        <ele>89.1</ele>
      </trkpt>
      <trkpt lat="33.016917" lon="35.156023">
        <ele>89.3</ele>
      </trkpt>
      <trkpt lat="33.016946" lon="35.156206">
        <ele>89.8</ele>
      </trkpt>
      <trkpt lat="33.016975" lon="35.156561">
        <ele>90.2</ele>
      </trkpt>
      <trkpt lat="33.01703" lon="35.156796">
        <ele>90.3</ele>
      </trkpt>
      <trkpt lat="33.017149" lon="35.156968">
        <ele>90.6</ele>
      </trkpt>
      <trkpt lat="33.017232" lon="35.157146">
        <ele>90.7</ele>
      </trkpt>
      <trkpt lat="33.017275" lon="35.157241">
        <ele>90.7</ele>
      </trkpt>
      <trkpt lat="33.017325" lon="35.157282">
        <ele>91.0</ele>
      </trkpt>
      <trkpt lat="33.017473" lon="35.157476">
        <ele>91.8</ele>
      </trkpt>
      <trkpt lat="33.017569" lon="35.157425">
        <ele>92.6</ele>
      </trkpt>
      <trkpt lat="33.017686" lon="35.157412">
        <ele>93.4</ele>
      </trkpt>
      <trkpt lat="33.017732" lon="35.157372">
        <ele>93.8</ele>
      </trkpt>
      <trkpt lat="33.017771" lon="35.157296">
        <ele>94.1</ele>
      </trkpt>
      <trkpt lat="33.017837" lon="35.157227">
        <ele>94.7</ele>
      </trkpt>
      <trkpt lat="33.01794" lon="35.157327">
        <ele>95.1</ele>
      </trkpt>
      <trkpt lat="33.018026" lon="35.15782">
        <ele>95.0</ele>
      </trkpt>
      <trkpt lat="33.018087" lon="35.1578">
        <ele>95.5</ele>
      </trkpt>
      <trkpt lat="33.018087" lon="35.157705">
        <ele>95.6</ele>
      </trkpt>
      <trkpt lat="33.018112" lon="35.157615">
        <ele>96.0</ele>
      </trkpt>
      <trkpt lat="33.018164" lon="35.157606">
        <ele>96.4</ele>
      </trkpt>
      <trkpt lat="33.018137" lon="35.157737">
        <ele>95.9</ele>
      </trkpt>
      <trkpt lat="33.018127" lon="35.157921">
        <ele>95.5</ele>
      </trkpt>
      <trkpt lat="33.018249" lon="35.15819">
        <ele>95.7</ele>
      </trkpt>
      <trkpt lat="33.018422" lon="35.158502">
        <ele>96.4</ele>
      </trkpt>
      <trkpt lat="33.018491" lon="35.158481">
        <ele>97.1</ele>
      </trkpt>
      <trkpt lat="33.018505" lon="35.158396">
        <ele>97.4</ele>
      </trkpt>
      <trkpt lat="33.018569" lon="35.158306">
        <ele>98.2</ele>
      </trkpt>
      <trkpt lat="33.018603" lon="35.158348">
        <ele>98.5</ele>
      </trkpt>
      <trkpt lat="33.018658" lon="35.158419">
        <ele>98.9</ele>
      </trkpt>
      <trkpt lat="33.018712" lon="35.158569">
        <ele>99.0</ele>
      </trkpt>
      <trkpt lat="33.018948" lon="35.158859">
        <ele>100.7</ele>
      </trkpt>
      <trkpt lat="33.019101" lon="35.159096">
        <ele>101.5</ele>
      </trkpt>
      <trkpt lat="33.019255" lon="35.159334">
        <ele>102.5</ele>
      </trkpt>
      <trkpt lat="33.019403" lon="35.159556">
        <ele>103.7</ele>
      </trkpt>
      <trkpt lat="33.019551" lon="35.159779">
        <ele>105.4</ele>
      </trkpt>
      <trkpt lat="33.019698" lon="35.160015">
        <ele>107.3</ele>
      </trkpt>
      <trkpt lat="33.019886" lon="35.160195">
        <ele>110.1</ele>
      </trkpt>
      <trkpt lat="33.02006" lon="35.160401">
        <ele>112.2</ele>
      </trkpt>
      <trkpt lat="33.020129" lon="35.160634">
        <ele>112.8</ele>
      </trkpt>
      <trkpt lat="33.020221" lon="35.160777">
        <ele>113.8</ele>
      </trkpt>
      <trkpt lat="33.020316" lon="35.160919">
        <ele>115.0</ele>
      </trkpt>
      <trkpt lat="33.020465" lon="35.161101">
        <ele>116.9</ele>
      </trkpt>
      <trkpt lat="33.020608" lon="35.161278">
        <ele>118.9</ele>
      </trkpt>
      <trkpt lat="33.020787" lon="35.161561">
        <ele>121.4</ele>
      </trkpt>
      <trkpt lat="33.02087" lon="35.161883">
        <ele>122.4</ele>
      </trkpt>
      <trkpt lat="33.020947" lon="35.162242">
        <ele>123.1</ele>
      </trkpt>
      <trkpt lat="33.021063" lon="35.162602">
        <ele>124.4</ele>
      </trkpt>
      <trkpt lat="33.021179" lon="35.162896">
        <ele>125.9</ele>
      </trkpt>
      <trkpt lat="33.021349" lon="35.163246">
        <ele>127.4</ele>
      </trkpt>
      <trkpt lat="33.02148" lon="35.16366">
        <ele>127.9</ele>
      </trkpt>
      <trkpt lat="33.02158" lon="35.163973">
        <ele>128.3</ele>
      </trkpt>
      <trkpt lat="33.021642" lon="35.1643">
        <ele>128.8</ele>
      </trkpt>
      <trkpt lat="33.021704" lon="35.164627">
        <ele>130.0</ele>
      </trkpt>
      <trkpt lat="33.021866" lon="35.16505">
        <ele>132.1</ele>
      </trkpt>
      <trkpt lat="33.021829" lon="35.165357">
        <ele>131.2</ele>
      </trkpt>
      <trkpt lat="33.021847" lon="35.165757">
        <ele>130.9</ele>
      </trkpt>
      <trkpt lat="33.021923" lon="35.165952">
        <ele>132.3</ele>
      </trkpt>
      <trkpt lat="33.021933" lon="35.165971">
        <ele>132.5</ele>
      </trkpt>
      <trkpt lat="33.021972" lon="35.166041">
        <ele>133.3</ele>
      </trkpt>
      <trkpt lat="33.02203" lon="35.165993">
        <ele>134.3</ele>
      </trkpt>
      <trkpt lat="33.022125" lon="35.16559">
        <ele>135.4</ele>
      </trkpt>
      <trkpt lat="33.022109" lon="35.165493">
        <ele>135.0</ele>
      </trkpt>
      <trkpt lat="33.022067" lon="35.165086">
        <ele>134.1</ele>
      </trkpt>
      <trkpt lat="33.02206" lon="35.164727">
        <ele>133.8</ele>
      </trkpt>
      <trkpt lat="33.022052" lon="35.164369">
        <ele>133.4</ele>
      </trkpt>
      <trkpt lat="33.021991" lon="35.163905">
        <ele>132.8</ele>
      </trkpt>
      <trkpt lat="33.021987" lon="35.16361">
        <ele>133.0</ele>
      </trkpt>
      <trkpt lat="33.021983" lon="35.163315">
        <ele>133.1</ele>
      </trkpt>
      <trkpt lat="33.02209" lon="35.162897">
        <ele>134.1</ele>
      </trkpt>
      <trkpt lat="33.022265" lon="35.162683">
        <ele>135.4</ele>
      </trkpt>
      <trkpt lat="33.02244" lon="35.16247">
        <ele>136.6</ele>
      </trkpt>
      <trkpt lat="33.022703" lon="35.162125">
        <ele>138.1</ele>
      </trkpt>
      <trkpt lat="33.022966" lon="35.161779">
        <ele>138.7</ele>
      </trkpt>
      <trkpt lat="33.023172" lon="35.161334">
        <ele>138.2</ele>
      </trkpt>
      <trkpt lat="33.023302" lon="35.161175">
        <ele>137.8</ele>
      </trkpt>
      <trkpt lat="33.023466" lon="35.160681">
        <ele>136.4</ele>
      </trkpt>
      <trkpt lat="33.023601" lon="35.160283">
        <ele>134.9</ele>
      </trkpt>
      <trkpt lat="33.023644" lon="35.159936">
        <ele>133.6</ele>
      </trkpt>
      <trkpt lat="33.023768" lon="35.159605">
        <ele>131.7</ele>
      </trkpt>
      <trkpt lat="33.023891" lon="35.159274">
        <ele>129.7</ele>
      </trkpt>
      <trkpt lat="33.024064" lon="35.158805">
        <ele>126.3</ele>
      </trkpt>
      <trkpt lat="33.024177" lon="35.158423">
        <ele>123.5</ele>
      </trkpt>
      <trkpt lat="33.02429" lon="35.15804">
        <ele>120.9</ele>
      </trkpt>
      <trkpt lat="33.024366" lon="35.157748">
        <ele>118.9</ele>
      </trkpt>
      <trkpt lat="33.024441" lon="35.157456">
        <ele>117.2</ele>
      </trkpt>
      <trkpt lat="33.024602" lon="35.157135">
        <ele>115.3</ele>
      </trkpt>
      <trkpt lat="33.024861" lon="35.156942">
        <ele>113.3</ele>
      </trkpt>
      <trkpt lat="33.025168" lon="35.156679">
        <ele>111.2</ele>
      </trkpt>
      <trkpt lat="33.025481" lon="35.156454">
        <ele>109.1</ele>
      </trkpt>
      <trkpt lat="33.025718" lon="35.156222">
        <ele>107.6</ele>
      </trkpt>
      <trkpt lat="33.025879" lon="35.156004">
        <ele>106.6</ele>
      </trkpt>
      <trkpt lat="33.026041" lon="35.155786">
        <ele>105.9</ele>
      </trkpt>
      <trkpt lat="33.026256" lon="35.155696">
        <ele>106.2</ele>
      </trkpt>
      <trkpt lat="33.026439" lon="35.155374">
        <ele>106.1</ele>
      </trkpt>
      <trkpt lat="33.026687" lon="35.155079">
        <ele>106.3</ele>
      </trkpt>
      <trkpt lat="33.026897" lon="35.154886">
        <ele>106.1</ele>
      </trkpt>
      <trkpt lat="33.026989" lon="35.15495">
        <ele>106.5</ele>
      </trkpt>
      <trkpt lat="33.027088" lon="35.154986">
        <ele>106.8</ele>
      </trkpt>
      <trkpt lat="33.027274" lon="35.154986">
        <ele>106.8</ele>
      </trkpt>
      <trkpt lat="33.027441" lon="35.154983">
        <ele>106.3</ele>
      </trkpt>
      <trkpt lat="33.027573" lon="35.155009">
        <ele>105.5</ele>
      </trkpt>
      <trkpt lat="33.027655" lon="35.155078">
        <ele>105.1</ele>
      </trkpt>
      <trkpt lat="33.027721" lon="35.155169">
        <ele>104.8</ele>
      </trkpt>
      <trkpt lat="33.027808" lon="35.155284">
        <ele>104.4</ele>
      </trkpt>
      <trkpt lat="33.027907" lon="35.155359">
        <ele>103.6</ele>
      </trkpt>
      <trkpt lat="33.028005" lon="35.155418">
        <ele>102.6</ele>
      </trkpt>
      <trkpt lat="33.028126" lon="35.155476">
        <ele>101.4</ele>
      </trkpt>
      <trkpt lat="33.028194" lon="35.155578">
        <ele>101.1</ele>
      </trkpt>
      <trkpt lat="33.028227" lon="35.155679">
        <ele>101.3</ele>
      </trkpt>
      <trkpt lat="33.028266" lon="35.155777">
        <ele>101.5</ele>
      </trkpt>
      <trkpt lat="33.028318" lon="35.15578">
        <ele>100.8</ele>
      </trkpt>
      <trkpt lat="33.028367" lon="35.155692">
        <ele>99.6</ele>
      </trkpt>
      <trkpt lat="33.028372" lon="35.155597">
        <ele>98.9</ele>
      </trkpt>
      <trkpt lat="33.028405" lon="35.155571">
        <ele>98.2</ele>
      </trkpt>
      <trkpt lat="33.028477" lon="35.155633">
        <ele>97.6</ele>
      </trkpt>
      <trkpt lat="33.028534" lon="35.155715">
        <ele>97.4</ele>
      </trkpt>
      <trkpt lat="33.028591" lon="35.155813">
        <ele>97.2</ele>
      </trkpt>
      <trkpt lat="33.02866" lon="35.155816">
        <ele>96.2</ele>
      </trkpt>
      <trkpt lat="33.028701" lon="35.155728">
        <ele>94.9</ele>
      </trkpt>
      <trkpt lat="33.028742" lon="35.155558">
        <ele>93.0</ele>
      </trkpt>
      <trkpt lat="33.028816" lon="35.15547">
        <ele>91.2</ele>
      </trkpt>
      <trkpt lat="33.028861" lon="35.1553">
        <ele>89.2</ele>
      </trkpt>
      <trkpt lat="33.028936" lon="35.155032">
        <ele>85.9</ele>
      </trkpt>
      <trkpt lat="33.028999" lon="35.15471">
        <ele>82.1</ele>
      </trkpt>
      <trkpt lat="33.029022" lon="35.154477">
        <ele>79.6</ele>
      </trkpt>
      <trkpt lat="33.028982" lon="35.15419">
        <ele>78.4</ele>
      </trkpt>
      <trkpt lat="33.029022" lon="35.15395">
        <ele>76.7</ele>
      </trkpt>
      <trkpt lat="33.029085" lon="35.153751">
        <ele>75.4</ele>
      </trkpt>
      <trkpt lat="33.029177" lon="35.153402">
        <ele>74.0</ele>
      </trkpt>
      <trkpt lat="33.029292" lon="35.152984">
        <ele>72.0</ele>
      </trkpt>
      <trkpt lat="33.029421" lon="35.15279">
        <ele>70.2</ele>
      </trkpt>
      <trkpt lat="33.029439" lon="35.152763">
        <ele>69.9</ele>
      </trkpt>
      <trkpt lat="33.029472" lon="35.153004">
        <ele>70.3</ele>
      </trkpt>
      <trkpt lat="33.029505" lon="35.153298">
        <ele>70.7</ele>
      </trkpt>
      <trkpt lat="33.029537" lon="35.153592">
        <ele>70.6</ele>
      </trkpt>
      <trkpt lat="33.029586" lon="35.153952">
        <ele>70.1</ele>
      </trkpt>
      <trkpt lat="33.029634" lon="35.154313">
        <ele>70.7</ele>
      </trkpt>
      <trkpt lat="33.029682" lon="35.154673">
        <ele>72.5</ele>
      </trkpt>
      <trkpt lat="33.029729" lon="35.155109">
        <ele>74.4</ele>
      </trkpt>
      <trkpt lat="33.029776" lon="35.155545">
        <ele>75.4</ele>
      </trkpt>
      <trkpt lat="33.02979" lon="35.155766">
        <ele>76.2</ele>
      </trkpt>
      <trkpt lat="33.029851" lon="35.155914">
        <ele>76.1</ele>
      </trkpt>
      <trkpt lat="33.030032" lon="35.155994">
        <ele>74.7</ele>
      </trkpt>
      <trkpt lat="33.030188" lon="35.155959">
        <ele>73.4</ele>
      </trkpt>
      <trkpt lat="33.03036" lon="35.155869">
        <ele>72.4</ele>
      </trkpt>
      <trkpt lat="33.030501" lon="35.155834">
        <ele>72.4</ele>
      </trkpt>
      <trkpt lat="33.030627" lon="35.15583">
        <ele>72.8</ele>
      </trkpt>
      <trkpt lat="33.030786" lon="35.155856">
        <ele>73.6</ele>
      </trkpt>
      <trkpt lat="33.030919" lon="35.155903">
        <ele>74.7</ele>
      </trkpt>
      <trkpt lat="33.030993" lon="35.155991">
        <ele>75.6</ele>
      </trkpt>
      <trkpt lat="33.03099" lon="35.156014">
        <ele>75.6</ele>
      </trkpt>
      <trkpt lat="33.030949" lon="35.156393">
        <ele>75.9</ele>
      </trkpt>
      <trkpt lat="33.030925" lon="35.156615">
        <ele>76.3</ele>
      </trkpt>
      <trkpt lat="33.030892" lon="35.156951">
        <ele>76.5</ele>
      </trkpt>
      <trkpt lat="33.030928" lon="35.157236">
        <ele>76.9</ele>
      </trkpt>
      <trkpt lat="33.03088" lon="35.157568">
        <ele>77.5</ele>
      </trkpt>
      <trkpt lat="33.030868" lon="35.157747">
        <ele>78.4</ele>
      </trkpt>
      <trkpt lat="33.030863" lon="35.15792">
        <ele>79.6</ele>
      </trkpt>
      <trkpt lat="33.030803" lon="35.158127">
        <ele>80.8</ele>
      </trkpt>
      <trkpt lat="33.030788" lon="35.158207">
        <ele>81.3</ele>
      </trkpt>
      <trkpt lat="33.030749" lon="35.158383">
        <ele>82.2</ele>
      </trkpt>
      <trkpt lat="33.030712" lon="35.158538">
        <ele>82.8</ele>
      </trkpt>
      <trkpt lat="33.030739" lon="35.158698">
        <ele>83.1</ele>
      </trkpt>
      <trkpt lat="33.030755" lon="35.158897">
        <ele>83.5</ele>
      </trkpt>
      <trkpt lat="33.03083" lon="35.159077">
        <ele>83.8</ele>
      </trkpt>
      <trkpt lat="33.030841" lon="35.15927">
        <ele>84.3</ele>
      </trkpt>
      <trkpt lat="33.030916" lon="35.159482">
        <ele>85.0</ele>
      </trkpt>
      <trkpt lat="33.031001" lon="35.159733">
        <ele>86.0</ele>
      </trkpt>
      <trkpt lat="33.031064" lon="35.159903">
        <ele>86.8</ele>
      </trkpt>
      <trkpt lat="33.031125" lon="35.160053">
        <ele>87.6</ele>
      </trkpt>
      <trkpt lat="33.031182" lon="35.16018">
        <ele>88.1</ele>
      </trkpt>
      <trkpt lat="33.031262" lon="35.160314">
        <ele>88.8</ele>
      </trkpt>
      <trkpt lat="33.031317" lon="35.160423">
        <ele>89.2</ele>
      </trkpt>
      <trkpt lat="33.031376" lon="35.160539">
        <ele>89.5</ele>
      </trkpt>
      <trkpt lat="33.031441" lon="35.160652">
        <ele>89.8</ele>
      </trkpt>
      <trkpt lat="33.031481" lon="35.160777">
        <ele>89.9</ele>
      </trkpt>
      <trkpt lat="33.031513" lon="35.160916">
        <ele>89.9</ele>
      </trkpt>
      <trkpt lat="33.031547" lon="35.161093">
        <ele>89.8</ele>
      </trkpt>
      <trkpt lat="33.031587" lon="35.161218">
        <ele>89.9</ele>
      </trkpt>
      <trkpt lat="33.03165" lon="35.161425">
        <ele>90.0</ele>
      </trkpt>
      <trkpt lat="33.031696" lon="35.161595">
        <ele>90.2</ele>
      </trkpt>
      <trkpt lat="33.031738" lon="35.161788">
        <ele>90.7</ele>
      </trkpt>
      <trkpt lat="33.03181" lon="35.16199">
        <ele>91.6</ele>
      </trkpt>
      <trkpt lat="33.031845" lon="35.162154">
        <ele>92.0</ele>
      </trkpt>
      <trkpt lat="33.031837" lon="35.16224">
        <ele>92.1</ele>
      </trkpt>
      <trkpt lat="33.031846" lon="35.162331">
        <ele>92.4</ele>
      </trkpt>
      <trkpt lat="33.031919" lon="35.16242">
        <ele>93.0</ele>
      </trkpt>
      <trkpt lat="33.031934" lon="35.162483">
        <ele>93.2</ele>
      </trkpt>
      <trkpt lat="33.031985" lon="35.16259">
        <ele>93.7</ele>
      </trkpt>
      <trkpt lat="33.032035" lon="35.162685">
        <ele>94.1</ele>
      </trkpt>
      <trkpt lat="33.032105" lon="35.162767">
        <ele>94.4</ele>
      </trkpt>
      <trkpt lat="33.032185" lon="35.162844">
        <ele>94.6</ele>
      </trkpt>
      <trkpt lat="33.032262" lon="35.162926">
        <ele>94.8</ele>
      </trkpt>
      <trkpt lat="33.032305" lon="35.163026">
        <ele>94.8</ele>
      </trkpt>
      <trkpt lat="33.032362" lon="35.163144">
        <ele>94.8</ele>
      </trkpt>
      <trkpt lat="33.032391" lon="35.163306">
        <ele>95.0</ele>
      </trkpt>
      <trkpt lat="33.032416" lon="35.163351">
        <ele>95.1</ele>
      </trkpt>
      <trkpt lat="33.032469" lon="35.163469">
        <ele>95.4</ele>
      </trkpt>
      <trkpt lat="33.032511" lon="35.163578">
        <ele>95.8</ele>
      </trkpt>
      <trkpt lat="33.032549" lon="35.16368">
        <ele>96.3</ele>
      </trkpt>
      <trkpt lat="33.032566" lon="35.163787">
        <ele>96.9</ele>
      </trkpt>
      <trkpt lat="33.03262" lon="35.163844">
        <ele>97.0</ele>
      </trkpt>
      <trkpt lat="33.032654" lon="35.163916">
        <ele>97.2</ele>
      </trkpt>
      <trkpt lat="33.032686" lon="35.163971">
        <ele>97.3</ele>
      </trkpt>
      <trkpt lat="33.032766" lon="35.164091">
        <ele>97.3</ele>
      </trkpt>
      <trkpt lat="33.032835" lon="35.164184">
        <ele>97.2</ele>
      </trkpt>
      <trkpt lat="33.032913" lon="35.164248">
        <ele>96.8</ele>
      </trkpt>
      <trkpt lat="33.032966" lon="35.164341">
        <ele>96.7</ele>
      </trkpt>
      <trkpt lat="33.032991" lon="35.164412">
        <ele>96.8</ele>
      </trkpt>
      <trkpt lat="33.033023" lon="35.164482">
        <ele>96.8</ele>
      </trkpt>
      <trkpt lat="33.033054" lon="35.16458">
        <ele>96.9</ele>
      </trkpt>
      <trkpt lat="33.033058" lon="35.164668">
        <ele>97.2</ele>
      </trkpt>
      <trkpt lat="33.03304" lon="35.164752">
        <ele>97.7</ele>
      </trkpt>
      <trkpt lat="33.033016" lon="35.16487">
        <ele>98.5</ele>
      </trkpt>
      <trkpt lat="33.032989" lon="35.164988">
        <ele>99.3</ele>
      </trkpt>
      <trkpt lat="33.032963" lon="35.165027">
        <ele>99.8</ele>
      </trkpt>
      <trkpt lat="33.032932" lon="35.165073">
        <ele>100.4</ele>
      </trkpt>
      <trkpt lat="33.032877" lon="35.165127">
        <ele>101.4</ele>
      </trkpt>
      <trkpt lat="33.032821" lon="35.165198">
        <ele>102.6</ele>
      </trkpt>
      <trkpt lat="33.032724" lon="35.165341">
        <ele>104.8</ele>
      </trkpt>
      <trkpt lat="33.032686" lon="35.165463">
        <ele>106.1</ele>
      </trkpt>
      <trkpt lat="33.032658" lon="35.165636">
        <ele>107.3</ele>
      </trkpt>
      <trkpt lat="33.032658" lon="35.165758">
        <ele>107.8</ele>
      </trkpt>
      <trkpt lat="33.03265" lon="35.165913">
        <ele>108.3</ele>
      </trkpt>
      <trkpt lat="33.032652" lon="35.166042">
        <ele>108.4</ele>
      </trkpt>
      <trkpt lat="33.032673" lon="35.166124">
        <ele>108.2</ele>
      </trkpt>
      <trkpt lat="33.032741" lon="35.166208">
        <ele>107.5</ele>
      </trkpt>
      <trkpt lat="33.032814" lon="35.166292">
        <ele>107.1</ele>
      </trkpt>
      <trkpt lat="33.032871" lon="35.166406">
        <ele>107.1</ele>
      </trkpt>
      <trkpt lat="33.032922" lon="35.166492">
        <ele>107.4</ele>
      </trkpt>
      <trkpt lat="33.032981" lon="35.166617">
        <ele>107.9</ele>
      </trkpt>
      <trkpt lat="33.033002" lon="35.166778">
        <ele>108.7</ele>
      </trkpt>
      <trkpt lat="33.032976" lon="35.166901">
        <ele>109.2</ele>
      </trkpt>
      <trkpt lat="33.032993" lon="35.166992">
        <ele>109.7</ele>
      </trkpt>
      <trkpt lat="33.033017" lon="35.167087">
        <ele>110.1</ele>
      </trkpt>
      <trkpt lat="33.033021" lon="35.167162">
        <ele>110.5</ele>
      </trkpt>
      <trkpt lat="33.033031" lon="35.167333">
        <ele>111.1</ele>
      </trkpt>
      <trkpt lat="33.033059" lon="35.167464">
        <ele>111.6</ele>
      </trkpt>
      <trkpt lat="33.033021" lon="35.167569">
        <ele>112.1</ele>
      </trkpt>
      <trkpt lat="33.033" lon="35.167721">
        <ele>112.7</ele>
      </trkpt>
      <trkpt lat="33.033004" lon="35.167812">
        <ele>113.1</ele>
      </trkpt>
      <trkpt lat="33.033017" lon="35.167921">
        <ele>113.5</ele>
      </trkpt>
      <trkpt lat="33.033" lon="35.168003">
        <ele>113.8</ele>
      </trkpt>
      <trkpt lat="33.032978" lon="35.168082">
        <ele>114.2</ele>
      </trkpt>
      <trkpt lat="33.032959" lon="35.168207">
        <ele>114.6</ele>
      </trkpt>
      <trkpt lat="33.032936" lon="35.168366">
        <ele>115.2</ele>
      </trkpt>
      <trkpt lat="33.032926" lon="35.168439">
        <ele>115.4</ele>
      </trkpt>
      <trkpt lat="33.032888" lon="35.168507">
        <ele>115.9</ele>
      </trkpt>
      <trkpt lat="33.032863" lon="35.168584">
        <ele>116.4</ele>
      </trkpt>
      <trkpt lat="33.032871" lon="35.168652">
        <ele>116.4</ele>
      </trkpt>
      <trkpt lat="33.032907" lon="35.16872">
        <ele>115.9</ele>
      </trkpt>
      <trkpt lat="33.032957" lon="35.1688">
        <ele>115.1</ele>
      </trkpt>
      <trkpt lat="33.03301" lon="35.168904">
        <ele>114.1</ele>
      </trkpt>
      <trkpt lat="33.033061" lon="35.168998">
        <ele>113.1</ele>
      </trkpt>
      <trkpt lat="33.033124" lon="35.169082">
        <ele>112.1</ele>
      </trkpt>
      <trkpt lat="33.033219" lon="35.169147">
        <ele>110.8</ele>
      </trkpt>
      <trkpt lat="33.033284" lon="35.169206">
        <ele>110.3</ele>
      </trkpt>
      <trkpt lat="33.03336" lon="35.169311">
        <ele>110.4</ele>
      </trkpt>
      <trkpt lat="33.033471" lon="35.16944">
        <ele>111.3</ele>
      </trkpt>
      <trkpt lat="33.033547" lon="35.16955">
        <ele>112.4</ele>
      </trkpt>
      <trkpt lat="33.03357" lon="35.16969">
        <ele>113.4</ele>
      </trkpt>
      <trkpt lat="33.033579" lon="35.169831">
        <ele>114.3</ele>
      </trkpt>
      <trkpt lat="33.033593" lon="35.169976">
        <ele>115.1</ele>
      </trkpt>
      <trkpt lat="33.0336" lon="35.170058">
        <ele>115.5</ele>
      </trkpt>
      <trkpt lat="33.033598" lon="35.170142">
        <ele>115.8</ele>
      </trkpt>
      <trkpt lat="33.033545" lon="35.170206">
        <ele>116.0</ele>
      </trkpt>
      <trkpt lat="33.033505" lon="35.170256">
        <ele>116.2</ele>
      </trkpt>
      <trkpt lat="33.033482" lon="35.170385">
        <ele>116.7</ele>
      </trkpt>
      <trkpt lat="33.033476" lon="35.170488">
        <ele>117.1</ele>
      </trkpt>
      <trkpt lat="33.033463" lon="35.170576">
        <ele>117.4</ele>
      </trkpt>
      <trkpt lat="33.033484" lon="35.170674">
        <ele>117.8</ele>
      </trkpt>
      <trkpt lat="33.033469" lon="35.170808">
        <ele>118.3</ele>
      </trkpt>
      <trkpt lat="33.033431" lon="35.170917">
        <ele>118.8</ele>
      </trkpt>
      <trkpt lat="33.033379" lon="35.171092">
        <ele>119.5</ele>
      </trkpt>
      <trkpt lat="33.033335" lon="35.171237">
        <ele>120.1</ele>
      </trkpt>
      <trkpt lat="33.033296" lon="35.171366">
        <ele>120.9</ele>
      </trkpt>
      <trkpt lat="33.033265" lon="35.171442">
        <ele>121.4</ele>
      </trkpt>
      <trkpt lat="33.033195" lon="35.171576">
        <ele>122.9</ele>
      </trkpt>
      <trkpt lat="33.033149" lon="35.171719">
        <ele>124.2</ele>
      </trkpt>
      <trkpt lat="33.033126" lon="35.171868">
        <ele>125.3</ele>
      </trkpt>
      <trkpt lat="33.033136" lon="35.171993">
        <ele>125.9</ele>
      </trkpt>
      <trkpt lat="33.033082" lon="35.17208">
        <ele>127.0</ele>
      </trkpt>
      <trkpt lat="33.033025" lon="35.17213">
        <ele>127.9</ele>
      </trkpt>
      <trkpt lat="33.032985" lon="35.1723">
        <ele>129.0</ele>
      </trkpt>
      <trkpt lat="33.032936" lon="35.172511">
        <ele>130.2</ele>
      </trkpt>
      <trkpt lat="33.032894" lon="35.172661">
        <ele>130.8</ele>
      </trkpt>
      <trkpt lat="33.032888" lon="35.172741">
        <ele>131.0</ele>
      </trkpt>
      <trkpt lat="33.032858" lon="35.172891">
        <ele>131.3</ele>
      </trkpt>
      <trkpt lat="33.032812" lon="35.173029">
        <ele>131.4</ele>
      </trkpt>
      <trkpt lat="33.03277" lon="35.173138">
        <ele>131.3</ele>
      </trkpt>
      <trkpt lat="33.032722" lon="35.173279">
        <ele>131.0</ele>
      </trkpt>
      <trkpt lat="33.032675" lon="35.173343">
        <ele>130.8</ele>
      </trkpt>
      <trkpt lat="33.032639" lon="35.173422">
        <ele>130.5</ele>
      </trkpt>
      <trkpt lat="33.032566" lon="35.173549">
        <ele>130.1</ele>
      </trkpt>
      <trkpt lat="33.03253" lon="35.173647">
        <ele>129.9</ele>
      </trkpt>
      <trkpt lat="33.032482" lon="35.173745">
        <ele>129.8</ele>
      </trkpt>
      <trkpt lat="33.032397" lon="35.173833">
        <ele>130.4</ele>
      </trkpt>
      <trkpt lat="33.032362" lon="35.173879">
        <ele>130.7</ele>
      </trkpt>
      <trkpt lat="33.0323" lon="35.174038">
        <ele>131.5</ele>
      </trkpt>
      <trkpt lat="33.032241" lon="35.174188">
        <ele>132.7</ele>
      </trkpt>
      <trkpt lat="33.032178" lon="35.174292">
        <ele>134.0</ele>
      </trkpt>
      <trkpt lat="33.032132" lon="35.174383">
        <ele>134.9</ele>
      </trkpt>
      <trkpt lat="33.032088" lon="35.174462">
        <ele>135.5</ele>
      </trkpt>
      <trkpt lat="33.032063" lon="35.174603">
        <ele>135.9</ele>
      </trkpt>
      <trkpt lat="33.032008" lon="35.17471">
        <ele>136.1</ele>
      </trkpt>
      <trkpt lat="33.031951" lon="35.174792">
        <ele>135.9</ele>
      </trkpt>
      <trkpt lat="33.031854" lon="35.174921">
        <ele>135.4</ele>
      </trkpt>
      <trkpt lat="33.031806" lon="35.175014">
        <ele>135.1</ele>
      </trkpt>
      <trkpt lat="33.031761" lon="35.175058">
        <ele>135.1</ele>
      </trkpt>
      <trkpt lat="33.031702" lon="35.175098">
        <ele>135.4</ele>
      </trkpt>
      <trkpt lat="33.031667" lon="35.175144">
        <ele>135.7</ele>
      </trkpt>
      <trkpt lat="33.031639" lon="35.175251">
        <ele>136.3</ele>
      </trkpt>
      <trkpt lat="33.031595" lon="35.175373">
        <ele>137.4</ele>
      </trkpt>
      <trkpt lat="33.031557" lon="35.175514">
        <ele>138.6</ele>
      </trkpt>
      <trkpt lat="33.031536" lon="35.175637">
        <ele>139.5</ele>
      </trkpt>
      <trkpt lat="33.031547" lon="35.175793">
        <ele>139.7</ele>
      </trkpt>
      <trkpt lat="33.031576" lon="35.175907">
        <ele>139.4</ele>
      </trkpt>
      <trkpt lat="33.031591" lon="35.176016">
        <ele>139.1</ele>
      </trkpt>
      <trkpt lat="33.031591" lon="35.176062">
        <ele>139.0</ele>
      </trkpt>
      <trkpt lat="33.031565" lon="35.17608">
        <ele>139.2</ele>
      </trkpt>
      <trkpt lat="33.031542" lon="35.176057">
        <ele>139.5</ele>
      </trkpt>
      <trkpt lat="33.031532" lon="35.175986">
        <ele>139.7</ele>
      </trkpt>
      <trkpt lat="33.031496" lon="35.175955">
        <ele>140.3</ele>
      </trkpt>
      <trkpt lat="33.031485" lon="35.176005">
        <ele>140.3</ele>
      </trkpt>
      <trkpt lat="33.031477" lon="35.176089">
        <ele>140.3</ele>
      </trkpt>
      <trkpt lat="33.031473" lon="35.176175">
        <ele>140.2</ele>
      </trkpt>
      <trkpt lat="33.031469" lon="35.176302">
        <ele>140.0</ele>
      </trkpt>
      <trkpt lat="33.031485" lon="35.1764">
        <ele>139.5</ele>
      </trkpt>
      <trkpt lat="33.031492" lon="35.1765">
        <ele>139.2</ele>
      </trkpt>
      <trkpt lat="33.031496" lon="35.176591">
        <ele>139.0</ele>
      </trkpt>
      <trkpt lat="33.031506" lon="35.176698">
        <ele>138.8</ele>
      </trkpt>
      <trkpt lat="33.031494" lon="35.176734">
        <ele>139.0</ele>
      </trkpt>
      <trkpt lat="33.031504" lon="35.176779">
        <ele>138.8</ele>
      </trkpt>
      <trkpt lat="33.031513" lon="35.176854">
        <ele>138.5</ele>
      </trkpt>
      <trkpt lat="33.031542" lon="35.176988">
        <ele>137.9</ele>
      </trkpt>
      <trkpt lat="33.03157" lon="35.177113">
        <ele>137.3</ele>
      </trkpt>
      <trkpt lat="33.031576" lon="35.177211">
        <ele>137.3</ele>
      </trkpt>
      <trkpt lat="33.031597" lon="35.17729">
        <ele>137.1</ele>
      </trkpt>
      <trkpt lat="33.031507" lon="35.177449">
        <ele>139.9</ele>
      </trkpt>
      <trkpt lat="33.031398" lon="35.177644">
        <ele>143.3</ele>
      </trkpt>
      <trkpt lat="33.031198" lon="35.177998">
        <ele>151.6</ele>
      </trkpt>
      <trkpt lat="33.031155" lon="35.178102">
        <ele>153.3</ele>
      </trkpt>
      <trkpt lat="33.031126" lon="35.178268">
        <ele>154.7</ele>
      </trkpt>
      <trkpt lat="33.031134" lon="35.178657">
        <ele>155.8</ele>
      </trkpt>
      <trkpt lat="33.0311" lon="35.178914">
        <ele>156.9</ele>
      </trkpt>
      <trkpt lat="33.031102" lon="35.179047">
        <ele>157.2</ele>
      </trkpt>
      <trkpt lat="33.031178" lon="35.179339">
        <ele>158.3</ele>
      </trkpt>
      <trkpt lat="33.031184" lon="35.179613">
        <ele>160.2</ele>
      </trkpt>
      <trkpt lat="33.031189" lon="35.179888">
        <ele>161.8</ele>
      </trkpt>
      <trkpt lat="33.031135" lon="35.180078">
        <ele>162.8</ele>
      </trkpt>
      <trkpt lat="33.031056" lon="35.180235">
        <ele>163.7</ele>
      </trkpt>
      <trkpt lat="33.030939" lon="35.180314">
        <ele>165.2</ele>
      </trkpt>
      <trkpt lat="33.030731" lon="35.180417">
        <ele>168.8</ele>
      </trkpt>
      <trkpt lat="33.030476" lon="35.180554">
        <ele>173.4</ele>
      </trkpt>
      <trkpt lat="33.030236" lon="35.180695">
        <ele>176.5</ele>
      </trkpt>
      <trkpt lat="33.029995" lon="35.180836">
        <ele>179.1</ele>
      </trkpt>
      <trkpt lat="33.029756" lon="35.181153">
        <ele>182.4</ele>
      </trkpt>
      <trkpt lat="33.029518" lon="35.181469">
        <ele>186.6</ele>
      </trkpt>
      <trkpt lat="33.029316" lon="35.181716">
        <ele>189.5</ele>
      </trkpt>
      <trkpt lat="33.029371" lon="35.181874">
        <ele>188.5</ele>
      </trkpt>
      <trkpt lat="33.029363" lon="35.181971">
        <ele>188.7</ele>
      </trkpt>
      <trkpt lat="33.029354" lon="35.18205">
        <ele>188.8</ele>
      </trkpt>
      <trkpt lat="33.02935" lon="35.182164">
        <ele>188.9</ele>
      </trkpt>
      <trkpt lat="33.029338" lon="35.182255">
        <ele>189.1</ele>
      </trkpt>
      <trkpt lat="33.029312" lon="35.182348">
        <ele>189.5</ele>
      </trkpt>
      <trkpt lat="33.029293" lon="35.18243">
        <ele>189.7</ele>
      </trkpt>
      <trkpt lat="33.029272" lon="35.182515">
        <ele>190.0</ele>
      </trkpt>
      <trkpt lat="33.029262" lon="35.182588">
        <ele>190.2</ele>
      </trkpt>
      <trkpt lat="33.029257" lon="35.182655">
        <ele>190.4</ele>
      </trkpt>
      <trkpt lat="33.02928" lon="35.182727">
        <ele>190.4</ele>
      </trkpt>
      <trkpt lat="33.029284" lon="35.182832">
        <ele>190.7</ele>
      </trkpt>
      <trkpt lat="33.029281" lon="35.182902">
        <ele>191.0</ele>
      </trkpt>
      <trkpt lat="33.02926" lon="35.183057">
        <ele>191.6</ele>
      </trkpt>
      <trkpt lat="33.029247" lon="35.183137">
        <ele>191.9</ele>
      </trkpt>
      <trkpt lat="33.029229" lon="35.183236">
        <ele>192.4</ele>
      </trkpt>
      <trkpt lat="33.029219" lon="35.183317">
        <ele>192.6</ele>
      </trkpt>
      <trkpt lat="33.029204" lon="35.183378">
        <ele>192.9</ele>
      </trkpt>
      <trkpt lat="33.029169" lon="35.183442">
        <ele>193.2</ele>
      </trkpt>
      <trkpt lat="33.029134" lon="35.183497">
        <ele>193.5</ele>
      </trkpt>
      <trkpt lat="33.029111" lon="35.183562">
        <ele>193.8</ele>
      </trkpt>
      <trkpt lat="33.029105" lon="35.183627">
        <ele>193.9</ele>
      </trkpt>
      <trkpt lat="33.029055" lon="35.183734">
        <ele>194.4</ele>
      </trkpt>
      <trkpt lat="33.029036" lon="35.183805">
        <ele>194.6</ele>
      </trkpt>
      <trkpt lat="33.029029" lon="35.183863">
        <ele>194.7</ele>
      </trkpt>
      <trkpt lat="33.029012" lon="35.183882">
        <ele>194.9</ele>
      </trkpt>
      <trkpt lat="33.028986" lon="35.183919">
        <ele>195.2</ele>
      </trkpt>
      <trkpt lat="33.02897" lon="35.183975">
        <ele>195.4</ele>
      </trkpt>
      <trkpt lat="33.028951" lon="35.184032">
        <ele>195.7</ele>
      </trkpt>
      <trkpt lat="33.028946" lon="35.184073">
        <ele>195.9</ele>
      </trkpt>
      <trkpt lat="33.028938" lon="35.184126">
        <ele>196.1</ele>
      </trkpt>
      <trkpt lat="33.02891" lon="35.184173">
        <ele>196.6</ele>
      </trkpt>
      <trkpt lat="33.028879" lon="35.184213">
        <ele>197.1</ele>
      </trkpt>
      <trkpt lat="33.028853" lon="35.184232">
        <ele>197.4</ele>
      </trkpt>
      <trkpt lat="33.028853" lon="35.184301">
        <ele>197.8</ele>
      </trkpt>
      <trkpt lat="33.028853" lon="35.184372">
        <ele>198.2</ele>
      </trkpt>
      <trkpt lat="33.028842" lon="35.184444">
        <ele>198.8</ele>
      </trkpt>
      <trkpt lat="33.028814" lon="35.184491">
        <ele>199.4</ele>
      </trkpt>
      <trkpt lat="33.028802" lon="35.184542">
        <ele>199.8</ele>
      </trkpt>
      <trkpt lat="33.028791" lon="35.184626">
        <ele>200.5</ele>
      </trkpt>
      <trkpt lat="33.028763" lon="35.184756">
        <ele>201.6</ele>
      </trkpt>
      <trkpt lat="33.028753" lon="35.184818">
        <ele>202.0</ele>
      </trkpt>
      <trkpt lat="33.028768" lon="35.184875">
        <ele>202.3</ele>
      </trkpt>
      <trkpt lat="33.028774" lon="35.184905">
        <ele>202.5</ele>
      </trkpt>
      <trkpt lat="33.028765" lon="35.184978">
        <ele>202.9</ele>
      </trkpt>
      <trkpt lat="33.028729" lon="35.185067">
        <ele>203.3</ele>
      </trkpt>
      <trkpt lat="33.02871" lon="35.185143">
        <ele>203.6</ele>
      </trkpt>
      <trkpt lat="33.028681" lon="35.185202">
        <ele>203.8</ele>
      </trkpt>
      <trkpt lat="33.028674" lon="35.185247">
        <ele>203.9</ele>
      </trkpt>
      <trkpt lat="33.028656" lon="35.185366">
        <ele>204.2</ele>
      </trkpt>
      <trkpt lat="33.028635" lon="35.185435">
        <ele>204.4</ele>
      </trkpt>
      <trkpt lat="33.028628" lon="35.18552">
        <ele>204.5</ele>
      </trkpt>
      <trkpt lat="33.028613" lon="35.185617">
        <ele>204.8</ele>
      </trkpt>
      <trkpt lat="33.028613" lon="35.185744">
        <ele>205.1</ele>
      </trkpt>
      <trkpt lat="33.028598" lon="35.185785">
        <ele>205.2</ele>
      </trkpt>
      <trkpt lat="33.028561" lon="35.185882">
        <ele>205.4</ele>
      </trkpt>
      <trkpt lat="33.028528" lon="35.185951">
        <ele>205.6</ele>
      </trkpt>
      <trkpt lat="33.028501" lon="35.186012">
        <ele>205.8</ele>
      </trkpt>
      <trkpt lat="33.028461" lon="35.186071">
        <ele>206.0</ele>
      </trkpt>
      <trkpt lat="33.0284" lon="35.186158">
        <ele>206.3</ele>
      </trkpt>
      <trkpt lat="33.028378" lon="35.186168">
        <ele>206.4</ele>
      </trkpt>
      <trkpt lat="33.028379" lon="35.186198">
        <ele>206.5</ele>
      </trkpt>
      <trkpt lat="33.02834" lon="35.18623">
        <ele>206.7</ele>
      </trkpt>
      <trkpt lat="33.028306" lon="35.186275">
        <ele>206.9</ele>
      </trkpt>
      <trkpt lat="33.028289" lon="35.186344">
        <ele>207.2</ele>
      </trkpt>
      <trkpt lat="33.028254" lon="35.186383">
        <ele>207.5</ele>
      </trkpt>
      <trkpt lat="33.028219" lon="35.186436">
        <ele>207.9</ele>
      </trkpt>
      <trkpt lat="33.028185" lon="35.186497">
        <ele>208.3</ele>
      </trkpt>
      <trkpt lat="33.028195" lon="35.186556">
        <ele>208.4</ele>
      </trkpt>
      <trkpt lat="33.028204" lon="35.18663">
        <ele>208.6</ele>
      </trkpt>
      <trkpt lat="33.028215" lon="35.186707">
        <ele>208.8</ele>
      </trkpt>
      <trkpt lat="33.028221" lon="35.186752">
        <ele>209.0</ele>
      </trkpt>
      <trkpt lat="33.028208" lon="35.18681">
        <ele>209.4</ele>
      </trkpt>
      <trkpt lat="33.028201" lon="35.186902">
        <ele>209.9</ele>
      </trkpt>
      <trkpt lat="33.028207" lon="35.186958">
        <ele>210.2</ele>
      </trkpt>
      <trkpt lat="33.028219" lon="35.18702">
        <ele>210.6</ele>
      </trkpt>
      <trkpt lat="33.028236" lon="35.187082">
        <ele>210.9</ele>
      </trkpt>
      <trkpt lat="33.028266" lon="35.18712">
        <ele>211.0</ele>
      </trkpt>
      <trkpt lat="33.028269" lon="35.187163">
        <ele>211.3</ele>
      </trkpt>
      <trkpt lat="33.028254" lon="35.187194">
        <ele>211.5</ele>
      </trkpt>
      <trkpt lat="33.028263" lon="35.187231">
        <ele>211.7</ele>
      </trkpt>
      <trkpt lat="33.028273" lon="35.187354">
        <ele>212.4</ele>
      </trkpt>
      <trkpt lat="33.028279" lon="35.187436">
        <ele>212.9</ele>
      </trkpt>
      <trkpt lat="33.028263" lon="35.187462">
        <ele>213.0</ele>
      </trkpt>
      <trkpt lat="33.02825" lon="35.187506">
        <ele>213.3</ele>
      </trkpt>
      <trkpt lat="33.028264" lon="35.187536">
        <ele>213.3</ele>
      </trkpt>
      <trkpt lat="33.028263" lon="35.187591">
        <ele>213.5</ele>
      </trkpt>
      <trkpt lat="33.028254" lon="35.187642">
        <ele>213.7</ele>
      </trkpt>
      <trkpt lat="33.028274" lon="35.187666">
        <ele>213.7</ele>
      </trkpt>
      <trkpt lat="33.028267" lon="35.187753">
        <ele>214.0</ele>
      </trkpt>
      <trkpt lat="33.028273" lon="35.187814">
        <ele>214.1</ele>
      </trkpt>
      <trkpt lat="33.028269" lon="35.187883">
        <ele>214.3</ele>
      </trkpt>
      <trkpt lat="33.02827" lon="35.187984">
        <ele>214.5</ele>
      </trkpt>
      <trkpt lat="33.028262" lon="35.188031">
        <ele>214.6</ele>
      </trkpt>
      <trkpt lat="33.028252" lon="35.18808">
        <ele>214.7</ele>
      </trkpt>
      <trkpt lat="33.028275" lon="35.188129">
        <ele>214.7</ele>
      </trkpt>
      <trkpt lat="33.028302" lon="35.188186">
        <ele>214.7</ele>
      </trkpt>
      <trkpt lat="33.028326" lon="35.18826">
        <ele>214.8</ele>
      </trkpt>
      <trkpt lat="33.028321" lon="35.188321">
        <ele>215.0</ele>
      </trkpt>
      <trkpt lat="33.028304" lon="35.188389">
        <ele>215.2</ele>
      </trkpt>
      <trkpt lat="33.028305" lon="35.188416">
        <ele>215.2</ele>
      </trkpt>
      <trkpt lat="33.028317" lon="35.188484">
        <ele>215.4</ele>
      </trkpt>
      <trkpt lat="33.028306" lon="35.188543">
        <ele>215.5</ele>
      </trkpt>
      <trkpt lat="33.028298" lon="35.18862">
        <ele>215.7</ele>
      </trkpt>
      <trkpt lat="33.028298" lon="35.188676">
        <ele>215.8</ele>
      </trkpt>
      <trkpt lat="33.028295" lon="35.188726">
        <ele>215.9</ele>
      </trkpt>
      <trkpt lat="33.028313" lon="35.188766">
        <ele>216.0</ele>
      </trkpt>
      <trkpt lat="33.028306" lon="35.188789">
        <ele>216.0</ele>
      </trkpt>
      <trkpt lat="33.028277" lon="35.188814">
        <ele>216.1</ele>
      </trkpt>
      <trkpt lat="33.028224" lon="35.188832">
        <ele>216.2</ele>
      </trkpt>
      <trkpt lat="33.028178" lon="35.188832">
        <ele>216.4</ele>
      </trkpt>
      <trkpt lat="33.028158" lon="35.188868">
        <ele>216.5</ele>
      </trkpt>
      <trkpt lat="33.028141" lon="35.188906">
        <ele>216.7</ele>
      </trkpt>
      <trkpt lat="33.02812" lon="35.188956">
        <ele>216.9</ele>
      </trkpt>
      <trkpt lat="33.02808" lon="35.189001">
        <ele>217.1</ele>
      </trkpt>
      <trkpt lat="33.028034" lon="35.18903">
        <ele>217.5</ele>
      </trkpt>
      <trkpt lat="33.027995" lon="35.189041">
        <ele>217.7</ele>
      </trkpt>
      <trkpt lat="33.027956" lon="35.18902">
        <ele>218.0</ele>
      </trkpt>
      <trkpt lat="33.027887" lon="35.188977">
        <ele>218.5</ele>
      </trkpt>
      <trkpt lat="33.027847" lon="35.188932">
        <ele>218.9</ele>
      </trkpt>
      <trkpt lat="33.027784" lon="35.188893">
        <ele>219.5</ele>
      </trkpt>
      <trkpt lat="33.027745" lon="35.188869">
        <ele>220.0</ele>
      </trkpt>
      <trkpt lat="33.027659" lon="35.188866">
        <ele>220.8</ele>
      </trkpt>
      <trkpt lat="33.027607" lon="35.188876">
        <ele>221.3</ele>
      </trkpt>
      <trkpt lat="33.027548" lon="35.188914">
        <ele>221.7</ele>
      </trkpt>
      <trkpt lat="33.027469" lon="35.188975">
        <ele>222.3</ele>
      </trkpt>
      <trkpt lat="33.027434" lon="35.189018">
        <ele>222.5</ele>
      </trkpt>
      <trkpt lat="33.027403" lon="35.189068">
        <ele>222.8</ele>
      </trkpt>
      <trkpt lat="33.027343" lon="35.1891">
        <ele>223.4</ele>
      </trkpt>
      <trkpt lat="33.027277" lon="35.189139">
        <ele>224.0</ele>
      </trkpt>
      <trkpt lat="33.027248" lon="35.189165">
        <ele>224.4</ele>
      </trkpt>
      <trkpt lat="33.027226" lon="35.189195">
        <ele>224.7</ele>
      </trkpt>
      <trkpt lat="33.02721" lon="35.189258">
        <ele>225.0</ele>
      </trkpt>
      <trkpt lat="33.027186" lon="35.189296">
        <ele>225.3</ele>
      </trkpt>
      <trkpt lat="33.027128" lon="35.18936">
        <ele>226.1</ele>
      </trkpt>
      <trkpt lat="33.027089" lon="35.189362">
        <ele>226.6</ele>
      </trkpt>
      <trkpt lat="33.027006" lon="35.189349">
        <ele>227.4</ele>
      </trkpt>
      <trkpt lat="33.026934" lon="35.18933">
        <ele>228.1</ele>
      </trkpt>
      <trkpt lat="33.026864" lon="35.189309">
        <ele>228.8</ele>
      </trkpt>
      <trkpt lat="33.026818" lon="35.189301">
        <ele>229.2</ele>
      </trkpt>
      <trkpt lat="33.026774" lon="35.189311">
        <ele>229.6</ele>
      </trkpt>
      <trkpt lat="33.026693" lon="35.18932">
        <ele>230.2</ele>
      </trkpt>
      <trkpt lat="33.026646" lon="35.18932">
        <ele>230.5</ele>
      </trkpt>
      <trkpt lat="33.026596" lon="35.189325">
        <ele>230.8</ele>
      </trkpt>
      <trkpt lat="33.026553" lon="35.189324">
        <ele>231.0</ele>
      </trkpt>
      <trkpt lat="33.026515" lon="35.189304">
        <ele>231.1</ele>
      </trkpt>
      <trkpt lat="33.026472" lon="35.189319">
        <ele>231.4</ele>
      </trkpt>
      <trkpt lat="33.02642" lon="35.189322">
        <ele>231.6</ele>
      </trkpt>
      <trkpt lat="33.026347" lon="35.189333">
        <ele>231.9</ele>
      </trkpt>
      <trkpt lat="33.026269" lon="35.189332">
        <ele>232.1</ele>
      </trkpt>
      <trkpt lat="33.026223" lon="35.189312">
        <ele>232.2</ele>
      </trkpt>
      <trkpt lat="33.026197" lon="35.189295">
        <ele>232.2</ele>
      </trkpt>
      <trkpt lat="33.026138" lon="35.189275">
        <ele>232.2</ele>
      </trkpt>
      <trkpt lat="33.026082" lon="35.189272">
        <ele>232.3</ele>
      </trkpt>
      <trkpt lat="33.026013" lon="35.189272">
        <ele>232.3</ele>
      </trkpt>
      <trkpt lat="33.025959" lon="35.189261">
        <ele>232.3</ele>
      </trkpt>
      <trkpt lat="33.025901" lon="35.189263">
        <ele>232.4</ele>
      </trkpt>
      <trkpt lat="33.025868" lon="35.189275">
        <ele>232.4</ele>
      </trkpt>
      <trkpt lat="33.025845" lon="35.189296">
        <ele>232.5</ele>
      </trkpt>
      <trkpt lat="33.025824" lon="35.189343">
        <ele>232.8</ele>
      </trkpt>
      <trkpt lat="33.025814" lon="35.189354">
        <ele>232.8</ele>
      </trkpt>
      <trkpt lat="33.025799" lon="35.18937">
        <ele>232.9</ele>
      </trkpt>
      <trkpt lat="33.025767" lon="35.189389">
        <ele>233.0</ele>
      </trkpt>
      <trkpt lat="33.025734" lon="35.189388">
        <ele>232.9</ele>
      </trkpt>
      <trkpt lat="33.025718" lon="35.189399">
        <ele>233.0</ele>
      </trkpt>
      <trkpt lat="33.025647" lon="35.189371">
        <ele>232.7</ele>
      </trkpt>
      <trkpt lat="33.025552" lon="35.189262">
        <ele>232.0</ele>
      </trkpt>
      <trkpt lat="33.025483" lon="35.18914">
        <ele>231.3</ele>
      </trkpt>
      <trkpt lat="33.025449" lon="35.188926">
        <ele>230.4</ele>
      </trkpt>
      <trkpt lat="33.025422" lon="35.188676">
        <ele>229.2</ele>
      </trkpt>
      <trkpt lat="33.025365" lon="35.188613">
        <ele>228.6</ele>
      </trkpt>
      <trkpt lat="33.025354" lon="35.188481">
        <ele>227.9</ele>
      </trkpt>
      <trkpt lat="33.025178" lon="35.188659">
        <ele>227.8</ele>
      </trkpt>
      <trkpt lat="33.025002" lon="35.188838">
        <ele>228.2</ele>
      </trkpt>
      <trkpt lat="33.024858" lon="35.189015">
        <ele>228.8</ele>
      </trkpt>
      <trkpt lat="33.024683" lon="35.189074">
        <ele>228.4</ele>
      </trkpt>
      <trkpt lat="33.024576" lon="35.189145">
        <ele>228.3</ele>
      </trkpt>
      <trkpt lat="33.024551" lon="35.189038">
        <ele>227.7</ele>
      </trkpt>
      <trkpt lat="33.024543" lon="35.188924">
        <ele>227.1</ele>
      </trkpt>
      <trkpt lat="33.024553" lon="35.188772">
        <ele>226.4</ele>
      </trkpt>
      <trkpt lat="33.02457" lon="35.188692">
        <ele>226.1</ele>
      </trkpt>
      <trkpt lat="33.024548" lon="35.188598">
        <ele>225.5</ele>
      </trkpt>
      <trkpt lat="33.024497" lon="35.188465">
        <ele>224.8</ele>
      </trkpt>
      <trkpt lat="33.024459" lon="35.188274">
        <ele>223.9</ele>
      </trkpt>
      <trkpt lat="33.02444" lon="35.188116">
        <ele>223.0</ele>
      </trkpt>
      <trkpt lat="33.024383" lon="35.188">
        <ele>222.5</ele>
      </trkpt>
      <trkpt lat="33.02431" lon="35.187861">
        <ele>221.9</ele>
      </trkpt>
      <trkpt lat="33.024304" lon="35.187657">
        <ele>220.9</ele>
      </trkpt>
      <trkpt lat="33.02431" lon="35.187482">
        <ele>220.2</ele>
      </trkpt>
      <trkpt lat="33.02435" lon="35.187334">
        <ele>219.8</ele>
      </trkpt>
      <trkpt lat="33.024348" lon="35.187272">
        <ele>219.8</ele>
      </trkpt>
      <trkpt lat="33.024296" lon="35.187101">
        <ele>220.2</ele>
      </trkpt>
      <trkpt lat="33.024307" lon="35.187042">
        <ele>220.2</ele>
      </trkpt>
      <trkpt lat="33.024323" lon="35.186926">
        <ele>220.1</ele>
      </trkpt>
      <trkpt lat="33.02438" lon="35.186829">
        <ele>219.7</ele>
      </trkpt>
      <trkpt lat="33.024475" lon="35.186719">
        <ele>218.8</ele>
      </trkpt>
      <trkpt lat="33.024543" lon="35.186612">
        <ele>217.9</ele>
      </trkpt>
      <trkpt lat="33.024545" lon="35.186509">
        <ele>217.4</ele>
      </trkpt>
      <trkpt lat="33.024597" lon="35.186357">
        <ele>216.3</ele>
      </trkpt>
      <trkpt lat="33.024592" lon="35.186076">
        <ele>214.8</ele>
      </trkpt>
      <trkpt lat="33.024562" lon="35.185878">
        <ele>213.9</ele>
      </trkpt>
      <trkpt lat="33.024592" lon="35.185717">
        <ele>213.0</ele>
      </trkpt>
      <trkpt lat="33.024583" lon="35.185665">
        <ele>212.8</ele>
      </trkpt>
      <trkpt lat="33.024605" lon="35.185591">
        <ele>212.3</ele>
      </trkpt>
      <trkpt lat="33.024597" lon="35.185532">
        <ele>212.1</ele>
      </trkpt>
      <trkpt lat="33.024586" lon="35.185361">
        <ele>211.4</ele>
      </trkpt>
      <trkpt lat="33.024589" lon="35.185219">
        <ele>210.8</ele>
      </trkpt>
      <trkpt lat="33.024594" lon="35.185112">
        <ele>210.3</ele>
      </trkpt>
      <trkpt lat="33.024629" lon="35.184983">
        <ele>209.5</ele>
      </trkpt>
      <trkpt lat="33.024681" lon="35.184821">
        <ele>208.5</ele>
      </trkpt>
      <trkpt lat="33.024681" lon="35.18474">
        <ele>208.2</ele>
      </trkpt>
      <trkpt lat="33.024651" lon="35.184582">
        <ele>207.9</ele>
      </trkpt>
      <trkpt lat="33.024613" lon="35.184449">
        <ele>207.8</ele>
      </trkpt>
      <trkpt lat="33.024627" lon="35.184339">
        <ele>207.2</ele>
      </trkpt>
      <trkpt lat="33.02461" lon="35.184181">
        <ele>206.8</ele>
      </trkpt>
      <trkpt lat="33.024589" lon="35.184045">
        <ele>206.3</ele>
      </trkpt>
      <trkpt lat="33.024586" lon="35.183948">
        <ele>205.8</ele>
      </trkpt>
      <trkpt lat="33.024624" lon="35.183832">
        <ele>204.8</ele>
      </trkpt>
      <trkpt lat="33.024613" lon="35.183767">
        <ele>204.5</ele>
      </trkpt>
      <trkpt lat="33.02461" lon="35.183625">
        <ele>203.7</ele>
      </trkpt>
      <trkpt lat="33.024605" lon="35.183473">
        <ele>202.9</ele>
      </trkpt>
      <trkpt lat="33.02457" lon="35.183337">
        <ele>202.5</ele>
      </trkpt>
      <trkpt lat="33.024532" lon="35.183201">
        <ele>202.4</ele>
      </trkpt>
      <trkpt lat="33.024551" lon="35.18312">
        <ele>201.8</ele>
      </trkpt>
      <trkpt lat="33.024602" lon="35.183094">
        <ele>201.2</ele>
      </trkpt>
      <trkpt lat="33.024651" lon="35.183094">
        <ele>200.7</ele>
      </trkpt>
      <trkpt lat="33.024708" lon="35.183146">
        <ele>200.4</ele>
      </trkpt>
      <trkpt lat="33.024746" lon="35.183285">
        <ele>200.7</ele>
      </trkpt>
      <trkpt lat="33.024746" lon="35.183382">
        <ele>201.2</ele>
      </trkpt>
      <trkpt lat="33.02477" lon="35.183489">
        <ele>201.6</ele>
      </trkpt>
      <trkpt lat="33.024803" lon="35.183524">
        <ele>201.6</ele>
      </trkpt>
      <trkpt lat="33.024844" lon="35.183502">
        <ele>201.3</ele>
      </trkpt>
      <trkpt lat="33.024873" lon="35.183379">
        <ele>200.5</ele>
      </trkpt>
      <trkpt lat="33.024901" lon="35.183292">
        <ele>199.9</ele>
      </trkpt>
      <trkpt lat="33.024949" lon="35.183182">
        <ele>199.2</ele>
      </trkpt>
      <trkpt lat="33.02496" lon="35.183111">
        <ele>198.8</ele>
      </trkpt>
      <trkpt lat="33.02492" lon="35.182994">
        <ele>198.3</ele>
      </trkpt>
      <trkpt lat="33.024911" lon="35.182859">
        <ele>197.6</ele>
      </trkpt>
      <trkpt lat="33.024928" lon="35.182739">
        <ele>196.8</ele>
      </trkpt>
      <trkpt lat="33.024952" lon="35.182674">
        <ele>196.3</ele>
      </trkpt>
      <trkpt lat="33.024955" lon="35.182571">
        <ele>195.6</ele>
      </trkpt>
      <trkpt lat="33.024974" lon="35.18248">
        <ele>195.0</ele>
      </trkpt>
      <trkpt lat="33.025018" lon="35.182335">
        <ele>193.8</ele>
      </trkpt>
      <trkpt lat="33.025042" lon="35.182251">
        <ele>193.1</ele>
      </trkpt>
      <trkpt lat="33.025017" lon="35.182183">
        <ele>192.6</ele>
      </trkpt>
      <trkpt lat="33.024998" lon="35.182141">
        <ele>192.4</ele>
      </trkpt>
      <trkpt lat="33.024909" lon="35.182044">
        <ele>192.3</ele>
      </trkpt>
      <trkpt lat="33.024844" lon="35.181985">
        <ele>192.7</ele>
      </trkpt>
      <trkpt lat="33.024822" lon="35.181947">
        <ele>192.8</ele>
      </trkpt>
      <trkpt lat="33.024825" lon="35.181859">
        <ele>192.2</ele>
      </trkpt>
      <trkpt lat="33.024789" lon="35.181824">
        <ele>192.5</ele>
      </trkpt>
      <trkpt lat="33.024765" lon="35.181724">
        <ele>192.4</ele>
      </trkpt>
      <trkpt lat="33.024792" lon="35.181652">
        <ele>191.4</ele>
      </trkpt>
      <trkpt lat="33.024776" lon="35.181536">
        <ele>190.9</ele>
      </trkpt>
      <trkpt lat="33.024784" lon="35.181436">
        <ele>190.1</ele>
      </trkpt>
      <trkpt lat="33.024787" lon="35.181326">
        <ele>189.2</ele>
      </trkpt>
      <trkpt lat="33.024738" lon="35.181232">
        <ele>189.3</ele>
      </trkpt>
      <trkpt lat="33.024705" lon="35.181132">
        <ele>189.1</ele>
      </trkpt>
      <trkpt lat="33.024659" lon="35.181022">
        <ele>189.0</ele>
      </trkpt>
      <trkpt lat="33.024578" lon="35.180925">
        <ele>189.7</ele>
      </trkpt>
      <trkpt lat="33.024475" lon="35.180796">
        <ele>190.4</ele>
      </trkpt>
      <trkpt lat="33.02445" lon="35.180744">
        <ele>190.3</ele>
      </trkpt>
      <trkpt lat="33.024429" lon="35.180698">
        <ele>190.3</ele>
      </trkpt>
      <trkpt lat="33.024394" lon="35.180572">
        <ele>189.7</ele>
      </trkpt>
      <trkpt lat="33.024383" lon="35.180462">
        <ele>188.8</ele>
      </trkpt>
      <trkpt lat="33.024345" lon="35.180378">
        <ele>188.5</ele>
      </trkpt>
      <trkpt lat="33.024318" lon="35.180272">
        <ele>187.8</ele>
      </trkpt>
      <trkpt lat="33.024307" lon="35.180178">
        <ele>187.0</ele>
      </trkpt>
      <trkpt lat="33.024353" lon="35.180074">
        <ele>185.8</ele>
      </trkpt>
      <trkpt lat="33.024358" lon="35.179942">
        <ele>184.8</ele>
      </trkpt>
      <trkpt lat="33.024353" lon="35.179832">
        <ele>184.2</ele>
      </trkpt>
      <trkpt lat="33.024296" lon="35.179696">
        <ele>183.8</ele>
      </trkpt>
      <trkpt lat="33.024272" lon="35.17959">
        <ele>183.4</ele>
      </trkpt>
      <trkpt lat="33.024269" lon="35.179505">
        <ele>183.1</ele>
      </trkpt>
      <trkpt lat="33.024247" lon="35.179386">
        <ele>182.6</ele>
      </trkpt>
      <trkpt lat="33.024272" lon="35.179337">
        <ele>182.3</ele>
      </trkpt>
      <trkpt lat="33.024228" lon="35.179124">
        <ele>181.5</ele>
      </trkpt>
      <trkpt lat="33.024196" lon="35.178972">
        <ele>180.8</ele>
      </trkpt>
      <trkpt lat="33.02412" lon="35.178797">
        <ele>180.1</ele>
      </trkpt>
      <trkpt lat="33.024071" lon="35.178632">
        <ele>179.6</ele>
      </trkpt>
      <trkpt lat="33.024011" lon="35.178406">
        <ele>179.0</ele>
      </trkpt>
      <trkpt lat="33.023965" lon="35.178264">
        <ele>178.9</ele>
      </trkpt>
      <trkpt lat="33.023919" lon="35.178173">
        <ele>179.0</ele>
      </trkpt>
      <trkpt lat="33.023908" lon="35.178041">
        <ele>178.5</ele>
      </trkpt>
      <trkpt lat="33.023881" lon="35.17794">
        <ele>178.3</ele>
      </trkpt>
      <trkpt lat="33.023835" lon="35.177879">
        <ele>178.3</ele>
      </trkpt>
      <trkpt lat="33.023838" lon="35.177834">
        <ele>178.1</ele>
      </trkpt>
      <trkpt lat="33.023754" lon="35.177675">
        <ele>177.5</ele>
      </trkpt>
      <trkpt lat="33.023637" lon="35.177497">
        <ele>176.6</ele>
      </trkpt>
      <trkpt lat="33.023572" lon="35.177384">
        <ele>175.8</ele>
      </trkpt>
      <trkpt lat="33.023523" lon="35.177229">
        <ele>174.2</ele>
      </trkpt>
      <trkpt lat="33.023461" lon="35.177122">
        <ele>173.1</ele>
      </trkpt>
      <trkpt lat="33.023382" lon="35.177003">
        <ele>171.7</ele>
      </trkpt>
      <trkpt lat="33.023331" lon="35.176886">
        <ele>170.5</ele>
      </trkpt>
      <trkpt lat="33.023315" lon="35.176754">
        <ele>169.0</ele>
      </trkpt>
      <trkpt lat="33.023249" lon="35.176602">
        <ele>167.8</ele>
      </trkpt>
      <trkpt lat="33.023182" lon="35.176518">
        <ele>167.7</ele>
      </trkpt>
      <trkpt lat="33.023133" lon="35.176453">
        <ele>167.7</ele>
      </trkpt>
      <trkpt lat="33.023146" lon="35.17634">
        <ele>166.3</ele>
      </trkpt>
      <trkpt lat="33.023127" lon="35.176243">
        <ele>165.5</ele>
      </trkpt>
      <trkpt lat="33.023117" lon="35.176191">
        <ele>165.1</ele>
      </trkpt>
      <trkpt lat="33.023073" lon="35.176107">
        <ele>164.7</ele>
      </trkpt>
      <trkpt lat="33.022995" lon="35.175994">
        <ele>164.4</ele>
      </trkpt>
      <trkpt lat="33.022946" lon="35.175845">
        <ele>163.3</ele>
      </trkpt>
      <trkpt lat="33.022905" lon="35.175719">
        <ele>162.4</ele>
      </trkpt>
      <trkpt lat="33.022927" lon="35.175635">
        <ele>161.5</ele>
      </trkpt>
      <trkpt lat="33.022911" lon="35.17548">
        <ele>160.3</ele>
      </trkpt>
      <trkpt lat="33.022862" lon="35.175282">
        <ele>158.8</ele>
      </trkpt>
      <trkpt lat="33.022843" lon="35.175137">
        <ele>157.6</ele>
      </trkpt>
      <trkpt lat="33.022759" lon="35.174953">
        <ele>155.6</ele>
      </trkpt>
      <trkpt lat="33.022691" lon="35.174833">
        <ele>153.9</ele>
      </trkpt>
      <trkpt lat="33.022612" lon="35.17473">
        <ele>152.3</ele>
      </trkpt>
      <trkpt lat="33.022593" lon="35.174658">
        <ele>151.4</ele>
      </trkpt>
      <trkpt lat="33.02252" lon="35.174607">
        <ele>150.5</ele>
      </trkpt>
      <trkpt lat="33.022471" lon="35.174545">
        <ele>149.6</ele>
      </trkpt>
      <trkpt lat="33.022425" lon="35.174393">
        <ele>147.9</ele>
      </trkpt>
      <trkpt lat="33.022395" lon="35.174261">
        <ele>146.5</ele>
      </trkpt>
      <trkpt lat="33.022358" lon="35.174102">
        <ele>145.3</ele>
      </trkpt>
      <trkpt lat="33.022352" lon="35.173986">
        <ele>144.5</ele>
      </trkpt>
      <trkpt lat="33.022244" lon="35.173866">
        <ele>143.8</ele>
      </trkpt>
      <trkpt lat="33.022152" lon="35.173747">
        <ele>143.0</ele>
      </trkpt>
      <trkpt lat="33.022135" lon="35.173659">
        <ele>142.3</ele>
      </trkpt>
      <trkpt lat="33.022103" lon="35.173601">
        <ele>141.8</ele>
      </trkpt>
      <trkpt lat="33.022057" lon="35.173478">
        <ele>140.8</ele>
      </trkpt>
      <trkpt lat="33.022024" lon="35.173359">
        <ele>140.0</ele>
      </trkpt>
      <trkpt lat="33.021907" lon="35.173288">
        <ele>138.8</ele>
      </trkpt>
      <trkpt lat="33.02178" lon="35.17322">
        <ele>137.7</ele>
      </trkpt>
      <trkpt lat="33.021752" lon="35.173206">
        <ele>137.5</ele>
      </trkpt>
      <trkpt lat="33.021734" lon="35.173155">
        <ele>137.1</ele>
      </trkpt>
      <trkpt lat="33.021725" lon="35.173145">
        <ele>137.0</ele>
      </trkpt>
      <trkpt lat="33.021693" lon="35.173113">
        <ele>136.7</ele>
      </trkpt>
      <trkpt lat="33.021616" lon="35.173065">
        <ele>136.2</ele>
      </trkpt>
      <trkpt lat="33.021257" lon="35.172842">
        <ele>135.0</ele>
      </trkpt>
      <trkpt lat="33.020898" lon="35.17262">
        <ele>133.8</ele>
      </trkpt>
      <trkpt lat="33.020764" lon="35.172578">
        <ele>133.2</ele>
      </trkpt>
      <trkpt lat="33.020551" lon="35.172589">
        <ele>133.0</ele>
      </trkpt>
      <trkpt lat="33.020298" lon="35.172681">
        <ele>133.5</ele>
      </trkpt>
      <trkpt lat="33.020202" lon="35.172733">
        <ele>133.9</ele>
      </trkpt>
      <trkpt lat="33.019933" lon="35.172943">
        <ele>135.5</ele>
      </trkpt>
      <trkpt lat="33.019702" lon="35.173077">
        <ele>137.4</ele>
      </trkpt>
      <trkpt lat="33.01953" lon="35.173002">
        <ele>138.3</ele>
      </trkpt>
      <trkpt lat="33.019283" lon="35.173009">
        <ele>140.4</ele>
      </trkpt>
      <trkpt lat="33.019224" lon="35.172955">
        <ele>140.6</ele>
      </trkpt>
      <trkpt lat="33.019194" lon="35.17288">
        <ele>140.4</ele>
      </trkpt>
      <trkpt lat="33.01919" lon="35.172807">
        <ele>140.0</ele>
      </trkpt>
      <trkpt lat="33.019195" lon="35.172776">
        <ele>139.8</ele>
      </trkpt>
      <trkpt lat="33.019205" lon="35.172715">
        <ele>139.4</ele>
      </trkpt>
      <trkpt lat="33.019285" lon="35.172457">
        <ele>137.8</ele>
      </trkpt>
      <trkpt lat="33.019376" lon="35.172076">
        <ele>136.5</ele>
      </trkpt>
      <trkpt lat="33.019471" lon="35.171817">
        <ele>134.7</ele>
      </trkpt>
      <trkpt lat="33.019559" lon="35.171347">
        <ele>132.6</ele>
      </trkpt>
      <trkpt lat="33.019556" lon="35.171206">
        <ele>132.9</ele>
      </trkpt>
      <trkpt lat="33.019499" lon="35.171089">
        <ele>134.2</ele>
      </trkpt>
      <trkpt lat="33.019311" lon="35.170955">
        <ele>137.9</ele>
      </trkpt>
      <trkpt lat="33.019263" lon="35.170895">
        <ele>138.6</ele>
      </trkpt>
      <trkpt lat="33.019165" lon="35.170681">
        <ele>139.4</ele>
      </trkpt>
      <trkpt lat="33.019059" lon="35.17051">
        <ele>140.1</ele>
      </trkpt>
      <trkpt lat="33.018929" lon="35.170255">
        <ele>140.5</ele>
      </trkpt>
      <trkpt lat="33.018835" lon="35.170113">
        <ele>141.0</ele>
      </trkpt>
      <trkpt lat="33.018786" lon="35.169993">
        <ele>141.0</ele>
      </trkpt>
      <trkpt lat="33.018724" lon="35.169753">
        <ele>140.4</ele>
      </trkpt>
      <trkpt lat="33.018709" lon="35.169629">
        <ele>139.7</ele>
      </trkpt>
      <trkpt lat="33.018731" lon="35.169398">
        <ele>137.4</ele>
      </trkpt>
      <trkpt lat="33.018691" lon="35.169106">
        <ele>135.0</ele>
      </trkpt>
      <trkpt lat="33.018708" lon="35.168986">
        <ele>133.1</ele>
      </trkpt>
      <trkpt lat="33.018772" lon="35.168839">
        <ele>129.7</ele>
      </trkpt>
      <trkpt lat="33.018792" lon="35.16863">
        <ele>126.1</ele>
      </trkpt>
      <trkpt lat="33.018847" lon="35.168426">
        <ele>122.6</ele>
      </trkpt>
      <trkpt lat="33.018896" lon="35.16824">
        <ele>120.5</ele>
      </trkpt>
      <trkpt lat="33.018916" lon="35.167913">
        <ele>119.3</ele>
      </trkpt>
      <trkpt lat="33.018989" lon="35.167659">
        <ele>118.5</ele>
      </trkpt>
      <trkpt lat="33.019002" lon="35.167426">
        <ele>118.0</ele>
      </trkpt>
      <trkpt lat="33.018918" lon="35.167086">
        <ele>118.4</ele>
      </trkpt>
      <trkpt lat="33.018896" lon="35.166653">
        <ele>117.8</ele>
      </trkpt>
      <trkpt lat="33.018864" lon="35.166522">
        <ele>117.9</ele>
      </trkpt>
      <trkpt lat="33.018825" lon="35.16644">
        <ele>118.1</ele>
      </trkpt>
      <trkpt lat="33.018712" lon="35.166321">
        <ele>119.1</ele>
      </trkpt>
      <trkpt lat="33.01866" lon="35.166184">
        <ele>119.3</ele>
      </trkpt>
      <trkpt lat="33.018619" lon="35.166026">
        <ele>119.1</ele>
      </trkpt>
      <trkpt lat="33.01858" lon="35.165971">
        <ele>119.2</ele>
      </trkpt>
      <trkpt lat="33.018382" lon="35.165864">
        <ele>120.8</ele>
      </trkpt>
      <trkpt lat="33.018283" lon="35.165776">
        <ele>121.0</ele>
      </trkpt>
      <trkpt lat="33.018211" lon="35.165696">
        <ele>121.0</ele>
      </trkpt>
      <trkpt lat="33.018085" lon="35.165458">
        <ele>120.1</ele>
      </trkpt>
      <trkpt lat="33.018057" lon="35.165326">
        <ele>119.2</ele>
      </trkpt>
      <trkpt lat="33.018015" lon="35.164801">
        <ele>114.6</ele>
      </trkpt>
      <trkpt lat="33.017948" lon="35.164596">
        <ele>113.4</ele>
      </trkpt>
      <trkpt lat="33.017796" lon="35.164204">
        <ele>112.2</ele>
      </trkpt>
      <trkpt lat="33.017644" lon="35.163927">
        <ele>113.1</ele>
      </trkpt>
      <trkpt lat="33.017576" lon="35.16371">
        <ele>113.0</ele>
      </trkpt>
      <trkpt lat="33.017455" lon="35.163403">
        <ele>112.7</ele>
      </trkpt>
      <trkpt lat="33.017364" lon="35.163096">
        <ele>111.8</ele>
      </trkpt>
      <trkpt lat="33.017273" lon="35.16279">
        <ele>111.3</ele>
      </trkpt>
      <trkpt lat="33.017179" lon="35.162599">
        <ele>111.7</ele>
      </trkpt>
      <trkpt lat="33.01706" lon="35.162296">
        <ele>112.3</ele>
      </trkpt>
      <trkpt lat="33.016941" lon="35.161993">
        <ele>113.2</ele>
      </trkpt>
      <trkpt lat="33.016795" lon="35.161541">
        <ele>112.8</ele>
      </trkpt>
      <trkpt lat="33.016711" lon="35.161179">
        <ele>109.9</ele>
      </trkpt>
      <trkpt lat="33.016575" lon="35.160814">
        <ele>107.8</ele>
      </trkpt>
      <trkpt lat="33.016494" lon="35.160462">
        <ele>107.4</ele>
      </trkpt>
      <trkpt lat="33.016355" lon="35.16027">
        <ele>108.0</ele>
      </trkpt>
      <trkpt lat="33.016287" lon="35.160112">
        <ele>107.7</ele>
      </trkpt>
      <trkpt lat="33.01628" lon="35.160008">
        <ele>107.1</ele>
      </trkpt>
      <trkpt lat="33.016316" lon="35.159893">
        <ele>105.9</ele>
      </trkpt>
      <trkpt lat="33.016414" lon="35.159734">
        <ele>103.5</ele>
      </trkpt>
      <trkpt lat="33.016437" lon="35.159655">
        <ele>102.4</ele>
      </trkpt>
      <trkpt lat="33.016455" lon="35.159392">
        <ele>99.0</ele>
      </trkpt>
      <trkpt lat="33.016448" lon="35.159128">
        <ele>96.1</ele>
      </trkpt>
      <trkpt lat="33.016446" lon="35.159068">
        <ele>95.5</ele>
      </trkpt>
      <trkpt lat="33.016474" lon="35.158891">
        <ele>93.6</ele>
      </trkpt>
      <trkpt lat="33.016475" lon="35.158779">
        <ele>92.5</ele>
      </trkpt>
      <trkpt lat="33.016443" lon="35.158639">
        <ele>91.5</ele>
      </trkpt>
      <trkpt lat="33.016409" lon="35.158567">
        <ele>91.3</ele>
      </trkpt>
      <trkpt lat="33.016205" lon="35.158273">
        <ele>91.4</ele>
      </trkpt>
      <trkpt lat="33.016139" lon="35.158149">
        <ele>91.3</ele>
      </trkpt>
      <trkpt lat="33.016101" lon="35.157989">
        <ele>90.6</ele>
      </trkpt>
      <trkpt lat="33.0161" lon="35.157828">
        <ele>89.5</ele>
      </trkpt>
      <trkpt lat="33.016077" lon="35.157695">
        <ele>88.8</ele>
      </trkpt>
      <trkpt lat="33.015964" lon="35.157311">
        <ele>87.4</ele>
      </trkpt>
      <trkpt lat="33.015935" lon="35.156973">
        <ele>86.2</ele>
      </trkpt>
      <trkpt lat="33.015906" lon="35.156636">
        <ele>84.9</ele>
      </trkpt>
      <trkpt lat="33.01591" lon="35.156499">
        <ele>84.4</ele>
      </trkpt>
      <trkpt lat="33.015938" lon="35.156429">
        <ele>84.1</ele>
      </trkpt>
      <trkpt lat="33.01597" lon="35.1564">
        <ele>84.1</ele>
      </trkpt>
      <trkpt lat="33.016136" lon="35.156365">
        <ele>84.6</ele>
      </trkpt>
      <trkpt lat="33.016221" lon="35.156321">
        <ele>84.9</ele>
      </trkpt>
      <trkpt lat="33.016242" lon="35.156293">
        <ele>84.9</ele>
      </trkpt>
      <trkpt lat="33.01626" lon="35.156208">
        <ele>84.8</ele>
      </trkpt>
      <trkpt lat="33.016198" lon="35.155747">
        <ele>83.1</ele>
      </trkpt>
      <trkpt lat="33.016114" lon="35.15546">
        <ele>81.5</ele>
      </trkpt>
      <trkpt lat="33.016049" lon="35.155319">
        <ele>80.7</ele>
      </trkpt>
      <trkpt lat="33.016059" lon="35.155319">
        <ele>80.8</ele>
      </trkpt>
      <trkpt lat="33.016049" lon="35.155319">
        <ele>80.7</ele>
      </trkpt>
      <trkpt lat="33.016026" lon="35.154927">
        <ele>79.5</ele>
      </trkpt>
      <trkpt lat="33.016115" lon="35.154434">
        <ele>79.4</ele>
      </trkpt>
      <trkpt lat="33.016326" lon="35.154318">
        <ele>80.7</ele>
      </trkpt>
      <trkpt lat="33.016609" lon="35.154453">
        <ele>83.0</ele>
      </trkpt>
      <trkpt lat="33.016666" lon="35.154299">
        <ele>83.1</ele>
      </trkpt>
      <trkpt lat="33.016844" lon="35.153951">
        <ele>84.5</ele>
      </trkpt>
      <trkpt lat="33.016869" lon="35.153709">
        <ele>85.0</ele>
      </trkpt>
      <trkpt lat="33.016873" lon="35.153419">
        <ele>85.5</ele>
      </trkpt>
      <trkpt lat="33.016877" lon="35.153129">
        <ele>85.4</ele>
      </trkpt>
      <trkpt lat="33.016763" lon="35.152849">
        <ele>84.3</ele>
      </trkpt>
      <trkpt lat="33.016837" lon="35.152432">
        <ele>83.5</ele>
      </trkpt>
      <trkpt lat="33.017088" lon="35.152326">
        <ele>83.8</ele>
      </trkpt>
      <trkpt lat="33.017282" lon="35.152258">
        <ele>84.0</ele>
      </trkpt>
      <trkpt lat="33.017396" lon="35.152084">
        <ele>83.1</ele>
      </trkpt>
      <trkpt lat="33.017104" lon="35.151852">
        <ele>80.9</ele>
      </trkpt>
      <trkpt lat="33.017319" lon="35.151722">
        <ele>80.7</ele>
      </trkpt>
      <trkpt lat="33.017534" lon="35.151591">
        <ele>80.8</ele>
      </trkpt>
      <trkpt lat="33.017566" lon="35.151291">
        <ele>79.8</ele>
      </trkpt>
      <trkpt lat="33.017436" lon="35.15105">
        <ele>78.6</ele>
      </trkpt>
      <trkpt lat="33.017235" lon="35.150854">
        <ele>77.5</ele>
      </trkpt>
      <trkpt lat="33.017034" lon="35.150659">
        <ele>76.3</ele>
      </trkpt>
      <trkpt lat="33.016963" lon="35.150516">
        <ele>75.3</ele>
      </trkpt>
      <trkpt lat="33.016775" lon="35.150331">
        <ele>74.0</ele>
      </trkpt>
      <trkpt lat="33.016731" lon="35.15017">
        <ele>72.9</ele>
      </trkpt>
      <trkpt lat="33.016798" lon="35.15009">
        <ele>72.5</ele>
      </trkpt>
      <trkpt lat="33.016882" lon="35.14991">
        <ele>71.7</ele>
      </trkpt>
      <trkpt lat="33.016808" lon="35.149777">
        <ele>71.3</ele>
      </trkpt>
      <trkpt lat="33.01665" lon="35.149648">
        <ele>70.9</ele>
      </trkpt>
      <trkpt lat="33.016571" lon="35.149412">
        <ele>70.6</ele>
      </trkpt>
      <trkpt lat="33.016602" lon="35.149175">
        <ele>70.0</ele>
      </trkpt>
      <trkpt lat="33.016493" lon="35.149229">
        <ele>70.3</ele>
      </trkpt>
      <trkpt lat="33.016339" lon="35.149243">
        <ele>70.8</ele>
      </trkpt>
      <trkpt lat="33.016032" lon="35.14923">
        <ele>71.7</ele>
      </trkpt>
      <trkpt lat="33.015824" lon="35.149321">
        <ele>72.4</ele>
      </trkpt>
      <trkpt lat="33.015783" lon="35.149339">
        <ele>72.5</ele>
      </trkpt>
      <trkpt lat="33.01541" lon="35.149537">
        <ele>72.8</ele>
      </trkpt>
      <trkpt lat="33.015037" lon="35.149735">
        <ele>72.2</ele>
      </trkpt>
      <trkpt lat="33.014946" lon="35.149765">
        <ele>71.9</ele>
      </trkpt>
      <trkpt lat="33.014857" lon="35.149906">
        <ele>71.5</ele>
      </trkpt>
      <trkpt lat="33.014723" lon="35.149959">
        <ele>71.0</ele>
      </trkpt>
      <trkpt lat="33.014673" lon="35.150343">
        <ele>71.0</ele>
      </trkpt>
      <trkpt lat="33.014611" lon="35.150499">
        <ele>71.0</ele>
      </trkpt>
      <trkpt lat="33.01454" lon="35.150595">
        <ele>70.9</ele>
      </trkpt>
      <trkpt lat="33.014405" lon="35.150657">
        <ele>70.9</ele>
      </trkpt>
      <trkpt lat="33.014045" lon="35.150687">
        <ele>70.6</ele>
      </trkpt>
      <trkpt lat="33.013659" lon="35.15079">
        <ele>70.8</ele>
      </trkpt>
      <trkpt lat="33.013407" lon="35.150812">
        <ele>70.9</ele>
      </trkpt>
      <trkpt lat="33.013159" lon="35.15075">
        <ele>70.8</ele>
      </trkpt>
      <trkpt lat="33.012911" lon="35.150688">
        <ele>70.9</ele>
      </trkpt>
      <trkpt lat="33.012768" lon="35.150667">
        <ele>71.0</ele>
      </trkpt>
      <trkpt lat="33.012551" lon="35.150662">
        <ele>71.3</ele>
      </trkpt>
      <trkpt lat="33.0123" lon="35.15062">
        <ele>71.4</ele>
      </trkpt>
      <trkpt lat="33.012021" lon="35.150532">
        <ele>71.1</ele>
      </trkpt>
      <trkpt lat="33.011787" lon="35.15042">
        <ele>71.0</ele>
      </trkpt>
      <trkpt lat="33.011729" lon="35.150369">
        <ele>71.0</ele>
      </trkpt>
      <trkpt lat="33.01164" lon="35.150233">
        <ele>70.9</ele>
      </trkpt>
      <trkpt lat="33.011583" lon="35.150074">
        <ele>70.8</ele>
      </trkpt>
      <trkpt lat="33.011548" lon="35.149862">
        <ele>70.5</ele>
      </trkpt>
      <trkpt lat="33.011541" lon="35.149603">
        <ele>70.0</ele>
      </trkpt>
      <trkpt lat="33.011513" lon="35.149435">
        <ele>69.8</ele>
      </trkpt>
      <trkpt lat="33.011446" lon="35.149334">
        <ele>70.0</ele>
      </trkpt>
      <trkpt lat="33.011291" lon="35.149223">
        <ele>70.9</ele>
      </trkpt>
      <trkpt lat="33.011182" lon="35.149111">
        <ele>71.3</ele>
      </trkpt>
      <trkpt lat="33.011111" lon="35.149013">
        <ele>71.5</ele>
      </trkpt>
      <trkpt lat="33.010989" lon="35.148801">
        <ele>71.5</ele>
      </trkpt>
      <trkpt lat="33.010925" lon="35.148599">
        <ele>71.1</ele>
      </trkpt>
      <trkpt lat="33.010911" lon="35.148471">
        <ele>70.5</ele>
      </trkpt>
      <trkpt lat="33.01094" lon="35.148311">
        <ele>69.3</ele>
      </trkpt>
      <trkpt lat="33.010978" lon="35.14818">
        <ele>68.1</ele>
      </trkpt>
      <trkpt lat="33.011068" lon="35.147993">
        <ele>66.0</ele>
      </trkpt>
      <trkpt lat="33.011079" lon="35.147948">
        <ele>65.5</ele>
      </trkpt>
      <trkpt lat="33.011088" lon="35.1478">
        <ele>64.2</ele>
      </trkpt>
      <trkpt lat="33.011071" lon="35.147744">
        <ele>63.7</ele>
      </trkpt>
      <trkpt lat="33.011013" lon="35.147662">
        <ele>63.1</ele>
      </trkpt>
      <trkpt lat="33.010916" lon="35.147569">
        <ele>62.4</ele>
      </trkpt>
      <trkpt lat="33.010649" lon="35.147424">
        <ele>62.1</ele>
      </trkpt>
      <trkpt lat="33.010522" lon="35.147356">
        <ele>62.3</ele>
      </trkpt>
      <trkpt lat="33.010276" lon="35.14714">
        <ele>62.0</ele>
      </trkpt>
      <trkpt lat="33.010201" lon="35.147074">
        <ele>61.7</ele>
      </trkpt>
      <trkpt lat="33.010125" lon="35.147036">
        <ele>61.4</ele>
      </trkpt>
      <trkpt lat="33.009901" lon="35.146925">
        <ele>60.3</ele>
      </trkpt>
      <trkpt lat="33.009792" lon="35.146815">
        <ele>59.2</ele>
      </trkpt>
      <trkpt lat="33.009709" lon="35.146675">
        <ele>58.1</ele>
      </trkpt>
      <trkpt lat="33.009633" lon="35.146392">
        <ele>56.7</ele>
      </trkpt>
      <trkpt lat="33.009623" lon="35.146321">
        <ele>56.4</ele>
      </trkpt>
      <trkpt lat="33.00956" lon="35.145901">
        <ele>54.9</ele>
      </trkpt>
      <trkpt lat="33.009537" lon="35.145795">
        <ele>54.6</ele>
      </trkpt>
      <trkpt lat="33.009506" lon="35.145757">
        <ele>54.4</ele>
      </trkpt>
      <trkpt lat="33.009476" lon="35.145742">
        <ele>54.2</ele>
      </trkpt>
      <trkpt lat="33.009454" lon="35.145732">
        <ele>54.1</ele>
      </trkpt>
      <trkpt lat="33.009435" lon="35.145733">
        <ele>54.0</ele>
      </trkpt>
    </trkseg>
  </trk>
</gpx>