<?xml version="1.0" encoding="UTF-8"?>
<gpx xmlns="Amud Anan http://amudanan.co.il/" version="1.0" xmlns:xsi="http://www.w3.org/2001/XMLSchema-instance" xsi:schemaLocation="http://www.topografix.com/GPX/1/0 http://www.topografix.com/GPX/1/0/gpx.xsd"><trk><name>Amud Anan</name><trkseg><trkpt lon="35.393647919115" lat="33.008883818176"/><trkpt lon="35.394677887377" lat="33.007984108297"/><trkpt lon="35.395235786852" lat="33.008056085425"/><trkpt lon="35.395536194261" lat="33.006904444328"/><trkpt lon="35.396566162523" lat="33.005788777675"/><trkpt lon="35.396909485277" lat="33.005320913267"/><trkpt lon="35.397681961473" lat="33.005032995474"/><trkpt lon="35.397681961473" lat="33.004817056513"/><trkpt lon="35.397295723375" lat="33.004457157069"/><trkpt lon="35.398025284227" lat="33.003773344082"/><trkpt lon="35.398754845079" lat="33.002909572731"/><trkpt lon="35.399870644029" lat="33.001757864441"/><trkpt lon="35.400428543504" lat="33.001217996004"/><trkpt lon="35.401029358324" lat="33.000534157908"/><trkpt lon="35.400600204881" lat="32.999562378864"/><trkpt lon="35.400900612291" lat="32.999346426512"/><trkpt lon="35.402145157274" lat="32.999202457984"/><trkpt lon="35.403046379503" lat="33.002837591403"/><trkpt lon="35.403346786913" lat="33.002225747747"/><trkpt lon="35.403690109667" lat="33.002081783917"/><trkpt lon="35.404419670519" lat="33.001348750573"/><trkpt lon="35.405235062059" lat="33.000233013655"/><trkpt lon="35.406007538255" lat="32.999513175897"/><trkpt lon="35.406565437731" lat="32.999441191798"/><trkpt lon="35.407423744615" lat="32.999729127841"/><trkpt lon="35.408625374254" lat="32.99933321554"/><trkpt lon="35.409183273729" lat="32.999297223424"/><trkpt lon="35.41009762751" lat="32.999554163708"/><trkpt lon="35.411127595772" lat="32.999698131662"/><trkpt lon="35.411685495247" lat="33.000202017653"/><trkpt lon="35.412500886788" lat="33.000022058701"/><trkpt lon="35.413445024361" lat="32.999446187588"/><trkpt lon="35.414002923836" lat="32.999050274017"/><trkpt lon="35.414775400032" lat="32.998618366277"/><trkpt lon="35.415333299507" lat="32.998114471242"/><trkpt lon="35.415934114327" lat="32.99782652993"/><trkpt lon="35.416749505867" lat="32.996962700355"/><trkpt lon="35.416964082588" lat="32.996098862324"/><trkpt lon="35.4168782519" lat="32.99534299711"/><trkpt lon="35.416792421211" lat="32.994983059017"/><trkpt lon="35.416792421211" lat="32.994767095458"/><trkpt lon="35.416105775704" lat="32.994551131369"/><trkpt lon="35.415075807442" lat="32.994191190047"/><trkpt lon="35.414131669869" lat="32.993507297491"/><trkpt lon="35.413273362984" lat="32.993255335739"/><trkpt lon="35.413316278328" lat="32.992787404864"/><trkpt lon="35.412071733345" lat="32.992319471507"/><trkpt lon="35.411127595772" lat="32.991959521083"/><trkpt lon="35.409828847599" lat="32.991186645655"/><trkpt lon="35.408755963993" lat="32.990502729815"/><trkpt lon="35.409743016911" lat="32.990430738366"/><trkpt lon="35.411030477238" lat="32.989746816669"/><trkpt lon="35.411845868778" lat="32.989134882237"/><trkpt lon="35.412489598942" lat="32.988414953945"/><trkpt lon="35.413304990483" lat="32.987695019781"/><trkpt lon="35.414120382023" lat="32.98758702915"/><trkpt lon="35.414377874089" lat="32.986399123488"/><trkpt lon="35.414935773564" lat="32.985319195377"/><trkpt lon="35.415176797871" lat="32.984582493465"/><trkpt lon="35.415906358723" lat="32.984510497187"/><trkpt lon="35.416292596821" lat="32.984222511488"/><trkpt lon="35.416678834919" lat="32.984366504455"/><trkpt lon="35.417708803181" lat="32.983790531179"/><trkpt lon="35.418052125935" lat="32.983394547371"/><trkpt lon="35.418738771443" lat="32.982926564218"/><trkpt lon="35.418395448689" lat="32.982242584378"/><trkpt lon="35.418180871968" lat="32.981738595842"/><trkpt lon="35.418695856099" lat="32.981090606354"/><trkpt lon="35.418524194722" lat="32.980334612607"/><trkpt lon="35.418438364033" lat="32.979542612215"/><trkpt lon="35.418309618" lat="32.979254610311"/><trkpt lon="35.418567110066" lat="32.978894606611"/><trkpt lon="35.418738771443" lat="32.978066592529"/><trkpt lon="35.419554162983" lat="32.977778585811"/><trkpt lon="35.42032663918" lat="32.977490578153"/><trkpt lon="35.421270776753" lat="32.978066592529"/><trkpt lon="35.422043252949" lat="32.978426599605"/><trkpt lon="35.422729898457" lat="32.978174594806"/><trkpt lon="35.423459459309" lat="32.977418576092"/><trkpt lon="35.424274850849" lat="32.976986562492"/><trkpt lon="35.424918581013" lat="32.976302536637"/><trkpt lon="35.425304819111" lat="32.976014524165"/><trkpt lon="35.42650644875" lat="32.9759425209"/><trkpt lon="35.427493501667" lat="32.975870517577"/><trkpt lon="35.428823877339" lat="32.97536649267"/><trkpt lon="35.429424692158" lat="32.974862464885"/><trkpt lon="35.430068422322" lat="32.974610449914"/><trkpt lon="35.430068422322" lat="32.974358434224"/><trkpt lon="35.43045466042" lat="32.973854400687"/><trkpt lon="35.430883813862" lat="32.973386366969"/><trkpt lon="35.43127005196" lat="32.973170350571"/><trkpt lon="35.431956697468" lat="32.972990336501"/><trkpt lon="35.432428766255" lat="32.972990336501"/><trkpt lon="35.433544565205" lat="32.973350364273"/><trkpt lon="35.434488702778" lat="32.973746393126"/><trkpt lon="35.435776163105" lat="32.974322431924"/><trkpt lon="35.436806131367" lat="32.974934469031"/><trkpt lon="35.437492776875" lat="32.975510500079"/><trkpt lon="35.43835108376" lat="32.976122528952"/><trkpt lon="35.439123559956" lat="32.976734553583"/><trkpt lon="35.438565660481" lat="32.97713056726"/><trkpt lon="35.437793184285" lat="32.976986562492"/><trkpt lon="35.437149454121" lat="32.976626549545"/><trkpt lon="35.437621522908" lat="32.977994590937"/><trkpt lon="35.438093591694" lat="32.978822605694"/><trkpt lon="35.439595628743" lat="32.979218610007"/><trkpt lon="35.441011835102" lat="32.979362611135"/><trkpt lon="35.441612649922" lat="32.979218610007"/><trkpt lon="35.44229929543" lat="32.979038608267"/><trkpt lon="35.443200517659" lat="32.979362611135"/></trkseg></trk></gpx>
