<?xml version="1.0" encoding="UTF-8" standalone="yes"?>
<gpx version="1.1" creator="outdooractive - http://www.outdooractive.com" xmlns="http://www.topografix.com/GPX/1/1" xmlns:xsi="http://www.w3.org/2001/XMLSchema-instance" xsi:schemaLocation="http://www.topografix.com/GPX/1/1 http://www.topografix.com/GPX/1/1/gpx.xsd" xmlns:oa="http://www.outdooractive.com/GPX/Extensions/1">
  <metadata>
    <name>12 August 2023</name>
    <author>
      <name>Victor semenov - Community</name>
    </author>
    <link href="https://www.outdooractive.com/r/275537512"/>
    <time>2023-09-04T12:27:02.484Z</time>
    <extensions>
      <oa:oaCategory>mountainbiking</oa:oaCategory>
    </extensions>
  </metadata>
  <trk>
    <name>12 August 2023</name>
    <desc>יער נבי יושע (Nebi Yosha Forest) - יער החולה (HaHula Forest) - נהר הירדן (River Jordan) - גונן (Gonen) - יער גדות גונן (Gadot Gonen Forest)</desc>
    <type>mountainbiking</type>
    <trkseg>
      <trkpt lat="33.125182" lon="35.569949">
        <ele>84.0591</ele>
        <name>Regional Road 899, Merkaz Ko&apos;akh</name>
        <extensions>
          <oa:address>{
  &quot;administrativeArea&quot; : &quot;Northern District&quot;,
  &quot;country&quot; : &quot;Israel&quot;,
  &quot;streetAddress&quot; : &quot;Regional Road 899&quot;,
  &quot;subAdministrativeArea&quot; : &quot;Mevo&apos;ot HaHermon Regional Council&quot;,
  &quot;town&quot; : &quot;Merkaz Ko&apos;akh&quot;
}</oa:address>
        </extensions>
      </trkpt>
      <trkpt lat="33.125266" lon="35.570112">
        <ele>84.40711</ele>
      </trkpt>
      <trkpt lat="33.125301" lon="35.570265">
        <ele>84.55287</ele>
      </trkpt>
      <trkpt lat="33.12529" lon="35.57038">
        <ele>84.62014</ele>
      </trkpt>
      <trkpt lat="33.125168" lon="35.570477">
        <ele>84.61287</ele>
      </trkpt>
      <trkpt lat="33.124988" lon="35.570512">
        <ele>84.5625</ele>
      </trkpt>
      <trkpt lat="33.12511" lon="35.570806">
        <ele>84.35064</ele>
      </trkpt>
      <trkpt lat="33.125004" lon="35.570912">
        <ele>83.87243</ele>
      </trkpt>
      <trkpt lat="33.123906" lon="35.570996">
        <ele>82.9125</ele>
      </trkpt>
      <trkpt lat="33.122813" lon="35.571122">
        <ele>82.81199</ele>
      </trkpt>
      <trkpt lat="33.11997" lon="35.571547">
        <ele>83.92608</ele>
      </trkpt>
      <trkpt lat="33.119347" lon="35.571623">
        <ele>84.07486</ele>
      </trkpt>
      <trkpt lat="33.118075" lon="35.571716">
        <ele>84.09735</ele>
      </trkpt>
      <trkpt lat="33.114335" lon="35.571872">
        <ele>82.39716</ele>
      </trkpt>
      <trkpt lat="33.113566" lon="35.571928">
        <ele>82.01992</ele>
      </trkpt>
      <trkpt lat="33.112865" lon="35.572017">
        <ele>81.64867</ele>
      </trkpt>
      <trkpt lat="33.112593" lon="35.572071">
        <ele>81.49167</ele>
      </trkpt>
      <trkpt lat="33.112411" lon="35.572201">
        <ele>81.34156</ele>
      </trkpt>
      <trkpt lat="33.11187" lon="35.572311">
        <ele>80.93391</ele>
      </trkpt>
      <trkpt lat="33.111537" lon="35.57236">
        <ele>80.66406</ele>
      </trkpt>
      <trkpt lat="33.111506" lon="35.572916">
        <ele>80.46521</ele>
      </trkpt>
      <trkpt lat="33.111323" lon="35.574057">
        <ele>78.42528</ele>
      </trkpt>
      <trkpt lat="33.111098" lon="35.57525">
        <ele>76.3032</ele>
      </trkpt>
      <trkpt lat="33.110795" lon="35.577523">
        <ele>75.58529</ele>
      </trkpt>
      <trkpt lat="33.110703" lon="35.578365">
        <ele>75.2849</ele>
      </trkpt>
      <trkpt lat="33.110784" lon="35.579524">
        <ele>74.22621</ele>
      </trkpt>
      <trkpt lat="33.110706" lon="35.580567">
        <ele>73.64895</ele>
      </trkpt>
      <trkpt lat="33.110612" lon="35.581001">
        <ele>73.41524</ele>
      </trkpt>
      <trkpt lat="33.110567" lon="35.581373">
        <ele>73.09849</ele>
      </trkpt>
      <trkpt lat="33.110586" lon="35.582278">
        <ele>72.10288</ele>
      </trkpt>
      <trkpt lat="33.110501" lon="35.583876">
        <ele>70.71295</ele>
      </trkpt>
      <trkpt lat="33.110507" lon="35.584057">
        <ele>70.45002</ele>
      </trkpt>
      <trkpt lat="33.110478" lon="35.58425">
        <ele>70.11702</ele>
      </trkpt>
      <trkpt lat="33.110474" lon="35.584455">
        <ele>69.86376</ele>
      </trkpt>
      <trkpt lat="33.110508" lon="35.584685">
        <ele>69.50527</ele>
      </trkpt>
      <trkpt lat="33.110434" lon="35.584933">
        <ele>69.22944</ele>
      </trkpt>
      <trkpt lat="33.110614" lon="35.586456">
        <ele>68.58679</ele>
      </trkpt>
      <trkpt lat="33.110438" lon="35.586674">
        <ele>68.52346</ele>
      </trkpt>
      <trkpt lat="33.110205" lon="35.587086">
        <ele>68.35451</ele>
      </trkpt>
      <trkpt lat="33.110147" lon="35.587401">
        <ele>68.21003</ele>
      </trkpt>
      <trkpt lat="33.110133" lon="35.589537">
        <ele>67.59817</ele>
      </trkpt>
      <trkpt lat="33.110097" lon="35.591442">
        <ele>67.41481</ele>
      </trkpt>
      <trkpt lat="33.110087" lon="35.59588">
        <ele>67.24903</ele>
      </trkpt>
      <trkpt lat="33.110019" lon="35.596794">
        <ele>67.23788</ele>
      </trkpt>
      <trkpt lat="33.109923" lon="35.597706">
        <ele>67.22118</ele>
      </trkpt>
      <trkpt lat="33.109861" lon="35.603486">
        <ele>66.34397</ele>
      </trkpt>
      <trkpt lat="33.109836" lon="35.604422">
        <ele>66.16183</ele>
      </trkpt>
      <trkpt lat="33.109822" lon="35.608018">
        <ele>65.91061</ele>
      </trkpt>
      <trkpt lat="33.109773" lon="35.610775">
        <ele>65.80481</ele>
      </trkpt>
      <trkpt lat="33.109672" lon="35.61099">
        <ele>65.78912</ele>
      </trkpt>
      <trkpt lat="33.109506" lon="35.610979">
        <ele>65.77084</ele>
      </trkpt>
      <trkpt lat="33.109331" lon="35.611057">
        <ele>65.75149</ele>
      </trkpt>
      <trkpt lat="33.109283" lon="35.611304">
        <ele>65.72035</ele>
      </trkpt>
      <trkpt lat="33.109288" lon="35.611565">
        <ele>65.69379</ele>
      </trkpt>
      <trkpt lat="33.109344" lon="35.611847">
        <ele>65.66221</ele>
      </trkpt>
      <trkpt lat="33.109349" lon="35.612087">
        <ele>65.63717</ele>
      </trkpt>
      <trkpt lat="33.109241" lon="35.612679">
        <ele>65.59623</ele>
      </trkpt>
      <trkpt lat="33.10904" lon="35.612726">
        <ele>65.58568</ele>
      </trkpt>
      <trkpt lat="33.108697" lon="35.612736">
        <ele>65.57098</ele>
      </trkpt>
      <trkpt lat="33.108505" lon="35.612854">
        <ele>65.5605</ele>
      </trkpt>
      <trkpt lat="33.108361" lon="35.613667">
        <ele>65.52769</ele>
      </trkpt>
      <trkpt lat="33.108216" lon="35.614171">
        <ele>65.51389</ele>
      </trkpt>
      <trkpt lat="33.107858" lon="35.614848">
        <ele>65.5102</ele>
      </trkpt>
      <trkpt lat="33.107562" lon="35.615501">
        <ele>65.49919</ele>
      </trkpt>
      <trkpt lat="33.107479" lon="35.615876">
        <ele>65.48685</ele>
      </trkpt>
      <trkpt lat="33.107263" lon="35.616076">
        <ele>65.47504</ele>
      </trkpt>
      <trkpt lat="33.106854" lon="35.616676">
        <ele>65.41823</ele>
      </trkpt>
      <trkpt lat="33.106659" lon="35.617008">
        <ele>65.37384</ele>
      </trkpt>
      <trkpt lat="33.10615" lon="35.618049">
        <ele>65.34462</ele>
      </trkpt>
      <trkpt lat="33.10573" lon="35.618629">
        <ele>65.34341</ele>
      </trkpt>
      <trkpt lat="33.105124" lon="35.61898">
        <ele>65.34235</ele>
      </trkpt>
      <trkpt lat="33.104516" lon="35.619212">
        <ele>65.34217</ele>
      </trkpt>
      <trkpt lat="33.104047" lon="35.619447">
        <ele>65.34222</ele>
      </trkpt>
      <trkpt lat="33.103507" lon="35.619893">
        <ele>65.34172</ele>
      </trkpt>
      <trkpt lat="33.103178" lon="35.620611">
        <ele>65.3425</ele>
      </trkpt>
      <trkpt lat="33.103027" lon="35.620998">
        <ele>65.34283</ele>
      </trkpt>
      <trkpt lat="33.102645" lon="35.621457">
        <ele>65.34325</ele>
      </trkpt>
      <trkpt lat="33.102577" lon="35.621707">
        <ele>65.34348</ele>
      </trkpt>
      <trkpt lat="33.102615" lon="35.621961">
        <ele>65.3437</ele>
      </trkpt>
      <trkpt lat="33.103" lon="35.622623">
        <ele>65.34387</ele>
      </trkpt>
      <trkpt lat="33.103336" lon="35.623284">
        <ele>65.34374</ele>
      </trkpt>
      <trkpt lat="33.103407" lon="35.623592">
        <ele>65.34383</ele>
      </trkpt>
      <trkpt lat="33.103424" lon="35.624487">
        <ele>65.34464</ele>
      </trkpt>
      <trkpt lat="33.103586" lon="35.624576">
        <ele>65.35523</ele>
      </trkpt>
      <trkpt lat="33.105877" lon="35.624829">
        <ele>65.51375</ele>
      </trkpt>
      <trkpt lat="33.106474" lon="35.624904">
        <ele>65.51702</ele>
      </trkpt>
      <trkpt lat="33.106933" lon="35.624984">
        <ele>65.51876</ele>
      </trkpt>
      <trkpt lat="33.108057" lon="35.62513">
        <ele>65.6523</ele>
      </trkpt>
      <trkpt lat="33.109152" lon="35.625247">
        <ele>65.67852</ele>
      </trkpt>
      <trkpt lat="33.110644" lon="35.625453">
        <ele>66.16139</ele>
      </trkpt>
      <trkpt lat="33.112388" lon="35.625617">
        <ele>66.66353</ele>
      </trkpt>
      <trkpt lat="33.113445" lon="35.625766">
        <ele>66.49884</ele>
      </trkpt>
      <trkpt lat="33.11495" lon="35.625936">
        <ele>66.41572</ele>
      </trkpt>
      <trkpt lat="33.115521" lon="35.626022">
        <ele>66.4057</ele>
      </trkpt>
      <trkpt lat="33.116449" lon="35.62611">
        <ele>66.40667</ele>
      </trkpt>
      <trkpt lat="33.116641" lon="35.626161">
        <ele>66.4108</ele>
      </trkpt>
      <trkpt lat="33.117218" lon="35.6262">
        <ele>66.44715</ele>
      </trkpt>
      <trkpt lat="33.118968" lon="35.626428">
        <ele>66.62699</ele>
      </trkpt>
      <trkpt lat="33.120778" lon="35.626629">
        <ele>66.74784</ele>
      </trkpt>
      <trkpt lat="33.121469" lon="35.626756">
        <ele>66.7774</ele>
      </trkpt>
      <trkpt lat="33.122027" lon="35.626822">
        <ele>66.77811</ele>
      </trkpt>
      <trkpt lat="33.122649" lon="35.626933">
        <ele>66.79577</ele>
      </trkpt>
      <trkpt lat="33.123261" lon="35.626996">
        <ele>66.81133</ele>
      </trkpt>
      <trkpt lat="33.123819" lon="35.627118">
        <ele>66.82057</ele>
      </trkpt>
      <trkpt lat="33.124084" lon="35.627122">
        <ele>66.82352</ele>
      </trkpt>
      <trkpt lat="33.124187" lon="35.627273">
        <ele>66.83094</ele>
      </trkpt>
      <trkpt lat="33.124119" lon="35.628323">
        <ele>67.36869</ele>
      </trkpt>
      <trkpt lat="33.124145" lon="35.628671">
        <ele>67.239</ele>
      </trkpt>
      <trkpt lat="33.124105" lon="35.629216">
        <ele>67.2129</ele>
      </trkpt>
      <trkpt lat="33.124022" lon="35.63105">
        <ele>67.27587</ele>
      </trkpt>
      <trkpt lat="33.123893" lon="35.63497">
        <ele>67.36232</ele>
      </trkpt>
      <trkpt lat="33.12379" lon="35.636194">
        <ele>67.38661</ele>
      </trkpt>
      <trkpt lat="33.123736" lon="35.638614">
        <ele>67.6421</ele>
      </trkpt>
      <trkpt lat="33.12374" lon="35.639381">
        <ele>68.00432</ele>
      </trkpt>
      <trkpt lat="33.123685" lon="35.640562">
        <ele>68.80401</ele>
      </trkpt>
      <trkpt lat="33.123618" lon="35.640747">
        <ele>68.91428</ele>
      </trkpt>
      <trkpt lat="33.123477" lon="35.640776">
        <ele>68.96184</ele>
      </trkpt>
      <trkpt lat="33.12329" lon="35.640764">
        <ele>69.01307</ele>
      </trkpt>
      <trkpt lat="33.123014" lon="35.640702">
        <ele>69.0991</ele>
      </trkpt>
      <trkpt lat="33.122467" lon="35.640656">
        <ele>69.25791</ele>
      </trkpt>
      <trkpt lat="33.12225" lon="35.640609">
        <ele>69.30496</ele>
      </trkpt>
      <trkpt lat="33.121705" lon="35.640537">
        <ele>69.51627</ele>
      </trkpt>
      <trkpt lat="33.12138" lon="35.640527">
        <ele>69.57351</ele>
      </trkpt>
      <trkpt lat="33.119042" lon="35.640246">
        <ele>69.64514</ele>
      </trkpt>
      <trkpt lat="33.118469" lon="35.640199">
        <ele>69.57949</ele>
      </trkpt>
      <trkpt lat="33.117164" lon="35.640034">
        <ele>69.01098</ele>
      </trkpt>
      <trkpt lat="33.116826" lon="35.639947">
        <ele>68.9319</ele>
      </trkpt>
      <trkpt lat="33.11672" lon="35.639959">
        <ele>68.9174</ele>
      </trkpt>
      <trkpt lat="33.116684" lon="35.640134">
        <ele>68.88739</ele>
      </trkpt>
      <trkpt lat="33.116542" lon="35.643755">
        <ele>68.37741</ele>
      </trkpt>
      <trkpt lat="33.116447" lon="35.643904">
        <ele>68.34163</ele>
      </trkpt>
      <trkpt lat="33.115873" lon="35.644123">
        <ele>68.22436</ele>
      </trkpt>
      <trkpt lat="33.114689" lon="35.644528">
        <ele>68.00731</ele>
      </trkpt>
      <trkpt lat="33.114198" lon="35.64466">
        <ele>67.89174</ele>
      </trkpt>
      <trkpt lat="33.112956" lon="35.644507">
        <ele>67.6812</ele>
      </trkpt>
      <trkpt lat="33.112062" lon="35.64437">
        <ele>67.71392</ele>
      </trkpt>
      <trkpt lat="33.111914" lon="35.644416">
        <ele>67.73677</ele>
      </trkpt>
      <trkpt lat="33.111782" lon="35.644513">
        <ele>67.75844</ele>
      </trkpt>
      <trkpt lat="33.11166" lon="35.644673">
        <ele>67.82992</ele>
      </trkpt>
      <trkpt lat="33.111501" lon="35.645391">
        <ele>71.29228</ele>
      </trkpt>
      <trkpt lat="33.111471" lon="35.645661">
        <ele>73.59948</ele>
      </trkpt>
      <trkpt lat="33.111377" lon="35.645642">
        <ele>74.55862</ele>
      </trkpt>
      <trkpt lat="33.111216" lon="35.645529">
        <ele>75.67403</ele>
      </trkpt>
      <trkpt lat="33.110853" lon="35.645335">
        <ele>77.06728</ele>
      </trkpt>
      <trkpt lat="33.110622" lon="35.645261">
        <ele>77.42628</ele>
      </trkpt>
      <trkpt lat="33.110313" lon="35.645253">
        <ele>77.58895</ele>
      </trkpt>
      <trkpt lat="33.109419" lon="35.645413">
        <ele>77.6619</ele>
      </trkpt>
      <trkpt lat="33.108608" lon="35.645617">
        <ele>77.44574</ele>
      </trkpt>
      <trkpt lat="33.107918" lon="35.645812">
        <ele>77.35569</ele>
      </trkpt>
      <trkpt lat="33.107689" lon="35.645849">
        <ele>77.406</ele>
      </trkpt>
      <trkpt lat="33.107298" lon="35.645799">
        <ele>77.6002</ele>
      </trkpt>
      <trkpt lat="33.106631" lon="35.645489">
        <ele>78.11173</ele>
      </trkpt>
      <trkpt lat="33.106054" lon="35.64515">
        <ele>78.15716</ele>
      </trkpt>
      <trkpt lat="33.104932" lon="35.644421">
        <ele>78.13226</ele>
      </trkpt>
      <trkpt lat="33.104702" lon="35.644301">
        <ele>78.21229</ele>
      </trkpt>
      <trkpt lat="33.104279" lon="35.644147">
        <ele>79.6715</ele>
      </trkpt>
      <trkpt lat="33.103464" lon="35.643961">
        <ele>83.90808</ele>
      </trkpt>
      <trkpt lat="33.102145" lon="35.643703">
        <ele>84.07793</ele>
      </trkpt>
      <trkpt lat="33.101518" lon="35.643667">
        <ele>82.98093</ele>
      </trkpt>
      <trkpt lat="33.100237" lon="35.643724">
        <ele>82.91497</ele>
      </trkpt>
      <trkpt lat="33.100033" lon="35.643824">
        <ele>83.0484</ele>
      </trkpt>
      <trkpt lat="33.100044" lon="35.643966">
        <ele>84.207</ele>
      </trkpt>
      <trkpt lat="33.10003" lon="35.644032">
        <ele>84.23726</ele>
      </trkpt>
      <trkpt lat="33.100047" lon="35.6439">
        <ele>84.36755</ele>
      </trkpt>
      <trkpt lat="33.100016" lon="35.643812">
        <ele>84.4116</ele>
      </trkpt>
      <trkpt lat="33.099437" lon="35.643709">
        <ele>84.41898</ele>
      </trkpt>
      <trkpt lat="33.098921" lon="35.643574">
        <ele>84.40995</ele>
      </trkpt>
      <trkpt lat="33.097969" lon="35.643285">
        <ele>84.447</ele>
      </trkpt>
      <trkpt lat="33.097526" lon="35.643084">
        <ele>84.58538</ele>
      </trkpt>
      <trkpt lat="33.096969" lon="35.642252">
        <ele>84.9762</ele>
      </trkpt>
      <trkpt lat="33.09677" lon="35.642079">
        <ele>85.03981</ele>
      </trkpt>
      <trkpt lat="33.096196" lon="35.641848">
        <ele>84.98252</ele>
      </trkpt>
      <trkpt lat="33.095769" lon="35.641726">
        <ele>84.83643</ele>
      </trkpt>
      <trkpt lat="33.095544" lon="35.641739">
        <ele>84.79356</ele>
      </trkpt>
      <trkpt lat="33.09534" lon="35.641853">
        <ele>84.7668</ele>
      </trkpt>
      <trkpt lat="33.094889" lon="35.642411">
        <ele>84.51745</ele>
      </trkpt>
      <trkpt lat="33.094461" lon="35.642877">
        <ele>84.31958</ele>
      </trkpt>
      <trkpt lat="33.093602" lon="35.643463">
        <ele>84.66708</ele>
      </trkpt>
      <trkpt lat="33.093516" lon="35.643588">
        <ele>84.77559</ele>
      </trkpt>
      <trkpt lat="33.093174" lon="35.643756">
        <ele>85.64186</ele>
      </trkpt>
      <trkpt lat="33.093115" lon="35.643912">
        <ele>86.35038</ele>
      </trkpt>
      <trkpt lat="33.09307" lon="35.64397">
        <ele>86.77243</ele>
      </trkpt>
      <trkpt lat="33.092809" lon="35.644101">
        <ele>89.09558</ele>
      </trkpt>
      <trkpt lat="33.09275" lon="35.644171">
        <ele>89.77614</ele>
      </trkpt>
      <trkpt lat="33.092661" lon="35.64438">
        <ele>91.75769</ele>
      </trkpt>
      <trkpt lat="33.092677" lon="35.644541">
        <ele>93.9705</ele>
      </trkpt>
      <trkpt lat="33.092618" lon="35.644621">
        <ele>95.39577</ele>
      </trkpt>
      <trkpt lat="33.092322" lon="35.644658">
        <ele>96.51718</ele>
      </trkpt>
      <trkpt lat="33.092031" lon="35.644737">
        <ele>96.6676</ele>
      </trkpt>
      <trkpt lat="33.091924" lon="35.644792">
        <ele>96.63374</ele>
      </trkpt>
      <trkpt lat="33.091606" lon="35.645175">
        <ele>96.56505</ele>
      </trkpt>
      <trkpt lat="33.091452" lon="35.64531">
        <ele>96.53533</ele>
      </trkpt>
      <trkpt lat="33.091335" lon="35.645502">
        <ele>96.52744</ele>
      </trkpt>
      <trkpt lat="33.091225" lon="35.645622">
        <ele>96.55432</ele>
      </trkpt>
      <trkpt lat="33.091095" lon="35.645681">
        <ele>96.63379</ele>
      </trkpt>
      <trkpt lat="33.091009" lon="35.645883">
        <ele>96.95675</ele>
      </trkpt>
      <trkpt lat="33.090979" lon="35.646069">
        <ele>97.86984</ele>
      </trkpt>
      <trkpt lat="33.09094" lon="35.646074">
        <ele>99.77925</ele>
        <name>Ha-galil Ha-elyon Regional Plants, Israel</name>
        <extensions>
          <oa:locType>tourGap</oa:locType>
          <oa:address>{
  &quot;administrativeArea&quot; : &quot;Northern District&quot;,
  &quot;country&quot; : &quot;Israel&quot;,
  &quot;subAdministrativeArea&quot; : &quot;Hagalil Ha&apos;elyon Regional Council&quot;,
  &quot;town&quot; : &quot;Ha-galil Ha-elyon Regional Plants&quot;
}</oa:address>
        </extensions>
      </trkpt>
      <trkpt lat="33.090728" lon="35.645947">
        <ele>100.98691</ele>
        <name>Ha-galil Ha-elyon Regional Plants, Israel</name>
        <extensions>
          <oa:address>{
  &quot;administrativeArea&quot; : &quot;Northern District&quot;,
  &quot;country&quot; : &quot;Israel&quot;,
  &quot;subAdministrativeArea&quot; : &quot;Hagalil Ha&apos;elyon Regional Council&quot;,
  &quot;town&quot; : &quot;Ha-galil Ha-elyon Regional Plants&quot;
}</oa:address>
        </extensions>
      </trkpt>
      <trkpt lat="33.090702" lon="35.646013">
        <ele>101.31578</ele>
      </trkpt>
      <trkpt lat="33.090775" lon="35.645992">
        <ele>101.61099</ele>
      </trkpt>
      <trkpt lat="33.090779" lon="35.646033">
        <ele>101.64374</ele>
      </trkpt>
      <trkpt lat="33.090807" lon="35.646072">
        <ele>101.84101</ele>
      </trkpt>
      <trkpt lat="33.090847" lon="35.646066">
        <ele>101.95322</ele>
      </trkpt>
      <trkpt lat="33.090859" lon="35.646099">
        <ele>102.05</ele>
      </trkpt>
      <trkpt lat="33.09093" lon="35.646097">
        <ele>102.1699</ele>
      </trkpt>
      <trkpt lat="33.091005" lon="35.645784">
        <ele>102.24281</ele>
      </trkpt>
      <trkpt lat="33.091072" lon="35.645685">
        <ele>102.06909</ele>
      </trkpt>
      <trkpt lat="33.091133" lon="35.64564">
        <ele>101.77077</ele>
      </trkpt>
      <trkpt lat="33.091193" lon="35.645626">
        <ele>101.33083</ele>
      </trkpt>
      <trkpt lat="33.091272" lon="35.645535">
        <ele>100.69454</ele>
      </trkpt>
      <trkpt lat="33.091432" lon="35.645292">
        <ele>99.11867</ele>
      </trkpt>
      <trkpt lat="33.091939" lon="35.644758">
        <ele>97.27196</ele>
      </trkpt>
      <trkpt lat="33.092045" lon="35.644715">
        <ele>97.19393</ele>
      </trkpt>
      <trkpt lat="33.092412" lon="35.644627">
        <ele>97.07247</ele>
      </trkpt>
      <trkpt lat="33.09256" lon="35.64462">
        <ele>97.08508</ele>
      </trkpt>
      <trkpt lat="33.09267" lon="35.644506">
        <ele>97.08833</ele>
      </trkpt>
      <trkpt lat="33.092672" lon="35.644289">
        <ele>97.0589</ele>
      </trkpt>
      <trkpt lat="33.092774" lon="35.644116">
        <ele>96.87521</ele>
      </trkpt>
      <trkpt lat="33.0931" lon="35.643926">
        <ele>95.60444</ele>
      </trkpt>
      <trkpt lat="33.093088" lon="35.643766">
        <ele>93.87836</ele>
      </trkpt>
      <trkpt lat="33.092894" lon="35.643759">
        <ele>92.5949</ele>
      </trkpt>
      <trkpt lat="33.091979" lon="35.644034">
        <ele>91.95301</ele>
      </trkpt>
      <trkpt lat="33.09138" lon="35.644187">
        <ele>91.99171</ele>
      </trkpt>
      <trkpt lat="33.091159" lon="35.644166">
        <ele>91.89872</ele>
      </trkpt>
      <trkpt lat="33.090206" lon="35.643593">
        <ele>85.00476</ele>
      </trkpt>
      <trkpt lat="33.090143" lon="35.643614">
        <ele>84.34909</ele>
      </trkpt>
      <trkpt lat="33.090149" lon="35.643682">
        <ele>83.95139</ele>
      </trkpt>
      <trkpt lat="33.090287" lon="35.643805">
        <ele>83.63119</ele>
      </trkpt>
      <trkpt lat="33.090326" lon="35.643884">
        <ele>83.66367</ele>
      </trkpt>
      <trkpt lat="33.090377" lon="35.644095">
        <ele>83.97943</ele>
      </trkpt>
      <trkpt lat="33.09037" lon="35.644206">
        <ele>84.35844</ele>
      </trkpt>
      <trkpt lat="33.090388" lon="35.644231">
        <ele>84.51654</ele>
      </trkpt>
      <trkpt lat="33.090367" lon="35.64421">
        <ele>85.615</ele>
      </trkpt>
      <trkpt lat="33.090341" lon="35.643926">
        <ele>85.68278</ele>
      </trkpt>
      <trkpt lat="33.090131" lon="35.64364">
        <ele>85.52668</ele>
      </trkpt>
      <trkpt lat="33.090091" lon="35.643491">
        <ele>85.10861</ele>
      </trkpt>
      <trkpt lat="33.089166" lon="35.642806">
        <ele>79.00092</ele>
      </trkpt>
      <trkpt lat="33.088456" lon="35.642394">
        <ele>74.76878</ele>
      </trkpt>
      <trkpt lat="33.087619" lon="35.642117">
        <ele>73.02361</ele>
      </trkpt>
      <trkpt lat="33.086772" lon="35.641904">
        <ele>71.92336</ele>
      </trkpt>
      <trkpt lat="33.085983" lon="35.641758">
        <ele>71.69994</ele>
      </trkpt>
      <trkpt lat="33.085586" lon="35.641633">
        <ele>71.82602</ele>
      </trkpt>
      <trkpt lat="33.085384" lon="35.641455">
        <ele>71.88224</ele>
      </trkpt>
      <trkpt lat="33.085271" lon="35.641252">
        <ele>71.88628</ele>
      </trkpt>
      <trkpt lat="33.084837" lon="35.640103">
        <ele>70.87006</ele>
      </trkpt>
      <trkpt lat="33.084584" lon="35.639678">
        <ele>70.54293</ele>
      </trkpt>
      <trkpt lat="33.084" lon="35.639357">
        <ele>70.63328</ele>
      </trkpt>
      <trkpt lat="33.084041" lon="35.639024">
        <ele>70.4838</ele>
      </trkpt>
      <trkpt lat="33.084016" lon="35.638918">
        <ele>70.38211</ele>
      </trkpt>
      <trkpt lat="33.083737" lon="35.638843">
        <ele>70.10549</ele>
      </trkpt>
      <trkpt lat="33.083533" lon="35.638715">
        <ele>69.88368</ele>
      </trkpt>
      <trkpt lat="33.083449" lon="35.638596">
        <ele>69.70464</ele>
      </trkpt>
      <trkpt lat="33.083337" lon="35.638558">
        <ele>69.50174</ele>
      </trkpt>
      <trkpt lat="33.083249" lon="35.638498">
        <ele>69.34486</ele>
      </trkpt>
      <trkpt lat="33.083232" lon="35.638296">
        <ele>68.69772</ele>
      </trkpt>
      <trkpt lat="33.083241" lon="35.638048">
        <ele>68.61548</ele>
      </trkpt>
      <trkpt lat="33.08322" lon="35.63774">
        <ele>68.51156</ele>
      </trkpt>
      <trkpt lat="33.083224" lon="35.637062">
        <ele>68.33786</ele>
      </trkpt>
      <trkpt lat="33.083201" lon="35.636388">
        <ele>67.91892</ele>
      </trkpt>
      <trkpt lat="33.083204" lon="35.63498">
        <ele>66.51288</ele>
      </trkpt>
      <trkpt lat="33.083147" lon="35.633631">
        <ele>66.06987</ele>
      </trkpt>
      <trkpt lat="33.08317" lon="35.632993">
        <ele>65.88929</ele>
      </trkpt>
      <trkpt lat="33.083237" lon="35.63238">
        <ele>65.68188</ele>
      </trkpt>
      <trkpt lat="33.083224" lon="35.631578">
        <ele>65.60491</ele>
      </trkpt>
      <trkpt lat="33.083106" lon="35.630853">
        <ele>65.51763</ele>
      </trkpt>
      <trkpt lat="33.082963" lon="35.630461">
        <ele>65.30686</ele>
      </trkpt>
      <trkpt lat="33.082788" lon="35.630074">
        <ele>65.2227</ele>
      </trkpt>
      <trkpt lat="33.082899" lon="35.629995">
        <ele>65.17711</ele>
      </trkpt>
      <trkpt lat="33.083043" lon="35.629959">
        <ele>65.15194</ele>
      </trkpt>
      <trkpt lat="33.083199" lon="35.629989">
        <ele>65.13237</ele>
      </trkpt>
      <trkpt lat="33.083341" lon="35.629963">
        <ele>65.13156</ele>
      </trkpt>
      <trkpt lat="33.083362" lon="35.629788">
        <ele>65.14676</ele>
      </trkpt>
      <trkpt lat="33.083405" lon="35.628944">
        <ele>65.16846</ele>
      </trkpt>
      <trkpt lat="33.08338" lon="35.624013">
        <ele>65.87795</ele>
      </trkpt>
      <trkpt lat="33.083453" lon="35.6237">
        <ele>66.02616</ele>
      </trkpt>
      <trkpt lat="33.083551" lon="35.623602">
        <ele>66.03064</ele>
      </trkpt>
      <trkpt lat="33.083741" lon="35.623584">
        <ele>66.02415</ele>
      </trkpt>
      <trkpt lat="33.084319" lon="35.623625">
        <ele>65.95915</ele>
      </trkpt>
      <trkpt lat="33.086032" lon="35.623855">
        <ele>65.79075</ele>
      </trkpt>
      <trkpt lat="33.086216" lon="35.623926">
        <ele>65.78688</ele>
      </trkpt>
      <trkpt lat="33.086332" lon="35.624027">
        <ele>65.78392</ele>
      </trkpt>
      <trkpt lat="33.086405" lon="35.623878">
        <ele>65.78562</ele>
      </trkpt>
      <trkpt lat="33.086421" lon="35.623795">
        <ele>65.79766</ele>
      </trkpt>
      <trkpt lat="33.086558" lon="35.623769">
        <ele>65.82836</ele>
      </trkpt>
      <trkpt lat="33.08707" lon="35.62386">
        <ele>65.84384</ele>
      </trkpt>
      <trkpt lat="33.089454" lon="35.624116">
        <ele>65.82053</ele>
      </trkpt>
      <trkpt lat="33.089944" lon="35.624326">
        <ele>65.81331</ele>
      </trkpt>
      <trkpt lat="33.091185" lon="35.624444">
        <ele>65.80052</ele>
      </trkpt>
      <trkpt lat="33.092093" lon="35.624565">
        <ele>65.83134</ele>
      </trkpt>
      <trkpt lat="33.092642" lon="35.624619">
        <ele>65.88153</ele>
      </trkpt>
      <trkpt lat="33.093835" lon="35.624789">
        <ele>65.90894</ele>
      </trkpt>
      <trkpt lat="33.094144" lon="35.624849">
        <ele>65.91343</ele>
      </trkpt>
      <trkpt lat="33.094764" lon="35.624861">
        <ele>65.92026</ele>
      </trkpt>
      <trkpt lat="33.09537" lon="35.624951">
        <ele>65.91978</ele>
      </trkpt>
      <trkpt lat="33.095944" lon="35.624971">
        <ele>65.88993</ele>
      </trkpt>
      <trkpt lat="33.096907" lon="35.62506">
        <ele>65.91439</ele>
      </trkpt>
      <trkpt lat="33.098782" lon="35.625293">
        <ele>65.91303</ele>
      </trkpt>
      <trkpt lat="33.099408" lon="35.62541">
        <ele>65.91037</ele>
      </trkpt>
      <trkpt lat="33.100004" lon="35.625472">
        <ele>65.90835</ele>
      </trkpt>
      <trkpt lat="33.100622" lon="35.625506">
        <ele>65.89513</ele>
      </trkpt>
      <trkpt lat="33.10104" lon="35.625442">
        <ele>65.87733</ele>
      </trkpt>
      <trkpt lat="33.101201" lon="35.625353">
        <ele>65.86093</ele>
      </trkpt>
      <trkpt lat="33.101409" lon="35.62534">
        <ele>65.82358</ele>
      </trkpt>
      <trkpt lat="33.101557" lon="35.625388">
        <ele>65.79219</ele>
      </trkpt>
      <trkpt lat="33.101881" lon="35.625598">
        <ele>65.72875</ele>
      </trkpt>
      <trkpt lat="33.102463" lon="35.62567">
        <ele>65.64348</ele>
      </trkpt>
      <trkpt lat="33.103073" lon="35.625698">
        <ele>65.55717</ele>
      </trkpt>
      <trkpt lat="33.103744" lon="35.625764">
        <ele>65.49736</ele>
      </trkpt>
      <trkpt lat="33.105712" lon="35.625998">
        <ele>65.53107</ele>
      </trkpt>
      <trkpt lat="33.106745" lon="35.626101">
        <ele>65.52713</ele>
      </trkpt>
      <trkpt lat="33.107454" lon="35.626197">
        <ele>65.51519</ele>
      </trkpt>
      <trkpt lat="33.107655" lon="35.626267">
        <ele>65.50362</ele>
      </trkpt>
      <trkpt lat="33.111489" lon="35.626731">
        <ele>65.6298</ele>
      </trkpt>
      <trkpt lat="33.112703" lon="35.626863">
        <ele>65.84708</ele>
      </trkpt>
      <trkpt lat="33.11329" lon="35.626955">
        <ele>65.94499</ele>
      </trkpt>
      <trkpt lat="33.113788" lon="35.627002">
        <ele>66.08408</ele>
      </trkpt>
      <trkpt lat="33.113949" lon="35.626983">
        <ele>66.14117</ele>
      </trkpt>
      <trkpt lat="33.115181" lon="35.627145">
        <ele>66.37131</ele>
      </trkpt>
      <trkpt lat="33.116354" lon="35.627344">
        <ele>66.37548</ele>
      </trkpt>
      <trkpt lat="33.116908" lon="35.627421">
        <ele>66.3964</ele>
      </trkpt>
      <trkpt lat="33.120104" lon="35.627822">
        <ele>66.60557</ele>
      </trkpt>
      <trkpt lat="33.12182" lon="35.628064">
        <ele>66.82497</ele>
      </trkpt>
      <trkpt lat="33.123921" lon="35.62828">
        <ele>67.01508</ele>
      </trkpt>
      <trkpt lat="33.124082" lon="35.628181">
        <ele>67.03858</ele>
      </trkpt>
      <trkpt lat="33.124115" lon="35.628112">
        <ele>67.08233</ele>
      </trkpt>
      <trkpt lat="33.124186" lon="35.627411">
        <ele>67.47651</ele>
      </trkpt>
      <trkpt lat="33.124116" lon="35.627134">
        <ele>67.35594</ele>
      </trkpt>
      <trkpt lat="33.123754" lon="35.627048">
        <ele>67.025</ele>
      </trkpt>
      <trkpt lat="33.122707" lon="35.626939">
        <ele>66.93531</ele>
      </trkpt>
      <trkpt lat="33.12256" lon="35.626883">
        <ele>66.94263</ele>
      </trkpt>
      <trkpt lat="33.121226" lon="35.626707">
        <ele>66.96872</ele>
      </trkpt>
      <trkpt lat="33.120562" lon="35.626577">
        <ele>66.96809</ele>
      </trkpt>
      <trkpt lat="33.120626" lon="35.62589">
        <ele>66.97223</ele>
      </trkpt>
      <trkpt lat="33.120872" lon="35.623885">
        <ele>66.99074</ele>
      </trkpt>
      <trkpt lat="33.120858" lon="35.623693">
        <ele>66.99243</ele>
      </trkpt>
      <trkpt lat="33.121475" lon="35.618667">
        <ele>67.00542</ele>
      </trkpt>
      <trkpt lat="33.121539" lon="35.618068">
        <ele>67.00631</ele>
      </trkpt>
      <trkpt lat="33.121543" lon="35.617894">
        <ele>67.00858</ele>
      </trkpt>
      <trkpt lat="33.121569" lon="35.617803">
        <ele>67.00958</ele>
      </trkpt>
      <trkpt lat="33.121589" lon="35.617516">
        <ele>67.01121</ele>
      </trkpt>
      <trkpt lat="33.121991" lon="35.614248">
        <ele>66.85119</ele>
      </trkpt>
      <trkpt lat="33.122397" lon="35.610756">
        <ele>66.47475</ele>
      </trkpt>
      <trkpt lat="33.122641" lon="35.608863">
        <ele>66.31217</ele>
      </trkpt>
      <trkpt lat="33.122589" lon="35.608667">
        <ele>66.29293</ele>
      </trkpt>
      <trkpt lat="33.122415" lon="35.608582">
        <ele>66.2761</ele>
      </trkpt>
      <trkpt lat="33.122304" lon="35.608389">
        <ele>66.25197</ele>
      </trkpt>
      <trkpt lat="33.122297" lon="35.607983">
        <ele>66.19432</ele>
      </trkpt>
      <trkpt lat="33.122408" lon="35.60472">
        <ele>65.96649</ele>
      </trkpt>
      <trkpt lat="33.12243" lon="35.603625">
        <ele>65.92682</ele>
      </trkpt>
      <trkpt lat="33.122499" lon="35.603409">
        <ele>65.9262</ele>
      </trkpt>
      <trkpt lat="33.122604" lon="35.603273">
        <ele>65.92709</ele>
      </trkpt>
      <trkpt lat="33.122792" lon="35.603197">
        <ele>65.92763</ele>
      </trkpt>
      <trkpt lat="33.123155" lon="35.603206">
        <ele>65.92493</ele>
      </trkpt>
      <trkpt lat="33.123537" lon="35.603181">
        <ele>65.92092</ele>
      </trkpt>
      <trkpt lat="33.123682" lon="35.603095">
        <ele>65.92109</ele>
      </trkpt>
      <trkpt lat="33.123786" lon="35.602959">
        <ele>65.92261</ele>
      </trkpt>
      <trkpt lat="33.12384" lon="35.60282">
        <ele>65.92524</ele>
      </trkpt>
      <trkpt lat="33.123886" lon="35.602093">
        <ele>65.9288</ele>
      </trkpt>
      <trkpt lat="33.12394" lon="35.6007">
        <ele>65.92822</ele>
      </trkpt>
      <trkpt lat="33.124056" lon="35.596555">
        <ele>66.10532</ele>
      </trkpt>
      <trkpt lat="33.124169" lon="35.594107">
        <ele>66.38818</ele>
      </trkpt>
      <trkpt lat="33.124163" lon="35.593882">
        <ele>66.46421</ele>
      </trkpt>
      <trkpt lat="33.124207" lon="35.593526">
        <ele>66.6585</ele>
      </trkpt>
      <trkpt lat="33.124306" lon="35.593386">
        <ele>66.80356</ele>
      </trkpt>
      <trkpt lat="33.124432" lon="35.593309">
        <ele>66.98006</ele>
      </trkpt>
      <trkpt lat="33.124515" lon="35.593217">
        <ele>67.13823</ele>
      </trkpt>
      <trkpt lat="33.124568" lon="35.593134">
        <ele>67.26373</ele>
      </trkpt>
      <trkpt lat="33.124596" lon="35.592977">
        <ele>67.3577</ele>
      </trkpt>
      <trkpt lat="33.124359" lon="35.591588">
        <ele>67.47979</ele>
      </trkpt>
      <trkpt lat="33.12394" lon="35.589609">
        <ele>67.45823</ele>
      </trkpt>
      <trkpt lat="33.123828" lon="35.588977">
        <ele>67.46461</ele>
      </trkpt>
      <trkpt lat="33.123556" lon="35.587641">
        <ele>67.46574</ele>
      </trkpt>
      <trkpt lat="33.12339" lon="35.586936">
        <ele>67.46467</ele>
      </trkpt>
      <trkpt lat="33.123031" lon="35.585239">
        <ele>67.46477</ele>
      </trkpt>
      <trkpt lat="33.122879" lon="35.584697">
        <ele>67.46766</ele>
      </trkpt>
      <trkpt lat="33.122813" lon="35.584569">
        <ele>67.46921</ele>
      </trkpt>
      <trkpt lat="33.122753" lon="35.584535">
        <ele>67.46949</ele>
      </trkpt>
      <trkpt lat="33.122634" lon="35.584529">
        <ele>67.47092</ele>
      </trkpt>
      <trkpt lat="33.121677" lon="35.584703">
        <ele>67.47278</ele>
      </trkpt>
      <trkpt lat="33.121454" lon="35.584729">
        <ele>67.47244</ele>
      </trkpt>
      <trkpt lat="33.121337" lon="35.584694">
        <ele>67.4708</ele>
      </trkpt>
      <trkpt lat="33.121295" lon="35.584652">
        <ele>67.49681</ele>
      </trkpt>
      <trkpt lat="33.121276" lon="35.584522">
        <ele>67.53036</ele>
      </trkpt>
      <trkpt lat="33.121233" lon="35.584446">
        <ele>67.49915</ele>
      </trkpt>
      <trkpt lat="33.119124" lon="35.584793">
        <ele>67.44207</ele>
      </trkpt>
      <trkpt lat="33.117923" lon="35.584964">
        <ele>67.43511</ele>
      </trkpt>
      <trkpt lat="33.117397" lon="35.585076">
        <ele>67.43213</ele>
      </trkpt>
      <trkpt lat="33.116271" lon="35.585247">
        <ele>67.40748</ele>
      </trkpt>
      <trkpt lat="33.115171" lon="35.585468">
        <ele>67.33862</ele>
      </trkpt>
      <trkpt lat="33.11464" lon="35.585543">
        <ele>67.30491</ele>
      </trkpt>
      <trkpt lat="33.114135" lon="35.585646">
        <ele>67.29491</ele>
      </trkpt>
      <trkpt lat="33.113578" lon="35.585716">
        <ele>67.28396</ele>
      </trkpt>
      <trkpt lat="33.113095" lon="35.585808">
        <ele>67.28114</ele>
      </trkpt>
      <trkpt lat="33.112999" lon="35.585675">
        <ele>67.2819</ele>
      </trkpt>
      <trkpt lat="33.113002" lon="35.58495">
        <ele>67.28417</ele>
      </trkpt>
      <trkpt lat="33.112986" lon="35.584657">
        <ele>67.28477</ele>
      </trkpt>
      <trkpt lat="33.112881" lon="35.584463">
        <ele>67.28623</ele>
      </trkpt>
      <trkpt lat="33.112683" lon="35.584411">
        <ele>67.29111</ele>
      </trkpt>
      <trkpt lat="33.112052" lon="35.584401">
        <ele>67.43868</ele>
      </trkpt>
      <trkpt lat="33.111479" lon="35.584415">
        <ele>67.80999</ele>
      </trkpt>
      <trkpt lat="33.110949" lon="35.584395">
        <ele>68.09036</ele>
      </trkpt>
      <trkpt lat="33.110764" lon="35.584318">
        <ele>68.16505</ele>
      </trkpt>
      <trkpt lat="33.110632" lon="35.584132">
        <ele>68.20846</ele>
      </trkpt>
      <trkpt lat="33.110581" lon="35.58384">
        <ele>68.23008</ele>
      </trkpt>
      <trkpt lat="33.110594" lon="35.582523">
        <ele>68.33025</ele>
      </trkpt>
      <trkpt lat="33.110652" lon="35.581516">
        <ele>68.82577</ele>
      </trkpt>
      <trkpt lat="33.110707" lon="35.58134">
        <ele>68.8803</ele>
      </trkpt>
      <trkpt lat="33.110719" lon="35.581108">
        <ele>68.92738</ele>
      </trkpt>
      <trkpt lat="33.110699" lon="35.580882">
        <ele>68.95306</ele>
      </trkpt>
      <trkpt lat="33.110777" lon="35.579777">
        <ele>69.65398</ele>
      </trkpt>
      <trkpt lat="33.11078" lon="35.579421">
        <ele>70.54306</ele>
      </trkpt>
      <trkpt lat="33.110727" lon="35.578781">
        <ele>71.38919</ele>
      </trkpt>
      <trkpt lat="33.110736" lon="35.578207">
        <ele>71.46138</ele>
      </trkpt>
      <trkpt lat="33.111038" lon="35.576073">
        <ele>73.14758</ele>
      </trkpt>
      <trkpt lat="33.111185" lon="35.574857">
        <ele>75.83732</ele>
      </trkpt>
      <trkpt lat="33.111337" lon="35.574035">
        <ele>76.74304</ele>
      </trkpt>
      <trkpt lat="33.11139" lon="35.573876">
        <ele>76.74222</ele>
      </trkpt>
      <trkpt lat="33.111399" lon="35.573507">
        <ele>76.75141</ele>
      </trkpt>
      <trkpt lat="33.111474" lon="35.573033">
        <ele>76.83835</ele>
      </trkpt>
      <trkpt lat="33.111482" lon="35.572796">
        <ele>76.92931</ele>
      </trkpt>
      <trkpt lat="33.111532" lon="35.572606">
        <ele>77.07568</ele>
      </trkpt>
      <trkpt lat="33.11149" lon="35.572408">
        <ele>77.5246</ele>
      </trkpt>
      <trkpt lat="33.111565" lon="35.572276">
        <ele>78.01309</ele>
      </trkpt>
      <trkpt lat="33.11202" lon="35.572163">
        <ele>78.86454</ele>
      </trkpt>
      <trkpt lat="33.112524" lon="35.572065">
        <ele>79.49369</ele>
      </trkpt>
      <trkpt lat="33.113527" lon="35.571935">
        <ele>79.97753</ele>
      </trkpt>
      <trkpt lat="33.114567" lon="35.571857">
        <ele>80.04462</ele>
      </trkpt>
      <trkpt lat="33.116013" lon="35.57181">
        <ele>80.07211</ele>
      </trkpt>
      <trkpt lat="33.11708" lon="35.571735">
        <ele>80.55001</ele>
      </trkpt>
      <trkpt lat="33.118977" lon="35.571633">
        <ele>82.85459</ele>
      </trkpt>
      <trkpt lat="33.120015" lon="35.571524">
        <ele>83.92787</ele>
      </trkpt>
      <trkpt lat="33.12216" lon="35.571199">
        <ele>85.56392</ele>
      </trkpt>
      <trkpt lat="33.123324" lon="35.571054">
        <ele>85.25367</ele>
      </trkpt>
      <trkpt lat="33.123937" lon="35.570989">
        <ele>84.3631</ele>
      </trkpt>
      <trkpt lat="33.124977" lon="35.570919">
        <ele>83.20449</ele>
      </trkpt>
      <trkpt lat="33.125104" lon="35.570836">
        <ele>83.14799</ele>
      </trkpt>
      <trkpt lat="33.125071" lon="35.570732">
        <ele>83.17754</ele>
      </trkpt>
      <trkpt lat="33.125012" lon="35.570625">
        <ele>83.2488</ele>
      </trkpt>
      <trkpt lat="33.125171" lon="35.570362">
        <ele>83.32358</ele>
      </trkpt>
      <trkpt lat="33.125097" lon="35.569976">
        <ele>82.74709</ele>
      </trkpt>
    </trkseg>
  </trk>
</gpx>