<?xml version="1.0" encoding="utf-8"?>
<gpx version="1.1"><trk><trkseg>
<trkpt lat="33.00511" lon="35.21549"><ele>352.0</ele><time>2013-07-24T12:29:00Z</time></trkpt>
<trkpt lat="33.00514" lon="35.21558"><ele>352.0</ele><time>2013-07-24T12:29:13Z</time></trkpt>
<trkpt lat="33.00523" lon="35.21556"><ele>352.0</ele><time>2013-07-24T12:29:21Z</time></trkpt>
<trkpt lat="33.00529" lon="35.21548"><ele>352.0</ele><time>2013-07-24T12:29:24Z</time></trkpt>
<trkpt lat="33.0054" lon="35.21544"><ele>352.0</ele><time>2013-07-24T12:29:28Z</time></trkpt>
<trkpt lat="33.00545" lon="35.21552"><ele>352.0</ele><time>2013-07-24T12:29:35Z</time></trkpt>
<trkpt lat="33.00541" lon="35.21564"><ele>352.0</ele><time>2013-07-24T12:29:40Z</time></trkpt>
<trkpt lat="33.00539" lon="35.21574"><ele>352.0</ele><time>2013-07-24T12:29:43Z</time></trkpt>
<trkpt lat="33.00538" lon="35.21586"><ele>353.0</ele><time>2013-07-24T12:29:46Z</time></trkpt>
<trkpt lat="33.00536" lon="35.21596"><ele>353.0</ele><time>2013-07-24T12:29:49Z</time></trkpt>
<trkpt lat="33.00536" lon="35.21606"><ele>354.0</ele><time>2013-07-24T12:29:52Z</time></trkpt>
<trkpt lat="33.00536" lon="35.21618"><ele>355.0</ele><time>2013-07-24T12:29:55Z</time></trkpt>
<trkpt lat="33.0054" lon="35.21627"><ele>356.0</ele><time>2013-07-24T12:30:00Z</time></trkpt>
<trkpt lat="33.00543" lon="35.21638"><ele>356.0</ele><time>2013-07-24T12:30:02Z</time></trkpt>
<trkpt lat="33.00544" lon="35.2165"><ele>357.0</ele><time>2013-07-24T12:30:07Z</time></trkpt>
<trkpt lat="33.00547" lon="35.21661"><ele>358.0</ele><time>2013-07-24T12:30:09Z</time></trkpt>
<trkpt lat="33.00548" lon="35.21672"><ele>359.0</ele><time>2013-07-24T12:30:13Z</time></trkpt>
<trkpt lat="33.00548" lon="35.21682"><ele>360.0</ele><time>2013-07-24T12:30:15Z</time></trkpt>
<trkpt lat="33.00547" lon="35.21692"><ele>360.0</ele><time>2013-07-24T12:30:18Z</time></trkpt>
<trkpt lat="33.00549" lon="35.21702"><ele>361.0</ele><time>2013-07-24T12:30:21Z</time></trkpt>
<trkpt lat="33.00549" lon="35.21714"><ele>361.0</ele><time>2013-07-24T12:30:24Z</time></trkpt>
<trkpt lat="33.00544" lon="35.21723"><ele>361.0</ele><time>2013-07-24T12:30:29Z</time></trkpt>
<trkpt lat="33.00542" lon="35.21733"><ele>361.0</ele><time>2013-07-24T12:30:33Z</time></trkpt>
<trkpt lat="33.00539" lon="35.21743"><ele>361.0</ele><time>2013-07-24T12:30:37Z</time></trkpt>
<trkpt lat="33.00533" lon="35.21752"><ele>362.0</ele><time>2013-07-24T12:30:42Z</time></trkpt>
<trkpt lat="33.0053" lon="35.21764"><ele>362.0</ele><time>2013-07-24T12:30:46Z</time></trkpt>
<trkpt lat="33.00527" lon="35.21773"><ele>362.0</ele><time>2013-07-24T12:30:48Z</time></trkpt>
<trkpt lat="33.00523" lon="35.21783"><ele>363.0</ele><time>2013-07-24T12:30:51Z</time></trkpt>
<trkpt lat="33.00519" lon="35.21794"><ele>363.0</ele><time>2013-07-24T12:30:54Z</time></trkpt>
<trkpt lat="33.00515" lon="35.21804"><ele>364.0</ele><time>2013-07-24T12:30:57Z</time></trkpt>
<trkpt lat="33.00511" lon="35.21813"><ele>364.0</ele><time>2013-07-24T12:31:01Z</time></trkpt>
<trkpt lat="33.00506" lon="35.21822"><ele>365.0</ele><time>2013-07-24T12:31:04Z</time></trkpt>
<trkpt lat="33.00505" lon="35.21834"><ele>365.0</ele><time>2013-07-24T12:31:08Z</time></trkpt>
<trkpt lat="33.00512" lon="35.21841"><ele>366.0</ele><time>2013-07-24T12:31:11Z</time></trkpt>
<trkpt lat="33.00521" lon="35.21846"><ele>366.0</ele><time>2013-07-24T12:31:15Z</time></trkpt>
<trkpt lat="33.0053" lon="35.2185"><ele>366.0</ele><time>2013-07-24T12:31:19Z</time></trkpt>
<trkpt lat="33.00539" lon="35.21854"><ele>366.0</ele><time>2013-07-24T12:31:22Z</time></trkpt>
<trkpt lat="33.00547" lon="35.21858"><ele>367.0</ele><time>2013-07-24T12:31:26Z</time></trkpt>
<trkpt lat="33.00556" lon="35.21862"><ele>367.0</ele><time>2013-07-24T12:31:30Z</time></trkpt>
<trkpt lat="33.00565" lon="35.21867"><ele>368.0</ele><time>2013-07-24T12:31:34Z</time></trkpt>
<trkpt lat="33.00573" lon="35.2187"><ele>368.0</ele><time>2013-07-24T12:31:38Z</time></trkpt>
<trkpt lat="33.00581" lon="35.21873"><ele>369.0</ele><time>2013-07-24T12:31:42Z</time></trkpt>
<trkpt lat="33.0059" lon="35.21876"><ele>369.0</ele><time>2013-07-24T12:31:46Z</time></trkpt>
<trkpt lat="33.00599" lon="35.21878"><ele>369.0</ele><time>2013-07-24T12:31:50Z</time></trkpt>
<trkpt lat="33.00608" lon="35.2188"><ele>369.0</ele><time>2013-07-24T12:31:54Z</time></trkpt>
<trkpt lat="33.00618" lon="35.21882"><ele>370.0</ele><time>2013-07-24T12:31:58Z</time></trkpt>
<trkpt lat="33.00626" lon="35.21883"><ele>370.0</ele><time>2013-07-24T12:32:02Z</time></trkpt>
<trkpt lat="33.00636" lon="35.21884"><ele>370.0</ele><time>2013-07-24T12:32:05Z</time></trkpt>
<trkpt lat="33.00646" lon="35.21885"><ele>370.0</ele><time>2013-07-24T12:32:08Z</time></trkpt>
<trkpt lat="33.00658" lon="35.21887"><ele>370.0</ele><time>2013-07-24T12:32:11Z</time></trkpt>
<trkpt lat="33.00667" lon="35.21889"><ele>370.0</ele><time>2013-07-24T12:32:13Z</time></trkpt>
<trkpt lat="33.00676" lon="35.2189"><ele>369.0</ele><time>2013-07-24T12:32:15Z</time></trkpt>
<trkpt lat="33.00686" lon="35.21891"><ele>369.0</ele><time>2013-07-24T12:32:17Z</time></trkpt>
<trkpt lat="33.00695" lon="35.21891"><ele>369.0</ele><time>2013-07-24T12:32:19Z</time></trkpt>
<trkpt lat="33.00705" lon="35.21892"><ele>369.0</ele><time>2013-07-24T12:32:21Z</time></trkpt>
<trkpt lat="33.00715" lon="35.21893"><ele>368.0</ele><time>2013-07-24T12:32:22Z</time></trkpt>
<trkpt lat="33.00725" lon="35.21894"><ele>368.0</ele><time>2013-07-24T12:32:24Z</time></trkpt>
<trkpt lat="33.00737" lon="35.21894"><ele>368.0</ele><time>2013-07-24T12:32:26Z</time></trkpt>
<trkpt lat="33.00748" lon="35.21895"><ele>368.0</ele><time>2013-07-24T12:32:28Z</time></trkpt>
<trkpt lat="33.00757" lon="35.21895"><ele>368.0</ele><time>2013-07-24T12:32:30Z</time></trkpt>
<trkpt lat="33.00766" lon="35.21896"><ele>368.0</ele><time>2013-07-24T12:32:33Z</time></trkpt>
<trkpt lat="33.00767" lon="35.21911"><ele>368.0</ele><time>2013-07-24T12:33:20Z</time></trkpt>
<trkpt lat="33.00776" lon="35.21915"><ele>368.0</ele><time>2013-07-24T12:33:23Z</time></trkpt>
<trkpt lat="33.00782" lon="35.21921"><ele>368.0</ele><time>2013-07-24T12:33:26Z</time></trkpt>
<trkpt lat="33.00787" lon="35.21931"><ele>368.0</ele><time>2013-07-24T12:33:29Z</time></trkpt>
<trkpt lat="33.00787" lon="35.21942"><ele>369.0</ele><time>2013-07-24T12:33:33Z</time></trkpt>
<trkpt lat="33.00787" lon="35.21954"><ele>369.0</ele><time>2013-07-24T12:33:37Z</time></trkpt>
<trkpt lat="33.00787" lon="35.21964"><ele>369.0</ele><time>2013-07-24T12:33:40Z</time></trkpt>
<trkpt lat="33.00787" lon="35.21975"><ele>369.0</ele><time>2013-07-24T12:33:43Z</time></trkpt>
<trkpt lat="33.00789" lon="35.21987"><ele>369.0</ele><time>2013-07-24T12:33:47Z</time></trkpt>
<trkpt lat="33.00794" lon="35.21998"><ele>369.0</ele><time>2013-07-24T12:33:51Z</time></trkpt>
<trkpt lat="33.00794" lon="35.22007"><ele>370.0</ele><time>2013-07-24T12:33:54Z</time></trkpt>
<trkpt lat="33.00794" lon="35.22018"><ele>370.0</ele><time>2013-07-24T12:33:58Z</time></trkpt>
<trkpt lat="33.00794" lon="35.2203"><ele>371.0</ele><time>2013-07-24T12:34:03Z</time></trkpt>
<trkpt lat="33.00795" lon="35.22042"><ele>371.0</ele><time>2013-07-24T12:34:07Z</time></trkpt>
<trkpt lat="33.00802" lon="35.22046"><ele>371.0</ele><time>2013-07-24T12:34:12Z</time></trkpt>
<trkpt lat="33.00809" lon="35.22055"><ele>371.0</ele><time>2013-07-24T12:34:16Z</time></trkpt>
<trkpt lat="33.00811" lon="35.22064"><ele>372.0</ele><time>2013-07-24T12:34:20Z</time></trkpt>
<trkpt lat="33.00817" lon="35.22073"><ele>372.0</ele><time>2013-07-24T12:34:23Z</time></trkpt>
<trkpt lat="33.00823" lon="35.22083"><ele>373.0</ele><time>2013-07-24T12:34:27Z</time></trkpt>
<trkpt lat="33.00829" lon="35.22091"><ele>373.0</ele><time>2013-07-24T12:34:31Z</time></trkpt>
<trkpt lat="33.00838" lon="35.22092"><ele>373.0</ele><time>2013-07-24T12:34:34Z</time></trkpt>
<trkpt lat="33.00848" lon="35.22094"><ele>372.0</ele><time>2013-07-24T12:34:37Z</time></trkpt>
<trkpt lat="33.00857" lon="35.22099"><ele>372.0</ele><time>2013-07-24T12:34:40Z</time></trkpt>
<trkpt lat="33.00863" lon="35.22107"><ele>372.0</ele><time>2013-07-24T12:34:44Z</time></trkpt>
<trkpt lat="33.00867" lon="35.22116"><ele>372.0</ele><time>2013-07-24T12:34:50Z</time></trkpt>
<trkpt lat="33.00876" lon="35.22117"><ele>372.0</ele><time>2013-07-24T12:35:11Z</time></trkpt>
<trkpt lat="33.00881" lon="35.22125"><ele>372.0</ele><time>2013-07-24T12:35:16Z</time></trkpt>
<trkpt lat="33.00879" lon="35.22137"><ele>372.0</ele><time>2013-07-24T12:35:20Z</time></trkpt>
<trkpt lat="33.0088" lon="35.22149"><ele>372.0</ele><time>2013-07-24T12:35:23Z</time></trkpt>
<trkpt lat="33.00884" lon="35.22159"><ele>372.0</ele><time>2013-07-24T12:35:27Z</time></trkpt>
<trkpt lat="33.00883" lon="35.2217"><ele>373.0</ele><time>2013-07-24T12:35:31Z</time></trkpt>
<trkpt lat="33.00882" lon="35.22182"><ele>374.0</ele><time>2013-07-24T12:35:35Z</time></trkpt>
<trkpt lat="33.00881" lon="35.22193"><ele>375.0</ele><time>2013-07-24T12:35:39Z</time></trkpt>
<trkpt lat="33.0088" lon="35.22204"><ele>376.0</ele><time>2013-07-24T12:35:43Z</time></trkpt>
<trkpt lat="33.00879" lon="35.22214"><ele>377.0</ele><time>2013-07-24T12:35:47Z</time></trkpt>
<trkpt lat="33.00878" lon="35.22226"><ele>378.0</ele><time>2013-07-24T12:35:52Z</time></trkpt>
<trkpt lat="33.00876" lon="35.22236"><ele>379.0</ele><time>2013-07-24T12:35:56Z</time></trkpt>
<trkpt lat="33.00876" lon="35.22246"><ele>381.0</ele><time>2013-07-24T12:36:01Z</time></trkpt>
<trkpt lat="33.00874" lon="35.22255"><ele>382.0</ele><time>2013-07-24T12:36:05Z</time></trkpt>
<trkpt lat="33.00873" lon="35.22267"><ele>384.0</ele><time>2013-07-24T12:36:10Z</time></trkpt>
<trkpt lat="33.00873" lon="35.22279"><ele>385.0</ele><time>2013-07-24T12:36:15Z</time></trkpt>
<trkpt lat="33.00872" lon="35.2229"><ele>386.0</ele><time>2013-07-24T12:36:20Z</time></trkpt>
<trkpt lat="33.00871" lon="35.22301"><ele>387.0</ele><time>2013-07-24T12:36:24Z</time></trkpt>
<trkpt lat="33.00869" lon="35.22313"><ele>388.0</ele><time>2013-07-24T12:36:29Z</time></trkpt>
<trkpt lat="33.00868" lon="35.22325"><ele>389.0</ele><time>2013-07-24T12:36:34Z</time></trkpt>
<trkpt lat="33.00866" lon="35.22337"><ele>390.0</ele><time>2013-07-24T12:36:39Z</time></trkpt>
<trkpt lat="33.00865" lon="35.22346"><ele>391.0</ele><time>2013-07-24T12:36:43Z</time></trkpt>
<trkpt lat="33.00864" lon="35.22356"><ele>392.0</ele><time>2013-07-24T12:36:47Z</time></trkpt>
<trkpt lat="33.00863" lon="35.22366"><ele>392.0</ele><time>2013-07-24T12:36:51Z</time></trkpt>
<trkpt lat="33.00863" lon="35.22378"><ele>392.0</ele><time>2013-07-24T12:36:56Z</time></trkpt>
<trkpt lat="33.00862" lon="35.22389"><ele>393.0</ele><time>2013-07-24T12:37:02Z</time></trkpt>
<trkpt lat="33.00861" lon="35.22401"><ele>393.0</ele><time>2013-07-24T12:37:07Z</time></trkpt>
<trkpt lat="33.00859" lon="35.22411"><ele>394.0</ele><time>2013-07-24T12:37:12Z</time></trkpt>
<trkpt lat="33.0086" lon="35.22421"><ele>395.0</ele><time>2013-07-24T12:37:18Z</time></trkpt>
<trkpt lat="33.00857" lon="35.22436"><ele>396.0</ele><time>2013-07-24T12:37:27Z</time></trkpt>
<trkpt lat="33.00854" lon="35.22447"><ele>397.0</ele><time>2013-07-24T12:37:33Z</time></trkpt>
<trkpt lat="33.00852" lon="35.22457"><ele>397.0</ele><time>2013-07-24T12:37:38Z</time></trkpt>
<trkpt lat="33.00849" lon="35.22467"><ele>398.0</ele><time>2013-07-24T12:37:43Z</time></trkpt>
<trkpt lat="33.00846" lon="35.22478"><ele>398.0</ele><time>2013-07-24T12:37:48Z</time></trkpt>
<trkpt lat="33.00842" lon="35.22487"><ele>399.0</ele><time>2013-07-24T12:37:53Z</time></trkpt>
<trkpt lat="33.00843" lon="35.22498"><ele>400.0</ele><time>2013-07-24T12:38:00Z</time></trkpt>
<trkpt lat="33.00845" lon="35.22508"><ele>401.0</ele><time>2013-07-24T12:38:04Z</time></trkpt>
<trkpt lat="33.00846" lon="35.22519"><ele>402.0</ele><time>2013-07-24T12:38:09Z</time></trkpt>
<trkpt lat="33.00846" lon="35.22529"><ele>403.0</ele><time>2013-07-24T12:38:13Z</time></trkpt>
<trkpt lat="33.00845" lon="35.22539"><ele>403.0</ele><time>2013-07-24T12:38:17Z</time></trkpt>
<trkpt lat="33.00844" lon="35.22549"><ele>403.0</ele><time>2013-07-24T12:38:21Z</time></trkpt>
<trkpt lat="33.00843" lon="35.22561"><ele>403.0</ele><time>2013-07-24T12:38:25Z</time></trkpt>
<trkpt lat="33.0085" lon="35.22569"><ele>403.0</ele><time>2013-07-24T12:38:30Z</time></trkpt>
<trkpt lat="33.0086" lon="35.22574"><ele>403.0</ele><time>2013-07-24T12:38:34Z</time></trkpt>
<trkpt lat="33.00868" lon="35.22578"><ele>403.0</ele><time>2013-07-24T12:38:37Z</time></trkpt>
<trkpt lat="33.00876" lon="35.22582"><ele>403.0</ele><time>2013-07-24T12:38:40Z</time></trkpt>
<trkpt lat="33.00885" lon="35.22588"><ele>403.0</ele><time>2013-07-24T12:38:43Z</time></trkpt>
<trkpt lat="33.00894" lon="35.22595"><ele>403.0</ele><time>2013-07-24T12:38:46Z</time></trkpt>
<trkpt lat="33.00901" lon="35.22604"><ele>404.0</ele><time>2013-07-24T12:38:49Z</time></trkpt>
<trkpt lat="33.00905" lon="35.22615"><ele>404.0</ele><time>2013-07-24T12:38:52Z</time></trkpt>
<trkpt lat="33.00908" lon="35.22627"><ele>404.0</ele><time>2013-07-24T12:38:55Z</time></trkpt>
<trkpt lat="33.0091" lon="35.22637"><ele>404.0</ele><time>2013-07-24T12:38:58Z</time></trkpt>
<trkpt lat="33.00911" lon="35.22648"><ele>405.0</ele><time>2013-07-24T12:39:02Z</time></trkpt>
<trkpt lat="33.00912" lon="35.2266"><ele>406.0</ele><time>2013-07-24T12:39:06Z</time></trkpt>
<trkpt lat="33.00914" lon="35.2267"><ele>407.0</ele><time>2013-07-24T12:39:09Z</time></trkpt>
<trkpt lat="33.00918" lon="35.2268"><ele>408.0</ele><time>2013-07-24T12:39:12Z</time></trkpt>
<trkpt lat="33.00923" lon="35.22691"><ele>409.0</ele><time>2013-07-24T12:39:15Z</time></trkpt>
<trkpt lat="33.00929" lon="35.22702"><ele>410.0</ele><time>2013-07-24T12:39:18Z</time></trkpt>
<trkpt lat="33.00934" lon="35.22713"><ele>410.0</ele><time>2013-07-24T12:39:21Z</time></trkpt>
<trkpt lat="33.00939" lon="35.22725"><ele>410.0</ele><time>2013-07-24T12:39:23Z</time></trkpt>
<trkpt lat="33.00946" lon="35.22735"><ele>410.0</ele><time>2013-07-24T12:39:26Z</time></trkpt>
<trkpt lat="33.00953" lon="35.22745"><ele>410.0</ele><time>2013-07-24T12:39:29Z</time></trkpt>
<trkpt lat="33.0096" lon="35.22754"><ele>410.0</ele><time>2013-07-24T12:39:32Z</time></trkpt>
<trkpt lat="33.00967" lon="35.22762"><ele>410.0</ele><time>2013-07-24T12:39:35Z</time></trkpt>
<trkpt lat="33.00973" lon="35.22769"><ele>410.0</ele><time>2013-07-24T12:39:38Z</time></trkpt>
<trkpt lat="33.00979" lon="35.22775"><ele>411.0</ele><time>2013-07-24T12:39:41Z</time></trkpt>
<trkpt lat="33.00986" lon="35.22782"><ele>411.0</ele><time>2013-07-24T12:39:44Z</time></trkpt>
<trkpt lat="33.00992" lon="35.22788"><ele>411.0</ele><time>2013-07-24T12:39:47Z</time></trkpt>
<trkpt lat="33.00999" lon="35.22794"><ele>412.0</ele><time>2013-07-24T12:39:50Z</time></trkpt>
<trkpt lat="33.0101" lon="35.22796"><ele>412.0</ele><time>2013-07-24T12:39:54Z</time></trkpt>
<trkpt lat="33.01018" lon="35.22799"><ele>413.0</ele><time>2013-07-24T12:39:57Z</time></trkpt>
<trkpt lat="33.01027" lon="35.22803"><ele>414.0</ele><time>2013-07-24T12:40:01Z</time></trkpt>
<trkpt lat="33.01037" lon="35.22807"><ele>415.0</ele><time>2013-07-24T12:40:04Z</time></trkpt>
<trkpt lat="33.01046" lon="35.2281"><ele>416.0</ele><time>2013-07-24T12:40:07Z</time></trkpt>
<trkpt lat="33.01055" lon="35.22813"><ele>417.0</ele><time>2013-07-24T12:40:10Z</time></trkpt>
<trkpt lat="33.01064" lon="35.22814"><ele>417.0</ele><time>2013-07-24T12:40:13Z</time></trkpt>
<trkpt lat="33.01073" lon="35.22814"><ele>417.0</ele><time>2013-07-24T12:40:16Z</time></trkpt>
<trkpt lat="33.01085" lon="35.22814"><ele>416.0</ele><time>2013-07-24T12:40:19Z</time></trkpt>
<trkpt lat="33.01093" lon="35.22813"><ele>416.0</ele><time>2013-07-24T12:40:21Z</time></trkpt>
<trkpt lat="33.01102" lon="35.22813"><ele>415.0</ele><time>2013-07-24T12:40:22Z</time></trkpt>
<trkpt lat="33.01111" lon="35.22813"><ele>415.0</ele><time>2013-07-24T12:40:24Z</time></trkpt>
<trkpt lat="33.0112" lon="35.22813"><ele>415.0</ele><time>2013-07-24T12:40:26Z</time></trkpt>
<trkpt lat="33.01129" lon="35.22813"><ele>414.0</ele><time>2013-07-24T12:40:28Z</time></trkpt>
<trkpt lat="33.01138" lon="35.22812"><ele>414.0</ele><time>2013-07-24T12:40:30Z</time></trkpt>
<trkpt lat="33.01148" lon="35.22812"><ele>414.0</ele><time>2013-07-24T12:40:32Z</time></trkpt>
<trkpt lat="33.01158" lon="35.22812"><ele>413.0</ele><time>2013-07-24T12:40:34Z</time></trkpt>
<trkpt lat="33.01169" lon="35.22812"><ele>412.0</ele><time>2013-07-24T12:40:36Z</time></trkpt>
<trkpt lat="33.0118" lon="35.22812"><ele>411.0</ele><time>2013-07-24T12:40:38Z</time></trkpt>
<trkpt lat="33.01192" lon="35.22811"><ele>410.0</ele><time>2013-07-24T12:40:40Z</time></trkpt>
<trkpt lat="33.01205" lon="35.22811"><ele>410.0</ele><time>2013-07-24T12:40:42Z</time></trkpt>
<trkpt lat="33.01219" lon="35.22812"><ele>409.0</ele><time>2013-07-24T12:40:44Z</time></trkpt>
<trkpt lat="33.01232" lon="35.22814"><ele>409.0</ele><time>2013-07-24T12:40:46Z</time></trkpt>
<trkpt lat="33.01246" lon="35.22818"><ele>408.0</ele><time>2013-07-24T12:40:48Z</time></trkpt>
<trkpt lat="33.0126" lon="35.22825"><ele>407.0</ele><time>2013-07-24T12:40:50Z</time></trkpt>
<trkpt lat="33.01272" lon="35.22834"><ele>406.0</ele><time>2013-07-24T12:40:52Z</time></trkpt>
<trkpt lat="33.01281" lon="35.22837"><ele>405.0</ele><time>2013-07-24T12:40:54Z</time></trkpt>
<trkpt lat="33.0129" lon="35.22834"><ele>404.0</ele><time>2013-07-24T12:40:56Z</time></trkpt>
<trkpt lat="33.01299" lon="35.2283"><ele>404.0</ele><time>2013-07-24T12:41:00Z</time></trkpt>
<trkpt lat="33.01306" lon="35.22825"><ele>403.0</ele><time>2013-07-24T12:41:04Z</time></trkpt>
<trkpt lat="33.01314" lon="35.22819"><ele>403.0</ele><time>2013-07-24T12:41:06Z</time></trkpt>
<trkpt lat="33.01324" lon="35.2281"><ele>402.0</ele><time>2013-07-24T12:41:08Z</time></trkpt>
<trkpt lat="33.01337" lon="35.22803"><ele>401.0</ele><time>2013-07-24T12:41:10Z</time></trkpt>
<trkpt lat="33.01349" lon="35.22799"><ele>400.0</ele><time>2013-07-24T12:41:12Z</time></trkpt>
<trkpt lat="33.01359" lon="35.22799"><ele>400.0</ele><time>2013-07-24T12:41:14Z</time></trkpt>
<trkpt lat="33.01366" lon="35.22804"><ele>399.0</ele><time>2013-07-24T12:41:16Z</time></trkpt>
<trkpt lat="33.01371" lon="35.22812"><ele>398.0</ele><time>2013-07-24T12:41:18Z</time></trkpt>
<trkpt lat="33.01376" lon="35.22822"><ele>398.0</ele><time>2013-07-24T12:41:21Z</time></trkpt>
<trkpt lat="33.01382" lon="35.22833"><ele>398.0</ele><time>2013-07-24T12:41:25Z</time></trkpt>
<trkpt lat="33.01386" lon="35.22843"><ele>398.0</ele><time>2013-07-24T12:41:28Z</time></trkpt>
<trkpt lat="33.01391" lon="35.22853"><ele>398.0</ele><time>2013-07-24T12:41:31Z</time></trkpt>
<trkpt lat="33.01395" lon="35.22866"><ele>397.0</ele><time>2013-07-24T12:41:34Z</time></trkpt>
<trkpt lat="33.014" lon="35.22878"><ele>397.0</ele><time>2013-07-24T12:41:37Z</time></trkpt>
<trkpt lat="33.01407" lon="35.22889"><ele>398.0</ele><time>2013-07-24T12:41:40Z</time></trkpt>
<trkpt lat="33.01412" lon="35.22897"><ele>398.0</ele><time>2013-07-24T12:41:42Z</time></trkpt>
<trkpt lat="33.01417" lon="35.22905"><ele>399.0</ele><time>2013-07-24T12:41:44Z</time></trkpt>
<trkpt lat="33.01423" lon="35.22912"><ele>399.0</ele><time>2013-07-24T12:41:46Z</time></trkpt>
<trkpt lat="33.01427" lon="35.22921"><ele>400.0</ele><time>2013-07-24T12:41:48Z</time></trkpt>
<trkpt lat="33.01429" lon="35.2293"><ele>400.0</ele><time>2013-07-24T12:41:50Z</time></trkpt>
<trkpt lat="33.01432" lon="35.2294"><ele>400.0</ele><time>2013-07-24T12:41:52Z</time></trkpt>
<trkpt lat="33.01434" lon="35.2295"><ele>401.0</ele><time>2013-07-24T12:41:54Z</time></trkpt>
<trkpt lat="33.01437" lon="35.2296"><ele>401.0</ele><time>2013-07-24T12:41:56Z</time></trkpt>
<trkpt lat="33.0144" lon="35.2297"><ele>402.0</ele><time>2013-07-24T12:41:58Z</time></trkpt>
<trkpt lat="33.01442" lon="35.2298"><ele>402.0</ele><time>2013-07-24T12:42:01Z</time></trkpt>
<trkpt lat="33.01444" lon="35.2299"><ele>403.0</ele><time>2013-07-24T12:42:03Z</time></trkpt>
<trkpt lat="33.01447" lon="35.23004"><ele>403.0</ele><time>2013-07-24T12:42:06Z</time></trkpt>
<trkpt lat="33.01449" lon="35.23014"><ele>404.0</ele><time>2013-07-24T12:42:08Z</time></trkpt>
<trkpt lat="33.0145" lon="35.23028"><ele>404.0</ele><time>2013-07-24T12:42:11Z</time></trkpt>
<trkpt lat="33.01453" lon="35.23042"><ele>405.0</ele><time>2013-07-24T12:42:14Z</time></trkpt>
<trkpt lat="33.01454" lon="35.23056"><ele>405.0</ele><time>2013-07-24T12:42:17Z</time></trkpt>
<trkpt lat="33.01456" lon="35.23068"><ele>404.0</ele><time>2013-07-24T12:42:20Z</time></trkpt>
<trkpt lat="33.01458" lon="35.2308"><ele>404.0</ele><time>2013-07-24T12:42:22Z</time></trkpt>
<trkpt lat="33.01459" lon="35.23094"><ele>403.0</ele><time>2013-07-24T12:42:25Z</time></trkpt>
<trkpt lat="33.01462" lon="35.23108"><ele>403.0</ele><time>2013-07-24T12:42:28Z</time></trkpt>
<trkpt lat="33.01464" lon="35.23118"><ele>402.0</ele><time>2013-07-24T12:42:30Z</time></trkpt>
<trkpt lat="33.01465" lon="35.23129"><ele>401.0</ele><time>2013-07-24T12:42:32Z</time></trkpt>
<trkpt lat="33.01467" lon="35.23139"><ele>401.0</ele><time>2013-07-24T12:42:34Z</time></trkpt>
<trkpt lat="33.01469" lon="35.23149"><ele>400.0</ele><time>2013-07-24T12:42:36Z</time></trkpt>
<trkpt lat="33.01472" lon="35.23159"><ele>400.0</ele><time>2013-07-24T12:42:38Z</time></trkpt>
<trkpt lat="33.01474" lon="35.23169"><ele>399.0</ele><time>2013-07-24T12:42:40Z</time></trkpt>
<trkpt lat="33.01476" lon="35.2318"><ele>398.0</ele><time>2013-07-24T12:42:42Z</time></trkpt>
<trkpt lat="33.01477" lon="35.2319"><ele>399.0</ele><time>2013-07-24T12:42:44Z</time></trkpt>
<trkpt lat="33.01478" lon="35.232"><ele>399.0</ele><time>2013-07-24T12:42:46Z</time></trkpt>
<trkpt lat="33.01479" lon="35.2321"><ele>399.0</ele><time>2013-07-24T12:42:48Z</time></trkpt>
<trkpt lat="33.0148" lon="35.2322"><ele>399.0</ele><time>2013-07-24T12:42:50Z</time></trkpt>
<trkpt lat="33.01481" lon="35.2323"><ele>399.0</ele><time>2013-07-24T12:42:52Z</time></trkpt>
<trkpt lat="33.01483" lon="35.23241"><ele>399.0</ele><time>2013-07-24T12:42:54Z</time></trkpt>
<trkpt lat="33.01483" lon="35.23252"><ele>399.0</ele><time>2013-07-24T12:42:56Z</time></trkpt>
<trkpt lat="33.01481" lon="35.23262"><ele>399.0</ele><time>2013-07-24T12:42:58Z</time></trkpt>
<trkpt lat="33.0148" lon="35.23273"><ele>399.0</ele><time>2013-07-24T12:43:01Z</time></trkpt>
<trkpt lat="33.01479" lon="35.23283"><ele>398.0</ele><time>2013-07-24T12:43:03Z</time></trkpt>
<trkpt lat="33.01478" lon="35.23293"><ele>398.0</ele><time>2013-07-24T12:43:05Z</time></trkpt>
<trkpt lat="33.01476" lon="35.23304"><ele>398.0</ele><time>2013-07-24T12:43:07Z</time></trkpt>
<trkpt lat="33.01475" lon="35.23315"><ele>398.0</ele><time>2013-07-24T12:43:09Z</time></trkpt>
<trkpt lat="33.01474" lon="35.23325"><ele>397.0</ele><time>2013-07-24T12:43:11Z</time></trkpt>
<trkpt lat="33.01473" lon="35.23336"><ele>397.0</ele><time>2013-07-24T12:43:13Z</time></trkpt>
<trkpt lat="33.01472" lon="35.23347"><ele>396.0</ele><time>2013-07-24T12:43:15Z</time></trkpt>
<trkpt lat="33.01471" lon="35.23357"><ele>396.0</ele><time>2013-07-24T12:43:17Z</time></trkpt>
<trkpt lat="33.0147" lon="35.23368"><ele>396.0</ele><time>2013-07-24T12:43:19Z</time></trkpt>
<trkpt lat="33.01469" lon="35.23378"><ele>396.0</ele><time>2013-07-24T12:43:21Z</time></trkpt>
<trkpt lat="33.01469" lon="35.23389"><ele>398.0</ele><time>2013-07-24T12:43:22Z</time></trkpt>
<trkpt lat="33.01469" lon="35.23401"><ele>400.0</ele><time>2013-07-24T12:43:24Z</time></trkpt>
<trkpt lat="33.01467" lon="35.23411"><ele>402.0</ele><time>2013-07-24T12:43:26Z</time></trkpt>
<trkpt lat="33.01466" lon="35.23421"><ele>403.0</ele><time>2013-07-24T12:43:28Z</time></trkpt>
<trkpt lat="33.01464" lon="35.23432"><ele>404.0</ele><time>2013-07-24T12:43:30Z</time></trkpt>
<trkpt lat="33.01463" lon="35.23442"><ele>406.0</ele><time>2013-07-24T12:43:32Z</time></trkpt>
<trkpt lat="33.01461" lon="35.23453"><ele>407.0</ele><time>2013-07-24T12:43:34Z</time></trkpt>
<trkpt lat="33.0146" lon="35.23463"><ele>409.0</ele><time>2013-07-24T12:43:36Z</time></trkpt>
<trkpt lat="33.01457" lon="35.23474"><ele>410.0</ele><time>2013-07-24T12:43:38Z</time></trkpt>
<trkpt lat="33.01455" lon="35.23484"><ele>412.0</ele><time>2013-07-24T12:43:40Z</time></trkpt>
<trkpt lat="33.01453" lon="35.23494"><ele>413.0</ele><time>2013-07-24T12:43:42Z</time></trkpt>
<trkpt lat="33.01452" lon="35.23504"><ele>412.0</ele><time>2013-07-24T12:43:44Z</time></trkpt>
<trkpt lat="33.01451" lon="35.23515"><ele>411.0</ele><time>2013-07-24T12:43:46Z</time></trkpt>
<trkpt lat="33.01447" lon="35.23524"><ele>410.0</ele><time>2013-07-24T12:43:48Z</time></trkpt>
<trkpt lat="33.01443" lon="35.23533"><ele>409.0</ele><time>2013-07-24T12:43:50Z</time></trkpt>
<trkpt lat="33.01439" lon="35.23542"><ele>408.0</ele><time>2013-07-24T12:43:52Z</time></trkpt>
<trkpt lat="33.01435" lon="35.23551"><ele>408.0</ele><time>2013-07-24T12:43:54Z</time></trkpt>
<trkpt lat="33.01431" lon="35.2356"><ele>407.0</ele><time>2013-07-24T12:43:56Z</time></trkpt>
<trkpt lat="33.01427" lon="35.23568"><ele>406.0</ele><time>2013-07-24T12:43:58Z</time></trkpt>
<trkpt lat="33.01424" lon="35.23577"><ele>406.0</ele><time>2013-07-24T12:44:01Z</time></trkpt>
<trkpt lat="33.01419" lon="35.2359"><ele>405.0</ele><time>2013-07-24T12:44:04Z</time></trkpt>
<trkpt lat="33.01413" lon="35.23603"><ele>404.0</ele><time>2013-07-24T12:44:07Z</time></trkpt>
<trkpt lat="33.01409" lon="35.23615"><ele>404.0</ele><time>2013-07-24T12:44:10Z</time></trkpt>
<trkpt lat="33.01404" lon="35.23627"><ele>404.0</ele><time>2013-07-24T12:44:13Z</time></trkpt>
<trkpt lat="33.014" lon="35.23639"><ele>404.0</ele><time>2013-07-24T12:44:16Z</time></trkpt>
<trkpt lat="33.01396" lon="35.23651"><ele>404.0</ele><time>2013-07-24T12:44:19Z</time></trkpt>
<trkpt lat="33.01394" lon="35.23662"><ele>404.0</ele><time>2013-07-24T12:44:21Z</time></trkpt>
<trkpt lat="33.01395" lon="35.23675"><ele>404.0</ele><time>2013-07-24T12:44:24Z</time></trkpt>
<trkpt lat="33.01398" lon="35.23686"><ele>404.0</ele><time>2013-07-24T12:44:27Z</time></trkpt>
<trkpt lat="33.01402" lon="35.23697"><ele>404.0</ele><time>2013-07-24T12:44:30Z</time></trkpt>
<trkpt lat="33.01407" lon="35.23709"><ele>404.0</ele><time>2013-07-24T12:44:33Z</time></trkpt>
<trkpt lat="33.01411" lon="35.2372"><ele>404.0</ele><time>2013-07-24T12:44:36Z</time></trkpt>
<trkpt lat="33.01414" lon="35.23731"><ele>404.0</ele><time>2013-07-24T12:44:39Z</time></trkpt>
<trkpt lat="33.01416" lon="35.23743"><ele>405.0</ele><time>2013-07-24T12:44:42Z</time></trkpt>
<trkpt lat="33.01416" lon="35.23756"><ele>405.0</ele><time>2013-07-24T12:44:45Z</time></trkpt>
<trkpt lat="33.01416" lon="35.23769"><ele>405.0</ele><time>2013-07-24T12:44:48Z</time></trkpt>
<trkpt lat="33.01416" lon="35.23782"><ele>405.0</ele><time>2013-07-24T12:44:51Z</time></trkpt>
<trkpt lat="33.01415" lon="35.23796"><ele>406.0</ele><time>2013-07-24T12:44:54Z</time></trkpt>
<trkpt lat="33.01412" lon="35.23809"><ele>406.0</ele><time>2013-07-24T12:44:57Z</time></trkpt>
<trkpt lat="33.01409" lon="35.23822"><ele>406.0</ele><time>2013-07-24T12:45:01Z</time></trkpt>
<trkpt lat="33.01405" lon="35.23835"><ele>406.0</ele><time>2013-07-24T12:45:04Z</time></trkpt>
<trkpt lat="33.01403" lon="35.23848"><ele>406.0</ele><time>2013-07-24T12:45:07Z</time></trkpt>
<trkpt lat="33.014" lon="35.2386"><ele>406.0</ele><time>2013-07-24T12:45:10Z</time></trkpt>
<trkpt lat="33.01397" lon="35.23873"><ele>406.0</ele><time>2013-07-24T12:45:13Z</time></trkpt>
<trkpt lat="33.01394" lon="35.23885"><ele>405.0</ele><time>2013-07-24T12:45:16Z</time></trkpt>
<trkpt lat="33.01391" lon="35.23898"><ele>407.0</ele><time>2013-07-24T12:45:19Z</time></trkpt>
<trkpt lat="33.01388" lon="35.23912"><ele>408.0</ele><time>2013-07-24T12:45:21Z</time></trkpt>
<trkpt lat="33.01384" lon="35.23925"><ele>409.0</ele><time>2013-07-24T12:45:24Z</time></trkpt>
<trkpt lat="33.01381" lon="35.23938"><ele>410.0</ele><time>2013-07-24T12:45:27Z</time></trkpt>
<trkpt lat="33.01378" lon="35.2395"><ele>412.0</ele><time>2013-07-24T12:45:30Z</time></trkpt>
<trkpt lat="33.01375" lon="35.23961"><ele>413.0</ele><time>2013-07-24T12:45:33Z</time></trkpt>
<trkpt lat="33.01373" lon="35.23973"><ele>413.0</ele><time>2013-07-24T12:45:36Z</time></trkpt>
<trkpt lat="33.01371" lon="35.23985"><ele>413.0</ele><time>2013-07-24T12:45:39Z</time></trkpt>
<trkpt lat="33.01369" lon="35.23996"><ele>412.0</ele><time>2013-07-24T12:45:42Z</time></trkpt>
<trkpt lat="33.01368" lon="35.24007"><ele>412.0</ele><time>2013-07-24T12:45:45Z</time></trkpt>
<trkpt lat="33.01368" lon="35.24016"><ele>413.0</ele><time>2013-07-24T12:45:48Z</time></trkpt>
<trkpt lat="33.01376" lon="35.24103"><ele>411.0</ele><time>2013-07-24T12:46:12Z</time></trkpt>
<trkpt lat="33.01381" lon="35.24121"><ele>410.0</ele><time>2013-07-24T12:46:16Z</time></trkpt>
<trkpt lat="33.01384" lon="35.24133"><ele>409.0</ele><time>2013-07-24T12:46:19Z</time></trkpt>
<trkpt lat="33.01387" lon="35.24145"><ele>407.0</ele><time>2013-07-24T12:46:21Z</time></trkpt>
<trkpt lat="33.0139" lon="35.24157"><ele>406.0</ele><time>2013-07-24T12:46:24Z</time></trkpt>
<trkpt lat="33.01393" lon="35.2417"><ele>406.0</ele><time>2013-07-24T12:46:27Z</time></trkpt>
<trkpt lat="33.01397" lon="35.24182"><ele>406.0</ele><time>2013-07-24T12:46:30Z</time></trkpt>
<trkpt lat="33.014" lon="35.24194"><ele>407.0</ele><time>2013-07-24T12:46:33Z</time></trkpt>
<trkpt lat="33.01402" lon="35.24206"><ele>408.0</ele><time>2013-07-24T12:46:36Z</time></trkpt>
<trkpt lat="33.01405" lon="35.24219"><ele>408.0</ele><time>2013-07-24T12:46:39Z</time></trkpt>
<trkpt lat="33.01408" lon="35.24232"><ele>409.0</ele><time>2013-07-24T12:46:42Z</time></trkpt>
<trkpt lat="33.01409" lon="35.24245"><ele>409.0</ele><time>2013-07-24T12:46:45Z</time></trkpt>
<trkpt lat="33.01409" lon="35.24258"><ele>409.0</ele><time>2013-07-24T12:46:48Z</time></trkpt>
<trkpt lat="33.01409" lon="35.24271"><ele>410.0</ele><time>2013-07-24T12:46:51Z</time></trkpt>
<trkpt lat="33.01408" lon="35.24284"><ele>410.0</ele><time>2013-07-24T12:46:54Z</time></trkpt>
<trkpt lat="33.01407" lon="35.24297"><ele>410.0</ele><time>2013-07-24T12:46:57Z</time></trkpt>
<trkpt lat="33.01406" lon="35.2431"><ele>409.0</ele><time>2013-07-24T12:47:01Z</time></trkpt>
<trkpt lat="33.01404" lon="35.24322"><ele>410.0</ele><time>2013-07-24T12:47:04Z</time></trkpt>
<trkpt lat="33.01402" lon="35.24335"><ele>410.0</ele><time>2013-07-24T12:47:07Z</time></trkpt>
<trkpt lat="33.01402" lon="35.24348"><ele>410.0</ele><time>2013-07-24T12:47:10Z</time></trkpt>
<trkpt lat="33.01401" lon="35.24361"><ele>410.0</ele><time>2013-07-24T12:47:13Z</time></trkpt>
<trkpt lat="33.014" lon="35.24373"><ele>410.0</ele><time>2013-07-24T12:47:16Z</time></trkpt>
<trkpt lat="33.01399" lon="35.24385"><ele>411.0</ele><time>2013-07-24T12:47:19Z</time></trkpt>
<trkpt lat="33.01398" lon="35.24397"><ele>411.0</ele><time>2013-07-24T12:47:21Z</time></trkpt>
<trkpt lat="33.01396" lon="35.24407"><ele>411.0</ele><time>2013-07-24T12:47:24Z</time></trkpt>
<trkpt lat="33.01399" lon="35.24419"><ele>412.0</ele><time>2013-07-24T12:47:27Z</time></trkpt>
<trkpt lat="33.01396" lon="35.2443"><ele>413.0</ele><time>2013-07-24T12:47:31Z</time></trkpt>
<trkpt lat="33.01393" lon="35.24441"><ele>415.0</ele><time>2013-07-24T12:47:35Z</time></trkpt>
<trkpt lat="33.01391" lon="35.2445"><ele>416.0</ele><time>2013-07-24T12:47:39Z</time></trkpt>
<trkpt lat="33.01388" lon="35.24461"><ele>417.0</ele><time>2013-07-24T12:47:44Z</time></trkpt>
<trkpt lat="33.01388" lon="35.24471"><ele>418.0</ele><time>2013-07-24T12:47:49Z</time></trkpt>
<trkpt lat="33.01384" lon="35.2448"><ele>420.0</ele><time>2013-07-24T12:47:54Z</time></trkpt>
<trkpt lat="33.01375" lon="35.24485"><ele>421.0</ele><time>2013-07-24T12:48:01Z</time></trkpt>
<trkpt lat="33.01369" lon="35.24491"><ele>422.0</ele><time>2013-07-24T12:48:06Z</time></trkpt>
<trkpt lat="33.01364" lon="35.24501"><ele>423.0</ele><time>2013-07-24T12:48:12Z</time></trkpt>
<trkpt lat="33.01361" lon="35.24511"><ele>425.0</ele><time>2013-07-24T12:48:18Z</time></trkpt>
<trkpt lat="33.01359" lon="35.24521"><ele>426.0</ele><time>2013-07-24T12:48:22Z</time></trkpt>
<trkpt lat="33.01356" lon="35.24531"><ele>427.0</ele><time>2013-07-24T12:48:27Z</time></trkpt>
<trkpt lat="33.0135" lon="35.24539"><ele>427.0</ele><time>2013-07-24T12:48:33Z</time></trkpt>
<trkpt lat="33.01347" lon="35.24548"><ele>427.0</ele><time>2013-07-24T12:48:39Z</time></trkpt>
<trkpt lat="33.01344" lon="35.24558"><ele>427.0</ele><time>2013-07-24T12:48:45Z</time></trkpt>
<trkpt lat="33.01341" lon="35.24567"><ele>428.0</ele><time>2013-07-24T12:48:51Z</time></trkpt>
<trkpt lat="33.01335" lon="35.24576"><ele>428.0</ele><time>2013-07-24T12:48:57Z</time></trkpt>
<trkpt lat="33.01336" lon="35.24587"><ele>428.0</ele><time>2013-07-24T12:49:06Z</time></trkpt>
<trkpt lat="33.01326" lon="35.24588"><ele>429.0</ele><time>2013-07-24T12:50:43Z</time></trkpt>
<trkpt lat="33.01321" lon="35.24596"><ele>429.0</ele><time>2013-07-24T12:50:49Z</time></trkpt>
<trkpt lat="33.01314" lon="35.24604"><ele>430.0</ele><time>2013-07-24T12:50:54Z</time></trkpt>
<trkpt lat="33.01306" lon="35.2461"><ele>430.0</ele><time>2013-07-24T12:51:01Z</time></trkpt>
<trkpt lat="33.013" lon="35.24618"><ele>431.0</ele><time>2013-07-24T12:51:07Z</time></trkpt>
<trkpt lat="33.01294" lon="35.24627"><ele>431.0</ele><time>2013-07-24T12:51:14Z</time></trkpt>
<trkpt lat="33.01287" lon="35.24633"><ele>432.0</ele><time>2013-07-24T12:51:20Z</time></trkpt>
<trkpt lat="33.01279" lon="35.24641"><ele>432.0</ele><time>2013-07-24T12:51:25Z</time></trkpt>
<trkpt lat="33.01274" lon="35.24649"><ele>433.0</ele><time>2013-07-24T12:51:31Z</time></trkpt>
<trkpt lat="33.01269" lon="35.24659"><ele>433.0</ele><time>2013-07-24T12:51:37Z</time></trkpt>
<trkpt lat="33.01264" lon="35.24667"><ele>434.0</ele><time>2013-07-24T12:51:42Z</time></trkpt>
<trkpt lat="33.01258" lon="35.24676"><ele>435.0</ele><time>2013-07-24T12:51:48Z</time></trkpt>
<trkpt lat="33.01253" lon="35.24685"><ele>435.0</ele><time>2013-07-24T12:51:53Z</time></trkpt>
<trkpt lat="33.01248" lon="35.24693"><ele>435.0</ele><time>2013-07-24T12:51:58Z</time></trkpt>
<trkpt lat="33.01243" lon="35.24701"><ele>436.0</ele><time>2013-07-24T12:52:04Z</time></trkpt>
<trkpt lat="33.01238" lon="35.2471"><ele>436.0</ele><time>2013-07-24T12:52:09Z</time></trkpt>
<trkpt lat="33.01233" lon="35.24718"><ele>437.0</ele><time>2013-07-24T12:52:14Z</time></trkpt>
<trkpt lat="33.01229" lon="35.24727"><ele>438.0</ele><time>2013-07-24T12:52:19Z</time></trkpt>
<trkpt lat="33.01225" lon="35.24737"><ele>440.0</ele><time>2013-07-24T12:52:24Z</time></trkpt>
<trkpt lat="33.01221" lon="35.24747"><ele>441.0</ele><time>2013-07-24T12:52:30Z</time></trkpt>
<trkpt lat="33.01216" lon="35.24756"><ele>442.0</ele><time>2013-07-24T12:52:36Z</time></trkpt>
<trkpt lat="33.0121" lon="35.24763"><ele>443.0</ele><time>2013-07-24T12:52:41Z</time></trkpt>
<trkpt lat="33.01204" lon="35.2477"><ele>444.0</ele><time>2013-07-24T12:52:46Z</time></trkpt>
<trkpt lat="33.01198" lon="35.24778"><ele>446.0</ele><time>2013-07-24T12:52:52Z</time></trkpt>
<trkpt lat="33.01165" lon="35.24811"><ele>447.0</ele><time>2013-07-24T12:53:23Z</time></trkpt>
<trkpt lat="33.01158" lon="35.24818"><ele>448.0</ele><time>2013-07-24T12:53:29Z</time></trkpt>
<trkpt lat="33.01153" lon="35.24824"><ele>449.0</ele><time>2013-07-24T12:53:34Z</time></trkpt>
<trkpt lat="33.01146" lon="35.24832"><ele>450.0</ele><time>2013-07-24T12:53:40Z</time></trkpt>
<trkpt lat="33.01118" lon="35.24868"><ele>450.0</ele><time>2013-07-24T12:54:37Z</time></trkpt>
<trkpt lat="33.01108" lon="35.24884"><ele>450.0</ele><time>2013-07-24T12:57:31Z</time></trkpt>
<trkpt lat="33.01097" lon="35.24903"><ele>451.0</ele><time>2013-07-24T12:58:01Z</time></trkpt>
<trkpt lat="33.01093" lon="35.24912"><ele>451.0</ele><time>2013-07-24T12:58:07Z</time></trkpt>
<trkpt lat="33.01088" lon="35.24921"><ele>452.0</ele><time>2013-07-24T12:58:14Z</time></trkpt>
<trkpt lat="33.01085" lon="35.2493"><ele>452.0</ele><time>2013-07-24T12:58:20Z</time></trkpt>
<trkpt lat="33.01081" lon="35.24938"><ele>452.0</ele><time>2013-07-24T12:58:25Z</time></trkpt>
<trkpt lat="33.01082" lon="35.24948"><ele>453.0</ele><time>2013-07-24T12:58:31Z</time></trkpt>
<trkpt lat="33.01085" lon="35.24958"><ele>453.0</ele><time>2013-07-24T12:58:37Z</time></trkpt>
<trkpt lat="33.01089" lon="35.24968"><ele>454.0</ele><time>2013-07-24T12:58:43Z</time></trkpt>
<trkpt lat="33.01092" lon="35.24977"><ele>457.0</ele><time>2013-07-24T12:58:49Z</time></trkpt>
<trkpt lat="33.01095" lon="35.24986"><ele>459.0</ele><time>2013-07-24T12:58:55Z</time></trkpt>
<trkpt lat="33.01099" lon="35.25002"><ele>461.0</ele><time>2013-07-24T12:59:10Z</time></trkpt>
<trkpt lat="33.0109" lon="35.25049"><ele>464.0</ele><time>2013-07-24T13:00:13Z</time></trkpt>
<trkpt lat="33.01076" lon="35.25095"><ele>467.0</ele><time>2013-07-24T13:01:11Z</time></trkpt>
<trkpt lat="33.01078" lon="35.25137"><ele>470.0</ele><time>2013-07-24T13:01:42Z</time></trkpt>
<trkpt lat="33.01077" lon="35.25149"><ele>471.0</ele><time>2013-07-24T13:01:52Z</time></trkpt>
<trkpt lat="33.01078" lon="35.25168"><ele>472.0</ele><time>2013-07-24T13:02:11Z</time></trkpt>
<trkpt lat="33.0107" lon="35.25214"><ele>474.0</ele><time>2013-07-24T13:03:02Z</time></trkpt>
<trkpt lat="33.01065" lon="35.2526"><ele>475.0</ele><time>2013-07-24T13:03:43Z</time></trkpt>
<trkpt lat="33.01049" lon="35.25271"><ele>476.0</ele><time>2013-07-24T13:05:27Z</time></trkpt>
<trkpt lat="33.01042" lon="35.25277"><ele>475.0</ele><time>2013-07-24T13:05:31Z</time></trkpt>
<trkpt lat="33.01034" lon="35.25282"><ele>475.0</ele><time>2013-07-24T13:05:35Z</time></trkpt>
<trkpt lat="33.01025" lon="35.25286"><ele>474.0</ele><time>2013-07-24T13:05:39Z</time></trkpt>
<trkpt lat="33.01011" lon="35.25296"><ele>474.0</ele><time>2013-07-24T13:05:51Z</time></trkpt>
<trkpt lat="33.01002" lon="35.25292"><ele>473.0</ele><time>2013-07-24T13:05:56Z</time></trkpt>
<trkpt lat="33.00994" lon="35.25289"><ele>472.0</ele><time>2013-07-24T13:06:01Z</time></trkpt>
<trkpt lat="33.00986" lon="35.25285"><ele>473.0</ele><time>2013-07-24T13:06:06Z</time></trkpt>
<trkpt lat="33.00979" lon="35.25282"><ele>473.0</ele><time>2013-07-24T13:06:09Z</time></trkpt>
<trkpt lat="33.00969" lon="35.25279"><ele>473.0</ele><time>2013-07-24T13:06:12Z</time></trkpt>
<trkpt lat="33.0096" lon="35.25275"><ele>474.0</ele><time>2013-07-24T13:06:15Z</time></trkpt>
<trkpt lat="33.0095" lon="35.25272"><ele>474.0</ele><time>2013-07-24T13:06:18Z</time></trkpt>
<trkpt lat="33.00941" lon="35.25268"><ele>475.0</ele><time>2013-07-24T13:06:21Z</time></trkpt>
<trkpt lat="33.00941" lon="35.25258"><ele>475.0</ele><time>2013-07-24T13:06:26Z</time></trkpt>
<trkpt lat="33.00941" lon="35.25246"><ele>476.0</ele><time>2013-07-24T13:06:30Z</time></trkpt>
<trkpt lat="33.00943" lon="35.25236"><ele>479.0</ele><time>2013-07-24T13:06:33Z</time></trkpt>
<trkpt lat="33.00949" lon="35.25226"><ele>481.0</ele><time>2013-07-24T13:06:36Z</time></trkpt>
<trkpt lat="33.00951" lon="35.25215"><ele>483.0</ele><time>2013-07-24T13:06:40Z</time></trkpt>
<trkpt lat="33.00933" lon="35.25178"><ele>486.0</ele><time>2013-07-24T13:08:47Z</time></trkpt>
<trkpt lat="33.00902" lon="35.25157"><ele>488.0</ele><time>2013-07-24T13:12:27Z</time></trkpt>
<trkpt lat="33.00867" lon="35.25158"><ele>491.0</ele><time>2013-07-24T13:16:23Z</time></trkpt>
<trkpt lat="33.00829" lon="35.25147"><ele>493.0</ele><time>2013-07-24T13:17:13Z</time></trkpt>
<trkpt lat="33.00801" lon="35.25148"><ele>496.0</ele><time>2013-07-24T13:21:55Z</time></trkpt>
<trkpt lat="33.00802" lon="35.25137"><ele>498.0</ele><time>2013-07-24T13:22:00Z</time></trkpt>
<trkpt lat="33.00803" lon="35.25126"><ele>501.0</ele><time>2013-07-24T13:22:04Z</time></trkpt>
<trkpt lat="33.00804" lon="35.25116"><ele>503.0</ele><time>2013-07-24T13:22:08Z</time></trkpt>
<trkpt lat="33.00805" lon="35.25104"><ele>503.0</ele><time>2013-07-24T13:22:12Z</time></trkpt>
<trkpt lat="33.00807" lon="35.25094"><ele>503.0</ele><time>2013-07-24T13:22:15Z</time></trkpt>
<trkpt lat="33.00807" lon="35.25084"><ele>504.0</ele><time>2013-07-24T13:22:18Z</time></trkpt>
<trkpt lat="33.00809" lon="35.25074"><ele>504.0</ele><time>2013-07-24T13:22:21Z</time></trkpt>
<trkpt lat="33.0081" lon="35.25064"><ele>505.0</ele><time>2013-07-24T13:22:23Z</time></trkpt>
<trkpt lat="33.00811" lon="35.25055"><ele>505.0</ele><time>2013-07-24T13:22:26Z</time></trkpt>
<trkpt lat="33.00812" lon="35.25045"><ele>505.0</ele><time>2013-07-24T13:22:29Z</time></trkpt>
<trkpt lat="33.00813" lon="35.25035"><ele>505.0</ele><time>2013-07-24T13:22:32Z</time></trkpt>
<trkpt lat="33.00814" lon="35.25023"><ele>506.0</ele><time>2013-07-24T13:22:36Z</time></trkpt>
<trkpt lat="33.00815" lon="35.2501"><ele>506.0</ele><time>2013-07-24T13:22:40Z</time></trkpt>
<trkpt lat="33.00817" lon="35.24998"><ele>507.0</ele><time>2013-07-24T13:22:44Z</time></trkpt>
<trkpt lat="33.00818" lon="35.24986"><ele>507.0</ele><time>2013-07-24T13:22:48Z</time></trkpt>
<trkpt lat="33.00819" lon="35.24974"><ele>507.0</ele><time>2013-07-24T13:22:52Z</time></trkpt>
<trkpt lat="33.0082" lon="35.24964"><ele>507.0</ele><time>2013-07-24T13:22:56Z</time></trkpt>
<trkpt lat="33.00821" lon="35.24953"><ele>507.0</ele><time>2013-07-24T13:23:01Z</time></trkpt>
<trkpt lat="33.00823" lon="35.24943"><ele>507.0</ele><time>2013-07-24T13:23:05Z</time></trkpt>
<trkpt lat="33.00824" lon="35.24933"><ele>507.0</ele><time>2013-07-24T13:23:09Z</time></trkpt>
<trkpt lat="33.00825" lon="35.24923"><ele>508.0</ele><time>2013-07-24T13:23:13Z</time></trkpt>
<trkpt lat="33.00826" lon="35.24913"><ele>508.0</ele><time>2013-07-24T13:23:17Z</time></trkpt>
<trkpt lat="33.00827" lon="35.24902"><ele>509.0</ele><time>2013-07-24T13:23:21Z</time></trkpt>
<trkpt lat="33.00828" lon="35.24891"><ele>509.0</ele><time>2013-07-24T13:23:24Z</time></trkpt>
<trkpt lat="33.0083" lon="35.24881"><ele>509.0</ele><time>2013-07-24T13:23:28Z</time></trkpt>
<trkpt lat="33.00831" lon="35.2487"><ele>510.0</ele><time>2013-07-24T13:23:32Z</time></trkpt>
<trkpt lat="33.00832" lon="35.24859"><ele>510.0</ele><time>2013-07-24T13:23:36Z</time></trkpt>
<trkpt lat="33.00833" lon="35.24848"><ele>511.0</ele><time>2013-07-24T13:23:40Z</time></trkpt>
<trkpt lat="33.00834" lon="35.24838"><ele>511.0</ele><time>2013-07-24T13:23:44Z</time></trkpt>
<trkpt lat="33.00835" lon="35.24827"><ele>511.0</ele><time>2013-07-24T13:23:48Z</time></trkpt>
<trkpt lat="33.00837" lon="35.24815"><ele>512.0</ele><time>2013-07-24T13:23:52Z</time></trkpt>
<trkpt lat="33.00838" lon="35.24804"><ele>512.0</ele><time>2013-07-24T13:23:56Z</time></trkpt>
<trkpt lat="33.00839" lon="35.24793"><ele>512.0</ele><time>2013-07-24T13:24:01Z</time></trkpt>
<trkpt lat="33.0084" lon="35.24781"><ele>512.0</ele><time>2013-07-24T13:24:05Z</time></trkpt>
<trkpt lat="33.00842" lon="35.2477"><ele>512.0</ele><time>2013-07-24T13:24:09Z</time></trkpt>
<trkpt lat="33.00843" lon="35.24758"><ele>512.0</ele><time>2013-07-24T13:24:13Z</time></trkpt>
<trkpt lat="33.00844" lon="35.24746"><ele>513.0</ele><time>2013-07-24T13:24:17Z</time></trkpt>
<trkpt lat="33.00846" lon="35.24734"><ele>513.0</ele><time>2013-07-24T13:24:21Z</time></trkpt>
<trkpt lat="33.00847" lon="35.24722"><ele>513.0</ele><time>2013-07-24T13:24:24Z</time></trkpt>
<trkpt lat="33.00849" lon="35.24712"><ele>513.0</ele><time>2013-07-24T13:24:27Z</time></trkpt>
<trkpt lat="33.0085" lon="35.24702"><ele>513.0</ele><time>2013-07-24T13:24:30Z</time></trkpt>
<trkpt lat="33.00851" lon="35.24692"><ele>513.0</ele><time>2013-07-24T13:24:33Z</time></trkpt>
<trkpt lat="33.00852" lon="35.24681"><ele>513.0</ele><time>2013-07-24T13:24:36Z</time></trkpt>
<trkpt lat="33.00854" lon="35.2467"><ele>513.0</ele><time>2013-07-24T13:24:39Z</time></trkpt>
<trkpt lat="33.00855" lon="35.24658"><ele>513.0</ele><time>2013-07-24T13:24:42Z</time></trkpt>
<trkpt lat="33.00856" lon="35.24646"><ele>513.0</ele><time>2013-07-24T13:24:45Z</time></trkpt>
<trkpt lat="33.00858" lon="35.24634"><ele>513.0</ele><time>2013-07-24T13:24:48Z</time></trkpt>
<trkpt lat="33.0086" lon="35.24622"><ele>512.0</ele><time>2013-07-24T13:24:51Z</time></trkpt>
<trkpt lat="33.00861" lon="35.24609"><ele>512.0</ele><time>2013-07-24T13:24:54Z</time></trkpt>
<trkpt lat="33.00863" lon="35.24597"><ele>512.0</ele><time>2013-07-24T13:24:57Z</time></trkpt>
<trkpt lat="33.00864" lon="35.24584"><ele>511.0</ele><time>2013-07-24T13:25:01Z</time></trkpt>
<trkpt lat="33.00865" lon="35.24571"><ele>511.0</ele><time>2013-07-24T13:25:04Z</time></trkpt>
<trkpt lat="33.00865" lon="35.24558"><ele>510.0</ele><time>2013-07-24T13:25:07Z</time></trkpt>
<trkpt lat="33.00864" lon="35.24544"><ele>510.0</ele><time>2013-07-24T13:25:10Z</time></trkpt>
<trkpt lat="33.00863" lon="35.2453"><ele>510.0</ele><time>2013-07-24T13:25:13Z</time></trkpt>
<trkpt lat="33.00862" lon="35.2452"><ele>509.0</ele><time>2013-07-24T13:25:15Z</time></trkpt>
<trkpt lat="33.00861" lon="35.2451"><ele>509.0</ele><time>2013-07-24T13:25:17Z</time></trkpt>
<trkpt lat="33.00859" lon="35.245"><ele>509.0</ele><time>2013-07-24T13:25:19Z</time></trkpt>
<trkpt lat="33.00858" lon="35.24489"><ele>508.0</ele><time>2013-07-24T13:25:21Z</time></trkpt>
<trkpt lat="33.00857" lon="35.24479"><ele>508.0</ele><time>2013-07-24T13:25:22Z</time></trkpt>
<trkpt lat="33.00856" lon="35.24468"><ele>508.0</ele><time>2013-07-24T13:25:24Z</time></trkpt>
<trkpt lat="33.00856" lon="35.24456"><ele>508.0</ele><time>2013-07-24T13:25:26Z</time></trkpt>
<trkpt lat="33.00856" lon="35.24444"><ele>508.0</ele><time>2013-07-24T13:25:28Z</time></trkpt>
<trkpt lat="33.00856" lon="35.24431"><ele>507.0</ele><time>2013-07-24T13:25:30Z</time></trkpt>
<trkpt lat="33.00857" lon="35.24418"><ele>507.0</ele><time>2013-07-24T13:25:32Z</time></trkpt>
<trkpt lat="33.00858" lon="35.24405"><ele>507.0</ele><time>2013-07-24T13:25:34Z</time></trkpt>
<trkpt lat="33.00858" lon="35.24391"><ele>506.0</ele><time>2013-07-24T13:25:36Z</time></trkpt>
<trkpt lat="33.00859" lon="35.24376"><ele>506.0</ele><time>2013-07-24T13:25:38Z</time></trkpt>
<trkpt lat="33.00859" lon="35.24362"><ele>505.0</ele><time>2013-07-24T13:25:40Z</time></trkpt>
<trkpt lat="33.0086" lon="35.24347"><ele>504.0</ele><time>2013-07-24T13:25:42Z</time></trkpt>
<trkpt lat="33.00861" lon="35.24331"><ele>504.0</ele><time>2013-07-24T13:25:44Z</time></trkpt>
<trkpt lat="33.00862" lon="35.24315"><ele>503.0</ele><time>2013-07-24T13:25:46Z</time></trkpt>
<trkpt lat="33.00862" lon="35.24299"><ele>502.0</ele><time>2013-07-24T13:25:48Z</time></trkpt>
<trkpt lat="33.00862" lon="35.24283"><ele>502.0</ele><time>2013-07-24T13:25:50Z</time></trkpt>
<trkpt lat="33.00863" lon="35.24267"><ele>501.0</ele><time>2013-07-24T13:25:52Z</time></trkpt>
<trkpt lat="33.00864" lon="35.24251"><ele>500.0</ele><time>2013-07-24T13:25:54Z</time></trkpt>
<trkpt lat="33.00864" lon="35.24236"><ele>500.0</ele><time>2013-07-24T13:25:56Z</time></trkpt>
<trkpt lat="33.00864" lon="35.24221"><ele>499.0</ele><time>2013-07-24T13:25:58Z</time></trkpt>
<trkpt lat="33.00864" lon="35.24206"><ele>499.0</ele><time>2013-07-24T13:26:01Z</time></trkpt>
<trkpt lat="33.00865" lon="35.24193"><ele>499.0</ele><time>2013-07-24T13:26:03Z</time></trkpt>
<trkpt lat="33.00865" lon="35.2418"><ele>498.0</ele><time>2013-07-24T13:26:05Z</time></trkpt>
<trkpt lat="33.00866" lon="35.24167"><ele>498.0</ele><time>2013-07-24T13:26:07Z</time></trkpt>
<trkpt lat="33.00866" lon="35.24155"><ele>497.0</ele><time>2013-07-24T13:26:09Z</time></trkpt>
<trkpt lat="33.00867" lon="35.24142"><ele>497.0</ele><time>2013-07-24T13:26:11Z</time></trkpt>
<trkpt lat="33.00868" lon="35.24129"><ele>497.0</ele><time>2013-07-24T13:26:13Z</time></trkpt>
<trkpt lat="33.00868" lon="35.24117"><ele>497.0</ele><time>2013-07-24T13:26:15Z</time></trkpt>
<trkpt lat="33.00869" lon="35.24105"><ele>497.0</ele><time>2013-07-24T13:26:17Z</time></trkpt>
<trkpt lat="33.00869" lon="35.24093"><ele>496.0</ele><time>2013-07-24T13:26:19Z</time></trkpt>
<trkpt lat="33.00868" lon="35.24082"><ele>496.0</ele><time>2013-07-24T13:26:21Z</time></trkpt>
<trkpt lat="33.00867" lon="35.24071"><ele>496.0</ele><time>2013-07-24T13:26:22Z</time></trkpt>
<trkpt lat="33.00865" lon="35.24059"><ele>496.0</ele><time>2013-07-24T13:26:24Z</time></trkpt>
<trkpt lat="33.00864" lon="35.24047"><ele>495.0</ele><time>2013-07-24T13:26:26Z</time></trkpt>
<trkpt lat="33.00862" lon="35.24034"><ele>495.0</ele><time>2013-07-24T13:26:28Z</time></trkpt>
<trkpt lat="33.0086" lon="35.24021"><ele>495.0</ele><time>2013-07-24T13:26:30Z</time></trkpt>
<trkpt lat="33.00858" lon="35.24008"><ele>495.0</ele><time>2013-07-24T13:26:32Z</time></trkpt>
<trkpt lat="33.00856" lon="35.23996"><ele>495.0</ele><time>2013-07-24T13:26:34Z</time></trkpt>
<trkpt lat="33.00853" lon="35.23983"><ele>495.0</ele><time>2013-07-24T13:26:36Z</time></trkpt>
<trkpt lat="33.00851" lon="35.2397"><ele>495.0</ele><time>2013-07-24T13:26:38Z</time></trkpt>
<trkpt lat="33.00849" lon="35.23957"><ele>495.0</ele><time>2013-07-24T13:26:40Z</time></trkpt>
<trkpt lat="33.00847" lon="35.23944"><ele>495.0</ele><time>2013-07-24T13:26:42Z</time></trkpt>
<trkpt lat="33.00844" lon="35.2393"><ele>495.0</ele><time>2013-07-24T13:26:44Z</time></trkpt>
<trkpt lat="33.00842" lon="35.23915"><ele>495.0</ele><time>2013-07-24T13:26:46Z</time></trkpt>
<trkpt lat="33.00839" lon="35.23902"><ele>495.0</ele><time>2013-07-24T13:26:48Z</time></trkpt>
<trkpt lat="33.00836" lon="35.23889"><ele>495.0</ele><time>2013-07-24T13:26:50Z</time></trkpt>
<trkpt lat="33.00833" lon="35.23876"><ele>495.0</ele><time>2013-07-24T13:26:52Z</time></trkpt>
<trkpt lat="33.00828" lon="35.23864"><ele>494.0</ele><time>2013-07-24T13:26:54Z</time></trkpt>
<trkpt lat="33.00823" lon="35.23851"><ele>494.0</ele><time>2013-07-24T13:26:56Z</time></trkpt>
<trkpt lat="33.00817" lon="35.23837"><ele>494.0</ele><time>2013-07-24T13:26:58Z</time></trkpt>
<trkpt lat="33.00811" lon="35.23823"><ele>494.0</ele><time>2013-07-24T13:27:01Z</time></trkpt>
<trkpt lat="33.00805" lon="35.23807"><ele>494.0</ele><time>2013-07-24T13:27:03Z</time></trkpt>
<trkpt lat="33.008" lon="35.23791"><ele>493.0</ele><time>2013-07-24T13:27:05Z</time></trkpt>
<trkpt lat="33.00797" lon="35.23774"><ele>491.0</ele><time>2013-07-24T13:27:07Z</time></trkpt>
<trkpt lat="33.00796" lon="35.23756"><ele>490.0</ele><time>2013-07-24T13:27:09Z</time></trkpt>
<trkpt lat="33.00795" lon="35.23739"><ele>489.0</ele><time>2013-07-24T13:27:11Z</time></trkpt>
<trkpt lat="33.00794" lon="35.23723"><ele>487.0</ele><time>2013-07-24T13:27:13Z</time></trkpt>
<trkpt lat="33.00793" lon="35.23707"><ele>486.0</ele><time>2013-07-24T13:27:15Z</time></trkpt>
<trkpt lat="33.00792" lon="35.23692"><ele>486.0</ele><time>2013-07-24T13:27:17Z</time></trkpt>
<trkpt lat="33.00792" lon="35.23677"><ele>486.0</ele><time>2013-07-24T13:27:19Z</time></trkpt>
<trkpt lat="33.00791" lon="35.23663"><ele>485.0</ele><time>2013-07-24T13:27:21Z</time></trkpt>
<trkpt lat="33.0079" lon="35.2365"><ele>485.0</ele><time>2013-07-24T13:27:22Z</time></trkpt>
<trkpt lat="33.00792" lon="35.23641"><ele>485.0</ele><time>2013-07-24T13:27:24Z</time></trkpt>
<trkpt lat="33.00798" lon="35.23634"><ele>486.0</ele><time>2013-07-24T13:27:26Z</time></trkpt>
<trkpt lat="33.00807" lon="35.2363"><ele>486.0</ele><time>2013-07-24T13:27:29Z</time></trkpt>
<trkpt lat="33.00835" lon="35.23612"><ele>487.0</ele><time>2013-07-24T13:30:46Z</time></trkpt>
<trkpt lat="33.00843" lon="35.23607"><ele>489.0</ele><time>2013-07-24T13:30:51Z</time></trkpt>
<trkpt lat="33.00851" lon="35.23603"><ele>490.0</ele><time>2013-07-24T13:30:56Z</time></trkpt>
<trkpt lat="33.0086" lon="35.23599"><ele>492.0</ele><time>2013-07-24T13:31:02Z</time></trkpt>
<trkpt lat="33.00866" lon="35.23591"><ele>492.0</ele><time>2013-07-24T13:31:07Z</time></trkpt>
<trkpt lat="33.00873" lon="35.23584"><ele>492.0</ele><time>2013-07-24T13:31:12Z</time></trkpt>
<trkpt lat="33.00881" lon="35.2358"><ele>492.0</ele><time>2013-07-24T13:31:17Z</time></trkpt>
<trkpt lat="33.00888" lon="35.23574"><ele>492.0</ele><time>2013-07-24T13:31:21Z</time></trkpt>
<trkpt lat="33.00893" lon="35.23564"><ele>493.0</ele><time>2013-07-24T13:31:26Z</time></trkpt>
<trkpt lat="33.009" lon="35.23557"><ele>493.0</ele><time>2013-07-24T13:31:30Z</time></trkpt>
<trkpt lat="33.00907" lon="35.2355"><ele>493.0</ele><time>2013-07-24T13:31:34Z</time></trkpt>
<trkpt lat="33.00914" lon="35.23541"><ele>493.0</ele><time>2013-07-24T13:31:38Z</time></trkpt>
<trkpt lat="33.00919" lon="35.23532"><ele>492.0</ele><time>2013-07-24T13:31:41Z</time></trkpt>
<trkpt lat="33.00925" lon="35.23524"><ele>492.0</ele><time>2013-07-24T13:31:44Z</time></trkpt>
<trkpt lat="33.0093" lon="35.23513"><ele>491.0</ele><time>2013-07-24T13:31:47Z</time></trkpt>
<trkpt lat="33.00935" lon="35.23502"><ele>490.0</ele><time>2013-07-24T13:31:50Z</time></trkpt>
<trkpt lat="33.00942" lon="35.2349"><ele>489.0</ele><time>2013-07-24T13:31:53Z</time></trkpt>
<trkpt lat="33.00947" lon="35.23481"><ele>489.0</ele><time>2013-07-24T13:31:55Z</time></trkpt>
<trkpt lat="33.00952" lon="35.23469"><ele>489.0</ele><time>2013-07-24T13:31:57Z</time></trkpt>
<trkpt lat="33.00956" lon="35.23457"><ele>488.0</ele><time>2013-07-24T13:32:00Z</time></trkpt>
<trkpt lat="33.0096" lon="35.23443"><ele>488.0</ele><time>2013-07-24T13:32:02Z</time></trkpt>
<trkpt lat="33.00964" lon="35.23428"><ele>487.0</ele><time>2013-07-24T13:32:04Z</time></trkpt>
<trkpt lat="33.00967" lon="35.23412"><ele>486.0</ele><time>2013-07-24T13:32:06Z</time></trkpt>
<trkpt lat="33.00969" lon="35.23395"><ele>486.0</ele><time>2013-07-24T13:32:08Z</time></trkpt>
<trkpt lat="33.00971" lon="35.23378"><ele>484.0</ele><time>2013-07-24T13:32:10Z</time></trkpt>
<trkpt lat="33.00973" lon="35.2336"><ele>483.0</ele><time>2013-07-24T13:32:12Z</time></trkpt>
<trkpt lat="33.00976" lon="35.23342"><ele>482.0</ele><time>2013-07-24T13:32:14Z</time></trkpt>
<trkpt lat="33.00977" lon="35.23323"><ele>482.0</ele><time>2013-07-24T13:32:16Z</time></trkpt>
<trkpt lat="33.0098" lon="35.23304"><ele>480.0</ele><time>2013-07-24T13:32:18Z</time></trkpt>
<trkpt lat="33.00982" lon="35.23286"><ele>478.0</ele><time>2013-07-24T13:32:20Z</time></trkpt>
<trkpt lat="33.00985" lon="35.23268"><ele>476.0</ele><time>2013-07-24T13:32:21Z</time></trkpt>
<trkpt lat="33.00987" lon="35.2325"><ele>474.0</ele><time>2013-07-24T13:32:23Z</time></trkpt>
<trkpt lat="33.00988" lon="35.2323"><ele>473.0</ele><time>2013-07-24T13:32:25Z</time></trkpt>
<trkpt lat="33.0099" lon="35.23212"><ele>470.0</ele><time>2013-07-24T13:32:27Z</time></trkpt>
<trkpt lat="33.00991" lon="35.23193"><ele>468.0</ele><time>2013-07-24T13:32:29Z</time></trkpt>
<trkpt lat="33.00991" lon="35.23176"><ele>466.0</ele><time>2013-07-24T13:32:31Z</time></trkpt>
<trkpt lat="33.00992" lon="35.2316"><ele>464.0</ele><time>2013-07-24T13:32:33Z</time></trkpt>
<trkpt lat="33.00992" lon="35.23144"><ele>462.0</ele><time>2013-07-24T13:32:35Z</time></trkpt>
<trkpt lat="33.0099" lon="35.23128"><ele>460.0</ele><time>2013-07-24T13:32:37Z</time></trkpt>
<trkpt lat="33.0099" lon="35.23113"><ele>459.0</ele><time>2013-07-24T13:32:39Z</time></trkpt>
<trkpt lat="33.00991" lon="35.231"><ele>458.0</ele><time>2013-07-24T13:32:41Z</time></trkpt>
<trkpt lat="33.00991" lon="35.23089"><ele>457.0</ele><time>2013-07-24T13:32:43Z</time></trkpt>
<trkpt lat="33.00987" lon="35.2308"><ele>455.0</ele><time>2013-07-24T13:32:46Z</time></trkpt>
<trkpt lat="33.00977" lon="35.23077"><ele>454.0</ele><time>2013-07-24T13:32:49Z</time></trkpt>
<trkpt lat="33.00968" lon="35.23075"><ele>454.0</ele><time>2013-07-24T13:32:51Z</time></trkpt>
<trkpt lat="33.00957" lon="35.23075"><ele>454.0</ele><time>2013-07-24T13:32:53Z</time></trkpt>
<trkpt lat="33.00946" lon="35.23077"><ele>453.0</ele><time>2013-07-24T13:32:55Z</time></trkpt>
<trkpt lat="33.00934" lon="35.23078"><ele>452.0</ele><time>2013-07-24T13:32:57Z</time></trkpt>
<trkpt lat="33.00925" lon="35.23078"><ele>451.0</ele><time>2013-07-24T13:33:00Z</time></trkpt>
<trkpt lat="33.00916" lon="35.2307"><ele>450.0</ele><time>2013-07-24T13:33:03Z</time></trkpt>
<trkpt lat="33.00912" lon="35.23059"><ele>449.0</ele><time>2013-07-24T13:33:05Z</time></trkpt>
<trkpt lat="33.00909" lon="35.23046"><ele>448.0</ele><time>2013-07-24T13:33:07Z</time></trkpt>
<trkpt lat="33.00905" lon="35.23035"><ele>447.0</ele><time>2013-07-24T13:33:09Z</time></trkpt>
<trkpt lat="33.009" lon="35.23027"><ele>446.0</ele><time>2013-07-24T13:33:11Z</time></trkpt>
<trkpt lat="33.00891" lon="35.2302"><ele>446.0</ele><time>2013-07-24T13:33:13Z</time></trkpt>
<trkpt lat="33.00881" lon="35.23016"><ele>445.0</ele><time>2013-07-24T13:33:15Z</time></trkpt>
<trkpt lat="33.00873" lon="35.23011"><ele>444.0</ele><time>2013-07-24T13:33:17Z</time></trkpt>
<trkpt lat="33.00866" lon="35.23005"><ele>444.0</ele><time>2013-07-24T13:33:19Z</time></trkpt>
<trkpt lat="33.00857" lon="35.22999"><ele>444.0</ele><time>2013-07-24T13:33:21Z</time></trkpt>
<trkpt lat="33.0085" lon="35.22992"><ele>444.0</ele><time>2013-07-24T13:33:24Z</time></trkpt>
<trkpt lat="33.00843" lon="35.22987"><ele>443.0</ele><time>2013-07-24T13:33:27Z</time></trkpt>
<trkpt lat="33.00834" lon="35.22981"><ele>443.0</ele><time>2013-07-24T13:33:31Z</time></trkpt>
<trkpt lat="33.00828" lon="35.22973"><ele>442.0</ele><time>2013-07-24T13:33:34Z</time></trkpt>
<trkpt lat="33.00821" lon="35.22964"><ele>441.0</ele><time>2013-07-24T13:33:37Z</time></trkpt>
<trkpt lat="33.00821" lon="35.22954"><ele>440.0</ele><time>2013-07-24T13:33:39Z</time></trkpt>
<trkpt lat="33.00823" lon="35.22942"><ele>439.0</ele><time>2013-07-24T13:33:41Z</time></trkpt>
<trkpt lat="33.00826" lon="35.22928"><ele>437.0</ele><time>2013-07-24T13:33:43Z</time></trkpt>
<trkpt lat="33.00824" lon="35.22914"><ele>436.0</ele><time>2013-07-24T13:33:45Z</time></trkpt>
<trkpt lat="33.00818" lon="35.22899"><ele>435.0</ele><time>2013-07-24T13:33:47Z</time></trkpt>
<trkpt lat="33.00811" lon="35.22886"><ele>434.0</ele><time>2013-07-24T13:33:49Z</time></trkpt>
<trkpt lat="33.00803" lon="35.22873"><ele>434.0</ele><time>2013-07-24T13:33:51Z</time></trkpt>
<trkpt lat="33.00794" lon="35.22862"><ele>433.0</ele><time>2013-07-24T13:33:53Z</time></trkpt>
<trkpt lat="33.00786" lon="35.22852"><ele>433.0</ele><time>2013-07-24T13:33:55Z</time></trkpt>
<trkpt lat="33.00778" lon="35.22841"><ele>433.0</ele><time>2013-07-24T13:33:57Z</time></trkpt>
<trkpt lat="33.0077" lon="35.22831"><ele>431.0</ele><time>2013-07-24T13:34:00Z</time></trkpt>
<trkpt lat="33.00762" lon="35.22822"><ele>430.0</ele><time>2013-07-24T13:34:02Z</time></trkpt>
<trkpt lat="33.00754" lon="35.22814"><ele>429.0</ele><time>2013-07-24T13:34:04Z</time></trkpt>
<trkpt lat="33.00746" lon="35.22804"><ele>429.0</ele><time>2013-07-24T13:34:06Z</time></trkpt>
<trkpt lat="33.00738" lon="35.22794"><ele>428.0</ele><time>2013-07-24T13:34:08Z</time></trkpt>
<trkpt lat="33.00729" lon="35.22786"><ele>428.0</ele><time>2013-07-24T13:34:10Z</time></trkpt>
<trkpt lat="33.00722" lon="35.22778"><ele>427.0</ele><time>2013-07-24T13:34:12Z</time></trkpt>
<trkpt lat="33.00713" lon="35.22769"><ele>426.0</ele><time>2013-07-24T13:34:14Z</time></trkpt>
<trkpt lat="33.00704" lon="35.22759"><ele>425.0</ele><time>2013-07-24T13:34:16Z</time></trkpt>
<trkpt lat="33.00695" lon="35.22748"><ele>423.0</ele><time>2013-07-24T13:34:18Z</time></trkpt>
<trkpt lat="33.00688" lon="35.22736"><ele>422.0</ele><time>2013-07-24T13:34:20Z</time></trkpt>
<trkpt lat="33.00684" lon="35.22725"><ele>422.0</ele><time>2013-07-24T13:34:21Z</time></trkpt>
<trkpt lat="33.00682" lon="35.22712"><ele>421.0</ele><time>2013-07-24T13:34:23Z</time></trkpt>
<trkpt lat="33.00684" lon="35.22698"><ele>421.0</ele><time>2013-07-24T13:34:25Z</time></trkpt>
<trkpt lat="33.00689" lon="35.22685"><ele>420.0</ele><time>2013-07-24T13:34:27Z</time></trkpt>
<trkpt lat="33.00696" lon="35.22672"><ele>419.0</ele><time>2013-07-24T13:34:29Z</time></trkpt>
<trkpt lat="33.00705" lon="35.22662"><ele>419.0</ele><time>2013-07-24T13:34:31Z</time></trkpt>
<trkpt lat="33.00716" lon="35.22655"><ele>418.0</ele><time>2013-07-24T13:34:33Z</time></trkpt>
<trkpt lat="33.00728" lon="35.22648"><ele>417.0</ele><time>2013-07-24T13:34:35Z</time></trkpt>
<trkpt lat="33.00741" lon="35.22644"><ele>416.0</ele><time>2013-07-24T13:34:37Z</time></trkpt>
<trkpt lat="33.00754" lon="35.22639"><ele>415.0</ele><time>2013-07-24T13:34:39Z</time></trkpt>
<trkpt lat="33.00767" lon="35.22635"><ele>414.0</ele><time>2013-07-24T13:34:41Z</time></trkpt>
<trkpt lat="33.0078" lon="35.22632"><ele>413.0</ele><time>2013-07-24T13:34:43Z</time></trkpt>
<trkpt lat="33.00793" lon="35.22626"><ele>412.0</ele><time>2013-07-24T13:34:45Z</time></trkpt>
<trkpt lat="33.00806" lon="35.22619"><ele>411.0</ele><time>2013-07-24T13:34:47Z</time></trkpt>
<trkpt lat="33.00817" lon="35.2261"><ele>409.0</ele><time>2013-07-24T13:34:49Z</time></trkpt>
<trkpt lat="33.00827" lon="35.226"><ele>407.0</ele><time>2013-07-24T13:34:51Z</time></trkpt>
<trkpt lat="33.00833" lon="35.22586"><ele>406.0</ele><time>2013-07-24T13:34:53Z</time></trkpt>
<trkpt lat="33.00837" lon="35.22569"><ele>404.0</ele><time>2013-07-24T13:34:55Z</time></trkpt>
<trkpt lat="33.0084" lon="35.22551"><ele>404.0</ele><time>2013-07-24T13:34:57Z</time></trkpt>
<trkpt lat="33.00843" lon="35.22534"><ele>403.0</ele><time>2013-07-24T13:35:00Z</time></trkpt>
<trkpt lat="33.00844" lon="35.22519"><ele>402.0</ele><time>2013-07-24T13:35:02Z</time></trkpt>
<trkpt lat="33.00844" lon="35.22505"><ele>401.0</ele><time>2013-07-24T13:35:04Z</time></trkpt>
<trkpt lat="33.00843" lon="35.22491"><ele>400.0</ele><time>2013-07-24T13:35:06Z</time></trkpt>
<trkpt lat="33.00843" lon="35.22481"><ele>399.0</ele><time>2013-07-24T13:35:08Z</time></trkpt>
<trkpt lat="33.00845" lon="35.2247"><ele>398.0</ele><time>2013-07-24T13:35:10Z</time></trkpt>
<trkpt lat="33.00849" lon="35.22458"><ele>397.0</ele><time>2013-07-24T13:35:12Z</time></trkpt>
<trkpt lat="33.00852" lon="35.22443"><ele>396.0</ele><time>2013-07-24T13:35:14Z</time></trkpt>
<trkpt lat="33.00855" lon="35.22427"><ele>395.0</ele><time>2013-07-24T13:35:16Z</time></trkpt>
<trkpt lat="33.00855" lon="35.22409"><ele>394.0</ele><time>2013-07-24T13:35:18Z</time></trkpt>
<trkpt lat="33.00855" lon="35.22391"><ele>393.0</ele><time>2013-07-24T13:35:20Z</time></trkpt>
<trkpt lat="33.00855" lon="35.22373"><ele>392.0</ele><time>2013-07-24T13:35:21Z</time></trkpt>
<trkpt lat="33.00856" lon="35.22357"><ele>391.0</ele><time>2013-07-24T13:35:23Z</time></trkpt>
<trkpt lat="33.00858" lon="35.22341"><ele>390.0</ele><time>2013-07-24T13:35:25Z</time></trkpt>
<trkpt lat="33.0086" lon="35.22325"><ele>389.0</ele><time>2013-07-24T13:35:27Z</time></trkpt>
<trkpt lat="33.00862" lon="35.22308"><ele>388.0</ele><time>2013-07-24T13:35:29Z</time></trkpt>
<trkpt lat="33.00864" lon="35.22288"><ele>387.0</ele><time>2013-07-24T13:35:31Z</time></trkpt>
<trkpt lat="33.00865" lon="35.22278"><ele>387.0</ele><time>2013-07-24T13:35:32Z</time></trkpt>
<trkpt lat="33.00866" lon="35.22269"><ele>386.0</ele><time>2013-07-24T13:35:33Z</time></trkpt>
<trkpt lat="33.00867" lon="35.22259"><ele>385.0</ele><time>2013-07-24T13:35:34Z</time></trkpt>
<trkpt lat="33.00868" lon="35.2225"><ele>384.0</ele><time>2013-07-24T13:35:35Z</time></trkpt>
<trkpt lat="33.00869" lon="35.2224"><ele>383.0</ele><time>2013-07-24T13:35:36Z</time></trkpt>
<trkpt lat="33.0087" lon="35.2223"><ele>382.0</ele><time>2013-07-24T13:35:37Z</time></trkpt>
<trkpt lat="33.00872" lon="35.2222"><ele>381.0</ele><time>2013-07-24T13:35:38Z</time></trkpt>
<trkpt lat="33.00873" lon="35.22209"><ele>380.0</ele><time>2013-07-24T13:35:39Z</time></trkpt>
<trkpt lat="33.00874" lon="35.22199"><ele>379.0</ele><time>2013-07-24T13:35:40Z</time></trkpt>
<trkpt lat="33.00874" lon="35.22189"><ele>377.0</ele><time>2013-07-24T13:35:41Z</time></trkpt>
<trkpt lat="33.00875" lon="35.22178"><ele>376.0</ele><time>2013-07-24T13:35:42Z</time></trkpt>
<trkpt lat="33.00876" lon="35.22169"><ele>375.0</ele><time>2013-07-24T13:35:43Z</time></trkpt>
<trkpt lat="33.00877" lon="35.22159"><ele>374.0</ele><time>2013-07-24T13:35:44Z</time></trkpt>
<trkpt lat="33.00878" lon="35.22142"><ele>373.0</ele><time>2013-07-24T13:35:46Z</time></trkpt>
<trkpt lat="33.00879" lon="35.22129"><ele>373.0</ele><time>2013-07-24T13:35:48Z</time></trkpt>
<trkpt lat="33.00878" lon="35.22119"><ele>372.0</ele><time>2013-07-24T13:35:51Z</time></trkpt>
<trkpt lat="33.00869" lon="35.22112"><ele>372.0</ele><time>2013-07-24T13:35:55Z</time></trkpt>
<trkpt lat="33.00862" lon="35.22106"><ele>372.0</ele><time>2013-07-24T13:35:58Z</time></trkpt>
<trkpt lat="33.00855" lon="35.22098"><ele>372.0</ele><time>2013-07-24T13:36:02Z</time></trkpt>
<trkpt lat="33.00846" lon="35.22093"><ele>372.0</ele><time>2013-07-24T13:36:05Z</time></trkpt>
<trkpt lat="33.00836" lon="35.22091"><ele>373.0</ele><time>2013-07-24T13:36:09Z</time></trkpt>
<trkpt lat="33.00827" lon="35.22091"><ele>373.0</ele><time>2013-07-24T13:36:13Z</time></trkpt>
<trkpt lat="33.0082" lon="35.22083"><ele>373.0</ele><time>2013-07-24T13:36:18Z</time></trkpt>
<trkpt lat="33.00815" lon="35.22072"><ele>373.0</ele><time>2013-07-24T13:36:21Z</time></trkpt>
<trkpt lat="33.00811" lon="35.22064"><ele>372.0</ele><time>2013-07-24T13:36:24Z</time></trkpt>
<trkpt lat="33.00807" lon="35.22054"><ele>372.0</ele><time>2013-07-24T13:36:28Z</time></trkpt>
<trkpt lat="33.00804" lon="35.22046"><ele>372.0</ele><time>2013-07-24T13:36:31Z</time></trkpt>
<trkpt lat="33.00796" lon="35.2204"><ele>372.0</ele><time>2013-07-24T13:36:35Z</time></trkpt>
<trkpt lat="33.00792" lon="35.22031"><ele>372.0</ele><time>2013-07-24T13:36:38Z</time></trkpt>
<trkpt lat="33.00791" lon="35.22019"><ele>371.0</ele><time>2013-07-24T13:36:41Z</time></trkpt>
<trkpt lat="33.00791" lon="35.22006"><ele>371.0</ele><time>2013-07-24T13:36:44Z</time></trkpt>
<trkpt lat="33.00792" lon="35.21992"><ele>370.0</ele><time>2013-07-24T13:36:47Z</time></trkpt>
<trkpt lat="33.00791" lon="35.21981"><ele>370.0</ele><time>2013-07-24T13:36:49Z</time></trkpt>
<trkpt lat="33.00791" lon="35.21968"><ele>370.0</ele><time>2013-07-24T13:36:52Z</time></trkpt>
<trkpt lat="33.00786" lon="35.21957"><ele>369.0</ele><time>2013-07-24T13:36:55Z</time></trkpt>
<trkpt lat="33.00785" lon="35.21947"><ele>369.0</ele><time>2013-07-24T13:36:58Z</time></trkpt>
<trkpt lat="33.00785" lon="35.21936"><ele>368.0</ele><time>2013-07-24T13:37:02Z</time></trkpt>
<trkpt lat="33.00782" lon="35.21923"><ele>368.0</ele><time>2013-07-24T13:37:05Z</time></trkpt>
<trkpt lat="33.00775" lon="35.21914"><ele>368.0</ele><time>2013-07-24T13:37:08Z</time></trkpt>
<trkpt lat="33.00769" lon="35.21907"><ele>368.0</ele><time>2013-07-24T13:37:11Z</time></trkpt>
<trkpt lat="33.0076" lon="35.21898"><ele>368.0</ele><time>2013-07-24T13:38:16Z</time></trkpt>
<trkpt lat="33.00751" lon="35.21899"><ele>368.0</ele><time>2013-07-24T13:38:21Z</time></trkpt>
<trkpt lat="33.00741" lon="35.21898"><ele>368.0</ele><time>2013-07-24T13:38:24Z</time></trkpt>
<trkpt lat="33.00731" lon="35.21896"><ele>368.0</ele><time>2013-07-24T13:38:28Z</time></trkpt>
<trkpt lat="33.00721" lon="35.21896"><ele>368.0</ele><time>2013-07-24T13:38:32Z</time></trkpt>
<trkpt lat="33.00711" lon="35.21894"><ele>369.0</ele><time>2013-07-24T13:38:36Z</time></trkpt>
<trkpt lat="33.00701" lon="35.21893"><ele>369.0</ele><time>2013-07-24T13:38:40Z</time></trkpt>
<trkpt lat="33.00691" lon="35.21892"><ele>369.0</ele><time>2013-07-24T13:38:44Z</time></trkpt>
<trkpt lat="33.0068" lon="35.21891"><ele>369.0</ele><time>2013-07-24T13:38:48Z</time></trkpt>
<trkpt lat="33.0067" lon="35.21889"><ele>369.0</ele><time>2013-07-24T13:38:52Z</time></trkpt>
<trkpt lat="33.00659" lon="35.21888"><ele>370.0</ele><time>2013-07-24T13:38:56Z</time></trkpt>
<trkpt lat="33.00651" lon="35.21888"><ele>370.0</ele><time>2013-07-24T13:39:00Z</time></trkpt>
<trkpt lat="33.00641" lon="35.21887"><ele>370.0</ele><time>2013-07-24T13:39:04Z</time></trkpt>
<trkpt lat="33.0063" lon="35.21887"><ele>370.0</ele><time>2013-07-24T13:39:08Z</time></trkpt>
<trkpt lat="33.00622" lon="35.21886"><ele>370.0</ele><time>2013-07-24T13:39:11Z</time></trkpt>
<trkpt lat="33.00614" lon="35.21883"><ele>369.0</ele><time>2013-07-24T13:39:14Z</time></trkpt>
<trkpt lat="33.00604" lon="35.21881"><ele>369.0</ele><time>2013-07-24T13:39:17Z</time></trkpt>
<trkpt lat="33.00593" lon="35.21878"><ele>369.0</ele><time>2013-07-24T13:39:20Z</time></trkpt>
<trkpt lat="33.00585" lon="35.21876"><ele>368.0</ele><time>2013-07-24T13:39:21Z</time></trkpt>
<trkpt lat="33.00575" lon="35.21873"><ele>368.0</ele><time>2013-07-24T13:39:23Z</time></trkpt>
<trkpt lat="33.00565" lon="35.21868"><ele>368.0</ele><time>2013-07-24T13:39:25Z</time></trkpt>
<trkpt lat="33.00554" lon="35.21863"><ele>367.0</ele><time>2013-07-24T13:39:27Z</time></trkpt>
<trkpt lat="33.00542" lon="35.21857"><ele>367.0</ele><time>2013-07-24T13:39:29Z</time></trkpt>
<trkpt lat="33.0053" lon="35.21852"><ele>366.0</ele><time>2013-07-24T13:39:31Z</time></trkpt>
<trkpt lat="33.00517" lon="35.21846"><ele>366.0</ele><time>2013-07-24T13:39:33Z</time></trkpt>
<trkpt lat="33.00507" lon="35.21841"><ele>366.0</ele><time>2013-07-24T13:39:35Z</time></trkpt>
<trkpt lat="33.005" lon="35.21833"><ele>365.0</ele><time>2013-07-24T13:39:37Z</time></trkpt>
<trkpt lat="33.005" lon="35.21823"><ele>365.0</ele><time>2013-07-24T13:39:39Z</time></trkpt>
<trkpt lat="33.00504" lon="35.21815"><ele>364.0</ele><time>2013-07-24T13:39:41Z</time></trkpt>
<trkpt lat="33.00509" lon="35.21807"><ele>364.0</ele><time>2013-07-24T13:39:43Z</time></trkpt>
<trkpt lat="33.00516" lon="35.21794"><ele>363.0</ele><time>2013-07-24T13:39:46Z</time></trkpt>
<trkpt lat="33.0052" lon="35.21785"><ele>363.0</ele><time>2013-07-24T13:39:48Z</time></trkpt>
<trkpt lat="33.00526" lon="35.21774"><ele>362.0</ele><time>2013-07-24T13:39:51Z</time></trkpt>
<trkpt lat="33.0053" lon="35.21764"><ele>362.0</ele><time>2013-07-24T13:39:54Z</time></trkpt>
<trkpt lat="33.00533" lon="35.21753"><ele>361.0</ele><time>2013-07-24T13:39:57Z</time></trkpt>
<trkpt lat="33.00537" lon="35.21744"><ele>360.0</ele><time>2013-07-24T13:40:01Z</time></trkpt>
<trkpt lat="33.0054" lon="35.21732"><ele>360.0</ele><time>2013-07-24T13:40:04Z</time></trkpt>
<trkpt lat="33.00541" lon="35.21722"><ele>359.0</ele><time>2013-07-24T13:40:06Z</time></trkpt>
<trkpt lat="33.00542" lon="35.21712"><ele>359.0</ele><time>2013-07-24T13:40:08Z</time></trkpt>
<trkpt lat="33.00543" lon="35.21701"><ele>359.0</ele><time>2013-07-24T13:40:10Z</time></trkpt>
<trkpt lat="33.00543" lon="35.2169"><ele>359.0</ele><time>2013-07-24T13:40:12Z</time></trkpt>
<trkpt lat="33.00546" lon="35.21677"><ele>358.0</ele><time>2013-07-24T13:40:14Z</time></trkpt>
<trkpt lat="33.00546" lon="35.21663"><ele>357.0</ele><time>2013-07-24T13:40:16Z</time></trkpt>
<trkpt lat="33.00545" lon="35.2165"><ele>357.0</ele><time>2013-07-24T13:40:18Z</time></trkpt>
<trkpt lat="33.00545" lon="35.21636"><ele>356.0</ele><time>2013-07-24T13:40:20Z</time></trkpt>
<trkpt lat="33.00547" lon="35.21624"><ele>356.0</ele><time>2013-07-24T13:40:21Z</time></trkpt>
<trkpt lat="33.00547" lon="35.21609"><ele>356.0</ele><time>2013-07-24T13:40:23Z</time></trkpt>
<trkpt lat="33.00545" lon="35.21593"><ele>355.0</ele><time>2013-07-24T13:40:25Z</time></trkpt>
<trkpt lat="33.00545" lon="35.21578"><ele>354.0</ele><time>2013-07-24T13:40:27Z</time></trkpt>
<trkpt lat="33.00547" lon="35.21566"><ele>353.0</ele><time>2013-07-24T13:40:29Z</time></trkpt>
<trkpt lat="33.00549" lon="35.21556"><ele>353.0</ele><time>2013-07-24T13:40:31Z</time></trkpt>
<trkpt lat="33.00551" lon="35.21545"><ele>352.0</ele><time>2013-07-24T13:40:34Z</time></trkpt>
<trkpt lat="33.00542" lon="35.2154"><ele>352.0</ele><time>2013-07-24T13:40:42Z</time></trkpt>
<trkpt lat="33.00531" lon="35.21544"><ele>352.0</ele><time>2013-07-24T13:40:45Z</time></trkpt>
<trkpt lat="33.00521" lon="35.21552"><ele>352.0</ele><time>2013-07-24T13:40:48Z</time></trkpt>
<trkpt lat="33.00514" lon="35.2156"><ele>351.0</ele><time>2013-07-24T13:40:51Z</time></trkpt>
<trkpt lat="33.00505" lon="35.21554"><ele>350.0</ele><time>2013-07-24T13:40:55Z</time></trkpt>
</trkseg></trk></gpx>