<?xml version="1.0" encoding="utf-8"?>
<gpx version="1.1"><trk><trkseg>
<trkpt lat="33.00505" lon="35.21539"><ele>350.0</ele><time>2013-09-05T03:02:00Z</time></trkpt>
<trkpt lat="33.00509" lon="35.21549"><ele>350.0</ele><time>2013-09-05T03:02:58Z</time></trkpt>
<trkpt lat="33.00517" lon="35.21555"><ele>350.0</ele><time>2013-09-05T03:03:04Z</time></trkpt>
<trkpt lat="33.00525" lon="35.21548"><ele>350.0</ele><time>2013-09-05T03:03:09Z</time></trkpt>
<trkpt lat="33.00534" lon="35.21542"><ele>350.0</ele><time>2013-09-05T03:03:13Z</time></trkpt>
<trkpt lat="33.00543" lon="35.21541"><ele>349.0</ele><time>2013-09-05T03:03:16Z</time></trkpt>
<trkpt lat="33.00551" lon="35.21539"><ele>349.0</ele><time>2013-09-05T03:03:20Z</time></trkpt>
<trkpt lat="33.00554" lon="35.21529"><ele>349.0</ele><time>2013-09-05T03:03:23Z</time></trkpt>
<trkpt lat="33.00548" lon="35.21517"><ele>349.0</ele><time>2013-09-05T03:03:27Z</time></trkpt>
<trkpt lat="33.00542" lon="35.21508"><ele>348.0</ele><time>2013-09-05T03:03:30Z</time></trkpt>
<trkpt lat="33.00534" lon="35.21502"><ele>347.0</ele><time>2013-09-05T03:03:34Z</time></trkpt>
<trkpt lat="33.00523" lon="35.215"><ele>347.0</ele><time>2013-09-05T03:03:37Z</time></trkpt>
<trkpt lat="33.00516" lon="35.21494"><ele>346.0</ele><time>2013-09-05T03:03:40Z</time></trkpt>
<trkpt lat="33.00514" lon="35.2148"><ele>345.0</ele><time>2013-09-05T03:03:43Z</time></trkpt>
<trkpt lat="33.00517" lon="35.21471"><ele>344.0</ele><time>2013-09-05T03:03:45Z</time></trkpt>
<trkpt lat="33.00523" lon="35.21462"><ele>344.0</ele><time>2013-09-05T03:03:47Z</time></trkpt>
<trkpt lat="33.0053" lon="35.21455"><ele>343.0</ele><time>2013-09-05T03:03:49Z</time></trkpt>
<trkpt lat="33.00536" lon="35.21449"><ele>342.0</ele><time>2013-09-05T03:03:51Z</time></trkpt>
<trkpt lat="33.00538" lon="35.21436"><ele>341.0</ele><time>2013-09-05T03:03:53Z</time></trkpt>
<trkpt lat="33.00535" lon="35.21423"><ele>340.0</ele><time>2013-09-05T03:03:56Z</time></trkpt>
<trkpt lat="33.00533" lon="35.21411"><ele>340.0</ele><time>2013-09-05T03:03:58Z</time></trkpt>
<trkpt lat="33.00532" lon="35.21398"><ele>340.0</ele><time>2013-09-05T03:04:01Z</time></trkpt>
<trkpt lat="33.00533" lon="35.21389"><ele>340.0</ele><time>2013-09-05T03:04:03Z</time></trkpt>
<trkpt lat="33.0054" lon="35.21379"><ele>341.0</ele><time>2013-09-05T03:04:06Z</time></trkpt>
<trkpt lat="33.00545" lon="35.21372"><ele>341.0</ele><time>2013-09-05T03:04:08Z</time></trkpt>
<trkpt lat="33.0055" lon="35.21361"><ele>341.0</ele><time>2013-09-05T03:04:10Z</time></trkpt>
<trkpt lat="33.00562" lon="35.21339"><ele>340.0</ele><time>2013-09-05T03:04:14Z</time></trkpt>
<trkpt lat="33.00569" lon="35.21327"><ele>340.0</ele><time>2013-09-05T03:04:16Z</time></trkpt>
<trkpt lat="33.00576" lon="35.21316"><ele>340.0</ele><time>2013-09-05T03:04:18Z</time></trkpt>
<trkpt lat="33.00585" lon="35.21304"><ele>340.0</ele><time>2013-09-05T03:04:20Z</time></trkpt>
<trkpt lat="33.00593" lon="35.21293"><ele>340.0</ele><time>2013-09-05T03:04:22Z</time></trkpt>
<trkpt lat="33.00601" lon="35.2128"><ele>339.0</ele><time>2013-09-05T03:04:24Z</time></trkpt>
<trkpt lat="33.00611" lon="35.21267"><ele>338.0</ele><time>2013-09-05T03:04:26Z</time></trkpt>
<trkpt lat="33.0062" lon="35.21253"><ele>337.0</ele><time>2013-09-05T03:04:28Z</time></trkpt>
<trkpt lat="33.00629" lon="35.21239"><ele>336.0</ele><time>2013-09-05T03:04:30Z</time></trkpt>
<trkpt lat="33.00636" lon="35.21222"><ele>336.0</ele><time>2013-09-05T03:04:32Z</time></trkpt>
<trkpt lat="33.0064" lon="35.21203"><ele>335.0</ele><time>2013-09-05T03:04:34Z</time></trkpt>
<trkpt lat="33.00642" lon="35.21192"><ele>335.0</ele><time>2013-09-05T03:04:35Z</time></trkpt>
<trkpt lat="33.00644" lon="35.21182"><ele>334.0</ele><time>2013-09-05T03:04:36Z</time></trkpt>
<trkpt lat="33.00646" lon="35.21171"><ele>333.0</ele><time>2013-09-05T03:04:37Z</time></trkpt>
<trkpt lat="33.00648" lon="35.21161"><ele>332.0</ele><time>2013-09-05T03:04:38Z</time></trkpt>
<trkpt lat="33.00649" lon="35.2115"><ele>331.0</ele><time>2013-09-05T03:04:39Z</time></trkpt>
<trkpt lat="33.0065" lon="35.21139"><ele>331.0</ele><time>2013-09-05T03:04:40Z</time></trkpt>
<trkpt lat="33.00651" lon="35.21128"><ele>330.0</ele><time>2013-09-05T03:04:41Z</time></trkpt>
<trkpt lat="33.00653" lon="35.21117"><ele>330.0</ele><time>2013-09-05T03:04:42Z</time></trkpt>
<trkpt lat="33.00654" lon="35.21105"><ele>329.0</ele><time>2013-09-05T03:04:43Z</time></trkpt>
<trkpt lat="33.00655" lon="35.21094"><ele>328.0</ele><time>2013-09-05T03:04:44Z</time></trkpt>
<trkpt lat="33.00655" lon="35.21083"><ele>326.0</ele><time>2013-09-05T03:04:45Z</time></trkpt>
<trkpt lat="33.00656" lon="35.21072"><ele>325.0</ele><time>2013-09-05T03:04:46Z</time></trkpt>
<trkpt lat="33.00656" lon="35.21061"><ele>325.0</ele><time>2013-09-05T03:04:47Z</time></trkpt>
<trkpt lat="33.00655" lon="35.21051"><ele>324.0</ele><time>2013-09-05T03:04:48Z</time></trkpt>
<trkpt lat="33.00655" lon="35.2104"><ele>324.0</ele><time>2013-09-05T03:04:49Z</time></trkpt>
<trkpt lat="33.00655" lon="35.21029"><ele>323.0</ele><time>2013-09-05T03:04:50Z</time></trkpt>
<trkpt lat="33.00654" lon="35.21019"><ele>322.0</ele><time>2013-09-05T03:04:51Z</time></trkpt>
<trkpt lat="33.00653" lon="35.20999"><ele>321.0</ele><time>2013-09-05T03:04:52Z</time></trkpt>
<trkpt lat="33.00652" lon="35.20989"><ele>320.0</ele><time>2013-09-05T03:04:53Z</time></trkpt>
<trkpt lat="33.00651" lon="35.20979"><ele>320.0</ele><time>2013-09-05T03:04:54Z</time></trkpt>
<trkpt lat="33.0065" lon="35.20969"><ele>320.0</ele><time>2013-09-05T03:04:55Z</time></trkpt>
<trkpt lat="33.00649" lon="35.20952"><ele>320.0</ele><time>2013-09-05T03:04:57Z</time></trkpt>
<trkpt lat="33.00648" lon="35.20934"><ele>319.0</ele><time>2013-09-05T03:04:59Z</time></trkpt>
<trkpt lat="33.00647" lon="35.20917"><ele>319.0</ele><time>2013-09-05T03:05:02Z</time></trkpt>
<trkpt lat="33.00648" lon="35.20897"><ele>318.0</ele><time>2013-09-05T03:05:04Z</time></trkpt>
<trkpt lat="33.00648" lon="35.20888"><ele>317.0</ele><time>2013-09-05T03:05:05Z</time></trkpt>
<trkpt lat="33.00647" lon="35.20877"><ele>317.0</ele><time>2013-09-05T03:05:06Z</time></trkpt>
<trkpt lat="33.00646" lon="35.20867"><ele>317.0</ele><time>2013-09-05T03:05:07Z</time></trkpt>
<trkpt lat="33.00644" lon="35.20856"><ele>317.0</ele><time>2013-09-05T03:05:08Z</time></trkpt>
<trkpt lat="33.00642" lon="35.20845"><ele>316.0</ele><time>2013-09-05T03:05:09Z</time></trkpt>
<trkpt lat="33.00641" lon="35.20835"><ele>315.0</ele><time>2013-09-05T03:05:10Z</time></trkpt>
<trkpt lat="33.00641" lon="35.20824"><ele>314.0</ele><time>2013-09-05T03:05:11Z</time></trkpt>
<trkpt lat="33.00641" lon="35.20812"><ele>314.0</ele><time>2013-09-05T03:05:12Z</time></trkpt>
<trkpt lat="33.00641" lon="35.20801"><ele>313.0</ele><time>2013-09-05T03:05:13Z</time></trkpt>
<trkpt lat="33.0064" lon="35.20789"><ele>313.0</ele><time>2013-09-05T03:05:14Z</time></trkpt>
<trkpt lat="33.00639" lon="35.20777"><ele>312.0</ele><time>2013-09-05T03:05:15Z</time></trkpt>
<trkpt lat="33.00637" lon="35.20765"><ele>311.0</ele><time>2013-09-05T03:05:16Z</time></trkpt>
<trkpt lat="33.00636" lon="35.20753"><ele>311.0</ele><time>2013-09-05T03:05:17Z</time></trkpt>
<trkpt lat="33.00635" lon="35.20741"><ele>310.0</ele><time>2013-09-05T03:05:18Z</time></trkpt>
<trkpt lat="33.00633" lon="35.20729"><ele>309.0</ele><time>2013-09-05T03:05:19Z</time></trkpt>
<trkpt lat="33.00632" lon="35.20716"><ele>309.0</ele><time>2013-09-05T03:05:20Z</time></trkpt>
<trkpt lat="33.0063" lon="35.20704"><ele>309.0</ele><time>2013-09-05T03:05:21Z</time></trkpt>
<trkpt lat="33.00629" lon="35.20691"><ele>308.0</ele><time>2013-09-05T03:05:22Z</time></trkpt>
<trkpt lat="33.00628" lon="35.20679"><ele>307.0</ele><time>2013-09-05T03:05:23Z</time></trkpt>
<trkpt lat="33.00627" lon="35.20666"><ele>306.0</ele><time>2013-09-05T03:05:24Z</time></trkpt>
<trkpt lat="33.00626" lon="35.20654"><ele>306.0</ele><time>2013-09-05T03:05:25Z</time></trkpt>
<trkpt lat="33.00624" lon="35.20641"><ele>305.0</ele><time>2013-09-05T03:05:26Z</time></trkpt>
<trkpt lat="33.00623" lon="35.20628"><ele>305.0</ele><time>2013-09-05T03:05:27Z</time></trkpt>
<trkpt lat="33.00623" lon="35.20615"><ele>304.0</ele><time>2013-09-05T03:05:28Z</time></trkpt>
<trkpt lat="33.00622" lon="35.20602"><ele>304.0</ele><time>2013-09-05T03:05:29Z</time></trkpt>
<trkpt lat="33.00623" lon="35.20589"><ele>303.0</ele><time>2013-09-05T03:05:30Z</time></trkpt>
<trkpt lat="33.00623" lon="35.20576"><ele>302.0</ele><time>2013-09-05T03:05:31Z</time></trkpt>
<trkpt lat="33.00624" lon="35.20562"><ele>301.0</ele><time>2013-09-05T03:05:32Z</time></trkpt>
<trkpt lat="33.00624" lon="35.20549"><ele>301.0</ele><time>2013-09-05T03:05:33Z</time></trkpt>
<trkpt lat="33.00625" lon="35.20536"><ele>300.0</ele><time>2013-09-05T03:05:34Z</time></trkpt>
<trkpt lat="33.00625" lon="35.20523"><ele>300.0</ele><time>2013-09-05T03:05:35Z</time></trkpt>
<trkpt lat="33.00626" lon="35.2051"><ele>299.0</ele><time>2013-09-05T03:05:36Z</time></trkpt>
<trkpt lat="33.00627" lon="35.20497"><ele>298.0</ele><time>2013-09-05T03:05:37Z</time></trkpt>
<trkpt lat="33.00628" lon="35.20484"><ele>297.0</ele><time>2013-09-05T03:05:38Z</time></trkpt>
<trkpt lat="33.00629" lon="35.20471"><ele>297.0</ele><time>2013-09-05T03:05:39Z</time></trkpt>
<trkpt lat="33.0063" lon="35.20458"><ele>296.0</ele><time>2013-09-05T03:05:40Z</time></trkpt>
<trkpt lat="33.00632" lon="35.20446"><ele>295.0</ele><time>2013-09-05T03:05:41Z</time></trkpt>
<trkpt lat="33.00633" lon="35.20433"><ele>295.0</ele><time>2013-09-05T03:05:42Z</time></trkpt>
<trkpt lat="33.00634" lon="35.2042"><ele>294.0</ele><time>2013-09-05T03:05:43Z</time></trkpt>
<trkpt lat="33.00636" lon="35.20408"><ele>293.0</ele><time>2013-09-05T03:05:44Z</time></trkpt>
<trkpt lat="33.00638" lon="35.20395"><ele>292.0</ele><time>2013-09-05T03:05:45Z</time></trkpt>
<trkpt lat="33.00639" lon="35.20382"><ele>292.0</ele><time>2013-09-05T03:05:46Z</time></trkpt>
<trkpt lat="33.00641" lon="35.2037"><ele>291.0</ele><time>2013-09-05T03:05:47Z</time></trkpt>
<trkpt lat="33.00643" lon="35.20357"><ele>291.0</ele><time>2013-09-05T03:05:48Z</time></trkpt>
<trkpt lat="33.00645" lon="35.20344"><ele>290.0</ele><time>2013-09-05T03:05:49Z</time></trkpt>
<trkpt lat="33.00647" lon="35.20332"><ele>289.0</ele><time>2013-09-05T03:05:50Z</time></trkpt>
<trkpt lat="33.00649" lon="35.20319"><ele>288.0</ele><time>2013-09-05T03:05:51Z</time></trkpt>
<trkpt lat="33.00654" lon="35.20293"><ele>288.0</ele><time>2013-09-05T03:05:52Z</time></trkpt>
<trkpt lat="33.00657" lon="35.20281"><ele>288.0</ele><time>2013-09-05T03:05:53Z</time></trkpt>
<trkpt lat="33.0066" lon="35.20269"><ele>287.0</ele><time>2013-09-05T03:05:54Z</time></trkpt>
<trkpt lat="33.00663" lon="35.20257"><ele>286.0</ele><time>2013-09-05T03:05:55Z</time></trkpt>
<trkpt lat="33.00668" lon="35.20244"><ele>285.0</ele><time>2013-09-05T03:05:56Z</time></trkpt>
<trkpt lat="33.00673" lon="35.20233"><ele>284.0</ele><time>2013-09-05T03:05:57Z</time></trkpt>
<trkpt lat="33.00679" lon="35.20222"><ele>284.0</ele><time>2013-09-05T03:05:58Z</time></trkpt>
<trkpt lat="33.00686" lon="35.20211"><ele>284.0</ele><time>2013-09-05T03:05:59Z</time></trkpt>
<trkpt lat="33.00693" lon="35.20201"><ele>283.0</ele><time>2013-09-05T03:06:01Z</time></trkpt>
<trkpt lat="33.00699" lon="35.20191"><ele>283.0</ele><time>2013-09-05T03:06:02Z</time></trkpt>
<trkpt lat="33.00706" lon="35.20182"><ele>283.0</ele><time>2013-09-05T03:06:03Z</time></trkpt>
<trkpt lat="33.00714" lon="35.20173"><ele>282.0</ele><time>2013-09-05T03:06:04Z</time></trkpt>
<trkpt lat="33.00721" lon="35.20165"><ele>281.0</ele><time>2013-09-05T03:06:05Z</time></trkpt>
<trkpt lat="33.00729" lon="35.20157"><ele>281.0</ele><time>2013-09-05T03:06:06Z</time></trkpt>
<trkpt lat="33.00736" lon="35.20149"><ele>280.0</ele><time>2013-09-05T03:06:07Z</time></trkpt>
<trkpt lat="33.00743" lon="35.20141"><ele>280.0</ele><time>2013-09-05T03:06:08Z</time></trkpt>
<trkpt lat="33.0075" lon="35.20134"><ele>280.0</ele><time>2013-09-05T03:06:09Z</time></trkpt>
<trkpt lat="33.00757" lon="35.20127"><ele>279.0</ele><time>2013-09-05T03:06:10Z</time></trkpt>
<trkpt lat="33.00764" lon="35.2012"><ele>279.0</ele><time>2013-09-05T03:06:11Z</time></trkpt>
<trkpt lat="33.00771" lon="35.20113"><ele>279.0</ele><time>2013-09-05T03:06:12Z</time></trkpt>
<trkpt lat="33.00778" lon="35.20106"><ele>279.0</ele><time>2013-09-05T03:06:13Z</time></trkpt>
<trkpt lat="33.00785" lon="35.20099"><ele>279.0</ele><time>2013-09-05T03:06:14Z</time></trkpt>
<trkpt lat="33.00792" lon="35.20092"><ele>279.0</ele><time>2013-09-05T03:06:15Z</time></trkpt>
<trkpt lat="33.00799" lon="35.20085"><ele>280.0</ele><time>2013-09-05T03:06:16Z</time></trkpt>
<trkpt lat="33.00805" lon="35.20079"><ele>280.0</ele><time>2013-09-05T03:06:17Z</time></trkpt>
<trkpt lat="33.00812" lon="35.20072"><ele>280.0</ele><time>2013-09-05T03:06:18Z</time></trkpt>
<trkpt lat="33.00818" lon="35.20065"><ele>280.0</ele><time>2013-09-05T03:06:19Z</time></trkpt>
<trkpt lat="33.00825" lon="35.20057"><ele>280.0</ele><time>2013-09-05T03:06:20Z</time></trkpt>
<trkpt lat="33.00832" lon="35.20051"><ele>280.0</ele><time>2013-09-05T03:06:21Z</time></trkpt>
<trkpt lat="33.00838" lon="35.20044"><ele>280.0</ele><time>2013-09-05T03:06:22Z</time></trkpt>
<trkpt lat="33.00845" lon="35.20036"><ele>280.0</ele><time>2013-09-05T03:06:23Z</time></trkpt>
<trkpt lat="33.00851" lon="35.20029"><ele>279.0</ele><time>2013-09-05T03:06:24Z</time></trkpt>
<trkpt lat="33.00858" lon="35.20022"><ele>279.0</ele><time>2013-09-05T03:06:25Z</time></trkpt>
<trkpt lat="33.00864" lon="35.20015"><ele>278.0</ele><time>2013-09-05T03:06:26Z</time></trkpt>
<trkpt lat="33.0087" lon="35.20009"><ele>278.0</ele><time>2013-09-05T03:06:27Z</time></trkpt>
<trkpt lat="33.00876" lon="35.20002"><ele>277.0</ele><time>2013-09-05T03:06:28Z</time></trkpt>
<trkpt lat="33.00883" lon="35.19995"><ele>277.0</ele><time>2013-09-05T03:06:29Z</time></trkpt>
<trkpt lat="33.00889" lon="35.19989"><ele>277.0</ele><time>2013-09-05T03:06:30Z</time></trkpt>
<trkpt lat="33.00895" lon="35.19982"><ele>276.0</ele><time>2013-09-05T03:06:31Z</time></trkpt>
<trkpt lat="33.00902" lon="35.19976"><ele>276.0</ele><time>2013-09-05T03:06:32Z</time></trkpt>
<trkpt lat="33.00908" lon="35.19969"><ele>275.0</ele><time>2013-09-05T03:06:33Z</time></trkpt>
<trkpt lat="33.00914" lon="35.19962"><ele>275.0</ele><time>2013-09-05T03:06:34Z</time></trkpt>
<trkpt lat="33.00919" lon="35.19954"><ele>275.0</ele><time>2013-09-05T03:06:35Z</time></trkpt>
<trkpt lat="33.00925" lon="35.19946"><ele>275.0</ele><time>2013-09-05T03:06:36Z</time></trkpt>
<trkpt lat="33.00929" lon="35.19938"><ele>275.0</ele><time>2013-09-05T03:06:37Z</time></trkpt>
<trkpt lat="33.00932" lon="35.19929"><ele>275.0</ele><time>2013-09-05T03:06:38Z</time></trkpt>
<trkpt lat="33.00935" lon="35.19919"><ele>274.0</ele><time>2013-09-05T03:06:39Z</time></trkpt>
<trkpt lat="33.00937" lon="35.1991"><ele>274.0</ele><time>2013-09-05T03:06:40Z</time></trkpt>
<trkpt lat="33.0094" lon="35.19899"><ele>274.0</ele><time>2013-09-05T03:06:41Z</time></trkpt>
<trkpt lat="33.00942" lon="35.19889"><ele>273.0</ele><time>2013-09-05T03:06:42Z</time></trkpt>
<trkpt lat="33.00945" lon="35.19879"><ele>273.0</ele><time>2013-09-05T03:06:43Z</time></trkpt>
<trkpt lat="33.00948" lon="35.19869"><ele>273.0</ele><time>2013-09-05T03:06:44Z</time></trkpt>
<trkpt lat="33.0095" lon="35.19858"><ele>273.0</ele><time>2013-09-05T03:06:45Z</time></trkpt>
<trkpt lat="33.00953" lon="35.19848"><ele>272.0</ele><time>2013-09-05T03:06:46Z</time></trkpt>
<trkpt lat="33.00955" lon="35.19837"><ele>271.0</ele><time>2013-09-05T03:06:47Z</time></trkpt>
<trkpt lat="33.00957" lon="35.19826"><ele>270.0</ele><time>2013-09-05T03:06:48Z</time></trkpt>
<trkpt lat="33.00959" lon="35.19815"><ele>269.0</ele><time>2013-09-05T03:06:49Z</time></trkpt>
<trkpt lat="33.0096" lon="35.19803"><ele>268.0</ele><time>2013-09-05T03:06:50Z</time></trkpt>
<trkpt lat="33.00961" lon="35.19792"><ele>268.0</ele><time>2013-09-05T03:06:51Z</time></trkpt>
<trkpt lat="33.00963" lon="35.1977"><ele>266.0</ele><time>2013-09-05T03:06:52Z</time></trkpt>
<trkpt lat="33.00964" lon="35.19758"><ele>264.0</ele><time>2013-09-05T03:06:53Z</time></trkpt>
<trkpt lat="33.00965" lon="35.19747"><ele>263.0</ele><time>2013-09-05T03:06:54Z</time></trkpt>
<trkpt lat="33.00966" lon="35.19736"><ele>262.0</ele><time>2013-09-05T03:06:55Z</time></trkpt>
<trkpt lat="33.00966" lon="35.19724"><ele>262.0</ele><time>2013-09-05T03:06:56Z</time></trkpt>
<trkpt lat="33.00966" lon="35.19712"><ele>261.0</ele><time>2013-09-05T03:06:57Z</time></trkpt>
<trkpt lat="33.00965" lon="35.197"><ele>260.0</ele><time>2013-09-05T03:06:58Z</time></trkpt>
<trkpt lat="33.00964" lon="35.19688"><ele>260.0</ele><time>2013-09-05T03:06:59Z</time></trkpt>
<trkpt lat="33.00961" lon="35.19677"><ele>259.0</ele><time>2013-09-05T03:07:01Z</time></trkpt>
<trkpt lat="33.00958" lon="35.19666"><ele>259.0</ele><time>2013-09-05T03:07:02Z</time></trkpt>
<trkpt lat="33.00954" lon="35.19655"><ele>258.0</ele><time>2013-09-05T03:07:03Z</time></trkpt>
<trkpt lat="33.0095" lon="35.19644"><ele>258.0</ele><time>2013-09-05T03:07:04Z</time></trkpt>
<trkpt lat="33.00947" lon="35.19633"><ele>258.0</ele><time>2013-09-05T03:07:05Z</time></trkpt>
<trkpt lat="33.00943" lon="35.19622"><ele>257.0</ele><time>2013-09-05T03:07:06Z</time></trkpt>
<trkpt lat="33.0094" lon="35.19611"><ele>257.0</ele><time>2013-09-05T03:07:07Z</time></trkpt>
<trkpt lat="33.00936" lon="35.196"><ele>256.0</ele><time>2013-09-05T03:07:08Z</time></trkpt>
<trkpt lat="33.00932" lon="35.19589"><ele>255.0</ele><time>2013-09-05T03:07:09Z</time></trkpt>
<trkpt lat="33.00929" lon="35.19578"><ele>254.0</ele><time>2013-09-05T03:07:10Z</time></trkpt>
<trkpt lat="33.00925" lon="35.19567"><ele>253.0</ele><time>2013-09-05T03:07:11Z</time></trkpt>
<trkpt lat="33.00922" lon="35.19556"><ele>253.0</ele><time>2013-09-05T03:07:12Z</time></trkpt>
<trkpt lat="33.00919" lon="35.19545"><ele>252.0</ele><time>2013-09-05T03:07:13Z</time></trkpt>
<trkpt lat="33.00915" lon="35.19534"><ele>252.0</ele><time>2013-09-05T03:07:14Z</time></trkpt>
<trkpt lat="33.00911" lon="35.19523"><ele>251.0</ele><time>2013-09-05T03:07:15Z</time></trkpt>
<trkpt lat="33.00907" lon="35.19512"><ele>250.0</ele><time>2013-09-05T03:07:16Z</time></trkpt>
<trkpt lat="33.00903" lon="35.19502"><ele>249.0</ele><time>2013-09-05T03:07:17Z</time></trkpt>
<trkpt lat="33.00897" lon="35.19492"><ele>248.0</ele><time>2013-09-05T03:07:18Z</time></trkpt>
<trkpt lat="33.00892" lon="35.19482"><ele>248.0</ele><time>2013-09-05T03:07:19Z</time></trkpt>
<trkpt lat="33.00887" lon="35.19471"><ele>247.0</ele><time>2013-09-05T03:07:20Z</time></trkpt>
<trkpt lat="33.00882" lon="35.19461"><ele>247.0</ele><time>2013-09-05T03:07:21Z</time></trkpt>
<trkpt lat="33.00876" lon="35.1945"><ele>247.0</ele><time>2013-09-05T03:07:22Z</time></trkpt>
<trkpt lat="33.00871" lon="35.19439"><ele>246.0</ele><time>2013-09-05T03:07:23Z</time></trkpt>
<trkpt lat="33.00867" lon="35.19428"><ele>245.0</ele><time>2013-09-05T03:07:24Z</time></trkpt>
<trkpt lat="33.00863" lon="35.19417"><ele>244.0</ele><time>2013-09-05T03:07:25Z</time></trkpt>
<trkpt lat="33.0086" lon="35.19406"><ele>244.0</ele><time>2013-09-05T03:07:26Z</time></trkpt>
<trkpt lat="33.00858" lon="35.19394"><ele>244.0</ele><time>2013-09-05T03:07:27Z</time></trkpt>
<trkpt lat="33.00856" lon="35.19382"><ele>243.0</ele><time>2013-09-05T03:07:28Z</time></trkpt>
<trkpt lat="33.00854" lon="35.1937"><ele>243.0</ele><time>2013-09-05T03:07:29Z</time></trkpt>
<trkpt lat="33.00852" lon="35.19359"><ele>242.0</ele><time>2013-09-05T03:07:30Z</time></trkpt>
<trkpt lat="33.0085" lon="35.19347"><ele>242.0</ele><time>2013-09-05T03:07:31Z</time></trkpt>
<trkpt lat="33.00848" lon="35.19335"><ele>241.0</ele><time>2013-09-05T03:07:32Z</time></trkpt>
<trkpt lat="33.00846" lon="35.19324"><ele>240.0</ele><time>2013-09-05T03:07:33Z</time></trkpt>
<trkpt lat="33.00845" lon="35.19312"><ele>240.0</ele><time>2013-09-05T03:07:34Z</time></trkpt>
<trkpt lat="33.00843" lon="35.19301"><ele>239.0</ele><time>2013-09-05T03:07:35Z</time></trkpt>
<trkpt lat="33.00841" lon="35.19289"><ele>239.0</ele><time>2013-09-05T03:07:36Z</time></trkpt>
<trkpt lat="33.00839" lon="35.19279"><ele>239.0</ele><time>2013-09-05T03:07:37Z</time></trkpt>
<trkpt lat="33.00838" lon="35.19268"><ele>238.0</ele><time>2013-09-05T03:07:38Z</time></trkpt>
<trkpt lat="33.00836" lon="35.19258"><ele>237.0</ele><time>2013-09-05T03:07:39Z</time></trkpt>
<trkpt lat="33.00835" lon="35.19247"><ele>237.0</ele><time>2013-09-05T03:07:40Z</time></trkpt>
<trkpt lat="33.00835" lon="35.19237"><ele>236.0</ele><time>2013-09-05T03:07:41Z</time></trkpt>
<trkpt lat="33.00835" lon="35.19226"><ele>236.0</ele><time>2013-09-05T03:07:42Z</time></trkpt>
<trkpt lat="33.00836" lon="35.19215"><ele>236.0</ele><time>2013-09-05T03:07:43Z</time></trkpt>
<trkpt lat="33.00838" lon="35.19204"><ele>236.0</ele><time>2013-09-05T03:07:44Z</time></trkpt>
<trkpt lat="33.00839" lon="35.19194"><ele>235.0</ele><time>2013-09-05T03:07:45Z</time></trkpt>
<trkpt lat="33.00841" lon="35.19183"><ele>234.0</ele><time>2013-09-05T03:07:46Z</time></trkpt>
<trkpt lat="33.00844" lon="35.19166"><ele>233.0</ele><time>2013-09-05T03:07:48Z</time></trkpt>
<trkpt lat="33.00847" lon="35.19153"><ele>232.0</ele><time>2013-09-05T03:07:50Z</time></trkpt>
<trkpt lat="33.00849" lon="35.19142"><ele>232.0</ele><time>2013-09-05T03:07:51Z</time></trkpt>
<trkpt lat="33.00851" lon="35.19129"><ele>231.0</ele><time>2013-09-05T03:07:54Z</time></trkpt>
<trkpt lat="33.00853" lon="35.19118"><ele>231.0</ele><time>2013-09-05T03:07:57Z</time></trkpt>
<trkpt lat="33.00861" lon="35.19119"><ele>230.0</ele><time>2013-09-05T03:08:02Z</time></trkpt>
<trkpt lat="33.00866" lon="35.19129"><ele>229.0</ele><time>2013-09-05T03:08:05Z</time></trkpt>
<trkpt lat="33.0087" lon="35.19138"><ele>228.0</ele><time>2013-09-05T03:08:08Z</time></trkpt>
<trkpt lat="33.00876" lon="35.19146"><ele>227.0</ele><time>2013-09-05T03:08:12Z</time></trkpt>
<trkpt lat="33.00881" lon="35.19156"><ele>227.0</ele><time>2013-09-05T03:08:15Z</time></trkpt>
<trkpt lat="33.00886" lon="35.19165"><ele>226.0</ele><time>2013-09-05T03:08:17Z</time></trkpt>
<trkpt lat="33.00891" lon="35.19173"><ele>226.0</ele><time>2013-09-05T03:08:19Z</time></trkpt>
<trkpt lat="33.00896" lon="35.19182"><ele>226.0</ele><time>2013-09-05T03:08:21Z</time></trkpt>
<trkpt lat="33.00902" lon="35.1919"><ele>225.0</ele><time>2013-09-05T03:08:23Z</time></trkpt>
<trkpt lat="33.00908" lon="35.19199"><ele>226.0</ele><time>2013-09-05T03:08:25Z</time></trkpt>
<trkpt lat="33.00913" lon="35.19207"><ele>226.0</ele><time>2013-09-05T03:08:27Z</time></trkpt>
<trkpt lat="33.00921" lon="35.19218"><ele>227.0</ele><time>2013-09-05T03:08:30Z</time></trkpt>
<trkpt lat="33.00928" lon="35.19228"><ele>227.0</ele><time>2013-09-05T03:08:33Z</time></trkpt>
<trkpt lat="33.00936" lon="35.19238"><ele>228.0</ele><time>2013-09-05T03:08:36Z</time></trkpt>
<trkpt lat="33.00944" lon="35.19247"><ele>228.0</ele><time>2013-09-05T03:08:39Z</time></trkpt>
<trkpt lat="33.0095" lon="35.19257"><ele>228.0</ele><time>2013-09-05T03:08:42Z</time></trkpt>
<trkpt lat="33.00957" lon="35.19267"><ele>229.0</ele><time>2013-09-05T03:08:45Z</time></trkpt>
<trkpt lat="33.00964" lon="35.19277"><ele>230.0</ele><time>2013-09-05T03:08:48Z</time></trkpt>
<trkpt lat="33.0097" lon="35.19284"><ele>230.0</ele><time>2013-09-05T03:08:51Z</time></trkpt>
<trkpt lat="33.00976" lon="35.19291"><ele>231.0</ele><time>2013-09-05T03:08:53Z</time></trkpt>
<trkpt lat="33.00984" lon="35.19298"><ele>231.0</ele><time>2013-09-05T03:08:57Z</time></trkpt>
<trkpt lat="33.00993" lon="35.19304"><ele>232.0</ele><time>2013-09-05T03:09:02Z</time></trkpt>
<trkpt lat="33.01" lon="35.19309"><ele>232.0</ele><time>2013-09-05T03:09:05Z</time></trkpt>
<trkpt lat="33.01008" lon="35.19316"><ele>233.0</ele><time>2013-09-05T03:09:08Z</time></trkpt>
<trkpt lat="33.01014" lon="35.19326"><ele>234.0</ele><time>2013-09-05T03:09:11Z</time></trkpt>
<trkpt lat="33.01016" lon="35.19338"><ele>235.0</ele><time>2013-09-05T03:09:14Z</time></trkpt>
<trkpt lat="33.01015" lon="35.1935"><ele>236.0</ele><time>2013-09-05T03:09:17Z</time></trkpt>
<trkpt lat="33.01014" lon="35.19361"><ele>236.0</ele><time>2013-09-05T03:09:20Z</time></trkpt>
<trkpt lat="33.01012" lon="35.19371"><ele>237.0</ele><time>2013-09-05T03:09:23Z</time></trkpt>
<trkpt lat="33.0101" lon="35.19383"><ele>237.0</ele><time>2013-09-05T03:09:27Z</time></trkpt>
<trkpt lat="33.01008" lon="35.19395"><ele>238.0</ele><time>2013-09-05T03:09:31Z</time></trkpt>
<trkpt lat="33.01007" lon="35.19408"><ele>238.0</ele><time>2013-09-05T03:09:35Z</time></trkpt>
<trkpt lat="33.01008" lon="35.19419"><ele>239.0</ele><time>2013-09-05T03:09:39Z</time></trkpt>
<trkpt lat="33.01011" lon="35.19428"><ele>240.0</ele><time>2013-09-05T03:09:43Z</time></trkpt>
<trkpt lat="33.01015" lon="35.19437"><ele>240.0</ele><time>2013-09-05T03:09:47Z</time></trkpt>
<trkpt lat="33.0102" lon="35.19449"><ele>241.0</ele><time>2013-09-05T03:09:51Z</time></trkpt>
<trkpt lat="33.01024" lon="35.19461"><ele>241.0</ele><time>2013-09-05T03:09:53Z</time></trkpt>
<trkpt lat="33.01028" lon="35.19474"><ele>241.0</ele><time>2013-09-05T03:09:56Z</time></trkpt>
<trkpt lat="33.01031" lon="35.19488"><ele>241.0</ele><time>2013-09-05T03:09:59Z</time></trkpt>
<trkpt lat="33.01034" lon="35.19498"><ele>242.0</ele><time>2013-09-05T03:10:02Z</time></trkpt>
<trkpt lat="33.01036" lon="35.19508"><ele>241.0</ele><time>2013-09-05T03:10:04Z</time></trkpt>
<trkpt lat="33.01039" lon="35.19519"><ele>240.0</ele><time>2013-09-05T03:10:06Z</time></trkpt>
<trkpt lat="33.01042" lon="35.19529"><ele>239.0</ele><time>2013-09-05T03:10:08Z</time></trkpt>
<trkpt lat="33.01044" lon="35.19539"><ele>238.0</ele><time>2013-09-05T03:10:10Z</time></trkpt>
<trkpt lat="33.01046" lon="35.1955"><ele>237.0</ele><time>2013-09-05T03:10:12Z</time></trkpt>
<trkpt lat="33.01049" lon="35.19559"><ele>236.0</ele><time>2013-09-05T03:10:14Z</time></trkpt>
<trkpt lat="33.01052" lon="35.19573"><ele>234.0</ele><time>2013-09-05T03:10:17Z</time></trkpt>
<trkpt lat="33.01055" lon="35.19585"><ele>234.0</ele><time>2013-09-05T03:10:20Z</time></trkpt>
<trkpt lat="33.01059" lon="35.19597"><ele>234.0</ele><time>2013-09-05T03:10:23Z</time></trkpt>
<trkpt lat="33.01064" lon="35.19607"><ele>233.0</ele><time>2013-09-05T03:10:26Z</time></trkpt>
<trkpt lat="33.01069" lon="35.19616"><ele>233.0</ele><time>2013-09-05T03:10:29Z</time></trkpt>
<trkpt lat="33.01073" lon="35.19624"><ele>234.0</ele><time>2013-09-05T03:10:32Z</time></trkpt>
<trkpt lat="33.01077" lon="35.19635"><ele>235.0</ele><time>2013-09-05T03:10:35Z</time></trkpt>
<trkpt lat="33.01081" lon="35.19648"><ele>236.0</ele><time>2013-09-05T03:10:38Z</time></trkpt>
<trkpt lat="33.01083" lon="35.1966"><ele>237.0</ele><time>2013-09-05T03:10:41Z</time></trkpt>
<trkpt lat="33.01085" lon="35.19671"><ele>239.0</ele><time>2013-09-05T03:10:44Z</time></trkpt>
<trkpt lat="33.01087" lon="35.19681"><ele>240.0</ele><time>2013-09-05T03:10:47Z</time></trkpt>
<trkpt lat="33.01091" lon="35.19691"><ele>242.0</ele><time>2013-09-05T03:10:51Z</time></trkpt>
<trkpt lat="33.01094" lon="35.19701"><ele>242.0</ele><time>2013-09-05T03:10:53Z</time></trkpt>
<trkpt lat="33.01096" lon="35.19714"><ele>243.0</ele><time>2013-09-05T03:10:56Z</time></trkpt>
<trkpt lat="33.011" lon="35.19724"><ele>243.0</ele><time>2013-09-05T03:10:59Z</time></trkpt>
<trkpt lat="33.01105" lon="35.19734"><ele>244.0</ele><time>2013-09-05T03:11:03Z</time></trkpt>
<trkpt lat="33.01109" lon="35.19744"><ele>245.0</ele><time>2013-09-05T03:11:06Z</time></trkpt>
<trkpt lat="33.01112" lon="35.19755"><ele>246.0</ele><time>2013-09-05T03:11:09Z</time></trkpt>
<trkpt lat="33.01114" lon="35.19766"><ele>247.0</ele><time>2013-09-05T03:11:12Z</time></trkpt>
<trkpt lat="33.01116" lon="35.19777"><ele>245.0</ele><time>2013-09-05T03:11:15Z</time></trkpt>
<trkpt lat="33.01119" lon="35.19788"><ele>243.0</ele><time>2013-09-05T03:11:18Z</time></trkpt>
<trkpt lat="33.01122" lon="35.19798"><ele>241.0</ele><time>2013-09-05T03:11:21Z</time></trkpt>
<trkpt lat="33.01124" lon="35.19809"><ele>239.0</ele><time>2013-09-05T03:11:24Z</time></trkpt>
<trkpt lat="33.01127" lon="35.1982"><ele>237.0</ele><time>2013-09-05T03:11:27Z</time></trkpt>
<trkpt lat="33.0113" lon="35.1983"><ele>235.0</ele><time>2013-09-05T03:11:30Z</time></trkpt>
<trkpt lat="33.01132" lon="35.19841"><ele>234.0</ele><time>2013-09-05T03:11:34Z</time></trkpt>
<trkpt lat="33.01136" lon="35.19853"><ele>232.0</ele><time>2013-09-05T03:11:38Z</time></trkpt>
<trkpt lat="33.01139" lon="35.19863"><ele>229.0</ele><time>2013-09-05T03:11:41Z</time></trkpt>
<trkpt lat="33.01141" lon="35.19875"><ele>227.0</ele><time>2013-09-05T03:11:45Z</time></trkpt>
<trkpt lat="33.01144" lon="35.19885"><ele>225.0</ele><time>2013-09-05T03:11:48Z</time></trkpt>
<trkpt lat="33.01149" lon="35.19895"><ele>225.0</ele><time>2013-09-05T03:11:51Z</time></trkpt>
<trkpt lat="33.01153" lon="35.19906"><ele>225.0</ele><time>2013-09-05T03:11:55Z</time></trkpt>
<trkpt lat="33.01153" lon="35.19916"><ele>225.0</ele><time>2013-09-05T03:11:59Z</time></trkpt>
<trkpt lat="33.01153" lon="35.19929"><ele>226.0</ele><time>2013-09-05T03:12:04Z</time></trkpt>
<trkpt lat="33.01152" lon="35.19941"><ele>226.0</ele><time>2013-09-05T03:12:07Z</time></trkpt>
<trkpt lat="33.01149" lon="35.19951"><ele>226.0</ele><time>2013-09-05T03:12:09Z</time></trkpt>
<trkpt lat="33.01147" lon="35.19961"><ele>228.0</ele><time>2013-09-05T03:12:11Z</time></trkpt>
<trkpt lat="33.01144" lon="35.19971"><ele>229.0</ele><time>2013-09-05T03:12:14Z</time></trkpt>
<trkpt lat="33.0114" lon="35.1998"><ele>231.0</ele><time>2013-09-05T03:12:17Z</time></trkpt>
<trkpt lat="33.01134" lon="35.1999"><ele>231.0</ele><time>2013-09-05T03:12:20Z</time></trkpt>
<trkpt lat="33.01129" lon="35.2"><ele>231.0</ele><time>2013-09-05T03:12:23Z</time></trkpt>
<trkpt lat="33.01128" lon="35.20013"><ele>231.0</ele><time>2013-09-05T03:12:27Z</time></trkpt>
<trkpt lat="33.01128" lon="35.20023"><ele>231.0</ele><time>2013-09-05T03:12:30Z</time></trkpt>
<trkpt lat="33.01128" lon="35.20035"><ele>231.0</ele><time>2013-09-05T03:12:33Z</time></trkpt>
<trkpt lat="33.01131" lon="35.20046"><ele>231.0</ele><time>2013-09-05T03:12:36Z</time></trkpt>
<trkpt lat="33.01137" lon="35.20053"><ele>231.0</ele><time>2013-09-05T03:12:39Z</time></trkpt>
<trkpt lat="33.01145" lon="35.20053"><ele>231.0</ele><time>2013-09-05T03:12:45Z</time></trkpt>
<trkpt lat="33.01149" lon="35.20042"><ele>230.0</ele><time>2013-09-05T03:12:49Z</time></trkpt>
<trkpt lat="33.01153" lon="35.20033"><ele>228.0</ele><time>2013-09-05T03:12:51Z</time></trkpt>
<trkpt lat="33.01158" lon="35.20022"><ele>227.0</ele><time>2013-09-05T03:12:55Z</time></trkpt>
<trkpt lat="33.01163" lon="35.20013"><ele>227.0</ele><time>2013-09-05T03:12:58Z</time></trkpt>
<trkpt lat="33.01168" lon="35.20005"><ele>226.0</ele><time>2013-09-05T03:13:02Z</time></trkpt>
<trkpt lat="33.01174" lon="35.19996"><ele>226.0</ele><time>2013-09-05T03:13:05Z</time></trkpt>
<trkpt lat="33.0118" lon="35.19988"><ele>226.0</ele><time>2013-09-05T03:13:08Z</time></trkpt>
<trkpt lat="33.01184" lon="35.19977"><ele>226.0</ele><time>2013-09-05T03:13:11Z</time></trkpt>
<trkpt lat="33.01188" lon="35.19964"><ele>226.0</ele><time>2013-09-05T03:13:14Z</time></trkpt>
<trkpt lat="33.01193" lon="35.19952"><ele>226.0</ele><time>2013-09-05T03:13:17Z</time></trkpt>
<trkpt lat="33.01196" lon="35.19939"><ele>226.0</ele><time>2013-09-05T03:13:20Z</time></trkpt>
<trkpt lat="33.012" lon="35.1993"><ele>226.0</ele><time>2013-09-05T03:13:22Z</time></trkpt>
<trkpt lat="33.01204" lon="35.19921"><ele>226.0</ele><time>2013-09-05T03:13:24Z</time></trkpt>
<trkpt lat="33.01208" lon="35.19913"><ele>225.0</ele><time>2013-09-05T03:13:26Z</time></trkpt>
<trkpt lat="33.01212" lon="35.19899"><ele>224.0</ele><time>2013-09-05T03:13:29Z</time></trkpt>
<trkpt lat="33.01217" lon="35.19887"><ele>224.0</ele><time>2013-09-05T03:13:32Z</time></trkpt>
<trkpt lat="33.01221" lon="35.19878"><ele>223.0</ele><time>2013-09-05T03:13:35Z</time></trkpt>
<trkpt lat="33.0122" lon="35.19867"><ele>222.0</ele><time>2013-09-05T03:13:40Z</time></trkpt>
<trkpt lat="33.01216" lon="35.19856"><ele>222.0</ele><time>2013-09-05T03:13:44Z</time></trkpt>
<trkpt lat="33.01212" lon="35.19845"><ele>221.0</ele><time>2013-09-05T03:13:48Z</time></trkpt>
<trkpt lat="33.01213" lon="35.19834"><ele>219.0</ele><time>2013-09-05T03:13:51Z</time></trkpt>
<trkpt lat="33.01215" lon="35.19823"><ele>218.0</ele><time>2013-09-05T03:13:54Z</time></trkpt>
<trkpt lat="33.01219" lon="35.19813"><ele>217.0</ele><time>2013-09-05T03:13:58Z</time></trkpt>
<trkpt lat="33.01223" lon="35.19803"><ele>216.0</ele><time>2013-09-05T03:14:03Z</time></trkpt>
<trkpt lat="33.01227" lon="35.19793"><ele>216.0</ele><time>2013-09-05T03:14:07Z</time></trkpt>
<trkpt lat="33.01232" lon="35.19782"><ele>215.0</ele><time>2013-09-05T03:14:11Z</time></trkpt>
<trkpt lat="33.01236" lon="35.19773"><ele>215.0</ele><time>2013-09-05T03:14:14Z</time></trkpt>
<trkpt lat="33.01239" lon="35.19763"><ele>214.0</ele><time>2013-09-05T03:14:17Z</time></trkpt>
<trkpt lat="33.01242" lon="35.19754"><ele>214.0</ele><time>2013-09-05T03:14:20Z</time></trkpt>
<trkpt lat="33.01247" lon="35.19745"><ele>214.0</ele><time>2013-09-05T03:14:23Z</time></trkpt>
<trkpt lat="33.01256" lon="35.19742"><ele>213.0</ele><time>2013-09-05T03:14:26Z</time></trkpt>
<trkpt lat="33.01264" lon="35.1974"><ele>213.0</ele><time>2013-09-05T03:14:30Z</time></trkpt>
<trkpt lat="33.01273" lon="35.19741"><ele>212.0</ele><time>2013-09-05T03:14:35Z</time></trkpt>
<trkpt lat="33.01281" lon="35.19745"><ele>212.0</ele><time>2013-09-05T03:14:39Z</time></trkpt>
<trkpt lat="33.01289" lon="35.1975"><ele>212.0</ele><time>2013-09-05T03:14:44Z</time></trkpt>
<trkpt lat="33.01297" lon="35.19755"><ele>213.0</ele><time>2013-09-05T03:14:49Z</time></trkpt>
<trkpt lat="33.01302" lon="35.19765"><ele>213.0</ele><time>2013-09-05T03:14:54Z</time></trkpt>
<trkpt lat="33.01307" lon="35.19774"><ele>214.0</ele><time>2013-09-05T03:14:59Z</time></trkpt>
<trkpt lat="33.01312" lon="35.19784"><ele>214.0</ele><time>2013-09-05T03:15:06Z</time></trkpt>
<trkpt lat="33.01318" lon="35.19794"><ele>215.0</ele><time>2013-09-05T03:15:10Z</time></trkpt>
<trkpt lat="33.01322" lon="35.19803"><ele>216.0</ele><time>2013-09-05T03:15:15Z</time></trkpt>
<trkpt lat="33.01326" lon="35.19812"><ele>217.0</ele><time>2013-09-05T03:15:20Z</time></trkpt>
<trkpt lat="33.01331" lon="35.19821"><ele>218.0</ele><time>2013-09-05T03:15:25Z</time></trkpt>
<trkpt lat="33.01335" lon="35.1983"><ele>218.0</ele><time>2013-09-05T03:15:30Z</time></trkpt>
<trkpt lat="33.01342" lon="35.19837"><ele>218.0</ele><time>2013-09-05T03:15:35Z</time></trkpt>
<trkpt lat="33.01351" lon="35.19841"><ele>218.0</ele><time>2013-09-05T03:15:40Z</time></trkpt>
<trkpt lat="33.01358" lon="35.19845"><ele>217.0</ele><time>2013-09-05T03:15:44Z</time></trkpt>
<trkpt lat="33.01367" lon="35.19848"><ele>216.0</ele><time>2013-09-05T03:15:48Z</time></trkpt>
<trkpt lat="33.01376" lon="35.19845"><ele>216.0</ele><time>2013-09-05T03:15:54Z</time></trkpt>
<trkpt lat="33.01385" lon="35.19847"><ele>215.0</ele><time>2013-09-05T03:16:01Z</time></trkpt>
<trkpt lat="33.01393" lon="35.19853"><ele>216.0</ele><time>2013-09-05T03:16:06Z</time></trkpt>
<trkpt lat="33.01401" lon="35.19855"><ele>217.0</ele><time>2013-09-05T03:16:10Z</time></trkpt>
<trkpt lat="33.01409" lon="35.19859"><ele>218.0</ele><time>2013-09-05T03:16:14Z</time></trkpt>
<trkpt lat="33.01417" lon="35.19864"><ele>218.0</ele><time>2013-09-05T03:16:18Z</time></trkpt>
<trkpt lat="33.01425" lon="35.1987"><ele>220.0</ele><time>2013-09-05T03:16:23Z</time></trkpt>
<trkpt lat="33.01434" lon="35.19877"><ele>221.0</ele><time>2013-09-05T03:16:28Z</time></trkpt>
<trkpt lat="33.01439" lon="35.19885"><ele>223.0</ele><time>2013-09-05T03:16:32Z</time></trkpt>
<trkpt lat="33.01445" lon="35.19894"><ele>224.0</ele><time>2013-09-05T03:16:37Z</time></trkpt>
<trkpt lat="33.01447" lon="35.19905"><ele>226.0</ele><time>2013-09-05T03:16:42Z</time></trkpt>
<trkpt lat="33.01449" lon="35.19915"><ele>228.0</ele><time>2013-09-05T03:16:47Z</time></trkpt>
<trkpt lat="33.01451" lon="35.19926"><ele>230.0</ele><time>2013-09-05T03:16:51Z</time></trkpt>
<trkpt lat="33.01455" lon="35.19936"><ele>231.0</ele><time>2013-09-05T03:16:55Z</time></trkpt>
<trkpt lat="33.01452" lon="35.19947"><ele>232.0</ele><time>2013-09-05T03:16:59Z</time></trkpt>
<trkpt lat="33.01453" lon="35.19957"><ele>233.0</ele><time>2013-09-05T03:17:03Z</time></trkpt>
<trkpt lat="33.01458" lon="35.19968"><ele>233.0</ele><time>2013-09-05T03:17:07Z</time></trkpt>
<trkpt lat="33.0146" lon="35.19978"><ele>234.0</ele><time>2013-09-05T03:17:11Z</time></trkpt>
<trkpt lat="33.01461" lon="35.19988"><ele>233.0</ele><time>2013-09-05T03:17:16Z</time></trkpt>
<trkpt lat="33.0146" lon="35.19998"><ele>232.0</ele><time>2013-09-05T03:17:21Z</time></trkpt>
<trkpt lat="33.01453" lon="35.20009"><ele>231.0</ele><time>2013-09-05T03:17:39Z</time></trkpt>
<trkpt lat="33.01458" lon="35.20026"><ele>230.0</ele><time>2013-09-05T03:18:17Z</time></trkpt>
<trkpt lat="33.01463" lon="35.20035"><ele>229.0</ele><time>2013-09-05T03:18:21Z</time></trkpt>
<trkpt lat="33.01469" lon="35.20043"><ele>227.0</ele><time>2013-09-05T03:18:25Z</time></trkpt>
<trkpt lat="33.01472" lon="35.20053"><ele>225.0</ele><time>2013-09-05T03:18:31Z</time></trkpt>
<trkpt lat="33.0148" lon="35.2006"><ele>224.0</ele><time>2013-09-05T03:18:35Z</time></trkpt>
<trkpt lat="33.01487" lon="35.2007"><ele>222.0</ele><time>2013-09-05T03:18:39Z</time></trkpt>
<trkpt lat="33.01489" lon="35.2008"><ele>220.0</ele><time>2013-09-05T03:18:43Z</time></trkpt>
<trkpt lat="33.01491" lon="35.2009"><ele>219.0</ele><time>2013-09-05T03:18:50Z</time></trkpt>
<trkpt lat="33.0149" lon="35.20101"><ele>220.0</ele><time>2013-09-05T03:18:55Z</time></trkpt>
<trkpt lat="33.01495" lon="35.20112"><ele>221.0</ele><time>2013-09-05T03:19:01Z</time></trkpt>
<trkpt lat="33.01498" lon="35.20123"><ele>221.0</ele><time>2013-09-05T03:19:06Z</time></trkpt>
<trkpt lat="33.01497" lon="35.20134"><ele>221.0</ele><time>2013-09-05T03:19:10Z</time></trkpt>
<trkpt lat="33.015" lon="35.20144"><ele>222.0</ele><time>2013-09-05T03:19:15Z</time></trkpt>
<trkpt lat="33.01502" lon="35.20154"><ele>222.0</ele><time>2013-09-05T03:19:20Z</time></trkpt>
<trkpt lat="33.01502" lon="35.20172"><ele>223.0</ele><time>2013-09-05T03:19:30Z</time></trkpt>
<trkpt lat="33.01503" lon="35.20183"><ele>224.0</ele><time>2013-09-05T03:19:35Z</time></trkpt>
<trkpt lat="33.01504" lon="35.20194"><ele>225.0</ele><time>2013-09-05T03:19:39Z</time></trkpt>
<trkpt lat="33.01507" lon="35.20204"><ele>226.0</ele><time>2013-09-05T03:19:43Z</time></trkpt>
<trkpt lat="33.0151" lon="35.20214"><ele>227.0</ele><time>2013-09-05T03:19:47Z</time></trkpt>
<trkpt lat="33.0151" lon="35.20225"><ele>228.0</ele><time>2013-09-05T03:19:51Z</time></trkpt>
<trkpt lat="33.01511" lon="35.20237"><ele>228.0</ele><time>2013-09-05T03:19:54Z</time></trkpt>
<trkpt lat="33.01513" lon="35.20248"><ele>228.0</ele><time>2013-09-05T03:19:59Z</time></trkpt>
<trkpt lat="33.01515" lon="35.20258"><ele>228.0</ele><time>2013-09-05T03:20:05Z</time></trkpt>
<trkpt lat="33.01521" lon="35.20268"><ele>227.0</ele><time>2013-09-05T03:27:48Z</time></trkpt>
<trkpt lat="33.0153" lon="35.20307"><ele>227.0</ele><time>2013-09-05T03:31:54Z</time></trkpt>
<trkpt lat="33.01566" lon="35.20322"><ele>226.0</ele><time>2013-09-05T03:33:15Z</time></trkpt>
<trkpt lat="33.01594" lon="35.20287"><ele>225.0</ele><time>2013-09-05T03:33:48Z</time></trkpt>
<trkpt lat="33.01609" lon="35.20259"><ele>224.0</ele><time>2013-09-05T03:34:09Z</time></trkpt>
<trkpt lat="33.01596" lon="35.20211"><ele>223.0</ele><time>2013-09-05T03:34:47Z</time></trkpt>
<trkpt lat="33.01593" lon="35.20202"><ele>222.0</ele><time>2013-09-05T03:34:52Z</time></trkpt>
<trkpt lat="33.01578" lon="35.20157"><ele>220.0</ele><time>2013-09-05T03:35:24Z</time></trkpt>
<trkpt lat="33.01562" lon="35.20113"><ele>220.0</ele><time>2013-09-05T03:35:54Z</time></trkpt>
<trkpt lat="33.01561" lon="35.20104"><ele>220.0</ele><time>2013-09-05T03:36:01Z</time></trkpt>
<trkpt lat="33.0156" lon="35.20094"><ele>220.0</ele><time>2013-09-05T03:36:07Z</time></trkpt>
<trkpt lat="33.01558" lon="35.20083"><ele>220.0</ele><time>2013-09-05T03:36:14Z</time></trkpt>
<trkpt lat="33.01555" lon="35.20059"><ele>221.0</ele><time>2013-09-05T03:36:29Z</time></trkpt>
<trkpt lat="33.01555" lon="35.20049"><ele>221.0</ele><time>2013-09-05T03:36:35Z</time></trkpt>
<trkpt lat="33.01556" lon="35.20039"><ele>221.0</ele><time>2013-09-05T03:36:41Z</time></trkpt>
<trkpt lat="33.01557" lon="35.20029"><ele>222.0</ele><time>2013-09-05T03:36:47Z</time></trkpt>
<trkpt lat="33.01554" lon="35.19979"><ele>222.0</ele><time>2013-09-05T03:37:20Z</time></trkpt>
<trkpt lat="33.01552" lon="35.19927"><ele>222.0</ele><time>2013-09-05T03:37:51Z</time></trkpt>
<trkpt lat="33.01551" lon="35.19917"><ele>223.0</ele><time>2013-09-05T03:37:57Z</time></trkpt>
</trkseg></trk></gpx>