<?xml version="1.0" encoding="utf-8"?>
<gpx version="1.1"><trk><trkseg>
<trkpt lat="33.00531" lon="35.21192"><ele>310.0</ele><time>2013-04-15T10:15:00Z</time></trkpt>
<trkpt lat="33.00633" lon="35.20701"><ele>309.0</ele><time>2013-04-15T10:15:04Z</time></trkpt>
<trkpt lat="33.00632" lon="35.20687"><ele>308.0</ele><time>2013-04-15T10:15:06Z</time></trkpt>
<trkpt lat="33.0063" lon="35.20672"><ele>308.0</ele><time>2013-04-15T10:15:08Z</time></trkpt>
<trkpt lat="33.00629" lon="35.20658"><ele>307.0</ele><time>2013-04-15T10:15:10Z</time></trkpt>
<trkpt lat="33.00629" lon="35.20645"><ele>307.0</ele><time>2013-04-15T10:15:12Z</time></trkpt>
<trkpt lat="33.00628" lon="35.20632"><ele>305.0</ele><time>2013-04-15T10:15:14Z</time></trkpt>
<trkpt lat="33.00626" lon="35.20622"><ele>304.0</ele><time>2013-04-15T10:15:16Z</time></trkpt>
<trkpt lat="33.00626" lon="35.20607"><ele>304.0</ele><time>2013-04-15T10:15:19Z</time></trkpt>
<trkpt lat="33.00626" lon="35.20596"><ele>303.0</ele><time>2013-04-15T10:15:21Z</time></trkpt>
<trkpt lat="33.00627" lon="35.20584"><ele>302.0</ele><time>2013-04-15T10:15:23Z</time></trkpt>
<trkpt lat="33.00628" lon="35.20573"><ele>301.0</ele><time>2013-04-15T10:15:25Z</time></trkpt>
<trkpt lat="33.00628" lon="35.20559"><ele>300.0</ele><time>2013-04-15T10:15:27Z</time></trkpt>
<trkpt lat="33.00629" lon="35.20546"><ele>300.0</ele><time>2013-04-15T10:15:29Z</time></trkpt>
<trkpt lat="33.00631" lon="35.20532"><ele>299.0</ele><time>2013-04-15T10:15:31Z</time></trkpt>
<trkpt lat="33.00632" lon="35.20517"><ele>298.0</ele><time>2013-04-15T10:15:33Z</time></trkpt>
<trkpt lat="33.00634" lon="35.20502"><ele>298.0</ele><time>2013-04-15T10:15:35Z</time></trkpt>
<trkpt lat="33.00637" lon="35.20488"><ele>297.0</ele><time>2013-04-15T10:15:37Z</time></trkpt>
<trkpt lat="33.00639" lon="35.20473"><ele>296.0</ele><time>2013-04-15T10:15:39Z</time></trkpt>
<trkpt lat="33.00642" lon="35.20459"><ele>296.0</ele><time>2013-04-15T10:15:41Z</time></trkpt>
<trkpt lat="33.00645" lon="35.20445"><ele>295.0</ele><time>2013-04-15T10:15:43Z</time></trkpt>
<trkpt lat="33.00646" lon="35.20431"><ele>294.0</ele><time>2013-04-15T10:15:45Z</time></trkpt>
<trkpt lat="33.00641" lon="35.20419"><ele>294.0</ele><time>2013-04-15T10:15:47Z</time></trkpt>
<trkpt lat="33.00639" lon="35.20406"><ele>293.0</ele><time>2013-04-15T10:15:49Z</time></trkpt>
<trkpt lat="33.0064" lon="35.20394"><ele>292.0</ele><time>2013-04-15T10:15:51Z</time></trkpt>
<trkpt lat="33.00641" lon="35.2038"><ele>292.0</ele><time>2013-04-15T10:15:53Z</time></trkpt>
<trkpt lat="33.00643" lon="35.20366"><ele>291.0</ele><time>2013-04-15T10:15:55Z</time></trkpt>
<trkpt lat="33.00645" lon="35.20351"><ele>290.0</ele><time>2013-04-15T10:15:57Z</time></trkpt>
<trkpt lat="33.00648" lon="35.20335"><ele>290.0</ele><time>2013-04-15T10:15:59Z</time></trkpt>
<trkpt lat="33.0065" lon="35.2032"><ele>289.0</ele><time>2013-04-15T10:16:01Z</time></trkpt>
<trkpt lat="33.00653" lon="35.20305"><ele>288.0</ele><time>2013-04-15T10:16:03Z</time></trkpt>
<trkpt lat="33.00656" lon="35.2029"><ele>287.0</ele><time>2013-04-15T10:16:05Z</time></trkpt>
<trkpt lat="33.00659" lon="35.20275"><ele>287.0</ele><time>2013-04-15T10:16:07Z</time></trkpt>
<trkpt lat="33.00664" lon="35.20259"><ele>286.0</ele><time>2013-04-15T10:16:09Z</time></trkpt>
<trkpt lat="33.00671" lon="35.20244"><ele>285.0</ele><time>2013-04-15T10:16:11Z</time></trkpt>
<trkpt lat="33.00679" lon="35.20229"><ele>284.0</ele><time>2013-04-15T10:16:13Z</time></trkpt>
<trkpt lat="33.00687" lon="35.20213"><ele>284.0</ele><time>2013-04-15T10:16:15Z</time></trkpt>
<trkpt lat="33.00697" lon="35.20199"><ele>283.0</ele><time>2013-04-15T10:16:17Z</time></trkpt>
<trkpt lat="33.00707" lon="35.20185"><ele>283.0</ele><time>2013-04-15T10:16:19Z</time></trkpt>
<trkpt lat="33.00717" lon="35.20173"><ele>282.0</ele><time>2013-04-15T10:16:21Z</time></trkpt>
<trkpt lat="33.00728" lon="35.20162"><ele>281.0</ele><time>2013-04-15T10:16:23Z</time></trkpt>
<trkpt lat="33.00738" lon="35.2015"><ele>280.0</ele><time>2013-04-15T10:16:25Z</time></trkpt>
<trkpt lat="33.00749" lon="35.20139"><ele>280.0</ele><time>2013-04-15T10:16:27Z</time></trkpt>
<trkpt lat="33.00758" lon="35.20129"><ele>280.0</ele><time>2013-04-15T10:16:29Z</time></trkpt>
<trkpt lat="33.00768" lon="35.20119"><ele>280.0</ele><time>2013-04-15T10:16:31Z</time></trkpt>
<trkpt lat="33.00776" lon="35.2011"><ele>280.0</ele><time>2013-04-15T10:16:33Z</time></trkpt>
<trkpt lat="33.00785" lon="35.20102"><ele>280.0</ele><time>2013-04-15T10:16:35Z</time></trkpt>
<trkpt lat="33.00793" lon="35.20094"><ele>280.0</ele><time>2013-04-15T10:16:37Z</time></trkpt>
<trkpt lat="33.008" lon="35.20085"><ele>280.0</ele><time>2013-04-15T10:16:39Z</time></trkpt>
<trkpt lat="33.00807" lon="35.20078"><ele>280.0</ele><time>2013-04-15T10:16:41Z</time></trkpt>
<trkpt lat="33.00813" lon="35.20071"><ele>280.0</ele><time>2013-04-15T10:16:43Z</time></trkpt>
<trkpt lat="33.0082" lon="35.20064"><ele>280.0</ele><time>2013-04-15T10:16:45Z</time></trkpt>
<trkpt lat="33.00826" lon="35.20057"><ele>280.0</ele><time>2013-04-15T10:16:47Z</time></trkpt>
<trkpt lat="33.00833" lon="35.2005"><ele>280.0</ele><time>2013-04-15T10:16:49Z</time></trkpt>
<trkpt lat="33.0084" lon="35.20045"><ele>280.0</ele><time>2013-04-15T10:16:51Z</time></trkpt>
<trkpt lat="33.0085" lon="35.20038"><ele>279.0</ele><time>2013-04-15T10:16:54Z</time></trkpt>
<trkpt lat="33.0086" lon="35.20031"><ele>279.0</ele><time>2013-04-15T10:16:57Z</time></trkpt>
<trkpt lat="33.00866" lon="35.20025"><ele>278.0</ele><time>2013-04-15T10:17:00Z</time></trkpt>
<trkpt lat="33.00873" lon="35.20019"><ele>278.0</ele><time>2013-04-15T10:17:01Z</time></trkpt>
<trkpt lat="33.0088" lon="35.20012"><ele>277.0</ele><time>2013-04-15T10:17:03Z</time></trkpt>
<trkpt lat="33.00887" lon="35.20005"><ele>277.0</ele><time>2013-04-15T10:17:05Z</time></trkpt>
<trkpt lat="33.00893" lon="35.19998"><ele>277.0</ele><time>2013-04-15T10:17:07Z</time></trkpt>
<trkpt lat="33.00899" lon="35.19991"><ele>276.0</ele><time>2013-04-15T10:17:09Z</time></trkpt>
<trkpt lat="33.00905" lon="35.19984"><ele>276.0</ele><time>2013-04-15T10:17:11Z</time></trkpt>
<trkpt lat="33.00913" lon="35.19975"><ele>276.0</ele><time>2013-04-15T10:17:14Z</time></trkpt>
<trkpt lat="33.00919" lon="35.19968"><ele>276.0</ele><time>2013-04-15T10:17:18Z</time></trkpt>
<trkpt lat="33.00913" lon="35.19962"><ele>276.0</ele><time>2013-04-15T10:17:23Z</time></trkpt>
<trkpt lat="33.00906" lon="35.1997"><ele>276.0</ele><time>2013-04-15T10:17:27Z</time></trkpt>
<trkpt lat="33.009" lon="35.19977"><ele>276.0</ele><time>2013-04-15T10:17:30Z</time></trkpt>
<trkpt lat="33.00892" lon="35.19985"><ele>277.0</ele><time>2013-04-15T10:17:34Z</time></trkpt>
<trkpt lat="33.00885" lon="35.19993"><ele>277.0</ele><time>2013-04-15T10:17:38Z</time></trkpt>
<trkpt lat="33.00877" lon="35.20001"><ele>277.0</ele><time>2013-04-15T10:17:42Z</time></trkpt>
<trkpt lat="33.0087" lon="35.20009"><ele>278.0</ele><time>2013-04-15T10:17:46Z</time></trkpt>
<trkpt lat="33.00863" lon="35.20015"><ele>278.0</ele><time>2013-04-15T10:17:49Z</time></trkpt>
<trkpt lat="33.00856" lon="35.20023"><ele>279.0</ele><time>2013-04-15T10:17:53Z</time></trkpt>
<trkpt lat="33.00848" lon="35.20031"><ele>279.0</ele><time>2013-04-15T10:17:57Z</time></trkpt>
<trkpt lat="33.00841" lon="35.20038"><ele>280.0</ele><time>2013-04-15T10:18:01Z</time></trkpt>
<trkpt lat="33.00833" lon="35.20046"><ele>280.0</ele><time>2013-04-15T10:18:05Z</time></trkpt>
<trkpt lat="33.00825" lon="35.20053"><ele>280.0</ele><time>2013-04-15T10:18:09Z</time></trkpt>
<trkpt lat="33.00818" lon="35.2006"><ele>280.0</ele><time>2013-04-15T10:18:13Z</time></trkpt>
<trkpt lat="33.00811" lon="35.20067"><ele>280.0</ele><time>2013-04-15T10:18:17Z</time></trkpt>
<trkpt lat="33.00803" lon="35.20075"><ele>280.0</ele><time>2013-04-15T10:18:21Z</time></trkpt>
<trkpt lat="33.00796" lon="35.20082"><ele>279.0</ele><time>2013-04-15T10:18:25Z</time></trkpt>
<trkpt lat="33.00788" lon="35.2009"><ele>279.0</ele><time>2013-04-15T10:18:29Z</time></trkpt>
<trkpt lat="33.00781" lon="35.20099"><ele>279.0</ele><time>2013-04-15T10:18:33Z</time></trkpt>
<trkpt lat="33.00773" lon="35.20107"><ele>279.0</ele><time>2013-04-15T10:18:37Z</time></trkpt>
<trkpt lat="33.00766" lon="35.20114"><ele>279.0</ele><time>2013-04-15T10:18:41Z</time></trkpt>
<trkpt lat="33.00759" lon="35.20122"><ele>279.0</ele><time>2013-04-15T10:18:45Z</time></trkpt>
<trkpt lat="33.00752" lon="35.2013"><ele>279.0</ele><time>2013-04-15T10:18:49Z</time></trkpt>
<trkpt lat="33.00745" lon="35.20136"><ele>280.0</ele><time>2013-04-15T10:18:52Z</time></trkpt>
<trkpt lat="33.00738" lon="35.20144"><ele>280.0</ele><time>2013-04-15T10:18:56Z</time></trkpt>
<trkpt lat="33.00731" lon="35.20152"><ele>280.0</ele><time>2013-04-15T10:19:00Z</time></trkpt>
<trkpt lat="33.00723" lon="35.2016"><ele>280.0</ele><time>2013-04-15T10:19:04Z</time></trkpt>
<trkpt lat="33.00716" lon="35.20168"><ele>281.0</ele><time>2013-04-15T10:19:08Z</time></trkpt>
<trkpt lat="33.00709" lon="35.20176"><ele>281.0</ele><time>2013-04-15T10:19:12Z</time></trkpt>
<trkpt lat="33.00702" lon="35.20184"><ele>282.0</ele><time>2013-04-15T10:19:16Z</time></trkpt>
<trkpt lat="33.00697" lon="35.20193"><ele>282.0</ele><time>2013-04-15T10:19:20Z</time></trkpt>
<trkpt lat="33.00691" lon="35.20201"><ele>283.0</ele><time>2013-04-15T10:19:24Z</time></trkpt>
<trkpt lat="33.00686" lon="35.2021"><ele>283.0</ele><time>2013-04-15T10:19:28Z</time></trkpt>
<trkpt lat="33.00681" lon="35.20218"><ele>283.0</ele><time>2013-04-15T10:19:32Z</time></trkpt>
<trkpt lat="33.00675" lon="35.20227"><ele>284.0</ele><time>2013-04-15T10:19:36Z</time></trkpt>
<trkpt lat="33.00671" lon="35.20237"><ele>284.0</ele><time>2013-04-15T10:19:40Z</time></trkpt>
<trkpt lat="33.00668" lon="35.20248"><ele>285.0</ele><time>2013-04-15T10:19:44Z</time></trkpt>
<trkpt lat="33.00665" lon="35.20258"><ele>286.0</ele><time>2013-04-15T10:19:48Z</time></trkpt>
<trkpt lat="33.00662" lon="35.20269"><ele>287.0</ele><time>2013-04-15T10:19:52Z</time></trkpt>
<trkpt lat="33.0066" lon="35.20279"><ele>287.0</ele><time>2013-04-15T10:19:56Z</time></trkpt>
<trkpt lat="33.00658" lon="35.20288"><ele>288.0</ele><time>2013-04-15T10:20:00Z</time></trkpt>
<trkpt lat="33.00656" lon="35.203"><ele>288.0</ele><time>2013-04-15T10:20:05Z</time></trkpt>
<trkpt lat="33.00653" lon="35.20311"><ele>288.0</ele><time>2013-04-15T10:20:10Z</time></trkpt>
<trkpt lat="33.00651" lon="35.20323"><ele>288.0</ele><time>2013-04-15T10:20:15Z</time></trkpt>
<trkpt lat="33.0065" lon="35.20334"><ele>289.0</ele><time>2013-04-15T10:20:20Z</time></trkpt>
<trkpt lat="33.00649" lon="35.20345"><ele>290.0</ele><time>2013-04-15T10:20:25Z</time></trkpt>
<trkpt lat="33.00646" lon="35.20356"><ele>291.0</ele><time>2013-04-15T10:20:30Z</time></trkpt>
<trkpt lat="33.00645" lon="35.20367"><ele>291.0</ele><time>2013-04-15T10:20:35Z</time></trkpt>
<trkpt lat="33.00643" lon="35.20377"><ele>292.0</ele><time>2013-04-15T10:20:40Z</time></trkpt>
<trkpt lat="33.00641" lon="35.20387"><ele>292.0</ele><time>2013-04-15T10:20:45Z</time></trkpt>
<trkpt lat="33.00639" lon="35.20397"><ele>293.0</ele><time>2013-04-15T10:20:50Z</time></trkpt>
<trkpt lat="33.00638" lon="35.20408"><ele>293.0</ele><time>2013-04-15T10:20:55Z</time></trkpt>
<trkpt lat="33.00636" lon="35.20418"><ele>294.0</ele><time>2013-04-15T10:21:00Z</time></trkpt>
<trkpt lat="33.00634" lon="35.20429"><ele>295.0</ele><time>2013-04-15T10:21:06Z</time></trkpt>
<trkpt lat="33.00633" lon="35.20441"><ele>296.0</ele><time>2013-04-15T10:21:12Z</time></trkpt>
<trkpt lat="33.00632" lon="35.2045"><ele>296.0</ele><time>2013-04-15T10:21:17Z</time></trkpt>
<trkpt lat="33.00632" lon="35.20461"><ele>296.0</ele><time>2013-04-15T10:21:23Z</time></trkpt>
<trkpt lat="33.0063" lon="35.20471"><ele>297.0</ele><time>2013-04-15T10:21:28Z</time></trkpt>
<trkpt lat="33.00628" lon="35.20481"><ele>297.0</ele><time>2013-04-15T10:21:33Z</time></trkpt>
<trkpt lat="33.00626" lon="35.20492"><ele>297.0</ele><time>2013-04-15T10:21:39Z</time></trkpt>
<trkpt lat="33.00625" lon="35.20503"><ele>298.0</ele><time>2013-04-15T10:21:44Z</time></trkpt>
<trkpt lat="33.00624" lon="35.20512"><ele>299.0</ele><time>2013-04-15T10:21:49Z</time></trkpt>
<trkpt lat="33.00624" lon="35.20522"><ele>300.0</ele><time>2013-04-15T10:21:54Z</time></trkpt>
<trkpt lat="33.00623" lon="35.20532"><ele>300.0</ele><time>2013-04-15T10:22:00Z</time></trkpt>
<trkpt lat="33.00621" lon="35.20543"><ele>300.0</ele><time>2013-04-15T10:22:04Z</time></trkpt>
<trkpt lat="33.00621" lon="35.20553"><ele>301.0</ele><time>2013-04-15T10:22:09Z</time></trkpt>
<trkpt lat="33.0062" lon="35.20562"><ele>301.0</ele><time>2013-04-15T10:22:14Z</time></trkpt>
<trkpt lat="33.00619" lon="35.20574"><ele>301.0</ele><time>2013-04-15T10:22:20Z</time></trkpt>
<trkpt lat="33.00619" lon="35.20584"><ele>302.0</ele><time>2013-04-15T10:22:25Z</time></trkpt>
<trkpt lat="33.00615" lon="35.20596"><ele>303.0</ele><time>2013-04-15T10:22:34Z</time></trkpt>
<trkpt lat="33.00619" lon="35.20605"><ele>304.0</ele><time>2013-04-15T10:22:39Z</time></trkpt>
<trkpt lat="33.00621" lon="35.20616"><ele>304.0</ele><time>2013-04-15T10:22:45Z</time></trkpt>
<trkpt lat="33.00622" lon="35.20627"><ele>305.0</ele><time>2013-04-15T10:22:50Z</time></trkpt>
<trkpt lat="33.00623" lon="35.20637"><ele>305.0</ele><time>2013-04-15T10:22:55Z</time></trkpt>
<trkpt lat="33.00625" lon="35.20649"><ele>305.0</ele><time>2013-04-15T10:23:01Z</time></trkpt>
<trkpt lat="33.00626" lon="35.20658"><ele>306.0</ele><time>2013-04-15T10:23:06Z</time></trkpt>
<trkpt lat="33.00628" lon="35.2067"><ele>307.0</ele><time>2013-04-15T10:23:12Z</time></trkpt>
<trkpt lat="33.00629" lon="35.20681"><ele>308.0</ele><time>2013-04-15T10:23:18Z</time></trkpt>
<trkpt lat="33.00628" lon="35.20693"><ele>308.0</ele><time>2013-04-15T10:23:24Z</time></trkpt>
<trkpt lat="33.00631" lon="35.20703"><ele>309.0</ele><time>2013-04-15T10:23:29Z</time></trkpt>
<trkpt lat="33.00634" lon="35.20713"><ele>309.0</ele><time>2013-04-15T10:23:34Z</time></trkpt>
<trkpt lat="33.00636" lon="35.20723"><ele>309.0</ele><time>2013-04-15T10:23:39Z</time></trkpt>
<trkpt lat="33.00635" lon="35.20734"><ele>309.0</ele><time>2013-04-15T10:23:43Z</time></trkpt>
<trkpt lat="33.00635" lon="35.20744"><ele>310.0</ele><time>2013-04-15T10:23:49Z</time></trkpt>
<trkpt lat="33.00638" lon="35.20755"><ele>311.0</ele><time>2013-04-15T10:23:55Z</time></trkpt>
<trkpt lat="33.00641" lon="35.20765"><ele>312.0</ele><time>2013-04-15T10:24:00Z</time></trkpt>
<trkpt lat="33.00641" lon="35.20776"><ele>312.0</ele><time>2013-04-15T10:24:07Z</time></trkpt>
<trkpt lat="33.00641" lon="35.20787"><ele>313.0</ele><time>2013-04-15T10:24:13Z</time></trkpt>
<trkpt lat="33.00643" lon="35.20798"><ele>313.0</ele><time>2013-04-15T10:24:18Z</time></trkpt>
<trkpt lat="33.00644" lon="35.2081"><ele>314.0</ele><time>2013-04-15T10:24:23Z</time></trkpt>
<trkpt lat="33.00646" lon="35.2082"><ele>314.0</ele><time>2013-04-15T10:24:28Z</time></trkpt>
<trkpt lat="33.00647" lon="35.2083"><ele>315.0</ele><time>2013-04-15T10:24:33Z</time></trkpt>
<trkpt lat="33.00648" lon="35.2084"><ele>316.0</ele><time>2013-04-15T10:24:38Z</time></trkpt>
<trkpt lat="33.00651" lon="35.20851"><ele>316.0</ele><time>2013-04-15T10:24:44Z</time></trkpt>
<trkpt lat="33.0065" lon="35.20862"><ele>317.0</ele><time>2013-04-15T10:24:50Z</time></trkpt>
<trkpt lat="33.00652" lon="35.20872"><ele>317.0</ele><time>2013-04-15T10:24:55Z</time></trkpt>
<trkpt lat="33.00654" lon="35.20883"><ele>317.0</ele><time>2013-04-15T10:25:01Z</time></trkpt>
<trkpt lat="33.00655" lon="35.20894"><ele>317.0</ele><time>2013-04-15T10:25:06Z</time></trkpt>
<trkpt lat="33.00654" lon="35.20904"><ele>318.0</ele><time>2013-04-15T10:25:12Z</time></trkpt>
<trkpt lat="33.00656" lon="35.20914"><ele>318.0</ele><time>2013-04-15T10:25:17Z</time></trkpt>
<trkpt lat="33.00655" lon="35.20926"><ele>319.0</ele><time>2013-04-15T10:25:23Z</time></trkpt>
<trkpt lat="33.00655" lon="35.20936"><ele>319.0</ele><time>2013-04-15T10:25:28Z</time></trkpt>
<trkpt lat="33.00655" lon="35.20959"><ele>320.0</ele><time>2013-04-15T10:26:00Z</time></trkpt>
<trkpt lat="33.00654" lon="35.20971"><ele>320.0</ele><time>2013-04-15T10:26:05Z</time></trkpt>
<trkpt lat="33.00654" lon="35.20982"><ele>320.0</ele><time>2013-04-15T10:26:10Z</time></trkpt>
<trkpt lat="33.00655" lon="35.20993"><ele>320.0</ele><time>2013-04-15T10:26:16Z</time></trkpt>
<trkpt lat="33.00655" lon="35.21003"><ele>321.0</ele><time>2013-04-15T10:26:21Z</time></trkpt>
<trkpt lat="33.00656" lon="35.21014"><ele>322.0</ele><time>2013-04-15T10:26:26Z</time></trkpt>
<trkpt lat="33.00656" lon="35.21025"><ele>323.0</ele><time>2013-04-15T10:26:31Z</time></trkpt>
<trkpt lat="33.00657" lon="35.21036"><ele>324.0</ele><time>2013-04-15T10:26:36Z</time></trkpt>
<trkpt lat="33.00659" lon="35.21047"><ele>324.0</ele><time>2013-04-15T10:26:41Z</time></trkpt>
<trkpt lat="33.00659" lon="35.21059"><ele>325.0</ele><time>2013-04-15T10:26:46Z</time></trkpt>
<trkpt lat="33.00659" lon="35.2107"><ele>325.0</ele><time>2013-04-15T10:26:51Z</time></trkpt>
<trkpt lat="33.00657" lon="35.21079"><ele>326.0</ele><time>2013-04-15T10:26:56Z</time></trkpt>
<trkpt lat="33.00657" lon="35.21091"><ele>327.0</ele><time>2013-04-15T10:27:01Z</time></trkpt>
<trkpt lat="33.00657" lon="35.21101"><ele>328.0</ele><time>2013-04-15T10:27:06Z</time></trkpt>
<trkpt lat="33.00657" lon="35.21112"><ele>329.0</ele><time>2013-04-15T10:27:11Z</time></trkpt>
<trkpt lat="33.00658" lon="35.21123"><ele>330.0</ele><time>2013-04-15T10:27:17Z</time></trkpt>
<trkpt lat="33.00657" lon="35.21133"><ele>330.0</ele><time>2013-04-15T10:27:22Z</time></trkpt>
<trkpt lat="33.00654" lon="35.21142"><ele>331.0</ele><time>2013-04-15T10:27:27Z</time></trkpt>
<trkpt lat="33.00654" lon="35.21154"><ele>331.0</ele><time>2013-04-15T10:27:32Z</time></trkpt>
<trkpt lat="33.00652" lon="35.21165"><ele>332.0</ele><time>2013-04-15T10:27:37Z</time></trkpt>
<trkpt lat="33.00649" lon="35.21175"><ele>333.0</ele><time>2013-04-15T10:27:42Z</time></trkpt>
<trkpt lat="33.00647" lon="35.21191"><ele>334.0</ele><time>2013-04-15T10:27:51Z</time></trkpt>
<trkpt lat="33.00643" lon="35.21201"><ele>335.0</ele><time>2013-04-15T10:27:57Z</time></trkpt>
<trkpt lat="33.00642" lon="35.21212"><ele>335.0</ele><time>2013-04-15T10:28:02Z</time></trkpt>
<trkpt lat="33.00638" lon="35.21221"><ele>336.0</ele><time>2013-04-15T10:28:07Z</time></trkpt>
<trkpt lat="33.00635" lon="35.2123"><ele>336.0</ele><time>2013-04-15T10:28:13Z</time></trkpt>
<trkpt lat="33.00622" lon="35.21244"><ele>336.0</ele><time>2013-04-15T10:28:27Z</time></trkpt>
<trkpt lat="33.00617" lon="35.21253"><ele>337.0</ele><time>2013-04-15T10:28:32Z</time></trkpt>
<trkpt lat="33.00612" lon="35.2126"><ele>337.0</ele><time>2013-04-15T10:28:37Z</time></trkpt>
<trkpt lat="33.00605" lon="35.21267"><ele>338.0</ele><time>2013-04-15T10:28:43Z</time></trkpt>
<trkpt lat="33.006" lon="35.21276"><ele>339.0</ele><time>2013-04-15T10:28:49Z</time></trkpt>
<trkpt lat="33.00596" lon="35.21285"><ele>339.0</ele><time>2013-04-15T10:28:53Z</time></trkpt>
<trkpt lat="33.0059" lon="35.21293"><ele>340.0</ele><time>2013-04-15T10:28:57Z</time></trkpt>
<trkpt lat="33.00584" lon="35.21299"><ele>340.0</ele><time>2013-04-15T10:29:01Z</time></trkpt>
<trkpt lat="33.00579" lon="35.21309"><ele>341.0</ele><time>2013-04-15T10:29:06Z</time></trkpt>
<trkpt lat="33.00574" lon="35.21318"><ele>341.0</ele><time>2013-04-15T10:29:11Z</time></trkpt>
<trkpt lat="33.00569" lon="35.21326"><ele>340.0</ele><time>2013-04-15T10:29:15Z</time></trkpt>
<trkpt lat="33.00562" lon="35.21335"><ele>340.0</ele><time>2013-04-15T10:29:19Z</time></trkpt>
<trkpt lat="33.00555" lon="35.21341"><ele>340.0</ele><time>2013-04-15T10:29:23Z</time></trkpt>
<trkpt lat="33.00548" lon="35.21346"><ele>340.0</ele><time>2013-04-15T10:29:26Z</time></trkpt>
<trkpt lat="33.0054" lon="35.2135"><ele>340.0</ele><time>2013-04-15T10:29:30Z</time></trkpt>
<trkpt lat="33.00533" lon="35.21358"><ele>340.0</ele><time>2013-04-15T10:29:34Z</time></trkpt>
<trkpt lat="33.0053" lon="35.21368"><ele>340.0</ele><time>2013-04-15T10:29:38Z</time></trkpt>
<trkpt lat="33.00532" lon="35.21377"><ele>340.0</ele><time>2013-04-15T10:29:42Z</time></trkpt>
<trkpt lat="33.00535" lon="35.21388"><ele>340.0</ele><time>2013-04-15T10:29:47Z</time></trkpt>
<trkpt lat="33.0054" lon="35.21397"><ele>341.0</ele><time>2013-04-15T10:29:52Z</time></trkpt>
<trkpt lat="33.00547" lon="35.21402"><ele>341.0</ele><time>2013-04-15T10:29:57Z</time></trkpt>
<trkpt lat="33.00553" lon="35.2141"><ele>342.0</ele><time>2013-04-15T10:30:02Z</time></trkpt>
<trkpt lat="33.00556" lon="35.2142"><ele>342.0</ele><time>2013-04-15T10:30:08Z</time></trkpt>
<trkpt lat="33.00559" lon="35.2143"><ele>343.0</ele><time>2013-04-15T10:30:14Z</time></trkpt>
<trkpt lat="33.00555" lon="35.2144"><ele>343.0</ele><time>2013-04-15T10:30:22Z</time></trkpt>
<trkpt lat="33.00547" lon="35.21446"><ele>344.0</ele><time>2013-04-15T10:30:27Z</time></trkpt>
<trkpt lat="33.00538" lon="35.21454"><ele>344.0</ele><time>2013-04-15T10:30:31Z</time></trkpt>
<trkpt lat="33.00531" lon="35.21458"><ele>344.0</ele><time>2013-04-15T10:30:34Z</time></trkpt>
<trkpt lat="33.00523" lon="35.21464"><ele>345.0</ele><time>2013-04-15T10:30:37Z</time></trkpt>
<trkpt lat="33.00516" lon="35.21473"><ele>345.0</ele><time>2013-04-15T10:30:40Z</time></trkpt>
<trkpt lat="33.00513" lon="35.21484"><ele>345.0</ele><time>2013-04-15T10:30:45Z</time></trkpt>
<trkpt lat="33.00512" lon="35.21494"><ele>345.0</ele><time>2013-04-15T10:30:48Z</time></trkpt>
<trkpt lat="33.00513" lon="35.21505"><ele>346.0</ele><time>2013-04-15T10:30:52Z</time></trkpt>
<trkpt lat="33.0051" lon="35.21516"><ele>347.0</ele><time>2013-04-15T10:30:58Z</time></trkpt>
<trkpt lat="33.00504" lon="35.21524"><ele>348.0</ele><time>2013-04-15T10:31:02Z</time></trkpt>
<trkpt lat="33.005" lon="35.21533"><ele>348.0</ele><time>2013-04-15T10:31:07Z</time></trkpt>
</trkseg></trk></gpx>