<?xml version="1.0" encoding="utf-8"?>
<gpx version="1.1"><trk><trkseg>
<trkpt lat="33.00497" lon="35.21527"><ele>350.0</ele><time>2013-07-13T15:21:00Z</time></trkpt>
<trkpt lat="33.00497" lon="35.21542"><ele>350.0</ele><time>2013-07-13T15:21:04Z</time></trkpt>
<trkpt lat="33.00498" lon="35.21555"><ele>350.0</ele><time>2013-07-13T15:21:07Z</time></trkpt>
<trkpt lat="33.00505" lon="35.21544"><ele>350.0</ele><time>2013-07-13T15:21:14Z</time></trkpt>
<trkpt lat="33.00505" lon="35.21554"><ele>350.0</ele><time>2013-07-13T15:23:35Z</time></trkpt>
<trkpt lat="33.00513" lon="35.2156"><ele>350.0</ele><time>2013-07-13T15:23:40Z</time></trkpt>
<trkpt lat="33.00521" lon="35.21554"><ele>350.0</ele><time>2013-07-13T15:23:47Z</time></trkpt>
<trkpt lat="33.0053" lon="35.21547"><ele>350.0</ele><time>2013-07-13T15:23:51Z</time></trkpt>
<trkpt lat="33.00538" lon="35.21544"><ele>350.0</ele><time>2013-07-13T15:23:54Z</time></trkpt>
<trkpt lat="33.00546" lon="35.21544"><ele>350.0</ele><time>2013-07-13T15:23:57Z</time></trkpt>
<trkpt lat="33.00553" lon="35.21539"><ele>350.0</ele><time>2013-07-13T15:24:03Z</time></trkpt>
<trkpt lat="33.00558" lon="35.21529"><ele>349.0</ele><time>2013-07-13T15:24:06Z</time></trkpt>
<trkpt lat="33.00565" lon="35.2152"><ele>349.0</ele><time>2013-07-13T15:24:09Z</time></trkpt>
<trkpt lat="33.00574" lon="35.21514"><ele>349.0</ele><time>2013-07-13T15:24:12Z</time></trkpt>
<trkpt lat="33.00583" lon="35.21508"><ele>349.0</ele><time>2013-07-13T15:24:15Z</time></trkpt>
<trkpt lat="33.00592" lon="35.21502"><ele>349.0</ele><time>2013-07-13T15:24:18Z</time></trkpt>
<trkpt lat="33.00597" lon="35.21489"><ele>348.0</ele><time>2013-07-13T15:24:22Z</time></trkpt>
<trkpt lat="33.00595" lon="35.21477"><ele>348.0</ele><time>2013-07-13T15:24:24Z</time></trkpt>
<trkpt lat="33.00591" lon="35.21466"><ele>348.0</ele><time>2013-07-13T15:24:25Z</time></trkpt>
<trkpt lat="33.00585" lon="35.21454"><ele>347.0</ele><time>2013-07-13T15:24:27Z</time></trkpt>
<trkpt lat="33.00577" lon="35.21444"><ele>347.0</ele><time>2013-07-13T15:24:29Z</time></trkpt>
<trkpt lat="33.0057" lon="35.21434"><ele>346.0</ele><time>2013-07-13T15:24:31Z</time></trkpt>
<trkpt lat="33.00563" lon="35.21424"><ele>346.0</ele><time>2013-07-13T15:24:33Z</time></trkpt>
<trkpt lat="33.00555" lon="35.21411"><ele>345.0</ele><time>2013-07-13T15:24:35Z</time></trkpt>
<trkpt lat="33.00549" lon="35.21397"><ele>345.0</ele><time>2013-07-13T15:24:37Z</time></trkpt>
<trkpt lat="33.00547" lon="35.21382"><ele>344.0</ele><time>2013-07-13T15:24:39Z</time></trkpt>
<trkpt lat="33.00551" lon="35.21365"><ele>344.0</ele><time>2013-07-13T15:24:41Z</time></trkpt>
<trkpt lat="33.00557" lon="35.21348"><ele>343.0</ele><time>2013-07-13T15:24:43Z</time></trkpt>
<trkpt lat="33.00565" lon="35.21334"><ele>342.0</ele><time>2013-07-13T15:24:45Z</time></trkpt>
<trkpt lat="33.00574" lon="35.2132"><ele>342.0</ele><time>2013-07-13T15:24:47Z</time></trkpt>
<trkpt lat="33.00584" lon="35.21307"><ele>341.0</ele><time>2013-07-13T15:24:49Z</time></trkpt>
<trkpt lat="33.00592" lon="35.21294"><ele>340.0</ele><time>2013-07-13T15:24:51Z</time></trkpt>
<trkpt lat="33.00601" lon="35.21281"><ele>339.0</ele><time>2013-07-13T15:24:53Z</time></trkpt>
<trkpt lat="33.0061" lon="35.21268"><ele>338.0</ele><time>2013-07-13T15:24:55Z</time></trkpt>
<trkpt lat="33.00618" lon="35.21255"><ele>337.0</ele><time>2013-07-13T15:24:57Z</time></trkpt>
<trkpt lat="33.00627" lon="35.2124"><ele>337.0</ele><time>2013-07-13T15:25:00Z</time></trkpt>
<trkpt lat="33.00635" lon="35.21226"><ele>336.0</ele><time>2013-07-13T15:25:02Z</time></trkpt>
<trkpt lat="33.00641" lon="35.2121"><ele>335.0</ele><time>2013-07-13T15:25:04Z</time></trkpt>
<trkpt lat="33.00645" lon="35.21192"><ele>334.0</ele><time>2013-07-13T15:25:06Z</time></trkpt>
<trkpt lat="33.00647" lon="35.21174"><ele>333.0</ele><time>2013-07-13T15:25:08Z</time></trkpt>
<trkpt lat="33.0065" lon="35.21155"><ele>332.0</ele><time>2013-07-13T15:25:10Z</time></trkpt>
<trkpt lat="33.00651" lon="35.21145"><ele>331.0</ele><time>2013-07-13T15:25:11Z</time></trkpt>
<trkpt lat="33.00652" lon="35.21135"><ele>330.0</ele><time>2013-07-13T15:25:12Z</time></trkpt>
<trkpt lat="33.00653" lon="35.21125"><ele>330.0</ele><time>2013-07-13T15:25:13Z</time></trkpt>
<trkpt lat="33.00654" lon="35.21115"><ele>329.0</ele><time>2013-07-13T15:25:14Z</time></trkpt>
<trkpt lat="33.00655" lon="35.21105"><ele>328.0</ele><time>2013-07-13T15:25:15Z</time></trkpt>
<trkpt lat="33.00656" lon="35.21095"><ele>326.0</ele><time>2013-07-13T15:25:16Z</time></trkpt>
<trkpt lat="33.00658" lon="35.21078"><ele>325.0</ele><time>2013-07-13T15:25:18Z</time></trkpt>
<trkpt lat="33.00657" lon="35.21063"><ele>325.0</ele><time>2013-07-13T15:25:20Z</time></trkpt>
<trkpt lat="33.00657" lon="35.21051"><ele>324.0</ele><time>2013-07-13T15:25:22Z</time></trkpt>
<trkpt lat="33.00657" lon="35.21041"><ele>324.0</ele><time>2013-07-13T15:25:24Z</time></trkpt>
<trkpt lat="33.00656" lon="35.21031"><ele>323.0</ele><time>2013-07-13T15:25:25Z</time></trkpt>
<trkpt lat="33.00654" lon="35.21017"><ele>322.0</ele><time>2013-07-13T15:25:28Z</time></trkpt>
<trkpt lat="33.00652" lon="35.21004"><ele>321.0</ele><time>2013-07-13T15:25:31Z</time></trkpt>
<trkpt lat="33.00652" lon="35.20993"><ele>320.0</ele><time>2013-07-13T15:25:34Z</time></trkpt>
<trkpt lat="33.00651" lon="35.20982"><ele>320.0</ele><time>2013-07-13T15:25:37Z</time></trkpt>
<trkpt lat="33.00649" lon="35.2097"><ele>320.0</ele><time>2013-07-13T15:25:40Z</time></trkpt>
<trkpt lat="33.00649" lon="35.20958"><ele>320.0</ele><time>2013-07-13T15:25:43Z</time></trkpt>
<trkpt lat="33.00649" lon="35.20944"><ele>319.0</ele><time>2013-07-13T15:25:46Z</time></trkpt>
<trkpt lat="33.00648" lon="35.20933"><ele>319.0</ele><time>2013-07-13T15:25:48Z</time></trkpt>
<trkpt lat="33.00647" lon="35.20921"><ele>318.0</ele><time>2013-07-13T15:25:50Z</time></trkpt>
<trkpt lat="33.00645" lon="35.20911"><ele>318.0</ele><time>2013-07-13T15:25:52Z</time></trkpt>
<trkpt lat="33.00644" lon="35.209"><ele>317.0</ele><time>2013-07-13T15:25:54Z</time></trkpt>
<trkpt lat="33.00643" lon="35.20887"><ele>317.0</ele><time>2013-07-13T15:25:56Z</time></trkpt>
<trkpt lat="33.00643" lon="35.2087"><ele>316.0</ele><time>2013-07-13T15:25:58Z</time></trkpt>
<trkpt lat="33.00643" lon="35.2086"><ele>316.0</ele><time>2013-07-13T15:26:00Z</time></trkpt>
<trkpt lat="33.00641" lon="35.20844"><ele>315.0</ele><time>2013-07-13T15:26:02Z</time></trkpt>
<trkpt lat="33.00639" lon="35.20827"><ele>314.0</ele><time>2013-07-13T15:26:04Z</time></trkpt>
<trkpt lat="33.00637" lon="35.2081"><ele>314.0</ele><time>2013-07-13T15:26:06Z</time></trkpt>
<trkpt lat="33.00635" lon="35.20791"><ele>313.0</ele><time>2013-07-13T15:26:08Z</time></trkpt>
<trkpt lat="33.00635" lon="35.20781"><ele>312.0</ele><time>2013-07-13T15:26:09Z</time></trkpt>
<trkpt lat="33.00633" lon="35.20771"><ele>312.0</ele><time>2013-07-13T15:26:10Z</time></trkpt>
<trkpt lat="33.00632" lon="35.20761"><ele>311.0</ele><time>2013-07-13T15:26:11Z</time></trkpt>
<trkpt lat="33.00631" lon="35.20751"><ele>311.0</ele><time>2013-07-13T15:26:12Z</time></trkpt>
<trkpt lat="33.0063" lon="35.20741"><ele>310.0</ele><time>2013-07-13T15:26:13Z</time></trkpt>
<trkpt lat="33.00629" lon="35.20731"><ele>310.0</ele><time>2013-07-13T15:26:14Z</time></trkpt>
<trkpt lat="33.00628" lon="35.2072"><ele>309.0</ele><time>2013-07-13T15:26:15Z</time></trkpt>
<trkpt lat="33.00627" lon="35.2071"><ele>309.0</ele><time>2013-07-13T15:26:16Z</time></trkpt>
<trkpt lat="33.00626" lon="35.20699"><ele>309.0</ele><time>2013-07-13T15:26:17Z</time></trkpt>
<trkpt lat="33.00625" lon="35.20689"><ele>308.0</ele><time>2013-07-13T15:26:18Z</time></trkpt>
<trkpt lat="33.00624" lon="35.20678"><ele>307.0</ele><time>2013-07-13T15:26:19Z</time></trkpt>
<trkpt lat="33.00623" lon="35.20669"><ele>307.0</ele><time>2013-07-13T15:26:20Z</time></trkpt>
<trkpt lat="33.00621" lon="35.20659"><ele>306.0</ele><time>2013-07-13T15:26:21Z</time></trkpt>
<trkpt lat="33.00619" lon="35.2064"><ele>305.0</ele><time>2013-07-13T15:26:23Z</time></trkpt>
<trkpt lat="33.00617" lon="35.20623"><ele>304.0</ele><time>2013-07-13T15:26:25Z</time></trkpt>
<trkpt lat="33.00615" lon="35.20607"><ele>304.0</ele><time>2013-07-13T15:26:26Z</time></trkpt>
<trkpt lat="33.00615" lon="35.20593"><ele>303.0</ele><time>2013-07-13T15:26:28Z</time></trkpt>
<trkpt lat="33.00616" lon="35.20578"><ele>302.0</ele><time>2013-07-13T15:26:30Z</time></trkpt>
<trkpt lat="33.00617" lon="35.20561"><ele>301.0</ele><time>2013-07-13T15:26:32Z</time></trkpt>
<trkpt lat="33.00619" lon="35.20544"><ele>300.0</ele><time>2013-07-13T15:26:34Z</time></trkpt>
<trkpt lat="33.0062" lon="35.20525"><ele>300.0</ele><time>2013-07-13T15:26:36Z</time></trkpt>
<trkpt lat="33.00621" lon="35.20506"><ele>299.0</ele><time>2013-07-13T15:26:38Z</time></trkpt>
<trkpt lat="33.00622" lon="35.20496"><ele>298.0</ele><time>2013-07-13T15:26:39Z</time></trkpt>
<trkpt lat="33.00623" lon="35.20486"><ele>298.0</ele><time>2013-07-13T15:26:40Z</time></trkpt>
<trkpt lat="33.00624" lon="35.20476"><ele>297.0</ele><time>2013-07-13T15:26:41Z</time></trkpt>
<trkpt lat="33.00626" lon="35.20466"><ele>297.0</ele><time>2013-07-13T15:26:42Z</time></trkpt>
<trkpt lat="33.00628" lon="35.20455"><ele>296.0</ele><time>2013-07-13T15:26:43Z</time></trkpt>
<trkpt lat="33.0063" lon="35.20445"><ele>296.0</ele><time>2013-07-13T15:26:44Z</time></trkpt>
<trkpt lat="33.00631" lon="35.20435"><ele>296.0</ele><time>2013-07-13T15:26:45Z</time></trkpt>
<trkpt lat="33.00633" lon="35.20425"><ele>295.0</ele><time>2013-07-13T15:26:46Z</time></trkpt>
<trkpt lat="33.00634" lon="35.20414"><ele>294.0</ele><time>2013-07-13T15:26:47Z</time></trkpt>
<trkpt lat="33.00635" lon="35.20404"><ele>293.0</ele><time>2013-07-13T15:26:48Z</time></trkpt>
<trkpt lat="33.00636" lon="35.20394"><ele>293.0</ele><time>2013-07-13T15:26:49Z</time></trkpt>
<trkpt lat="33.00638" lon="35.20383"><ele>292.0</ele><time>2013-07-13T15:26:50Z</time></trkpt>
<trkpt lat="33.00639" lon="35.20373"><ele>292.0</ele><time>2013-07-13T15:26:51Z</time></trkpt>
<trkpt lat="33.00641" lon="35.20362"><ele>291.0</ele><time>2013-07-13T15:26:52Z</time></trkpt>
<trkpt lat="33.00642" lon="35.20351"><ele>291.0</ele><time>2013-07-13T15:26:53Z</time></trkpt>
<trkpt lat="33.00644" lon="35.2034"><ele>290.0</ele><time>2013-07-13T15:26:54Z</time></trkpt>
<trkpt lat="33.00646" lon="35.2033"><ele>289.0</ele><time>2013-07-13T15:26:55Z</time></trkpt>
<trkpt lat="33.00648" lon="35.20319"><ele>288.0</ele><time>2013-07-13T15:26:56Z</time></trkpt>
<trkpt lat="33.0065" lon="35.20308"><ele>288.0</ele><time>2013-07-13T15:26:57Z</time></trkpt>
<trkpt lat="33.00652" lon="35.20297"><ele>288.0</ele><time>2013-07-13T15:26:58Z</time></trkpt>
<trkpt lat="33.00654" lon="35.20287"><ele>288.0</ele><time>2013-07-13T15:26:59Z</time></trkpt>
<trkpt lat="33.00656" lon="35.20276"><ele>287.0</ele><time>2013-07-13T15:27:01Z</time></trkpt>
<trkpt lat="33.00659" lon="35.20265"><ele>287.0</ele><time>2013-07-13T15:27:02Z</time></trkpt>
<trkpt lat="33.00662" lon="35.20255"><ele>286.0</ele><time>2013-07-13T15:27:03Z</time></trkpt>
<trkpt lat="33.00666" lon="35.20245"><ele>285.0</ele><time>2013-07-13T15:27:04Z</time></trkpt>
<trkpt lat="33.00669" lon="35.20235"><ele>284.0</ele><time>2013-07-13T15:27:05Z</time></trkpt>
<trkpt lat="33.00674" lon="35.20226"><ele>284.0</ele><time>2013-07-13T15:27:06Z</time></trkpt>
<trkpt lat="33.00679" lon="35.20217"><ele>283.0</ele><time>2013-07-13T15:27:07Z</time></trkpt>
<trkpt lat="33.00684" lon="35.20209"><ele>283.0</ele><time>2013-07-13T15:27:08Z</time></trkpt>
<trkpt lat="33.00694" lon="35.20194"><ele>282.0</ele><time>2013-07-13T15:27:10Z</time></trkpt>
<trkpt lat="33.007" lon="35.20186"><ele>281.0</ele><time>2013-07-13T15:27:11Z</time></trkpt>
<trkpt lat="33.0071" lon="35.20172"><ele>281.0</ele><time>2013-07-13T15:27:13Z</time></trkpt>
<trkpt lat="33.00722" lon="35.20159"><ele>280.0</ele><time>2013-07-13T15:27:15Z</time></trkpt>
<trkpt lat="33.00733" lon="35.20147"><ele>280.0</ele><time>2013-07-13T15:27:17Z</time></trkpt>
<trkpt lat="33.00744" lon="35.20135"><ele>280.0</ele><time>2013-07-13T15:27:19Z</time></trkpt>
<trkpt lat="33.00755" lon="35.20123"><ele>280.0</ele><time>2013-07-13T15:27:21Z</time></trkpt>
<trkpt lat="33.00766" lon="35.20112"><ele>280.0</ele><time>2013-07-13T15:27:23Z</time></trkpt>
<trkpt lat="33.00777" lon="35.20101"><ele>280.0</ele><time>2013-07-13T15:27:25Z</time></trkpt>
<trkpt lat="33.00787" lon="35.2009"><ele>279.0</ele><time>2013-07-13T15:27:26Z</time></trkpt>
<trkpt lat="33.00797" lon="35.20079"><ele>279.0</ele><time>2013-07-13T15:27:28Z</time></trkpt>
<trkpt lat="33.00807" lon="35.20068"><ele>279.0</ele><time>2013-07-13T15:27:30Z</time></trkpt>
<trkpt lat="33.00817" lon="35.20057"><ele>280.0</ele><time>2013-07-13T15:27:32Z</time></trkpt>
<trkpt lat="33.00827" lon="35.20047"><ele>279.0</ele><time>2013-07-13T15:27:34Z</time></trkpt>
<trkpt lat="33.00837" lon="35.20036"><ele>279.0</ele><time>2013-07-13T15:27:36Z</time></trkpt>
<trkpt lat="33.00848" lon="35.20025"><ele>279.0</ele><time>2013-07-13T15:27:38Z</time></trkpt>
<trkpt lat="33.00859" lon="35.20014"><ele>278.0</ele><time>2013-07-13T15:27:40Z</time></trkpt>
<trkpt lat="33.00869" lon="35.20002"><ele>278.0</ele><time>2013-07-13T15:27:42Z</time></trkpt>
<trkpt lat="33.00879" lon="35.19991"><ele>277.0</ele><time>2013-07-13T15:27:44Z</time></trkpt>
<trkpt lat="33.0089" lon="35.1998"><ele>277.0</ele><time>2013-07-13T15:27:46Z</time></trkpt>
<trkpt lat="33.00901" lon="35.19968"><ele>276.0</ele><time>2013-07-13T15:27:48Z</time></trkpt>
<trkpt lat="33.00911" lon="35.19957"><ele>276.0</ele><time>2013-07-13T15:27:50Z</time></trkpt>
<trkpt lat="33.0092" lon="35.19944"><ele>275.0</ele><time>2013-07-13T15:27:52Z</time></trkpt>
<trkpt lat="33.00927" lon="35.19931"><ele>274.0</ele><time>2013-07-13T15:27:54Z</time></trkpt>
<trkpt lat="33.00932" lon="35.19915"><ele>274.0</ele><time>2013-07-13T15:27:56Z</time></trkpt>
<trkpt lat="33.00936" lon="35.19898"><ele>274.0</ele><time>2013-07-13T15:27:58Z</time></trkpt>
<trkpt lat="33.0094" lon="35.19881"><ele>273.0</ele><time>2013-07-13T15:28:01Z</time></trkpt>
<trkpt lat="33.00944" lon="35.19862"><ele>273.0</ele><time>2013-07-13T15:28:03Z</time></trkpt>
<trkpt lat="33.00949" lon="35.19844"><ele>273.0</ele><time>2013-07-13T15:28:05Z</time></trkpt>
<trkpt lat="33.00951" lon="35.19835"><ele>272.0</ele><time>2013-07-13T15:28:06Z</time></trkpt>
<trkpt lat="33.00953" lon="35.19825"><ele>271.0</ele><time>2013-07-13T15:28:07Z</time></trkpt>
<trkpt lat="33.00954" lon="35.19816"><ele>270.0</ele><time>2013-07-13T15:28:08Z</time></trkpt>
<trkpt lat="33.00956" lon="35.19806"><ele>269.0</ele><time>2013-07-13T15:28:09Z</time></trkpt>
<trkpt lat="33.00957" lon="35.19796"><ele>269.0</ele><time>2013-07-13T15:28:10Z</time></trkpt>
<trkpt lat="33.00958" lon="35.19786"><ele>268.0</ele><time>2013-07-13T15:28:11Z</time></trkpt>
<trkpt lat="33.00959" lon="35.19776"><ele>268.0</ele><time>2013-07-13T15:28:12Z</time></trkpt>
<trkpt lat="33.00961" lon="35.19766"><ele>267.0</ele><time>2013-07-13T15:28:13Z</time></trkpt>
<trkpt lat="33.00961" lon="35.19756"><ele>266.0</ele><time>2013-07-13T15:28:14Z</time></trkpt>
<trkpt lat="33.00962" lon="35.19746"><ele>264.0</ele><time>2013-07-13T15:28:15Z</time></trkpt>
<trkpt lat="33.00963" lon="35.19736"><ele>263.0</ele><time>2013-07-13T15:28:16Z</time></trkpt>
<trkpt lat="33.00963" lon="35.19727"><ele>263.0</ele><time>2013-07-13T15:28:17Z</time></trkpt>
<trkpt lat="33.00963" lon="35.19708"><ele>262.0</ele><time>2013-07-13T15:28:19Z</time></trkpt>
<trkpt lat="33.0096" lon="35.19688"><ele>262.0</ele><time>2013-07-13T15:28:21Z</time></trkpt>
<trkpt lat="33.00958" lon="35.19679"><ele>261.0</ele><time>2013-07-13T15:28:22Z</time></trkpt>
<trkpt lat="33.00955" lon="35.19669"><ele>260.0</ele><time>2013-07-13T15:28:23Z</time></trkpt>
<trkpt lat="33.00952" lon="35.19659"><ele>259.0</ele><time>2013-07-13T15:28:24Z</time></trkpt>
<trkpt lat="33.0095" lon="35.19649"><ele>258.0</ele><time>2013-07-13T15:28:25Z</time></trkpt>
<trkpt lat="33.00943" lon="35.19628"><ele>257.0</ele><time>2013-07-13T15:28:26Z</time></trkpt>
<trkpt lat="33.0094" lon="35.19618"><ele>257.0</ele><time>2013-07-13T15:28:27Z</time></trkpt>
<trkpt lat="33.00936" lon="35.19608"><ele>257.0</ele><time>2013-07-13T15:28:28Z</time></trkpt>
<trkpt lat="33.00932" lon="35.19597"><ele>256.0</ele><time>2013-07-13T15:28:29Z</time></trkpt>
<trkpt lat="33.00929" lon="35.19587"><ele>255.0</ele><time>2013-07-13T15:28:30Z</time></trkpt>
<trkpt lat="33.00926" lon="35.19576"><ele>254.0</ele><time>2013-07-13T15:28:31Z</time></trkpt>
<trkpt lat="33.00922" lon="35.19565"><ele>253.0</ele><time>2013-07-13T15:28:32Z</time></trkpt>
<trkpt lat="33.00919" lon="35.19554"><ele>253.0</ele><time>2013-07-13T15:28:33Z</time></trkpt>
<trkpt lat="33.00915" lon="35.19544"><ele>252.0</ele><time>2013-07-13T15:28:34Z</time></trkpt>
<trkpt lat="33.00911" lon="35.19533"><ele>252.0</ele><time>2013-07-13T15:28:35Z</time></trkpt>
<trkpt lat="33.00907" lon="35.19522"><ele>251.0</ele><time>2013-07-13T15:28:36Z</time></trkpt>
<trkpt lat="33.00903" lon="35.19512"><ele>250.0</ele><time>2013-07-13T15:28:37Z</time></trkpt>
<trkpt lat="33.00898" lon="35.19501"><ele>249.0</ele><time>2013-07-13T15:28:38Z</time></trkpt>
<trkpt lat="33.00893" lon="35.19491"><ele>248.0</ele><time>2013-07-13T15:28:39Z</time></trkpt>
<trkpt lat="33.00888" lon="35.19481"><ele>248.0</ele><time>2013-07-13T15:28:40Z</time></trkpt>
<trkpt lat="33.00882" lon="35.19471"><ele>248.0</ele><time>2013-07-13T15:28:41Z</time></trkpt>
<trkpt lat="33.00877" lon="35.19461"><ele>247.0</ele><time>2013-07-13T15:28:42Z</time></trkpt>
<trkpt lat="33.00872" lon="35.19451"><ele>247.0</ele><time>2013-07-13T15:28:43Z</time></trkpt>
<trkpt lat="33.00867" lon="35.19441"><ele>246.0</ele><time>2013-07-13T15:28:44Z</time></trkpt>
<trkpt lat="33.00863" lon="35.1943"><ele>246.0</ele><time>2013-07-13T15:28:45Z</time></trkpt>
<trkpt lat="33.00859" lon="35.19419"><ele>245.0</ele><time>2013-07-13T15:28:46Z</time></trkpt>
<trkpt lat="33.00856" lon="35.19408"><ele>244.0</ele><time>2013-07-13T15:28:47Z</time></trkpt>
<trkpt lat="33.00854" lon="35.19396"><ele>244.0</ele><time>2013-07-13T15:28:48Z</time></trkpt>
<trkpt lat="33.00852" lon="35.19385"><ele>244.0</ele><time>2013-07-13T15:28:49Z</time></trkpt>
<trkpt lat="33.00851" lon="35.19373"><ele>243.0</ele><time>2013-07-13T15:28:50Z</time></trkpt>
<trkpt lat="33.00849" lon="35.19362"><ele>243.0</ele><time>2013-07-13T15:28:51Z</time></trkpt>
<trkpt lat="33.00847" lon="35.1935"><ele>242.0</ele><time>2013-07-13T15:28:52Z</time></trkpt>
<trkpt lat="33.00845" lon="35.19339"><ele>242.0</ele><time>2013-07-13T15:28:53Z</time></trkpt>
<trkpt lat="33.00843" lon="35.19328"><ele>241.0</ele><time>2013-07-13T15:28:54Z</time></trkpt>
<trkpt lat="33.00842" lon="35.19316"><ele>240.0</ele><time>2013-07-13T15:28:55Z</time></trkpt>
<trkpt lat="33.0084" lon="35.19305"><ele>240.0</ele><time>2013-07-13T15:28:56Z</time></trkpt>
<trkpt lat="33.00838" lon="35.19293"><ele>239.0</ele><time>2013-07-13T15:28:57Z</time></trkpt>
<trkpt lat="33.00836" lon="35.19282"><ele>239.0</ele><time>2013-07-13T15:28:58Z</time></trkpt>
<trkpt lat="33.00834" lon="35.19271"><ele>238.0</ele><time>2013-07-13T15:28:59Z</time></trkpt>
<trkpt lat="33.00833" lon="35.1926"><ele>238.0</ele><time>2013-07-13T15:29:01Z</time></trkpt>
<trkpt lat="33.00832" lon="35.19249"><ele>237.0</ele><time>2013-07-13T15:29:02Z</time></trkpt>
<trkpt lat="33.00831" lon="35.19238"><ele>236.0</ele><time>2013-07-13T15:29:03Z</time></trkpt>
<trkpt lat="33.00831" lon="35.19227"><ele>236.0</ele><time>2013-07-13T15:29:04Z</time></trkpt>
<trkpt lat="33.00832" lon="35.19216"><ele>236.0</ele><time>2013-07-13T15:29:05Z</time></trkpt>
<trkpt lat="33.00834" lon="35.19205"><ele>236.0</ele><time>2013-07-13T15:29:06Z</time></trkpt>
<trkpt lat="33.00835" lon="35.19193"><ele>235.0</ele><time>2013-07-13T15:29:07Z</time></trkpt>
<trkpt lat="33.00837" lon="35.19182"><ele>234.0</ele><time>2013-07-13T15:29:08Z</time></trkpt>
<trkpt lat="33.00839" lon="35.19171"><ele>233.0</ele><time>2013-07-13T15:29:09Z</time></trkpt>
<trkpt lat="33.00841" lon="35.19159"><ele>232.0</ele><time>2013-07-13T15:29:10Z</time></trkpt>
<trkpt lat="33.00843" lon="35.19147"><ele>232.0</ele><time>2013-07-13T15:29:11Z</time></trkpt>
<trkpt lat="33.00845" lon="35.19136"><ele>231.0</ele><time>2013-07-13T15:29:12Z</time></trkpt>
<trkpt lat="33.00847" lon="35.19124"><ele>231.0</ele><time>2013-07-13T15:29:13Z</time></trkpt>
<trkpt lat="33.00849" lon="35.19113"><ele>230.0</ele><time>2013-07-13T15:29:14Z</time></trkpt>
<trkpt lat="33.00851" lon="35.19101"><ele>230.0</ele><time>2013-07-13T15:29:15Z</time></trkpt>
<trkpt lat="33.00852" lon="35.1909"><ele>229.0</ele><time>2013-07-13T15:29:16Z</time></trkpt>
<trkpt lat="33.00854" lon="35.19078"><ele>228.0</ele><time>2013-07-13T15:29:17Z</time></trkpt>
<trkpt lat="33.00856" lon="35.19067"><ele>228.0</ele><time>2013-07-13T15:29:18Z</time></trkpt>
<trkpt lat="33.00858" lon="35.19055"><ele>228.0</ele><time>2013-07-13T15:29:19Z</time></trkpt>
<trkpt lat="33.00859" lon="35.19043"><ele>228.0</ele><time>2013-07-13T15:29:20Z</time></trkpt>
<trkpt lat="33.00861" lon="35.19032"><ele>228.0</ele><time>2013-07-13T15:29:21Z</time></trkpt>
<trkpt lat="33.00863" lon="35.1902"><ele>228.0</ele><time>2013-07-13T15:29:22Z</time></trkpt>
<trkpt lat="33.00864" lon="35.19009"><ele>228.0</ele><time>2013-07-13T15:29:23Z</time></trkpt>
<trkpt lat="33.00865" lon="35.18998"><ele>227.0</ele><time>2013-07-13T15:29:24Z</time></trkpt>
<trkpt lat="33.00867" lon="35.18987"><ele>226.0</ele><time>2013-07-13T15:29:25Z</time></trkpt>
<trkpt lat="33.00871" lon="35.18965"><ele>225.0</ele><time>2013-07-13T15:29:26Z</time></trkpt>
<trkpt lat="33.00873" lon="35.18954"><ele>224.0</ele><time>2013-07-13T15:29:27Z</time></trkpt>
<trkpt lat="33.00874" lon="35.18943"><ele>223.0</ele><time>2013-07-13T15:29:28Z</time></trkpt>
<trkpt lat="33.00876" lon="35.18932"><ele>222.0</ele><time>2013-07-13T15:29:29Z</time></trkpt>
<trkpt lat="33.00878" lon="35.18921"><ele>221.0</ele><time>2013-07-13T15:29:30Z</time></trkpt>
<trkpt lat="33.0088" lon="35.1891"><ele>219.0</ele><time>2013-07-13T15:29:31Z</time></trkpt>
<trkpt lat="33.00882" lon="35.18899"><ele>218.0</ele><time>2013-07-13T15:29:32Z</time></trkpt>
<trkpt lat="33.00885" lon="35.18887"><ele>217.0</ele><time>2013-07-13T15:29:33Z</time></trkpt>
<trkpt lat="33.00887" lon="35.18876"><ele>215.0</ele><time>2013-07-13T15:29:34Z</time></trkpt>
<trkpt lat="33.00889" lon="35.18865"><ele>215.0</ele><time>2013-07-13T15:29:35Z</time></trkpt>
<trkpt lat="33.00892" lon="35.18854"><ele>214.0</ele><time>2013-07-13T15:29:36Z</time></trkpt>
<trkpt lat="33.00893" lon="35.18843"><ele>213.0</ele><time>2013-07-13T15:29:37Z</time></trkpt>
<trkpt lat="33.00896" lon="35.18831"><ele>212.0</ele><time>2013-07-13T15:29:38Z</time></trkpt>
<trkpt lat="33.00899" lon="35.18818"><ele>211.0</ele><time>2013-07-13T15:29:39Z</time></trkpt>
<trkpt lat="33.00902" lon="35.18806"><ele>210.0</ele><time>2013-07-13T15:29:40Z</time></trkpt>
<trkpt lat="33.00905" lon="35.18793"><ele>209.0</ele><time>2013-07-13T15:29:41Z</time></trkpt>
<trkpt lat="33.00907" lon="35.1878"><ele>209.0</ele><time>2013-07-13T15:29:42Z</time></trkpt>
<trkpt lat="33.00909" lon="35.18766"><ele>208.0</ele><time>2013-07-13T15:29:43Z</time></trkpt>
<trkpt lat="33.00911" lon="35.18753"><ele>207.0</ele><time>2013-07-13T15:29:44Z</time></trkpt>
<trkpt lat="33.00912" lon="35.18739"><ele>206.0</ele><time>2013-07-13T15:29:45Z</time></trkpt>
<trkpt lat="33.00913" lon="35.18725"><ele>205.0</ele><time>2013-07-13T15:29:46Z</time></trkpt>
<trkpt lat="33.00915" lon="35.18712"><ele>205.0</ele><time>2013-07-13T15:29:47Z</time></trkpt>
<trkpt lat="33.00917" lon="35.18699"><ele>204.0</ele><time>2013-07-13T15:29:48Z</time></trkpt>
<trkpt lat="33.0092" lon="35.18686"><ele>204.0</ele><time>2013-07-13T15:29:49Z</time></trkpt>
<trkpt lat="33.00923" lon="35.18674"><ele>204.0</ele><time>2013-07-13T15:29:50Z</time></trkpt>
<trkpt lat="33.00927" lon="35.18661"><ele>203.0</ele><time>2013-07-13T15:29:51Z</time></trkpt>
<trkpt lat="33.00932" lon="35.18648"><ele>202.0</ele><time>2013-07-13T15:29:52Z</time></trkpt>
<trkpt lat="33.00938" lon="35.18635"><ele>200.0</ele><time>2013-07-13T15:29:53Z</time></trkpt>
<trkpt lat="33.00945" lon="35.18623"><ele>199.0</ele><time>2013-07-13T15:29:54Z</time></trkpt>
<trkpt lat="33.00951" lon="35.18611"><ele>197.0</ele><time>2013-07-13T15:29:55Z</time></trkpt>
<trkpt lat="33.00959" lon="35.18599"><ele>196.0</ele><time>2013-07-13T15:29:56Z</time></trkpt>
<trkpt lat="33.00966" lon="35.18589"><ele>195.0</ele><time>2013-07-13T15:29:57Z</time></trkpt>
<trkpt lat="33.00973" lon="35.18577"><ele>194.0</ele><time>2013-07-13T15:29:58Z</time></trkpt>
<trkpt lat="33.00981" lon="35.18566"><ele>193.0</ele><time>2013-07-13T15:29:59Z</time></trkpt>
<trkpt lat="33.00988" lon="35.18554"><ele>192.0</ele><time>2013-07-13T15:30:01Z</time></trkpt>
<trkpt lat="33.00995" lon="35.18542"><ele>191.0</ele><time>2013-07-13T15:30:02Z</time></trkpt>
<trkpt lat="33.01002" lon="35.18529"><ele>190.0</ele><time>2013-07-13T15:30:03Z</time></trkpt>
<trkpt lat="33.01009" lon="35.18518"><ele>191.0</ele><time>2013-07-13T15:30:04Z</time></trkpt>
<trkpt lat="33.01016" lon="35.18506"><ele>192.0</ele><time>2013-07-13T15:30:05Z</time></trkpt>
<trkpt lat="33.01021" lon="35.18496"><ele>193.0</ele><time>2013-07-13T15:30:06Z</time></trkpt>
<trkpt lat="33.01026" lon="35.18485"><ele>193.0</ele><time>2013-07-13T15:30:07Z</time></trkpt>
<trkpt lat="33.01032" lon="35.18474"><ele>192.0</ele><time>2013-07-13T15:30:08Z</time></trkpt>
<trkpt lat="33.01037" lon="35.18464"><ele>192.0</ele><time>2013-07-13T15:30:09Z</time></trkpt>
<trkpt lat="33.01041" lon="35.18454"><ele>191.0</ele><time>2013-07-13T15:30:10Z</time></trkpt>
<trkpt lat="33.01044" lon="35.18444"><ele>190.0</ele><time>2013-07-13T15:30:11Z</time></trkpt>
<trkpt lat="33.01049" lon="35.18434"><ele>190.0</ele><time>2013-07-13T15:30:12Z</time></trkpt>
<trkpt lat="33.01054" lon="35.18423"><ele>190.0</ele><time>2013-07-13T15:30:13Z</time></trkpt>
<trkpt lat="33.01059" lon="35.18413"><ele>190.0</ele><time>2013-07-13T15:30:14Z</time></trkpt>
<trkpt lat="33.01064" lon="35.18403"><ele>189.0</ele><time>2013-07-13T15:30:15Z</time></trkpt>
<trkpt lat="33.01068" lon="35.18394"><ele>188.0</ele><time>2013-07-13T15:30:16Z</time></trkpt>
<trkpt lat="33.01072" lon="35.18385"><ele>188.0</ele><time>2013-07-13T15:30:17Z</time></trkpt>
<trkpt lat="33.01076" lon="35.18377"><ele>188.0</ele><time>2013-07-13T15:30:18Z</time></trkpt>
<trkpt lat="33.0108" lon="35.18368"><ele>189.0</ele><time>2013-07-13T15:30:19Z</time></trkpt>
<trkpt lat="33.01084" lon="35.18359"><ele>190.0</ele><time>2013-07-13T15:30:20Z</time></trkpt>
<trkpt lat="33.01089" lon="35.18351"><ele>190.0</ele><time>2013-07-13T15:30:21Z</time></trkpt>
<trkpt lat="33.01094" lon="35.18343"><ele>191.0</ele><time>2013-07-13T15:30:22Z</time></trkpt>
<trkpt lat="33.01099" lon="35.18335"><ele>191.0</ele><time>2013-07-13T15:30:23Z</time></trkpt>
<trkpt lat="33.01104" lon="35.18327"><ele>190.0</ele><time>2013-07-13T15:30:24Z</time></trkpt>
<trkpt lat="33.01109" lon="35.18319"><ele>190.0</ele><time>2013-07-13T15:30:25Z</time></trkpt>
<trkpt lat="33.01118" lon="35.18304"><ele>189.0</ele><time>2013-07-13T15:30:26Z</time></trkpt>
<trkpt lat="33.01126" lon="35.1829"><ele>188.0</ele><time>2013-07-13T15:30:28Z</time></trkpt>
<trkpt lat="33.01133" lon="35.18277"><ele>187.0</ele><time>2013-07-13T15:30:30Z</time></trkpt>
<trkpt lat="33.01142" lon="35.18261"><ele>186.0</ele><time>2013-07-13T15:30:32Z</time></trkpt>
<trkpt lat="33.01151" lon="35.18245"><ele>186.0</ele><time>2013-07-13T15:30:34Z</time></trkpt>
<trkpt lat="33.01158" lon="35.18228"><ele>185.0</ele><time>2013-07-13T15:30:36Z</time></trkpt>
<trkpt lat="33.01163" lon="35.1822"><ele>184.0</ele><time>2013-07-13T15:30:37Z</time></trkpt>
<trkpt lat="33.01167" lon="35.18212"><ele>182.0</ele><time>2013-07-13T15:30:38Z</time></trkpt>
<trkpt lat="33.01172" lon="35.18203"><ele>182.0</ele><time>2013-07-13T15:30:39Z</time></trkpt>
<trkpt lat="33.01176" lon="35.18194"><ele>182.0</ele><time>2013-07-13T15:30:40Z</time></trkpt>
<trkpt lat="33.0118" lon="35.18185"><ele>182.0</ele><time>2013-07-13T15:30:41Z</time></trkpt>
<trkpt lat="33.01184" lon="35.18177"><ele>181.0</ele><time>2013-07-13T15:30:42Z</time></trkpt>
<trkpt lat="33.01188" lon="35.18168"><ele>181.0</ele><time>2013-07-13T15:30:43Z</time></trkpt>
<trkpt lat="33.01191" lon="35.18158"><ele>180.0</ele><time>2013-07-13T15:30:44Z</time></trkpt>
<trkpt lat="33.01193" lon="35.18149"><ele>180.0</ele><time>2013-07-13T15:30:45Z</time></trkpt>
<trkpt lat="33.01195" lon="35.18139"><ele>180.0</ele><time>2013-07-13T15:30:46Z</time></trkpt>
<trkpt lat="33.01196" lon="35.18129"><ele>179.0</ele><time>2013-07-13T15:30:47Z</time></trkpt>
<trkpt lat="33.01197" lon="35.18119"><ele>179.0</ele><time>2013-07-13T15:30:48Z</time></trkpt>
<trkpt lat="33.01198" lon="35.18109"><ele>178.0</ele><time>2013-07-13T15:30:49Z</time></trkpt>
<trkpt lat="33.01198" lon="35.18099"><ele>178.0</ele><time>2013-07-13T15:30:50Z</time></trkpt>
<trkpt lat="33.01198" lon="35.1808"><ele>177.0</ele><time>2013-07-13T15:30:52Z</time></trkpt>
<trkpt lat="33.01198" lon="35.18071"><ele>177.0</ele><time>2013-07-13T15:30:53Z</time></trkpt>
<trkpt lat="33.01199" lon="35.18052"><ele>176.0</ele><time>2013-07-13T15:30:55Z</time></trkpt>
<trkpt lat="33.01201" lon="35.18034"><ele>176.0</ele><time>2013-07-13T15:30:57Z</time></trkpt>
<trkpt lat="33.01201" lon="35.18016"><ele>175.0</ele><time>2013-07-13T15:30:59Z</time></trkpt>
<trkpt lat="33.01202" lon="35.17998"><ele>174.0</ele><time>2013-07-13T15:31:02Z</time></trkpt>
<trkpt lat="33.01205" lon="35.17979"><ele>173.0</ele><time>2013-07-13T15:31:04Z</time></trkpt>
<trkpt lat="33.01206" lon="35.17969"><ele>172.0</ele><time>2013-07-13T15:31:05Z</time></trkpt>
<trkpt lat="33.0121" lon="35.17951"><ele>171.0</ele><time>2013-07-13T15:31:07Z</time></trkpt>
<trkpt lat="33.01212" lon="35.17933"><ele>170.0</ele><time>2013-07-13T15:31:09Z</time></trkpt>
<trkpt lat="33.01214" lon="35.17924"><ele>169.0</ele><time>2013-07-13T15:31:10Z</time></trkpt>
<trkpt lat="33.01216" lon="35.17913"><ele>168.0</ele><time>2013-07-13T15:31:11Z</time></trkpt>
<trkpt lat="33.0122" lon="35.17902"><ele>166.0</ele><time>2013-07-13T15:31:12Z</time></trkpt>
<trkpt lat="33.01221" lon="35.17892"><ele>165.0</ele><time>2013-07-13T15:31:13Z</time></trkpt>
<trkpt lat="33.01225" lon="35.17882"><ele>164.0</ele><time>2013-07-13T15:31:14Z</time></trkpt>
<trkpt lat="33.01228" lon="35.1787"><ele>164.0</ele><time>2013-07-13T15:31:15Z</time></trkpt>
<trkpt lat="33.0123" lon="35.1786"><ele>163.0</ele><time>2013-07-13T15:31:16Z</time></trkpt>
<trkpt lat="33.01232" lon="35.1785"><ele>163.0</ele><time>2013-07-13T15:31:17Z</time></trkpt>
<trkpt lat="33.01235" lon="35.1784"><ele>162.0</ele><time>2013-07-13T15:31:18Z</time></trkpt>
<trkpt lat="33.01237" lon="35.17829"><ele>162.0</ele><time>2013-07-13T15:31:19Z</time></trkpt>
<trkpt lat="33.01241" lon="35.17811"><ele>162.0</ele><time>2013-07-13T15:31:21Z</time></trkpt>
<trkpt lat="33.01243" lon="35.17801"><ele>162.0</ele><time>2013-07-13T15:31:22Z</time></trkpt>
<trkpt lat="33.01246" lon="35.1779"><ele>162.0</ele><time>2013-07-13T15:31:23Z</time></trkpt>
<trkpt lat="33.01249" lon="35.1778"><ele>162.0</ele><time>2013-07-13T15:31:24Z</time></trkpt>
<trkpt lat="33.01251" lon="35.1777"><ele>162.0</ele><time>2013-07-13T15:31:25Z</time></trkpt>
<trkpt lat="33.01256" lon="35.1775"><ele>161.0</ele><time>2013-07-13T15:31:26Z</time></trkpt>
<trkpt lat="33.01258" lon="35.17739"><ele>161.0</ele><time>2013-07-13T15:31:27Z</time></trkpt>
<trkpt lat="33.01261" lon="35.17729"><ele>161.0</ele><time>2013-07-13T15:31:28Z</time></trkpt>
<trkpt lat="33.01263" lon="35.17719"><ele>161.0</ele><time>2013-07-13T15:31:29Z</time></trkpt>
<trkpt lat="33.01266" lon="35.17709"><ele>161.0</ele><time>2013-07-13T15:31:30Z</time></trkpt>
<trkpt lat="33.01268" lon="35.17698"><ele>161.0</ele><time>2013-07-13T15:31:31Z</time></trkpt>
<trkpt lat="33.0127" lon="35.17688"><ele>161.0</ele><time>2013-07-13T15:31:32Z</time></trkpt>
<trkpt lat="33.01273" lon="35.17677"><ele>160.0</ele><time>2013-07-13T15:31:33Z</time></trkpt>
<trkpt lat="33.01276" lon="35.17666"><ele>160.0</ele><time>2013-07-13T15:31:34Z</time></trkpt>
<trkpt lat="33.01278" lon="35.17656"><ele>160.0</ele><time>2013-07-13T15:31:35Z</time></trkpt>
<trkpt lat="33.01279" lon="35.17645"><ele>159.0</ele><time>2013-07-13T15:31:36Z</time></trkpt>
<trkpt lat="33.01282" lon="35.17634"><ele>158.0</ele><time>2013-07-13T15:31:37Z</time></trkpt>
<trkpt lat="33.01284" lon="35.17624"><ele>157.0</ele><time>2013-07-13T15:31:38Z</time></trkpt>
<trkpt lat="33.01285" lon="35.17614"><ele>156.0</ele><time>2013-07-13T15:31:39Z</time></trkpt>
<trkpt lat="33.01288" lon="35.17603"><ele>155.0</ele><time>2013-07-13T15:31:40Z</time></trkpt>
<trkpt lat="33.01291" lon="35.17592"><ele>154.0</ele><time>2013-07-13T15:31:41Z</time></trkpt>
<trkpt lat="33.01296" lon="35.17578"><ele>152.0</ele><time>2013-07-13T15:31:42Z</time></trkpt>
<trkpt lat="33.01301" lon="35.17566"><ele>151.0</ele><time>2013-07-13T15:31:43Z</time></trkpt>
<trkpt lat="33.01306" lon="35.17554"><ele>149.0</ele><time>2013-07-13T15:31:44Z</time></trkpt>
<trkpt lat="33.01312" lon="35.17542"><ele>148.0</ele><time>2013-07-13T15:31:45Z</time></trkpt>
<trkpt lat="33.01317" lon="35.17531"><ele>147.0</ele><time>2013-07-13T15:31:46Z</time></trkpt>
<trkpt lat="33.01322" lon="35.17519"><ele>146.0</ele><time>2013-07-13T15:31:47Z</time></trkpt>
<trkpt lat="33.01327" lon="35.17508"><ele>145.0</ele><time>2013-07-13T15:31:48Z</time></trkpt>
<trkpt lat="33.01332" lon="35.17497"><ele>144.0</ele><time>2013-07-13T15:31:49Z</time></trkpt>
<trkpt lat="33.01336" lon="35.17486"><ele>144.0</ele><time>2013-07-13T15:31:50Z</time></trkpt>
<trkpt lat="33.0134" lon="35.17476"><ele>143.0</ele><time>2013-07-13T15:31:51Z</time></trkpt>
<trkpt lat="33.01345" lon="35.17466"><ele>143.0</ele><time>2013-07-13T15:31:52Z</time></trkpt>
<trkpt lat="33.0135" lon="35.17456"><ele>143.0</ele><time>2013-07-13T15:31:53Z</time></trkpt>
<trkpt lat="33.01355" lon="35.17447"><ele>142.0</ele><time>2013-07-13T15:31:54Z</time></trkpt>
<trkpt lat="33.01362" lon="35.17438"><ele>142.0</ele><time>2013-07-13T15:31:55Z</time></trkpt>
<trkpt lat="33.01368" lon="35.17431"><ele>142.0</ele><time>2013-07-13T15:31:56Z</time></trkpt>
<trkpt lat="33.01375" lon="35.17425"><ele>141.0</ele><time>2013-07-13T15:31:57Z</time></trkpt>
<trkpt lat="33.01382" lon="35.17418"><ele>141.0</ele><time>2013-07-13T15:31:58Z</time></trkpt>
<trkpt lat="33.01388" lon="35.17411"><ele>141.0</ele><time>2013-07-13T15:31:59Z</time></trkpt>
<trkpt lat="33.01393" lon="35.17404"><ele>140.0</ele><time>2013-07-13T15:32:01Z</time></trkpt>
<trkpt lat="33.01399" lon="35.17386"><ele>140.0</ele><time>2013-07-13T15:32:03Z</time></trkpt>
<trkpt lat="33.01403" lon="35.17368"><ele>140.0</ele><time>2013-07-13T15:32:05Z</time></trkpt>
<trkpt lat="33.01407" lon="35.1735"><ele>139.0</ele><time>2013-07-13T15:32:07Z</time></trkpt>
<trkpt lat="33.0141" lon="35.17334"><ele>139.0</ele><time>2013-07-13T15:32:09Z</time></trkpt>
<trkpt lat="33.01414" lon="35.17318"><ele>138.0</ele><time>2013-07-13T15:32:11Z</time></trkpt>
<trkpt lat="33.01419" lon="35.17303"><ele>138.0</ele><time>2013-07-13T15:32:13Z</time></trkpt>
<trkpt lat="33.01423" lon="35.17289"><ele>137.0</ele><time>2013-07-13T15:32:15Z</time></trkpt>
<trkpt lat="33.01428" lon="35.17275"><ele>137.0</ele><time>2013-07-13T15:32:17Z</time></trkpt>
<trkpt lat="33.01434" lon="35.17262"><ele>136.0</ele><time>2013-07-13T15:32:19Z</time></trkpt>
<trkpt lat="33.01439" lon="35.17251"><ele>136.0</ele><time>2013-07-13T15:32:21Z</time></trkpt>
<trkpt lat="33.01444" lon="35.17242"><ele>137.0</ele><time>2013-07-13T15:32:23Z</time></trkpt>
<trkpt lat="33.01451" lon="35.17231"><ele>137.0</ele><time>2013-07-13T15:32:25Z</time></trkpt>
<trkpt lat="33.01457" lon="35.17222"><ele>138.0</ele><time>2013-07-13T15:32:28Z</time></trkpt>
<trkpt lat="33.01463" lon="35.17211"><ele>139.0</ele><time>2013-07-13T15:32:31Z</time></trkpt>
<trkpt lat="33.0147" lon="35.172"><ele>140.0</ele><time>2013-07-13T15:32:34Z</time></trkpt>
<trkpt lat="33.01477" lon="35.1719"><ele>141.0</ele><time>2013-07-13T15:32:37Z</time></trkpt>
<trkpt lat="33.01483" lon="35.17179"><ele>141.0</ele><time>2013-07-13T15:32:40Z</time></trkpt>
<trkpt lat="33.0149" lon="35.17168"><ele>142.0</ele><time>2013-07-13T15:32:43Z</time></trkpt>
<trkpt lat="33.01498" lon="35.17159"><ele>143.0</ele><time>2013-07-13T15:32:46Z</time></trkpt>
<trkpt lat="33.01505" lon="35.17151"><ele>144.0</ele><time>2013-07-13T15:32:49Z</time></trkpt>
<trkpt lat="33.01512" lon="35.17144"><ele>144.0</ele><time>2013-07-13T15:32:52Z</time></trkpt>
<trkpt lat="33.01518" lon="35.17137"><ele>144.0</ele><time>2013-07-13T15:32:55Z</time></trkpt>
<trkpt lat="33.01526" lon="35.17131"><ele>144.0</ele><time>2013-07-13T15:32:59Z</time></trkpt>
<trkpt lat="33.01534" lon="35.17126"><ele>144.0</ele><time>2013-07-13T15:33:04Z</time></trkpt>
<trkpt lat="33.01542" lon="35.17121"><ele>145.0</ele><time>2013-07-13T15:33:08Z</time></trkpt>
<trkpt lat="33.0155" lon="35.17118"><ele>145.0</ele><time>2013-07-13T15:33:12Z</time></trkpt>
<trkpt lat="33.01559" lon="35.17118"><ele>145.0</ele><time>2013-07-13T15:33:16Z</time></trkpt>
<trkpt lat="33.01567" lon="35.17123"><ele>146.0</ele><time>2013-07-13T15:33:21Z</time></trkpt>
<trkpt lat="33.01571" lon="35.17134"><ele>147.0</ele><time>2013-07-13T15:33:26Z</time></trkpt>
<trkpt lat="33.01572" lon="35.17144"><ele>147.0</ele><time>2013-07-13T15:33:30Z</time></trkpt>
<trkpt lat="33.01573" lon="35.17154"><ele>148.0</ele><time>2013-07-13T15:33:35Z</time></trkpt>
<trkpt lat="33.01575" lon="35.17165"><ele>148.0</ele><time>2013-07-13T15:33:40Z</time></trkpt>
<trkpt lat="33.01577" lon="35.17176"><ele>149.0</ele><time>2013-07-13T15:33:45Z</time></trkpt>
<trkpt lat="33.01578" lon="35.17186"><ele>150.0</ele><time>2013-07-13T15:33:50Z</time></trkpt>
<trkpt lat="33.01579" lon="35.17196"><ele>151.0</ele><time>2013-07-13T15:33:55Z</time></trkpt>
<trkpt lat="33.01583" lon="35.17206"><ele>151.0</ele><time>2013-07-13T15:34:01Z</time></trkpt>
<trkpt lat="33.01585" lon="35.17216"><ele>151.0</ele><time>2013-07-13T15:34:06Z</time></trkpt>
<trkpt lat="33.01588" lon="35.17227"><ele>152.0</ele><time>2013-07-13T15:34:12Z</time></trkpt>
<trkpt lat="33.01589" lon="35.17238"><ele>152.0</ele><time>2013-07-13T15:34:16Z</time></trkpt>
<trkpt lat="33.01593" lon="35.17248"><ele>152.0</ele><time>2013-07-13T15:34:22Z</time></trkpt>
<trkpt lat="33.01595" lon="35.17257"><ele>153.0</ele><time>2013-07-13T15:34:25Z</time></trkpt>
<trkpt lat="33.01599" lon="35.17269"><ele>153.0</ele><time>2013-07-13T15:34:30Z</time></trkpt>
<trkpt lat="33.01603" lon="35.17278"><ele>154.0</ele><time>2013-07-13T15:34:36Z</time></trkpt>
<trkpt lat="33.01607" lon="35.17287"><ele>154.0</ele><time>2013-07-13T15:34:41Z</time></trkpt>
<trkpt lat="33.01611" lon="35.17298"><ele>155.0</ele><time>2013-07-13T15:34:46Z</time></trkpt>
<trkpt lat="33.01615" lon="35.17308"><ele>155.0</ele><time>2013-07-13T15:34:51Z</time></trkpt>
<trkpt lat="33.01618" lon="35.17318"><ele>156.0</ele><time>2013-07-13T15:34:56Z</time></trkpt>
<trkpt lat="33.01622" lon="35.17328"><ele>156.0</ele><time>2013-07-13T15:35:02Z</time></trkpt>
<trkpt lat="33.01625" lon="35.17337"><ele>157.0</ele><time>2013-07-13T15:35:06Z</time></trkpt>
<trkpt lat="33.01629" lon="35.17347"><ele>158.0</ele><time>2013-07-13T15:35:11Z</time></trkpt>
<trkpt lat="33.01632" lon="35.17356"><ele>159.0</ele><time>2013-07-13T15:35:15Z</time></trkpt>
<trkpt lat="33.01634" lon="35.17366"><ele>160.0</ele><time>2013-07-13T15:35:19Z</time></trkpt>
<trkpt lat="33.01637" lon="35.17376"><ele>161.0</ele><time>2013-07-13T15:35:23Z</time></trkpt>
<trkpt lat="33.01641" lon="35.17387"><ele>162.0</ele><time>2013-07-13T15:35:27Z</time></trkpt>
<trkpt lat="33.01644" lon="35.17397"><ele>163.0</ele><time>2013-07-13T15:35:32Z</time></trkpt>
<trkpt lat="33.01648" lon="35.17408"><ele>163.0</ele><time>2013-07-13T15:35:37Z</time></trkpt>
<trkpt lat="33.01651" lon="35.17419"><ele>164.0</ele><time>2013-07-13T15:35:42Z</time></trkpt>
<trkpt lat="33.01655" lon="35.1743"><ele>165.0</ele><time>2013-07-13T15:35:47Z</time></trkpt>
<trkpt lat="33.01658" lon="35.17439"><ele>165.0</ele><time>2013-07-13T15:35:51Z</time></trkpt>
<trkpt lat="33.01662" lon="35.17448"><ele>165.0</ele><time>2013-07-13T15:35:55Z</time></trkpt>
<trkpt lat="33.01665" lon="35.17457"><ele>165.0</ele><time>2013-07-13T15:35:59Z</time></trkpt>
<trkpt lat="33.01668" lon="35.17466"><ele>166.0</ele><time>2013-07-13T15:36:04Z</time></trkpt>
<trkpt lat="33.01671" lon="35.17475"><ele>166.0</ele><time>2013-07-13T15:36:08Z</time></trkpt>
<trkpt lat="33.01674" lon="35.17484"><ele>166.0</ele><time>2013-07-13T15:36:12Z</time></trkpt>
<trkpt lat="33.01677" lon="35.17493"><ele>166.0</ele><time>2013-07-13T15:36:16Z</time></trkpt>
<trkpt lat="33.0168" lon="35.17502"><ele>166.0</ele><time>2013-07-13T15:36:20Z</time></trkpt>
<trkpt lat="33.01684" lon="35.17513"><ele>165.0</ele><time>2013-07-13T15:36:25Z</time></trkpt>
<trkpt lat="33.01687" lon="35.17524"><ele>164.0</ele><time>2013-07-13T15:36:29Z</time></trkpt>
<trkpt lat="33.0169" lon="35.17533"><ele>164.0</ele><time>2013-07-13T15:36:33Z</time></trkpt>
<trkpt lat="33.01693" lon="35.17542"><ele>163.0</ele><time>2013-07-13T15:36:37Z</time></trkpt>
<trkpt lat="33.01696" lon="35.17552"><ele>164.0</ele><time>2013-07-13T15:36:41Z</time></trkpt>
<trkpt lat="33.01699" lon="35.17561"><ele>166.0</ele><time>2013-07-13T15:36:45Z</time></trkpt>
<trkpt lat="33.01703" lon="35.1757"><ele>167.0</ele><time>2013-07-13T15:36:49Z</time></trkpt>
<trkpt lat="33.01706" lon="35.1758"><ele>168.0</ele><time>2013-07-13T15:36:53Z</time></trkpt>
<trkpt lat="33.01709" lon="35.17589"><ele>169.0</ele><time>2013-07-13T15:36:57Z</time></trkpt>
<trkpt lat="33.01712" lon="35.17598"><ele>171.0</ele><time>2013-07-13T15:37:02Z</time></trkpt>
<trkpt lat="33.01715" lon="35.17607"><ele>172.0</ele><time>2013-07-13T15:37:06Z</time></trkpt>
<trkpt lat="33.01718" lon="35.17616"><ele>174.0</ele><time>2013-07-13T15:37:10Z</time></trkpt>
<trkpt lat="33.01722" lon="35.17627"><ele>176.0</ele><time>2013-07-13T15:37:15Z</time></trkpt>
<trkpt lat="33.01725" lon="35.17636"><ele>178.0</ele><time>2013-07-13T15:37:19Z</time></trkpt>
<trkpt lat="33.01728" lon="35.17645"><ele>180.0</ele><time>2013-07-13T15:37:23Z</time></trkpt>
<trkpt lat="33.01731" lon="35.17655"><ele>179.0</ele><time>2013-07-13T15:37:27Z</time></trkpt>
<trkpt lat="33.01735" lon="35.17665"><ele>179.0</ele><time>2013-07-13T15:37:32Z</time></trkpt>
<trkpt lat="33.01738" lon="35.17675"><ele>178.0</ele><time>2013-07-13T15:37:37Z</time></trkpt>
<trkpt lat="33.01741" lon="35.17685"><ele>178.0</ele><time>2013-07-13T15:37:42Z</time></trkpt>
<trkpt lat="33.01745" lon="35.17695"><ele>177.0</ele><time>2013-07-13T15:37:47Z</time></trkpt>
<trkpt lat="33.01748" lon="35.17705"><ele>177.0</ele><time>2013-07-13T15:37:52Z</time></trkpt>
<trkpt lat="33.01751" lon="35.17714"><ele>177.0</ele><time>2013-07-13T15:37:57Z</time></trkpt>
<trkpt lat="33.01755" lon="35.17725"><ele>177.0</ele><time>2013-07-13T15:38:04Z</time></trkpt>
<trkpt lat="33.01758" lon="35.17734"><ele>176.0</ele><time>2013-07-13T15:38:09Z</time></trkpt>
<trkpt lat="33.01761" lon="35.17744"><ele>176.0</ele><time>2013-07-13T15:38:14Z</time></trkpt>
<trkpt lat="33.01764" lon="35.17754"><ele>176.0</ele><time>2013-07-13T15:38:19Z</time></trkpt>
<trkpt lat="33.01767" lon="35.17764"><ele>177.0</ele><time>2013-07-13T15:38:24Z</time></trkpt>
<trkpt lat="33.01771" lon="35.17773"><ele>177.0</ele><time>2013-07-13T15:38:28Z</time></trkpt>
<trkpt lat="33.01775" lon="35.17783"><ele>179.0</ele><time>2013-07-13T15:38:33Z</time></trkpt>
<trkpt lat="33.01779" lon="35.17793"><ele>181.0</ele><time>2013-07-13T15:38:38Z</time></trkpt>
<trkpt lat="33.01782" lon="35.17804"><ele>183.0</ele><time>2013-07-13T15:38:42Z</time></trkpt>
<trkpt lat="33.01785" lon="35.17812"><ele>184.0</ele><time>2013-07-13T15:38:46Z</time></trkpt>
<trkpt lat="33.0179" lon="35.17821"><ele>186.0</ele><time>2013-07-13T15:38:50Z</time></trkpt>
<trkpt lat="33.01794" lon="35.1783"><ele>188.0</ele><time>2013-07-13T15:38:54Z</time></trkpt>
<trkpt lat="33.01799" lon="35.17839"><ele>189.0</ele><time>2013-07-13T15:38:58Z</time></trkpt>
<trkpt lat="33.01803" lon="35.17849"><ele>191.0</ele><time>2013-07-13T15:39:03Z</time></trkpt>
<trkpt lat="33.01809" lon="35.17859"><ele>192.0</ele><time>2013-07-13T15:39:07Z</time></trkpt>
<trkpt lat="33.01814" lon="35.17869"><ele>193.0</ele><time>2013-07-13T15:39:11Z</time></trkpt>
<trkpt lat="33.0182" lon="35.17879"><ele>194.0</ele><time>2013-07-13T15:39:15Z</time></trkpt>
<trkpt lat="33.01826" lon="35.17889"><ele>194.0</ele><time>2013-07-13T15:39:19Z</time></trkpt>
<trkpt lat="33.01832" lon="35.17899"><ele>193.0</ele><time>2013-07-13T15:39:23Z</time></trkpt>
<trkpt lat="33.01839" lon="35.17909"><ele>193.0</ele><time>2013-07-13T15:39:26Z</time></trkpt>
<trkpt lat="33.01846" lon="35.17918"><ele>193.0</ele><time>2013-07-13T15:39:30Z</time></trkpt>
<trkpt lat="33.01853" lon="35.17927"><ele>193.0</ele><time>2013-07-13T15:39:34Z</time></trkpt>
<trkpt lat="33.01858" lon="35.17934"><ele>194.0</ele><time>2013-07-13T15:39:37Z</time></trkpt>
<trkpt lat="33.01864" lon="35.17942"><ele>194.0</ele><time>2013-07-13T15:39:40Z</time></trkpt>
<trkpt lat="33.0187" lon="35.17949"><ele>194.0</ele><time>2013-07-13T15:39:43Z</time></trkpt>
<trkpt lat="33.01876" lon="35.17957"><ele>195.0</ele><time>2013-07-13T15:39:46Z</time></trkpt>
<trkpt lat="33.01882" lon="35.17964"><ele>195.0</ele><time>2013-07-13T15:39:49Z</time></trkpt>
<trkpt lat="33.01888" lon="35.17972"><ele>195.0</ele><time>2013-07-13T15:39:52Z</time></trkpt>
<trkpt lat="33.01895" lon="35.17979"><ele>195.0</ele><time>2013-07-13T15:39:55Z</time></trkpt>
<trkpt lat="33.01901" lon="35.17987"><ele>196.0</ele><time>2013-07-13T15:39:58Z</time></trkpt>
<trkpt lat="33.01908" lon="35.17997"><ele>196.0</ele><time>2013-07-13T15:40:02Z</time></trkpt>
<trkpt lat="33.01915" lon="35.18006"><ele>195.0</ele><time>2013-07-13T15:40:05Z</time></trkpt>
<trkpt lat="33.01922" lon="35.18016"><ele>195.0</ele><time>2013-07-13T15:40:08Z</time></trkpt>
<trkpt lat="33.01929" lon="35.18025"><ele>195.0</ele><time>2013-07-13T15:40:11Z</time></trkpt>
<trkpt lat="33.01936" lon="35.18035"><ele>194.0</ele><time>2013-07-13T15:40:14Z</time></trkpt>
<trkpt lat="33.01942" lon="35.18045"><ele>195.0</ele><time>2013-07-13T15:40:17Z</time></trkpt>
<trkpt lat="33.01948" lon="35.18055"><ele>196.0</ele><time>2013-07-13T15:40:20Z</time></trkpt>
<trkpt lat="33.01954" lon="35.18065"><ele>197.0</ele><time>2013-07-13T15:40:23Z</time></trkpt>
<trkpt lat="33.01959" lon="35.18076"><ele>198.0</ele><time>2013-07-13T15:40:25Z</time></trkpt>
<trkpt lat="33.01964" lon="35.18087"><ele>198.0</ele><time>2013-07-13T15:40:28Z</time></trkpt>
<trkpt lat="33.01969" lon="35.18097"><ele>199.0</ele><time>2013-07-13T15:40:31Z</time></trkpt>
<trkpt lat="33.01974" lon="35.18108"><ele>200.0</ele><time>2013-07-13T15:40:34Z</time></trkpt>
<trkpt lat="33.01978" lon="35.18119"><ele>201.0</ele><time>2013-07-13T15:40:37Z</time></trkpt>
<trkpt lat="33.01981" lon="35.18131"><ele>202.0</ele><time>2013-07-13T15:40:40Z</time></trkpt>
<trkpt lat="33.01984" lon="35.18143"><ele>203.0</ele><time>2013-07-13T15:40:43Z</time></trkpt>
<trkpt lat="33.01987" lon="35.18153"><ele>204.0</ele><time>2013-07-13T15:40:46Z</time></trkpt>
<trkpt lat="33.0199" lon="35.18163"><ele>204.0</ele><time>2013-07-13T15:40:49Z</time></trkpt>
<trkpt lat="33.01992" lon="35.18173"><ele>204.0</ele><time>2013-07-13T15:40:52Z</time></trkpt>
<trkpt lat="33.01995" lon="35.18184"><ele>204.0</ele><time>2013-07-13T15:40:55Z</time></trkpt>
<trkpt lat="33.01997" lon="35.18194"><ele>204.0</ele><time>2013-07-13T15:40:58Z</time></trkpt>
<trkpt lat="33.02" lon="35.18204"><ele>204.0</ele><time>2013-07-13T15:41:02Z</time></trkpt>
<trkpt lat="33.02002" lon="35.18215"><ele>204.0</ele><time>2013-07-13T15:41:05Z</time></trkpt>
<trkpt lat="33.02004" lon="35.18225"><ele>205.0</ele><time>2013-07-13T15:41:08Z</time></trkpt>
<trkpt lat="33.02005" lon="35.18236"><ele>205.0</ele><time>2013-07-13T15:41:11Z</time></trkpt>
<trkpt lat="33.02006" lon="35.18247"><ele>205.0</ele><time>2013-07-13T15:41:14Z</time></trkpt>
<trkpt lat="33.02006" lon="35.18258"><ele>205.0</ele><time>2013-07-13T15:41:17Z</time></trkpt>
<trkpt lat="33.02006" lon="35.18269"><ele>206.0</ele><time>2013-07-13T15:41:20Z</time></trkpt>
<trkpt lat="33.02007" lon="35.1828"><ele>206.0</ele><time>2013-07-13T15:41:23Z</time></trkpt>
<trkpt lat="33.02008" lon="35.18291"><ele>206.0</ele><time>2013-07-13T15:41:25Z</time></trkpt>
<trkpt lat="33.02008" lon="35.18303"><ele>206.0</ele><time>2013-07-13T15:41:28Z</time></trkpt>
<trkpt lat="33.02008" lon="35.18314"><ele>206.0</ele><time>2013-07-13T15:41:31Z</time></trkpt>
<trkpt lat="33.02008" lon="35.18325"><ele>206.0</ele><time>2013-07-13T15:41:34Z</time></trkpt>
<trkpt lat="33.02008" lon="35.18337"><ele>206.0</ele><time>2013-07-13T15:41:37Z</time></trkpt>
<trkpt lat="33.02007" lon="35.18348"><ele>206.0</ele><time>2013-07-13T15:41:40Z</time></trkpt>
<trkpt lat="33.02007" lon="35.1836"><ele>207.0</ele><time>2013-07-13T15:41:43Z</time></trkpt>
<trkpt lat="33.02006" lon="35.18372"><ele>207.0</ele><time>2013-07-13T15:41:46Z</time></trkpt>
<trkpt lat="33.02004" lon="35.18383"><ele>207.0</ele><time>2013-07-13T15:41:49Z</time></trkpt>
<trkpt lat="33.02004" lon="35.18395"><ele>207.0</ele><time>2013-07-13T15:41:52Z</time></trkpt>
<trkpt lat="33.02003" lon="35.18407"><ele>207.0</ele><time>2013-07-13T15:41:55Z</time></trkpt>
<trkpt lat="33.02002" lon="35.18419"><ele>207.0</ele><time>2013-07-13T15:41:58Z</time></trkpt>
<trkpt lat="33.02001" lon="35.18432"><ele>207.0</ele><time>2013-07-13T15:42:02Z</time></trkpt>
<trkpt lat="33.02" lon="35.18444"><ele>207.0</ele><time>2013-07-13T15:42:05Z</time></trkpt>
<trkpt lat="33.01999" lon="35.18457"><ele>207.0</ele><time>2013-07-13T15:42:08Z</time></trkpt>
<trkpt lat="33.01998" lon="35.1847"><ele>207.0</ele><time>2013-07-13T15:42:11Z</time></trkpt>
<trkpt lat="33.01997" lon="35.18483"><ele>207.0</ele><time>2013-07-13T15:42:14Z</time></trkpt>
<trkpt lat="33.01996" lon="35.18496"><ele>207.0</ele><time>2013-07-13T15:42:17Z</time></trkpt>
<trkpt lat="33.01995" lon="35.18509"><ele>207.0</ele><time>2013-07-13T15:42:20Z</time></trkpt>
<trkpt lat="33.01994" lon="35.18522"><ele>207.0</ele><time>2013-07-13T15:42:23Z</time></trkpt>
<trkpt lat="33.01993" lon="35.18536"><ele>208.0</ele><time>2013-07-13T15:42:25Z</time></trkpt>
<trkpt lat="33.01991" lon="35.1855"><ele>208.0</ele><time>2013-07-13T15:42:28Z</time></trkpt>
<trkpt lat="33.0199" lon="35.18563"><ele>208.0</ele><time>2013-07-13T15:42:31Z</time></trkpt>
<trkpt lat="33.01989" lon="35.18577"><ele>208.0</ele><time>2013-07-13T15:42:34Z</time></trkpt>
<trkpt lat="33.01988" lon="35.1859"><ele>209.0</ele><time>2013-07-13T15:42:37Z</time></trkpt>
<trkpt lat="33.01987" lon="35.18604"><ele>209.0</ele><time>2013-07-13T15:42:40Z</time></trkpt>
<trkpt lat="33.01986" lon="35.18617"><ele>210.0</ele><time>2013-07-13T15:42:43Z</time></trkpt>
<trkpt lat="33.01984" lon="35.18631"><ele>210.0</ele><time>2013-07-13T15:42:46Z</time></trkpt>
<trkpt lat="33.01983" lon="35.18644"><ele>211.0</ele><time>2013-07-13T15:42:49Z</time></trkpt>
<trkpt lat="33.01982" lon="35.18657"><ele>211.0</ele><time>2013-07-13T15:42:52Z</time></trkpt>
<trkpt lat="33.0198" lon="35.1867"><ele>212.0</ele><time>2013-07-13T15:42:55Z</time></trkpt>
<trkpt lat="33.01979" lon="35.18683"><ele>213.0</ele><time>2013-07-13T15:42:58Z</time></trkpt>
<trkpt lat="33.01977" lon="35.18696"><ele>213.0</ele><time>2013-07-13T15:43:02Z</time></trkpt>
<trkpt lat="33.01976" lon="35.1871"><ele>213.0</ele><time>2013-07-13T15:43:05Z</time></trkpt>
<trkpt lat="33.01975" lon="35.18723"><ele>214.0</ele><time>2013-07-13T15:43:08Z</time></trkpt>
<trkpt lat="33.01974" lon="35.18736"><ele>214.0</ele><time>2013-07-13T15:43:11Z</time></trkpt>
<trkpt lat="33.01973" lon="35.18749"><ele>215.0</ele><time>2013-07-13T15:43:14Z</time></trkpt>
<trkpt lat="33.01971" lon="35.18762"><ele>216.0</ele><time>2013-07-13T15:43:17Z</time></trkpt>
<trkpt lat="33.0197" lon="35.18775"><ele>216.0</ele><time>2013-07-13T15:43:20Z</time></trkpt>
<trkpt lat="33.01969" lon="35.18788"><ele>215.0</ele><time>2013-07-13T15:43:23Z</time></trkpt>
<trkpt lat="33.01968" lon="35.18798"><ele>214.0</ele><time>2013-07-13T15:43:25Z</time></trkpt>
<trkpt lat="33.01967" lon="35.18811"><ele>213.0</ele><time>2013-07-13T15:43:29Z</time></trkpt>
<trkpt lat="33.01966" lon="35.18822"><ele>212.0</ele><time>2013-07-13T15:43:33Z</time></trkpt>
<trkpt lat="33.01965" lon="35.18834"><ele>211.0</ele><time>2013-07-13T15:43:37Z</time></trkpt>
<trkpt lat="33.01964" lon="35.18845"><ele>211.0</ele><time>2013-07-13T15:43:41Z</time></trkpt>
<trkpt lat="33.01963" lon="35.18855"><ele>210.0</ele><time>2013-07-13T15:43:45Z</time></trkpt>
<trkpt lat="33.01962" lon="35.18866"><ele>209.0</ele><time>2013-07-13T15:43:49Z</time></trkpt>
<trkpt lat="33.01961" lon="35.18876"><ele>208.0</ele><time>2013-07-13T15:43:53Z</time></trkpt>
<trkpt lat="33.0196" lon="35.18887"><ele>207.0</ele><time>2013-07-13T15:43:57Z</time></trkpt>
<trkpt lat="33.01959" lon="35.18897"><ele>206.0</ele><time>2013-07-13T15:44:02Z</time></trkpt>
<trkpt lat="33.01958" lon="35.18907"><ele>207.0</ele><time>2013-07-13T15:44:06Z</time></trkpt>
<trkpt lat="33.01958" lon="35.18917"><ele>209.0</ele><time>2013-07-13T15:44:10Z</time></trkpt>
<trkpt lat="33.01957" lon="35.18927"><ele>210.0</ele><time>2013-07-13T15:44:14Z</time></trkpt>
<trkpt lat="33.01956" lon="35.18939"><ele>211.0</ele><time>2013-07-13T15:44:19Z</time></trkpt>
<trkpt lat="33.01955" lon="35.1895"><ele>211.0</ele><time>2013-07-13T15:44:24Z</time></trkpt>
<trkpt lat="33.01954" lon="35.18962"><ele>212.0</ele><time>2013-07-13T15:44:28Z</time></trkpt>
<trkpt lat="33.01953" lon="35.18973"><ele>212.0</ele><time>2013-07-13T15:44:33Z</time></trkpt>
<trkpt lat="33.01952" lon="35.18984"><ele>213.0</ele><time>2013-07-13T15:44:38Z</time></trkpt>
<trkpt lat="33.01952" lon="35.18995"><ele>213.0</ele><time>2013-07-13T15:44:43Z</time></trkpt>
<trkpt lat="33.01951" lon="35.19005"><ele>215.0</ele><time>2013-07-13T15:44:48Z</time></trkpt>
<trkpt lat="33.0195" lon="35.19016"><ele>216.0</ele><time>2013-07-13T15:44:53Z</time></trkpt>
<trkpt lat="33.0195" lon="35.19027"><ele>216.0</ele><time>2013-07-13T15:44:58Z</time></trkpt>
<trkpt lat="33.01949" lon="35.19038"><ele>217.0</ele><time>2013-07-13T15:45:04Z</time></trkpt>
<trkpt lat="33.01949" lon="35.19048"><ele>217.0</ele><time>2013-07-13T15:45:09Z</time></trkpt>
<trkpt lat="33.01948" lon="35.19059"><ele>218.0</ele><time>2013-07-13T15:45:14Z</time></trkpt>
<trkpt lat="33.01947" lon="35.19069"><ele>218.0</ele><time>2013-07-13T15:45:19Z</time></trkpt>
<trkpt lat="33.01946" lon="35.19081"><ele>219.0</ele><time>2013-07-13T15:45:24Z</time></trkpt>
<trkpt lat="33.01946" lon="35.19092"><ele>220.0</ele><time>2013-07-13T15:45:28Z</time></trkpt>
<trkpt lat="33.01945" lon="35.19103"><ele>221.0</ele><time>2013-07-13T15:45:33Z</time></trkpt>
<trkpt lat="33.01945" lon="35.19113"><ele>221.0</ele><time>2013-07-13T15:45:38Z</time></trkpt>
<trkpt lat="33.01944" lon="35.19123"><ele>222.0</ele><time>2013-07-13T15:45:43Z</time></trkpt>
<trkpt lat="33.01944" lon="35.19134"><ele>222.0</ele><time>2013-07-13T15:45:49Z</time></trkpt>
<trkpt lat="33.01943" lon="35.19144"><ele>222.0</ele><time>2013-07-13T15:45:54Z</time></trkpt>
<trkpt lat="33.01942" lon="35.19154"><ele>222.0</ele><time>2013-07-13T15:45:59Z</time></trkpt>
<trkpt lat="33.01942" lon="35.19164"><ele>223.0</ele><time>2013-07-13T15:46:05Z</time></trkpt>
<trkpt lat="33.01942" lon="35.19174"><ele>224.0</ele><time>2013-07-13T15:46:10Z</time></trkpt>
<trkpt lat="33.01942" lon="35.19185"><ele>225.0</ele><time>2013-07-13T15:46:16Z</time></trkpt>
<trkpt lat="33.01941" lon="35.19195"><ele>226.0</ele><time>2013-07-13T15:46:21Z</time></trkpt>
<trkpt lat="33.01941" lon="35.19205"><ele>226.0</ele><time>2013-07-13T15:46:25Z</time></trkpt>
<trkpt lat="33.01941" lon="35.19217"><ele>227.0</ele><time>2013-07-13T15:46:31Z</time></trkpt>
<trkpt lat="33.01941" lon="35.19227"><ele>228.0</ele><time>2013-07-13T15:46:36Z</time></trkpt>
<trkpt lat="33.0194" lon="35.19237"><ele>229.0</ele><time>2013-07-13T15:46:41Z</time></trkpt>
<trkpt lat="33.0194" lon="35.19247"><ele>229.0</ele><time>2013-07-13T15:46:46Z</time></trkpt>
<trkpt lat="33.0194" lon="35.19257"><ele>231.0</ele><time>2013-07-13T15:46:51Z</time></trkpt>
<trkpt lat="33.0194" lon="35.19268"><ele>232.0</ele><time>2013-07-13T15:46:57Z</time></trkpt>
<trkpt lat="33.0194" lon="35.19279"><ele>234.0</ele><time>2013-07-13T15:47:04Z</time></trkpt>
<trkpt lat="33.01941" lon="35.19289"><ele>235.0</ele><time>2013-07-13T15:47:10Z</time></trkpt>
<trkpt lat="33.01941" lon="35.19301"><ele>237.0</ele><time>2013-07-13T15:47:17Z</time></trkpt>
<trkpt lat="33.01941" lon="35.19311"><ele>239.0</ele><time>2013-07-13T15:47:24Z</time></trkpt>
<trkpt lat="33.01942" lon="35.19355"><ele>242.0</ele><time>2013-07-13T15:47:54Z</time></trkpt>
<trkpt lat="33.01944" lon="35.19402"><ele>244.0</ele><time>2013-07-13T15:48:26Z</time></trkpt>
<trkpt lat="33.01946" lon="35.1945"><ele>247.0</ele><time>2013-07-13T15:48:58Z</time></trkpt>
<trkpt lat="33.01948" lon="35.19498"><ele>249.0</ele><time>2013-07-13T15:49:30Z</time></trkpt>
<trkpt lat="33.01949" lon="35.19509"><ele>252.0</ele><time>2013-07-13T15:49:37Z</time></trkpt>
<trkpt lat="33.01951" lon="35.19561"><ele>254.0</ele><time>2013-07-13T15:50:12Z</time></trkpt>
<trkpt lat="33.01955" lon="35.19609"><ele>257.0</ele><time>2013-07-13T15:50:42Z</time></trkpt>
<trkpt lat="33.0196" lon="35.19657"><ele>259.0</ele><time>2013-07-13T15:51:14Z</time></trkpt>
<trkpt lat="33.01961" lon="35.19669"><ele>261.0</ele><time>2013-07-13T15:51:21Z</time></trkpt>
<trkpt lat="33.01962" lon="35.1968"><ele>263.0</ele><time>2013-07-13T15:51:27Z</time></trkpt>
<trkpt lat="33.01963" lon="35.19689"><ele>265.0</ele><time>2013-07-13T15:51:33Z</time></trkpt>
<trkpt lat="33.01964" lon="35.19699"><ele>267.0</ele><time>2013-07-13T15:51:39Z</time></trkpt>
<trkpt lat="33.01966" lon="35.19709"><ele>268.0</ele><time>2013-07-13T15:51:45Z</time></trkpt>
<trkpt lat="33.01969" lon="35.19734"><ele>270.0</ele><time>2013-07-13T15:52:02Z</time></trkpt>
<trkpt lat="33.01971" lon="35.19745"><ele>272.0</ele><time>2013-07-13T15:52:08Z</time></trkpt>
<trkpt lat="33.01972" lon="35.19755"><ele>273.0</ele><time>2013-07-13T15:52:14Z</time></trkpt>
<trkpt lat="33.01974" lon="35.19765"><ele>275.0</ele><time>2013-07-13T15:52:20Z</time></trkpt>
<trkpt lat="33.01976" lon="35.19776"><ele>276.0</ele><time>2013-07-13T15:52:25Z</time></trkpt>
<trkpt lat="33.01978" lon="35.19786"><ele>277.0</ele><time>2013-07-13T15:52:31Z</time></trkpt>
<trkpt lat="33.01979" lon="35.19797"><ele>277.0</ele><time>2013-07-13T15:52:37Z</time></trkpt>
<trkpt lat="33.01982" lon="35.19807"><ele>278.0</ele><time>2013-07-13T15:52:43Z</time></trkpt>
<trkpt lat="33.01984" lon="35.19818"><ele>278.0</ele><time>2013-07-13T15:52:49Z</time></trkpt>
<trkpt lat="33.01985" lon="35.19829"><ele>279.0</ele><time>2013-07-13T15:52:55Z</time></trkpt>
<trkpt lat="33.01988" lon="35.1984"><ele>280.0</ele><time>2013-07-13T15:53:02Z</time></trkpt>
<trkpt lat="33.0199" lon="35.1985"><ele>281.0</ele><time>2013-07-13T15:53:08Z</time></trkpt>
<trkpt lat="33.01991" lon="35.19861"><ele>282.0</ele><time>2013-07-13T15:53:14Z</time></trkpt>
<trkpt lat="33.01993" lon="35.19872"><ele>283.0</ele><time>2013-07-13T15:53:20Z</time></trkpt>
<trkpt lat="33.01996" lon="35.19883"><ele>285.0</ele><time>2013-07-13T15:53:25Z</time></trkpt>
<trkpt lat="33.01998" lon="35.19894"><ele>287.0</ele><time>2013-07-13T15:53:31Z</time></trkpt>
<trkpt lat="33.02" lon="35.19905"><ele>289.0</ele><time>2013-07-13T15:53:37Z</time></trkpt>
<trkpt lat="33.0201" lon="35.19955"><ele>292.0</ele><time>2013-07-13T15:54:11Z</time></trkpt>
<trkpt lat="33.02011" lon="35.19964"><ele>294.0</ele><time>2013-07-13T15:54:17Z</time></trkpt>
<trkpt lat="33.02021" lon="35.20014"><ele>298.0</ele><time>2013-07-13T15:54:49Z</time></trkpt>
<trkpt lat="33.0203" lon="35.2006"><ele>300.0</ele><time>2013-07-13T15:55:24Z</time></trkpt>
<trkpt lat="33.0204" lon="35.20108"><ele>304.0</ele><time>2013-07-13T15:55:56Z</time></trkpt>
<trkpt lat="33.02048" lon="35.20155"><ele>307.0</ele><time>2013-07-13T15:56:28Z</time></trkpt>
<trkpt lat="33.02057" lon="35.20201"><ele>310.0</ele><time>2013-07-13T15:57:03Z</time></trkpt>
<trkpt lat="33.02065" lon="35.20247"><ele>313.0</ele><time>2013-07-13T15:57:37Z</time></trkpt>
<trkpt lat="33.02074" lon="35.20294"><ele>316.0</ele><time>2013-07-13T15:58:10Z</time></trkpt>
<trkpt lat="33.02085" lon="35.20344"><ele>318.0</ele><time>2013-07-13T15:58:42Z</time></trkpt>
<trkpt lat="33.02086" lon="35.20355"><ele>321.0</ele><time>2013-07-13T15:58:49Z</time></trkpt>
<trkpt lat="33.02088" lon="35.20365"><ele>323.0</ele><time>2013-07-13T15:58:56Z</time></trkpt>
<trkpt lat="33.02097" lon="35.20408"><ele>325.0</ele><time>2013-07-13T15:59:25Z</time></trkpt>
<trkpt lat="33.02099" lon="35.20418"><ele>326.0</ele><time>2013-07-13T15:59:30Z</time></trkpt>
<trkpt lat="33.02101" lon="35.20428"><ele>328.0</ele><time>2013-07-13T15:59:37Z</time></trkpt>
<trkpt lat="33.0211" lon="35.2047"><ele>329.0</ele><time>2013-07-13T16:00:07Z</time></trkpt>
<trkpt lat="33.02117" lon="35.20512"><ele>330.0</ele><time>2013-07-13T16:00:34Z</time></trkpt>
<trkpt lat="33.0212" lon="35.20522"><ele>330.0</ele><time>2013-07-13T16:00:40Z</time></trkpt>
<trkpt lat="33.02121" lon="35.20532"><ele>331.0</ele><time>2013-07-13T16:00:46Z</time></trkpt>
<trkpt lat="33.02123" lon="35.20541"><ele>331.0</ele><time>2013-07-13T16:00:52Z</time></trkpt>
<trkpt lat="33.02125" lon="35.20551"><ele>332.0</ele><time>2013-07-13T16:00:58Z</time></trkpt>
<trkpt lat="33.02127" lon="35.20561"><ele>332.0</ele><time>2013-07-13T16:01:05Z</time></trkpt>
<trkpt lat="33.02129" lon="35.20571"><ele>332.0</ele><time>2013-07-13T16:01:11Z</time></trkpt>
<trkpt lat="33.02131" lon="35.2058"><ele>333.0</ele><time>2013-07-13T16:01:17Z</time></trkpt>
<trkpt lat="33.02132" lon="35.2059"><ele>334.0</ele><time>2013-07-13T16:01:23Z</time></trkpt>
<trkpt lat="33.02134" lon="35.206"><ele>335.0</ele><time>2013-07-13T16:01:28Z</time></trkpt>
<trkpt lat="33.02136" lon="35.2061"><ele>335.0</ele><time>2013-07-13T16:01:34Z</time></trkpt>
<trkpt lat="33.02138" lon="35.2062"><ele>336.0</ele><time>2013-07-13T16:01:40Z</time></trkpt>
<trkpt lat="33.0214" lon="35.2063"><ele>336.0</ele><time>2013-07-13T16:01:46Z</time></trkpt>
<trkpt lat="33.02142" lon="35.2064"><ele>337.0</ele><time>2013-07-13T16:01:52Z</time></trkpt>
<trkpt lat="33.02144" lon="35.20651"><ele>338.0</ele><time>2013-07-13T16:01:58Z</time></trkpt>
<trkpt lat="33.02146" lon="35.20661"><ele>339.0</ele><time>2013-07-13T16:02:05Z</time></trkpt>
<trkpt lat="33.02148" lon="35.20671"><ele>340.0</ele><time>2013-07-13T16:02:11Z</time></trkpt>
<trkpt lat="33.0215" lon="35.20681"><ele>341.0</ele><time>2013-07-13T16:02:17Z</time></trkpt>
<trkpt lat="33.02152" lon="35.20691"><ele>342.0</ele><time>2013-07-13T16:02:23Z</time></trkpt>
<trkpt lat="33.02154" lon="35.20702"><ele>343.0</ele><time>2013-07-13T16:02:28Z</time></trkpt>
<trkpt lat="33.02156" lon="35.20712"><ele>343.0</ele><time>2013-07-13T16:02:34Z</time></trkpt>
<trkpt lat="33.02158" lon="35.20722"><ele>344.0</ele><time>2013-07-13T16:02:40Z</time></trkpt>
<trkpt lat="33.0216" lon="35.20732"><ele>345.0</ele><time>2013-07-13T16:02:46Z</time></trkpt>
<trkpt lat="33.02162" lon="35.20742"><ele>345.0</ele><time>2013-07-13T16:02:52Z</time></trkpt>
<trkpt lat="33.02163" lon="35.20752"><ele>346.0</ele><time>2013-07-13T16:02:58Z</time></trkpt>
<trkpt lat="33.02165" lon="35.20762"><ele>347.0</ele><time>2013-07-13T16:03:05Z</time></trkpt>
<trkpt lat="33.02168" lon="35.20772"><ele>348.0</ele><time>2013-07-13T16:03:11Z</time></trkpt>
<trkpt lat="33.02169" lon="35.20783"><ele>348.0</ele><time>2013-07-13T16:03:17Z</time></trkpt>
<trkpt lat="33.02171" lon="35.20793"><ele>349.0</ele><time>2013-07-13T16:03:23Z</time></trkpt>
<trkpt lat="33.02173" lon="35.20803"><ele>351.0</ele><time>2013-07-13T16:03:28Z</time></trkpt>
<trkpt lat="33.02175" lon="35.20813"><ele>352.0</ele><time>2013-07-13T16:03:34Z</time></trkpt>
<trkpt lat="33.02177" lon="35.20824"><ele>353.0</ele><time>2013-07-13T16:03:41Z</time></trkpt>
<trkpt lat="33.02185" lon="35.20866"><ele>355.0</ele><time>2013-07-13T16:04:13Z</time></trkpt>
<trkpt lat="33.0219" lon="35.2089"><ele>357.0</ele><time>2013-07-13T16:04:31Z</time></trkpt>
<trkpt lat="33.02199" lon="35.20936"><ele>358.0</ele><time>2013-07-13T16:05:06Z</time></trkpt>
<trkpt lat="33.02207" lon="35.20983"><ele>360.0</ele><time>2013-07-13T16:05:38Z</time></trkpt>
<trkpt lat="33.02216" lon="35.2103"><ele>363.0</ele><time>2013-07-13T16:06:11Z</time></trkpt>
<trkpt lat="33.02219" lon="35.21039"><ele>365.0</ele><time>2013-07-13T16:06:18Z</time></trkpt>
<trkpt lat="33.02227" lon="35.21081"><ele>367.0</ele><time>2013-07-13T16:06:50Z</time></trkpt>
<trkpt lat="33.02234" lon="35.21128"><ele>369.0</ele><time>2013-07-13T16:07:24Z</time></trkpt>
<trkpt lat="33.02238" lon="35.21176"><ele>371.0</ele><time>2013-07-13T16:07:55Z</time></trkpt>
<trkpt lat="33.02242" lon="35.21225"><ele>373.0</ele><time>2013-07-13T16:08:28Z</time></trkpt>
<trkpt lat="33.02242" lon="35.21275"><ele>375.0</ele><time>2013-07-13T16:09:03Z</time></trkpt>
<trkpt lat="33.02241" lon="35.21328"><ele>377.0</ele><time>2013-07-13T16:09:36Z</time></trkpt>
<trkpt lat="33.0224" lon="35.21338"><ele>378.0</ele><time>2013-07-13T16:09:43Z</time></trkpt>
<trkpt lat="33.02238" lon="35.21383"><ele>380.0</ele><time>2013-07-13T16:10:13Z</time></trkpt>
<trkpt lat="33.02237" lon="35.21394"><ele>381.0</ele><time>2013-07-13T16:10:20Z</time></trkpt>
<trkpt lat="33.02237" lon="35.21405"><ele>381.0</ele><time>2013-07-13T16:10:25Z</time></trkpt>
<trkpt lat="33.02236" lon="35.21415"><ele>382.0</ele><time>2013-07-13T16:10:31Z</time></trkpt>
<trkpt lat="33.02235" lon="35.21425"><ele>383.0</ele><time>2013-07-13T16:10:37Z</time></trkpt>
<trkpt lat="33.02235" lon="35.21435"><ele>384.0</ele><time>2013-07-13T16:10:43Z</time></trkpt>
<trkpt lat="33.02235" lon="35.21445"><ele>384.0</ele><time>2013-07-13T16:10:49Z</time></trkpt>
<trkpt lat="33.02234" lon="35.21455"><ele>385.0</ele><time>2013-07-13T16:10:55Z</time></trkpt>
<trkpt lat="33.02234" lon="35.21465"><ele>385.0</ele><time>2013-07-13T16:11:02Z</time></trkpt>
<trkpt lat="33.02233" lon="35.21475"><ele>386.0</ele><time>2013-07-13T16:11:08Z</time></trkpt>
<trkpt lat="33.02233" lon="35.21486"><ele>386.0</ele><time>2013-07-13T16:11:14Z</time></trkpt>
<trkpt lat="33.02233" lon="35.21496"><ele>387.0</ele><time>2013-07-13T16:11:20Z</time></trkpt>
<trkpt lat="33.02233" lon="35.21508"><ele>387.0</ele><time>2013-07-13T16:11:25Z</time></trkpt>
<trkpt lat="33.02233" lon="35.21519"><ele>388.0</ele><time>2013-07-13T16:11:31Z</time></trkpt>
<trkpt lat="33.02233" lon="35.2153"><ele>388.0</ele><time>2013-07-13T16:11:37Z</time></trkpt>
<trkpt lat="33.02233" lon="35.21542"><ele>388.0</ele><time>2013-07-13T16:11:43Z</time></trkpt>
<trkpt lat="33.02233" lon="35.21551"><ele>389.0</ele><time>2013-07-13T16:11:48Z</time></trkpt>
<trkpt lat="33.02233" lon="35.21563"><ele>389.0</ele><time>2013-07-13T16:11:54Z</time></trkpt>
<trkpt lat="33.02234" lon="35.21574"><ele>389.0</ele><time>2013-07-13T16:12:01Z</time></trkpt>
<trkpt lat="33.02235" lon="35.21584"><ele>389.0</ele><time>2013-07-13T16:12:06Z</time></trkpt>
<trkpt lat="33.02235" lon="35.21594"><ele>390.0</ele><time>2013-07-13T16:12:11Z</time></trkpt>
<trkpt lat="33.02235" lon="35.21606"><ele>390.0</ele><time>2013-07-13T16:12:16Z</time></trkpt>
<trkpt lat="33.02236" lon="35.21617"><ele>390.0</ele><time>2013-07-13T16:12:21Z</time></trkpt>
<trkpt lat="33.02237" lon="35.21629"><ele>390.0</ele><time>2013-07-13T16:12:25Z</time></trkpt>
<trkpt lat="33.02238" lon="35.21639"><ele>390.0</ele><time>2013-07-13T16:12:29Z</time></trkpt>
<trkpt lat="33.02239" lon="35.21649"><ele>390.0</ele><time>2013-07-13T16:12:33Z</time></trkpt>
<trkpt lat="33.0224" lon="35.21659"><ele>390.0</ele><time>2013-07-13T16:12:37Z</time></trkpt>
<trkpt lat="33.02241" lon="35.21669"><ele>390.0</ele><time>2013-07-13T16:12:41Z</time></trkpt>
<trkpt lat="33.02242" lon="35.21679"><ele>390.0</ele><time>2013-07-13T16:12:45Z</time></trkpt>
<trkpt lat="33.02244" lon="35.2169"><ele>391.0</ele><time>2013-07-13T16:12:51Z</time></trkpt>
<trkpt lat="33.02245" lon="35.21702"><ele>391.0</ele><time>2013-07-13T16:12:55Z</time></trkpt>
<trkpt lat="33.02246" lon="35.21713"><ele>391.0</ele><time>2013-07-13T16:12:59Z</time></trkpt>
<trkpt lat="33.02248" lon="35.21725"><ele>391.0</ele><time>2013-07-13T16:13:04Z</time></trkpt>
<trkpt lat="33.0225" lon="35.21737"><ele>391.0</ele><time>2013-07-13T16:13:08Z</time></trkpt>
<trkpt lat="33.02251" lon="35.21747"><ele>391.0</ele><time>2013-07-13T16:13:11Z</time></trkpt>
<trkpt lat="33.02252" lon="35.21757"><ele>391.0</ele><time>2013-07-13T16:13:14Z</time></trkpt>
<trkpt lat="33.02254" lon="35.21767"><ele>391.0</ele><time>2013-07-13T16:13:17Z</time></trkpt>
<trkpt lat="33.02255" lon="35.21777"><ele>391.0</ele><time>2013-07-13T16:13:20Z</time></trkpt>
<trkpt lat="33.02257" lon="35.21787"><ele>391.0</ele><time>2013-07-13T16:13:23Z</time></trkpt>
<trkpt lat="33.02259" lon="35.21797"><ele>392.0</ele><time>2013-07-13T16:13:26Z</time></trkpt>
<trkpt lat="33.02262" lon="35.21807"><ele>392.0</ele><time>2013-07-13T16:13:31Z</time></trkpt>
<trkpt lat="33.02263" lon="35.21817"><ele>392.0</ele><time>2013-07-13T16:13:36Z</time></trkpt>
<trkpt lat="33.02265" lon="35.21826"><ele>392.0</ele><time>2013-07-13T16:13:39Z</time></trkpt>
<trkpt lat="33.02267" lon="35.21837"><ele>392.0</ele><time>2013-07-13T16:13:42Z</time></trkpt>
<trkpt lat="33.02269" lon="35.21847"><ele>392.0</ele><time>2013-07-13T16:13:45Z</time></trkpt>
<trkpt lat="33.02272" lon="35.21858"><ele>391.0</ele><time>2013-07-13T16:13:48Z</time></trkpt>
<trkpt lat="33.02274" lon="35.21868"><ele>391.0</ele><time>2013-07-13T16:13:51Z</time></trkpt>
<trkpt lat="33.02276" lon="35.21878"><ele>391.0</ele><time>2013-07-13T16:13:54Z</time></trkpt>
<trkpt lat="33.02278" lon="35.21889"><ele>391.0</ele><time>2013-07-13T16:13:57Z</time></trkpt>
<trkpt lat="33.0228" lon="35.21901"><ele>390.0</ele><time>2013-07-13T16:14:01Z</time></trkpt>
<trkpt lat="33.02282" lon="35.21912"><ele>390.0</ele><time>2013-07-13T16:14:04Z</time></trkpt>
<trkpt lat="33.02285" lon="35.21923"><ele>390.0</ele><time>2013-07-13T16:14:07Z</time></trkpt>
<trkpt lat="33.02288" lon="35.21934"><ele>390.0</ele><time>2013-07-13T16:14:10Z</time></trkpt>
<trkpt lat="33.0229" lon="35.21946"><ele>390.0</ele><time>2013-07-13T16:14:13Z</time></trkpt>
<trkpt lat="33.02292" lon="35.21958"><ele>390.0</ele><time>2013-07-13T16:14:16Z</time></trkpt>
<trkpt lat="33.02294" lon="35.21971"><ele>390.0</ele><time>2013-07-13T16:14:19Z</time></trkpt>
<trkpt lat="33.02296" lon="35.2198"><ele>390.0</ele><time>2013-07-13T16:14:21Z</time></trkpt>
<trkpt lat="33.02298" lon="35.2199"><ele>390.0</ele><time>2013-07-13T16:14:23Z</time></trkpt>
<trkpt lat="33.023" lon="35.22"><ele>390.0</ele><time>2013-07-13T16:14:25Z</time></trkpt>
<trkpt lat="33.02302" lon="35.2201"><ele>390.0</ele><time>2013-07-13T16:14:26Z</time></trkpt>
<trkpt lat="33.02305" lon="35.22021"><ele>390.0</ele><time>2013-07-13T16:14:28Z</time></trkpt>
<trkpt lat="33.02307" lon="35.22031"><ele>390.0</ele><time>2013-07-13T16:14:30Z</time></trkpt>
<trkpt lat="33.0231" lon="35.22042"><ele>389.0</ele><time>2013-07-13T16:14:32Z</time></trkpt>
<trkpt lat="33.02312" lon="35.22053"><ele>389.0</ele><time>2013-07-13T16:14:34Z</time></trkpt>
<trkpt lat="33.02314" lon="35.22064"><ele>389.0</ele><time>2013-07-13T16:14:36Z</time></trkpt>
<trkpt lat="33.02316" lon="35.22075"><ele>389.0</ele><time>2013-07-13T16:14:38Z</time></trkpt>
<trkpt lat="33.02319" lon="35.22087"><ele>388.0</ele><time>2013-07-13T16:14:40Z</time></trkpt>
<trkpt lat="33.02321" lon="35.22098"><ele>388.0</ele><time>2013-07-13T16:14:42Z</time></trkpt>
<trkpt lat="33.02324" lon="35.22109"><ele>387.0</ele><time>2013-07-13T16:14:44Z</time></trkpt>
<trkpt lat="33.02327" lon="35.22121"><ele>387.0</ele><time>2013-07-13T16:14:46Z</time></trkpt>
<trkpt lat="33.02329" lon="35.22133"><ele>387.0</ele><time>2013-07-13T16:14:48Z</time></trkpt>
<trkpt lat="33.02331" lon="35.22144"><ele>386.0</ele><time>2013-07-13T16:14:50Z</time></trkpt>
<trkpt lat="33.02333" lon="35.22156"><ele>386.0</ele><time>2013-07-13T16:14:52Z</time></trkpt>
<trkpt lat="33.02336" lon="35.22167"><ele>386.0</ele><time>2013-07-13T16:14:54Z</time></trkpt>
<trkpt lat="33.02338" lon="35.22179"><ele>386.0</ele><time>2013-07-13T16:14:56Z</time></trkpt>
<trkpt lat="33.02341" lon="35.2219"><ele>385.0</ele><time>2013-07-13T16:14:58Z</time></trkpt>
<trkpt lat="33.02343" lon="35.22201"><ele>385.0</ele><time>2013-07-13T16:15:01Z</time></trkpt>
<trkpt lat="33.02345" lon="35.22212"><ele>385.0</ele><time>2013-07-13T16:15:03Z</time></trkpt>
<trkpt lat="33.02347" lon="35.22221"><ele>385.0</ele><time>2013-07-13T16:15:05Z</time></trkpt>
<trkpt lat="33.02349" lon="35.22231"><ele>385.0</ele><time>2013-07-13T16:15:07Z</time></trkpt>
<trkpt lat="33.02352" lon="35.22245"><ele>385.0</ele><time>2013-07-13T16:15:10Z</time></trkpt>
<trkpt lat="33.02354" lon="35.22257"><ele>385.0</ele><time>2013-07-13T16:15:13Z</time></trkpt>
<trkpt lat="33.02357" lon="35.22268"><ele>385.0</ele><time>2013-07-13T16:15:16Z</time></trkpt>
<trkpt lat="33.02359" lon="35.2228"><ele>385.0</ele><time>2013-07-13T16:15:19Z</time></trkpt>
<trkpt lat="33.02362" lon="35.22292"><ele>385.0</ele><time>2013-07-13T16:15:22Z</time></trkpt>
<trkpt lat="33.02364" lon="35.22304"><ele>385.0</ele><time>2013-07-13T16:15:25Z</time></trkpt>
<trkpt lat="33.02366" lon="35.22316"><ele>385.0</ele><time>2013-07-13T16:15:27Z</time></trkpt>
<trkpt lat="33.02369" lon="35.22329"><ele>385.0</ele><time>2013-07-13T16:15:30Z</time></trkpt>
<trkpt lat="33.02371" lon="35.22341"><ele>385.0</ele><time>2013-07-13T16:15:33Z</time></trkpt>
<trkpt lat="33.02374" lon="35.22354"><ele>386.0</ele><time>2013-07-13T16:15:36Z</time></trkpt>
<trkpt lat="33.02377" lon="35.22366"><ele>386.0</ele><time>2013-07-13T16:15:39Z</time></trkpt>
<trkpt lat="33.0238" lon="35.22379"><ele>386.0</ele><time>2013-07-13T16:15:42Z</time></trkpt>
<trkpt lat="33.02382" lon="35.22392"><ele>386.0</ele><time>2013-07-13T16:15:45Z</time></trkpt>
<trkpt lat="33.02385" lon="35.22405"><ele>386.0</ele><time>2013-07-13T16:15:48Z</time></trkpt>
<trkpt lat="33.02388" lon="35.22418"><ele>387.0</ele><time>2013-07-13T16:15:51Z</time></trkpt>
<trkpt lat="33.02391" lon="35.2243"><ele>387.0</ele><time>2013-07-13T16:15:54Z</time></trkpt>
<trkpt lat="33.02394" lon="35.22442"><ele>387.0</ele><time>2013-07-13T16:15:57Z</time></trkpt>
<trkpt lat="33.02397" lon="35.22454"><ele>388.0</ele><time>2013-07-13T16:16:01Z</time></trkpt>
<trkpt lat="33.024" lon="35.22465"><ele>388.0</ele><time>2013-07-13T16:16:04Z</time></trkpt>
<trkpt lat="33.02402" lon="35.22476"><ele>388.0</ele><time>2013-07-13T16:16:07Z</time></trkpt>
<trkpt lat="33.02405" lon="35.22486"><ele>389.0</ele><time>2013-07-13T16:16:10Z</time></trkpt>
<trkpt lat="33.02407" lon="35.22496"><ele>389.0</ele><time>2013-07-13T16:16:13Z</time></trkpt>
<trkpt lat="33.0241" lon="35.22506"><ele>390.0</ele><time>2013-07-13T16:16:16Z</time></trkpt>
<trkpt lat="33.02413" lon="35.22519"><ele>390.0</ele><time>2013-07-13T16:16:20Z</time></trkpt>
<trkpt lat="33.02416" lon="35.2253"><ele>391.0</ele><time>2013-07-13T16:16:24Z</time></trkpt>
<trkpt lat="33.02419" lon="35.22542"><ele>391.0</ele><time>2013-07-13T16:16:27Z</time></trkpt>
<trkpt lat="33.02422" lon="35.22552"><ele>391.0</ele><time>2013-07-13T16:16:31Z</time></trkpt>
<trkpt lat="33.02425" lon="35.22563"><ele>391.0</ele><time>2013-07-13T16:16:35Z</time></trkpt>
<trkpt lat="33.02427" lon="35.22573"><ele>392.0</ele><time>2013-07-13T16:16:39Z</time></trkpt>
<trkpt lat="33.0243" lon="35.22583"><ele>392.0</ele><time>2013-07-13T16:16:43Z</time></trkpt>
<trkpt lat="33.02433" lon="35.22592"><ele>392.0</ele><time>2013-07-13T16:16:47Z</time></trkpt>
<trkpt lat="33.02436" lon="35.22602"><ele>393.0</ele><time>2013-07-13T16:16:51Z</time></trkpt>
<trkpt lat="33.02438" lon="35.22612"><ele>393.0</ele><time>2013-07-13T16:16:55Z</time></trkpt>
<trkpt lat="33.02441" lon="35.22622"><ele>393.0</ele><time>2013-07-13T16:16:59Z</time></trkpt>
<trkpt lat="33.02444" lon="35.22632"><ele>393.0</ele><time>2013-07-13T16:17:04Z</time></trkpt>
<trkpt lat="33.02446" lon="35.22642"><ele>393.0</ele><time>2013-07-13T16:17:08Z</time></trkpt>
<trkpt lat="33.02449" lon="35.22652"><ele>393.0</ele><time>2013-07-13T16:17:13Z</time></trkpt>
<trkpt lat="33.02452" lon="35.22661"><ele>394.0</ele><time>2013-07-13T16:17:18Z</time></trkpt>
<trkpt lat="33.02454" lon="35.22671"><ele>394.0</ele><time>2013-07-13T16:17:23Z</time></trkpt>
<trkpt lat="33.02457" lon="35.22682"><ele>395.0</ele><time>2013-07-13T16:17:27Z</time></trkpt>
<trkpt lat="33.0246" lon="35.22692"><ele>395.0</ele><time>2013-07-13T16:17:32Z</time></trkpt>
<trkpt lat="33.02463" lon="35.22702"><ele>395.0</ele><time>2013-07-13T16:17:37Z</time></trkpt>
<trkpt lat="33.02466" lon="35.22712"><ele>396.0</ele><time>2013-07-13T16:17:42Z</time></trkpt>
<trkpt lat="33.02468" lon="35.22722"><ele>396.0</ele><time>2013-07-13T16:17:47Z</time></trkpt>
<trkpt lat="33.02471" lon="35.22733"><ele>396.0</ele><time>2013-07-13T16:17:52Z</time></trkpt>
<trkpt lat="33.02475" lon="35.22743"><ele>397.0</ele><time>2013-07-13T16:17:57Z</time></trkpt>
<trkpt lat="33.02477" lon="35.22754"><ele>397.0</ele><time>2013-07-13T16:18:03Z</time></trkpt>
<trkpt lat="33.0248" lon="35.22765"><ele>398.0</ele><time>2013-07-13T16:18:08Z</time></trkpt>
<trkpt lat="33.02483" lon="35.22775"><ele>398.0</ele><time>2013-07-13T16:18:13Z</time></trkpt>
<trkpt lat="33.02486" lon="35.22786"><ele>398.0</ele><time>2013-07-13T16:18:18Z</time></trkpt>
<trkpt lat="33.02489" lon="35.22796"><ele>398.0</ele><time>2013-07-13T16:18:23Z</time></trkpt>
<trkpt lat="33.02493" lon="35.22807"><ele>398.0</ele><time>2013-07-13T16:18:27Z</time></trkpt>
<trkpt lat="33.02496" lon="35.22819"><ele>398.0</ele><time>2013-07-13T16:18:32Z</time></trkpt>
<trkpt lat="33.02499" lon="35.2283"><ele>398.0</ele><time>2013-07-13T16:18:37Z</time></trkpt>
<trkpt lat="33.02502" lon="35.2284"><ele>398.0</ele><time>2013-07-13T16:18:42Z</time></trkpt>
<trkpt lat="33.02505" lon="35.22851"><ele>398.0</ele><time>2013-07-13T16:18:47Z</time></trkpt>
<trkpt lat="33.02508" lon="35.22861"><ele>399.0</ele><time>2013-07-13T16:18:52Z</time></trkpt>
<trkpt lat="33.02511" lon="35.22872"><ele>399.0</ele><time>2013-07-13T16:18:57Z</time></trkpt>
<trkpt lat="33.02515" lon="35.22882"><ele>399.0</ele><time>2013-07-13T16:19:03Z</time></trkpt>
<trkpt lat="33.02517" lon="35.22893"><ele>399.0</ele><time>2013-07-13T16:19:08Z</time></trkpt>
<trkpt lat="33.0252" lon="35.22904"><ele>400.0</ele><time>2013-07-13T16:19:13Z</time></trkpt>
<trkpt lat="33.02523" lon="35.22915"><ele>400.0</ele><time>2013-07-13T16:19:18Z</time></trkpt>
<trkpt lat="33.02526" lon="35.22925"><ele>401.0</ele><time>2013-07-13T16:19:23Z</time></trkpt>
<trkpt lat="33.02528" lon="35.22936"><ele>401.0</ele><time>2013-07-13T16:19:27Z</time></trkpt>
<trkpt lat="33.02531" lon="35.22947"><ele>401.0</ele><time>2013-07-13T16:19:32Z</time></trkpt>
<trkpt lat="33.02533" lon="35.22958"><ele>402.0</ele><time>2013-07-13T16:19:37Z</time></trkpt>
<trkpt lat="33.02535" lon="35.22969"><ele>402.0</ele><time>2013-07-13T16:19:42Z</time></trkpt>
<trkpt lat="33.02537" lon="35.2298"><ele>402.0</ele><time>2013-07-13T16:19:47Z</time></trkpt>
<trkpt lat="33.02538" lon="35.22991"><ele>402.0</ele><time>2013-07-13T16:19:52Z</time></trkpt>
<trkpt lat="33.0254" lon="35.23002"><ele>403.0</ele><time>2013-07-13T16:19:57Z</time></trkpt>
<trkpt lat="33.02541" lon="35.23012"><ele>404.0</ele><time>2013-07-13T16:20:03Z</time></trkpt>
<trkpt lat="33.02543" lon="35.23023"><ele>405.0</ele><time>2013-07-13T16:20:08Z</time></trkpt>
<trkpt lat="33.02544" lon="35.23034"><ele>405.0</ele><time>2013-07-13T16:20:13Z</time></trkpt>
<trkpt lat="33.02544" lon="35.23045"><ele>406.0</ele><time>2013-07-13T16:20:18Z</time></trkpt>
<trkpt lat="33.02545" lon="35.23056"><ele>406.0</ele><time>2013-07-13T16:20:23Z</time></trkpt>
<trkpt lat="33.02546" lon="35.23067"><ele>407.0</ele><time>2013-07-13T16:20:27Z</time></trkpt>
<trkpt lat="33.02546" lon="35.23078"><ele>407.0</ele><time>2013-07-13T16:20:33Z</time></trkpt>
<trkpt lat="33.02547" lon="35.2309"><ele>408.0</ele><time>2013-07-13T16:20:39Z</time></trkpt>
<trkpt lat="33.02548" lon="35.23101"><ele>409.0</ele><time>2013-07-13T16:20:45Z</time></trkpt>
<trkpt lat="33.02548" lon="35.23113"><ele>410.0</ele><time>2013-07-13T16:20:51Z</time></trkpt>
<trkpt lat="33.02549" lon="35.23124"><ele>410.0</ele><time>2013-07-13T16:20:57Z</time></trkpt>
<trkpt lat="33.02549" lon="35.23136"><ele>410.0</ele><time>2013-07-13T16:21:04Z</time></trkpt>
<trkpt lat="33.0255" lon="35.23147"><ele>411.0</ele><time>2013-07-13T16:21:10Z</time></trkpt>
<trkpt lat="33.02551" lon="35.23157"><ele>411.0</ele><time>2013-07-13T16:21:15Z</time></trkpt>
<trkpt lat="33.02551" lon="35.23168"><ele>412.0</ele><time>2013-07-13T16:21:21Z</time></trkpt>
<trkpt lat="33.02552" lon="35.23179"><ele>412.0</ele><time>2013-07-13T16:21:26Z</time></trkpt>
<trkpt lat="33.02552" lon="35.23189"><ele>413.0</ele><time>2013-07-13T16:21:31Z</time></trkpt>
<trkpt lat="33.02553" lon="35.23199"><ele>413.0</ele><time>2013-07-13T16:21:37Z</time></trkpt>
<trkpt lat="33.02554" lon="35.23244"><ele>414.0</ele><time>2013-07-13T16:22:06Z</time></trkpt>
<trkpt lat="33.02554" lon="35.23254"><ele>414.0</ele><time>2013-07-13T16:22:12Z</time></trkpt>
<trkpt lat="33.02554" lon="35.23264"><ele>415.0</ele><time>2013-07-13T16:22:18Z</time></trkpt>
<trkpt lat="33.02555" lon="35.23275"><ele>416.0</ele><time>2013-07-13T16:22:24Z</time></trkpt>
<trkpt lat="33.02555" lon="35.23285"><ele>417.0</ele><time>2013-07-13T16:22:29Z</time></trkpt>
<trkpt lat="33.02555" lon="35.23295"><ele>417.0</ele><time>2013-07-13T16:22:35Z</time></trkpt>
<trkpt lat="33.02556" lon="35.23305"><ele>418.0</ele><time>2013-07-13T16:22:41Z</time></trkpt>
<trkpt lat="33.02556" lon="35.23316"><ele>418.0</ele><time>2013-07-13T16:22:47Z</time></trkpt>
<trkpt lat="33.02556" lon="35.23327"><ele>419.0</ele><time>2013-07-13T16:22:53Z</time></trkpt>
<trkpt lat="33.02557" lon="35.23337"><ele>420.0</ele><time>2013-07-13T16:22:59Z</time></trkpt>
<trkpt lat="33.02557" lon="35.23347"><ele>421.0</ele><time>2013-07-13T16:23:06Z</time></trkpt>
<trkpt lat="33.02559" lon="35.23358"><ele>421.0</ele><time>2013-07-13T16:23:12Z</time></trkpt>
<trkpt lat="33.0256" lon="35.23369"><ele>422.0</ele><time>2013-07-13T16:23:18Z</time></trkpt>
<trkpt lat="33.0256" lon="35.2338"><ele>422.0</ele><time>2013-07-13T16:23:24Z</time></trkpt>
<trkpt lat="33.02561" lon="35.2339"><ele>422.0</ele><time>2013-07-13T16:23:29Z</time></trkpt>
<trkpt lat="33.0256" lon="35.23401"><ele>422.0</ele><time>2013-07-13T16:23:35Z</time></trkpt>
<trkpt lat="33.0256" lon="35.23412"><ele>423.0</ele><time>2013-07-13T16:23:41Z</time></trkpt>
<trkpt lat="33.02561" lon="35.23422"><ele>424.0</ele><time>2013-07-13T16:23:47Z</time></trkpt>
<trkpt lat="33.02561" lon="35.23433"><ele>424.0</ele><time>2013-07-13T16:23:53Z</time></trkpt>
<trkpt lat="33.02562" lon="35.23444"><ele>425.0</ele><time>2013-07-13T16:23:59Z</time></trkpt>
<trkpt lat="33.02561" lon="35.23454"><ele>425.0</ele><time>2013-07-13T16:24:06Z</time></trkpt>
<trkpt lat="33.02562" lon="35.23465"><ele>426.0</ele><time>2013-07-13T16:24:12Z</time></trkpt>
<trkpt lat="33.02562" lon="35.23476"><ele>426.0</ele><time>2013-07-13T16:24:18Z</time></trkpt>
<trkpt lat="33.02563" lon="35.23486"><ele>426.0</ele><time>2013-07-13T16:24:24Z</time></trkpt>
<trkpt lat="33.02563" lon="35.23497"><ele>427.0</ele><time>2013-07-13T16:24:29Z</time></trkpt>
<trkpt lat="33.02564" lon="35.23508"><ele>428.0</ele><time>2013-07-13T16:24:35Z</time></trkpt>
<trkpt lat="33.02565" lon="35.23519"><ele>429.0</ele><time>2013-07-13T16:24:41Z</time></trkpt>
<trkpt lat="33.02566" lon="35.2353"><ele>429.0</ele><time>2013-07-13T16:24:47Z</time></trkpt>
<trkpt lat="33.02566" lon="35.23541"><ele>430.0</ele><time>2013-07-13T16:24:53Z</time></trkpt>
<trkpt lat="33.02567" lon="35.23551"><ele>430.0</ele><time>2013-07-13T16:24:59Z</time></trkpt>
<trkpt lat="33.02568" lon="35.23561"><ele>431.0</ele><time>2013-07-13T16:25:06Z</time></trkpt>
<trkpt lat="33.02569" lon="35.23572"><ele>432.0</ele><time>2013-07-13T16:25:12Z</time></trkpt>
<trkpt lat="33.0257" lon="35.23582"><ele>434.0</ele><time>2013-07-13T16:25:18Z</time></trkpt>
<trkpt lat="33.0257" lon="35.23592"><ele>435.0</ele><time>2013-07-13T16:25:24Z</time></trkpt>
<trkpt lat="33.02574" lon="35.23627"><ele>437.0</ele><time>2013-07-13T16:25:49Z</time></trkpt>
<trkpt lat="33.02575" lon="35.23654"><ele>439.0</ele><time>2013-07-13T16:26:10Z</time></trkpt>
<trkpt lat="33.02578" lon="35.23685"><ele>441.0</ele><time>2013-07-13T16:26:31Z</time></trkpt>
<trkpt lat="33.02579" lon="35.23719"><ele>442.0</ele><time>2013-07-13T16:26:55Z</time></trkpt>
<trkpt lat="33.02578" lon="35.23761"><ele>444.0</ele><time>2013-07-13T16:27:24Z</time></trkpt>
<trkpt lat="33.02574" lon="35.23808"><ele>446.0</ele><time>2013-07-13T16:27:55Z</time></trkpt>
<trkpt lat="33.02572" lon="35.23819"><ele>448.0</ele><time>2013-07-13T16:28:03Z</time></trkpt>
<trkpt lat="33.0257" lon="35.23829"><ele>450.0</ele><time>2013-07-13T16:28:10Z</time></trkpt>
<trkpt lat="33.02565" lon="35.23863"><ele>452.0</ele><time>2013-07-13T16:28:31Z</time></trkpt>
<trkpt lat="33.02562" lon="35.23873"><ele>453.0</ele><time>2013-07-13T16:28:38Z</time></trkpt>
<trkpt lat="33.02553" lon="35.23917"><ele>455.0</ele><time>2013-07-13T16:29:10Z</time></trkpt>
<trkpt lat="33.02546" lon="35.23956"><ele>456.0</ele><time>2013-07-13T16:29:36Z</time></trkpt>
<trkpt lat="33.02538" lon="35.24002"><ele>458.0</ele><time>2013-07-13T16:30:09Z</time></trkpt>
<trkpt lat="33.02535" lon="35.24017"><ele>459.0</ele><time>2013-07-13T16:30:19Z</time></trkpt>
<trkpt lat="33.0253" lon="35.24045"><ele>460.0</ele><time>2013-07-13T16:30:36Z</time></trkpt>
<trkpt lat="33.02528" lon="35.24054"><ele>462.0</ele><time>2013-07-13T16:30:42Z</time></trkpt>
<trkpt lat="33.02526" lon="35.24064"><ele>464.0</ele><time>2013-07-13T16:30:48Z</time></trkpt>
<trkpt lat="33.02516" lon="35.24116"><ele>465.0</ele><time>2013-07-13T16:31:22Z</time></trkpt>
<trkpt lat="33.02515" lon="35.24125"><ele>467.0</ele><time>2013-07-13T16:31:27Z</time></trkpt>
<trkpt lat="33.02512" lon="35.24136"><ele>468.0</ele><time>2013-07-13T16:31:33Z</time></trkpt>
<trkpt lat="33.02511" lon="35.24146"><ele>469.0</ele><time>2013-07-13T16:31:39Z</time></trkpt>
<trkpt lat="33.02508" lon="35.24156"><ele>470.0</ele><time>2013-07-13T16:31:45Z</time></trkpt>
<trkpt lat="33.02507" lon="35.24166"><ele>471.0</ele><time>2013-07-13T16:31:51Z</time></trkpt>
<trkpt lat="33.02504" lon="35.24176"><ele>472.0</ele><time>2013-07-13T16:31:57Z</time></trkpt>
<trkpt lat="33.02503" lon="35.24186"><ele>473.0</ele><time>2013-07-13T16:32:04Z</time></trkpt>
<trkpt lat="33.02501" lon="35.24197"><ele>474.0</ele><time>2013-07-13T16:32:10Z</time></trkpt>
<trkpt lat="33.02499" lon="35.24208"><ele>475.0</ele><time>2013-07-13T16:32:16Z</time></trkpt>
<trkpt lat="33.02496" lon="35.24219"><ele>475.0</ele><time>2013-07-13T16:32:22Z</time></trkpt>
<trkpt lat="33.02494" lon="35.2423"><ele>476.0</ele><time>2013-07-13T16:32:27Z</time></trkpt>
<trkpt lat="33.02493" lon="35.2424"><ele>476.0</ele><time>2013-07-13T16:32:33Z</time></trkpt>
<trkpt lat="33.02491" lon="35.24251"><ele>477.0</ele><time>2013-07-13T16:32:39Z</time></trkpt>
<trkpt lat="33.02488" lon="35.24262"><ele>478.0</ele><time>2013-07-13T16:32:45Z</time></trkpt>
<trkpt lat="33.02487" lon="35.24273"><ele>479.0</ele><time>2013-07-13T16:32:51Z</time></trkpt>
<trkpt lat="33.02485" lon="35.24284"><ele>479.0</ele><time>2013-07-13T16:32:57Z</time></trkpt>
<trkpt lat="33.02482" lon="35.24295"><ele>479.0</ele><time>2013-07-13T16:33:04Z</time></trkpt>
<trkpt lat="33.0248" lon="35.24306"><ele>480.0</ele><time>2013-07-13T16:33:10Z</time></trkpt>
<trkpt lat="33.02478" lon="35.24316"><ele>480.0</ele><time>2013-07-13T16:33:16Z</time></trkpt>
<trkpt lat="33.02476" lon="35.24326"><ele>480.0</ele><time>2013-07-13T16:33:22Z</time></trkpt>
<trkpt lat="33.02474" lon="35.24337"><ele>481.0</ele><time>2013-07-13T16:33:27Z</time></trkpt>
<trkpt lat="33.02472" lon="35.24347"><ele>480.0</ele><time>2013-07-13T16:33:33Z</time></trkpt>
<trkpt lat="33.0247" lon="35.24359"><ele>480.0</ele><time>2013-07-13T16:33:39Z</time></trkpt>
<trkpt lat="33.02468" lon="35.24369"><ele>479.0</ele><time>2013-07-13T16:33:44Z</time></trkpt>
<trkpt lat="33.02467" lon="35.2438"><ele>477.0</ele><time>2013-07-13T16:33:49Z</time></trkpt>
<trkpt lat="33.02466" lon="35.24391"><ele>476.0</ele><time>2013-07-13T16:33:54Z</time></trkpt>
<trkpt lat="33.02464" lon="35.24401"><ele>475.0</ele><time>2013-07-13T16:33:58Z</time></trkpt>
<trkpt lat="33.02463" lon="35.24411"><ele>474.0</ele><time>2013-07-13T16:34:03Z</time></trkpt>
<trkpt lat="33.02461" lon="35.24422"><ele>473.0</ele><time>2013-07-13T16:34:07Z</time></trkpt>
<trkpt lat="33.02461" lon="35.24434"><ele>473.0</ele><time>2013-07-13T16:34:11Z</time></trkpt>
<trkpt lat="33.0246" lon="35.24445"><ele>472.0</ele><time>2013-07-13T16:34:15Z</time></trkpt>
<trkpt lat="33.0246" lon="35.24457"><ele>470.0</ele><time>2013-07-13T16:34:20Z</time></trkpt>
<trkpt lat="33.02459" lon="35.24469"><ele>471.0</ele><time>2013-07-13T16:34:24Z</time></trkpt>
<trkpt lat="33.0246" lon="35.24481"><ele>471.0</ele><time>2013-07-13T16:34:27Z</time></trkpt>
<trkpt lat="33.0246" lon="35.24493"><ele>471.0</ele><time>2013-07-13T16:34:31Z</time></trkpt>
<trkpt lat="33.0246" lon="35.24504"><ele>471.0</ele><time>2013-07-13T16:34:34Z</time></trkpt>
<trkpt lat="33.02461" lon="35.24516"><ele>471.0</ele><time>2013-07-13T16:34:37Z</time></trkpt>
<trkpt lat="33.02461" lon="35.24529"><ele>471.0</ele><time>2013-07-13T16:34:40Z</time></trkpt>
<trkpt lat="33.02461" lon="35.24542"><ele>471.0</ele><time>2013-07-13T16:34:43Z</time></trkpt>
<trkpt lat="33.02461" lon="35.24552"><ele>470.0</ele><time>2013-07-13T16:34:45Z</time></trkpt>
<trkpt lat="33.02462" lon="35.24562"><ele>472.0</ele><time>2013-07-13T16:34:47Z</time></trkpt>
<trkpt lat="33.02463" lon="35.24572"><ele>473.0</ele><time>2013-07-13T16:34:49Z</time></trkpt>
<trkpt lat="33.02463" lon="35.24582"><ele>474.0</ele><time>2013-07-13T16:34:51Z</time></trkpt>
<trkpt lat="33.02464" lon="35.24593"><ele>475.0</ele><time>2013-07-13T16:34:53Z</time></trkpt>
<trkpt lat="33.02464" lon="35.24603"><ele>476.0</ele><time>2013-07-13T16:34:55Z</time></trkpt>
<trkpt lat="33.02465" lon="35.24614"><ele>477.0</ele><time>2013-07-13T16:34:57Z</time></trkpt>
<trkpt lat="33.02465" lon="35.24624"><ele>478.0</ele><time>2013-07-13T16:34:59Z</time></trkpt>
<trkpt lat="33.02466" lon="35.24635"><ele>480.0</ele><time>2013-07-13T16:35:02Z</time></trkpt>
<trkpt lat="33.02466" lon="35.24646"><ele>481.0</ele><time>2013-07-13T16:35:04Z</time></trkpt>
<trkpt lat="33.02466" lon="35.24658"><ele>482.0</ele><time>2013-07-13T16:35:06Z</time></trkpt>
<trkpt lat="33.02467" lon="35.24669"><ele>483.0</ele><time>2013-07-13T16:35:08Z</time></trkpt>
<trkpt lat="33.02467" lon="35.24682"><ele>483.0</ele><time>2013-07-13T16:35:10Z</time></trkpt>
<trkpt lat="33.02468" lon="35.24694"><ele>482.0</ele><time>2013-07-13T16:35:12Z</time></trkpt>
<trkpt lat="33.02468" lon="35.24706"><ele>482.0</ele><time>2013-07-13T16:35:14Z</time></trkpt>
<trkpt lat="33.02469" lon="35.24718"><ele>482.0</ele><time>2013-07-13T16:35:16Z</time></trkpt>
<trkpt lat="33.02469" lon="35.24728"><ele>482.0</ele><time>2013-07-13T16:35:18Z</time></trkpt>
<trkpt lat="33.0247" lon="35.24739"><ele>482.0</ele><time>2013-07-13T16:35:20Z</time></trkpt>
<trkpt lat="33.02471" lon="35.24748"><ele>482.0</ele><time>2013-07-13T16:35:22Z</time></trkpt>
<trkpt lat="33.02472" lon="35.24758"><ele>482.0</ele><time>2013-07-13T16:35:24Z</time></trkpt>
<trkpt lat="33.02473" lon="35.24768"><ele>482.0</ele><time>2013-07-13T16:35:25Z</time></trkpt>
<trkpt lat="33.02475" lon="35.24779"><ele>482.0</ele><time>2013-07-13T16:35:27Z</time></trkpt>
<trkpt lat="33.02476" lon="35.24789"><ele>482.0</ele><time>2013-07-13T16:35:29Z</time></trkpt>
<trkpt lat="33.02478" lon="35.24799"><ele>482.0</ele><time>2013-07-13T16:35:31Z</time></trkpt>
<trkpt lat="33.0248" lon="35.24808"><ele>482.0</ele><time>2013-07-13T16:35:33Z</time></trkpt>
<trkpt lat="33.02483" lon="35.24818"><ele>482.0</ele><time>2013-07-13T16:35:35Z</time></trkpt>
<trkpt lat="33.02485" lon="35.24827"><ele>481.0</ele><time>2013-07-13T16:35:37Z</time></trkpt>
<trkpt lat="33.02487" lon="35.24837"><ele>481.0</ele><time>2013-07-13T16:35:39Z</time></trkpt>
<trkpt lat="33.0249" lon="35.24846"><ele>481.0</ele><time>2013-07-13T16:35:41Z</time></trkpt>
<trkpt lat="33.02492" lon="35.24856"><ele>481.0</ele><time>2013-07-13T16:35:43Z</time></trkpt>
<trkpt lat="33.02495" lon="35.24865"><ele>481.0</ele><time>2013-07-13T16:35:45Z</time></trkpt>
<trkpt lat="33.02499" lon="35.24879"><ele>480.0</ele><time>2013-07-13T16:35:48Z</time></trkpt>
<trkpt lat="33.02502" lon="35.24891"><ele>480.0</ele><time>2013-07-13T16:35:51Z</time></trkpt>
<trkpt lat="33.02506" lon="35.24905"><ele>480.0</ele><time>2013-07-13T16:35:54Z</time></trkpt>
<trkpt lat="33.0251" lon="35.24918"><ele>480.0</ele><time>2013-07-13T16:35:57Z</time></trkpt>
<trkpt lat="33.02513" lon="35.24931"><ele>480.0</ele><time>2013-07-13T16:36:01Z</time></trkpt>
<trkpt lat="33.02516" lon="35.24944"><ele>480.0</ele><time>2013-07-13T16:36:04Z</time></trkpt>
<trkpt lat="33.02519" lon="35.24956"><ele>480.0</ele><time>2013-07-13T16:36:07Z</time></trkpt>
<trkpt lat="33.02522" lon="35.24968"><ele>480.0</ele><time>2013-07-13T16:36:10Z</time></trkpt>
<trkpt lat="33.02524" lon="35.2498"><ele>480.0</ele><time>2013-07-13T16:36:13Z</time></trkpt>
<trkpt lat="33.02525" lon="35.24991"><ele>480.0</ele><time>2013-07-13T16:36:16Z</time></trkpt>
<trkpt lat="33.02527" lon="35.25003"><ele>480.0</ele><time>2013-07-13T16:36:19Z</time></trkpt>
<trkpt lat="33.02528" lon="35.25014"><ele>480.0</ele><time>2013-07-13T16:36:22Z</time></trkpt>
<trkpt lat="33.0253" lon="35.25025"><ele>480.0</ele><time>2013-07-13T16:36:25Z</time></trkpt>
<trkpt lat="33.0253" lon="35.25035"><ele>480.0</ele><time>2013-07-13T16:36:27Z</time></trkpt>
<trkpt lat="33.0253" lon="35.25045"><ele>480.0</ele><time>2013-07-13T16:36:30Z</time></trkpt>
<trkpt lat="33.0253" lon="35.25055"><ele>480.0</ele><time>2013-07-13T16:36:33Z</time></trkpt>
<trkpt lat="33.0253" lon="35.25065"><ele>480.0</ele><time>2013-07-13T16:36:36Z</time></trkpt>
<trkpt lat="33.02529" lon="35.25076"><ele>480.0</ele><time>2013-07-13T16:36:39Z</time></trkpt>
<trkpt lat="33.02528" lon="35.25086"><ele>481.0</ele><time>2013-07-13T16:36:42Z</time></trkpt>
<trkpt lat="33.02528" lon="35.25096"><ele>481.0</ele><time>2013-07-13T16:36:45Z</time></trkpt>
<trkpt lat="33.02526" lon="35.25109"><ele>482.0</ele><time>2013-07-13T16:36:49Z</time></trkpt>
<trkpt lat="33.02524" lon="35.25121"><ele>482.0</ele><time>2013-07-13T16:36:53Z</time></trkpt>
<trkpt lat="33.02522" lon="35.25133"><ele>482.0</ele><time>2013-07-13T16:36:57Z</time></trkpt>
<trkpt lat="33.02519" lon="35.25145"><ele>483.0</ele><time>2013-07-13T16:37:02Z</time></trkpt>
<trkpt lat="33.02517" lon="35.25157"><ele>483.0</ele><time>2013-07-13T16:37:06Z</time></trkpt>
<trkpt lat="33.02514" lon="35.25168"><ele>484.0</ele><time>2013-07-13T16:37:10Z</time></trkpt>
<trkpt lat="33.02511" lon="35.25179"><ele>484.0</ele><time>2013-07-13T16:37:14Z</time></trkpt>
<trkpt lat="33.02508" lon="35.2519"><ele>484.0</ele><time>2013-07-13T16:37:18Z</time></trkpt>
<trkpt lat="33.02505" lon="35.252"><ele>485.0</ele><time>2013-07-13T16:37:22Z</time></trkpt>
<trkpt lat="33.02502" lon="35.2521"><ele>485.0</ele><time>2013-07-13T16:37:25Z</time></trkpt>
<trkpt lat="33.02499" lon="35.2522"><ele>485.0</ele><time>2013-07-13T16:37:29Z</time></trkpt>
<trkpt lat="33.02496" lon="35.25231"><ele>485.0</ele><time>2013-07-13T16:37:33Z</time></trkpt>
<trkpt lat="33.02493" lon="35.25242"><ele>485.0</ele><time>2013-07-13T16:37:37Z</time></trkpt>
<trkpt lat="33.0249" lon="35.25253"><ele>486.0</ele><time>2013-07-13T16:37:41Z</time></trkpt>
<trkpt lat="33.02488" lon="35.25265"><ele>486.0</ele><time>2013-07-13T16:37:45Z</time></trkpt>
<trkpt lat="33.02485" lon="35.25275"><ele>486.0</ele><time>2013-07-13T16:37:49Z</time></trkpt>
<trkpt lat="33.02482" lon="35.25286"><ele>486.0</ele><time>2013-07-13T16:37:53Z</time></trkpt>
<trkpt lat="33.02479" lon="35.25297"><ele>487.0</ele><time>2013-07-13T16:37:57Z</time></trkpt>
<trkpt lat="33.02475" lon="35.25309"><ele>487.0</ele><time>2013-07-13T16:38:02Z</time></trkpt>
<trkpt lat="33.02472" lon="35.25321"><ele>487.0</ele><time>2013-07-13T16:38:06Z</time></trkpt>
<trkpt lat="33.02468" lon="35.25331"><ele>488.0</ele><time>2013-07-13T16:38:10Z</time></trkpt>
<trkpt lat="33.02465" lon="35.2534"><ele>488.0</ele><time>2013-07-13T16:38:14Z</time></trkpt>
<trkpt lat="33.02462" lon="35.25352"><ele>489.0</ele><time>2013-07-13T16:38:18Z</time></trkpt>
<trkpt lat="33.02461" lon="35.25362"><ele>489.0</ele><time>2013-07-13T16:38:21Z</time></trkpt>
<trkpt lat="33.02459" lon="35.25371"><ele>490.0</ele><time>2013-07-13T16:38:24Z</time></trkpt>
<trkpt lat="33.02459" lon="35.25381"><ele>490.0</ele><time>2013-07-13T16:38:26Z</time></trkpt>
<trkpt lat="33.02461" lon="35.25391"><ele>490.0</ele><time>2013-07-13T16:38:29Z</time></trkpt>
<trkpt lat="33.02468" lon="35.254"><ele>491.0</ele><time>2013-07-13T16:38:33Z</time></trkpt>
<trkpt lat="33.02474" lon="35.2541"><ele>491.0</ele><time>2013-07-13T16:38:37Z</time></trkpt>
<trkpt lat="33.02481" lon="35.25417"><ele>491.0</ele><time>2013-07-13T16:38:41Z</time></trkpt>
<trkpt lat="33.02488" lon="35.25421"><ele>491.0</ele><time>2013-07-13T16:38:45Z</time></trkpt>
<trkpt lat="33.02509" lon="35.25433"><ele>491.0</ele><time>2013-07-13T16:42:22Z</time></trkpt>
<trkpt lat="33.02503" lon="35.25411"><ele>492.0</ele><time>2013-07-13T16:43:25Z</time></trkpt>
<trkpt lat="33.02495" lon="35.25419"><ele>492.0</ele><time>2013-07-13T16:45:13Z</time></trkpt>
</trkseg></trk></gpx>