<?xml version="1.0" encoding="utf-8"?>
<gpx version="1.1"><trk><trkseg>
<trkpt lat="33.01801" lon="35.261"><ele>447.0</ele><time>2013-09-03T16:46:00Z</time></trkpt>
<trkpt lat="33.01794" lon="35.26103"><ele>447.0</ele><time>2013-09-03T16:46:07Z</time></trkpt>
<trkpt lat="33.01798" lon="35.26111"><ele>448.0</ele><time>2013-09-03T16:47:35Z</time></trkpt>
<trkpt lat="33.01796" lon="35.2612"><ele>448.0</ele><time>2013-09-03T16:47:39Z</time></trkpt>
<trkpt lat="33.01794" lon="35.26132"><ele>448.0</ele><time>2013-09-03T16:47:44Z</time></trkpt>
<trkpt lat="33.01801" lon="35.2614"><ele>448.0</ele><time>2013-09-03T16:47:51Z</time></trkpt>
<trkpt lat="33.01809" lon="35.26144"><ele>448.0</ele><time>2013-09-03T16:47:54Z</time></trkpt>
<trkpt lat="33.01818" lon="35.26148"><ele>449.0</ele><time>2013-09-03T16:47:57Z</time></trkpt>
<trkpt lat="33.01827" lon="35.26154"><ele>449.0</ele><time>2013-09-03T16:48:00Z</time></trkpt>
<trkpt lat="33.01835" lon="35.26163"><ele>449.0</ele><time>2013-09-03T16:48:04Z</time></trkpt>
<trkpt lat="33.01843" lon="35.26174"><ele>450.0</ele><time>2013-09-03T16:48:06Z</time></trkpt>
<trkpt lat="33.01847" lon="35.26183"><ele>450.0</ele><time>2013-09-03T16:48:08Z</time></trkpt>
<trkpt lat="33.01849" lon="35.26193"><ele>451.0</ele><time>2013-09-03T16:48:11Z</time></trkpt>
<trkpt lat="33.0185" lon="35.26203"><ele>451.0</ele><time>2013-09-03T16:48:12Z</time></trkpt>
<trkpt lat="33.01852" lon="35.26218"><ele>451.0</ele><time>2013-09-03T16:48:16Z</time></trkpt>
<trkpt lat="33.01853" lon="35.26228"><ele>452.0</ele><time>2013-09-03T16:48:18Z</time></trkpt>
<trkpt lat="33.01854" lon="35.26238"><ele>452.0</ele><time>2013-09-03T16:48:19Z</time></trkpt>
<trkpt lat="33.01855" lon="35.26248"><ele>452.0</ele><time>2013-09-03T16:48:22Z</time></trkpt>
<trkpt lat="33.01856" lon="35.26258"><ele>453.0</ele><time>2013-09-03T16:48:24Z</time></trkpt>
<trkpt lat="33.01857" lon="35.26269"><ele>453.0</ele><time>2013-09-03T16:48:25Z</time></trkpt>
<trkpt lat="33.01858" lon="35.26279"><ele>453.0</ele><time>2013-09-03T16:48:28Z</time></trkpt>
<trkpt lat="33.0186" lon="35.2629"><ele>453.0</ele><time>2013-09-03T16:48:30Z</time></trkpt>
<trkpt lat="33.01861" lon="35.26299"><ele>453.0</ele><time>2013-09-03T16:48:32Z</time></trkpt>
<trkpt lat="33.01863" lon="35.26313"><ele>453.0</ele><time>2013-09-03T16:48:35Z</time></trkpt>
<trkpt lat="33.01864" lon="35.26327"><ele>453.0</ele><time>2013-09-03T16:48:37Z</time></trkpt>
<trkpt lat="33.01866" lon="35.26337"><ele>453.0</ele><time>2013-09-03T16:48:39Z</time></trkpt>
<trkpt lat="33.01868" lon="35.26351"><ele>453.0</ele><time>2013-09-03T16:48:42Z</time></trkpt>
<trkpt lat="33.01869" lon="35.26364"><ele>453.0</ele><time>2013-09-03T16:48:45Z</time></trkpt>
<trkpt lat="33.01869" lon="35.26373"><ele>453.0</ele><time>2013-09-03T16:48:48Z</time></trkpt>
<trkpt lat="33.01865" lon="35.26384"><ele>453.0</ele><time>2013-09-03T16:48:52Z</time></trkpt>
<trkpt lat="33.01873" lon="35.26391"><ele>452.0</ele><time>2013-09-03T16:48:58Z</time></trkpt>
<trkpt lat="33.01881" lon="35.26397"><ele>452.0</ele><time>2013-09-03T16:49:01Z</time></trkpt>
<trkpt lat="33.01889" lon="35.26405"><ele>452.0</ele><time>2013-09-03T16:49:05Z</time></trkpt>
<trkpt lat="33.01897" lon="35.26411"><ele>452.0</ele><time>2013-09-03T16:49:07Z</time></trkpt>
<trkpt lat="33.01906" lon="35.26419"><ele>452.0</ele><time>2013-09-03T16:49:11Z</time></trkpt>
<trkpt lat="33.01915" lon="35.26429"><ele>452.0</ele><time>2013-09-03T16:49:14Z</time></trkpt>
<trkpt lat="33.01923" lon="35.2644"><ele>451.0</ele><time>2013-09-03T16:49:17Z</time></trkpt>
<trkpt lat="33.01928" lon="35.26447"><ele>451.0</ele><time>2013-09-03T16:49:19Z</time></trkpt>
<trkpt lat="33.01934" lon="35.26455"><ele>451.0</ele><time>2013-09-03T16:49:20Z</time></trkpt>
<trkpt lat="33.01938" lon="35.26464"><ele>451.0</ele><time>2013-09-03T16:49:23Z</time></trkpt>
<trkpt lat="33.01942" lon="35.26476"><ele>451.0</ele><time>2013-09-03T16:49:25Z</time></trkpt>
<trkpt lat="33.01941" lon="35.26488"><ele>451.0</ele><time>2013-09-03T16:49:29Z</time></trkpt>
<trkpt lat="33.01936" lon="35.265"><ele>451.0</ele><time>2013-09-03T16:49:31Z</time></trkpt>
<trkpt lat="33.01929" lon="35.26511"><ele>451.0</ele><time>2013-09-03T16:49:35Z</time></trkpt>
<trkpt lat="33.01921" lon="35.26523"><ele>450.0</ele><time>2013-09-03T16:49:37Z</time></trkpt>
<trkpt lat="33.01914" lon="35.26533"><ele>450.0</ele><time>2013-09-03T16:49:40Z</time></trkpt>
<trkpt lat="33.01907" lon="35.26544"><ele>451.0</ele><time>2013-09-03T16:49:42Z</time></trkpt>
<trkpt lat="33.019" lon="35.26556"><ele>451.0</ele><time>2013-09-03T16:49:46Z</time></trkpt>
<trkpt lat="33.01893" lon="35.26567"><ele>452.0</ele><time>2013-09-03T16:49:49Z</time></trkpt>
<trkpt lat="33.01886" lon="35.26578"><ele>453.0</ele><time>2013-09-03T16:49:52Z</time></trkpt>
<trkpt lat="33.0188" lon="35.26589"><ele>454.0</ele><time>2013-09-03T16:49:54Z</time></trkpt>
<trkpt lat="33.01874" lon="35.26601"><ele>454.0</ele><time>2013-09-03T16:49:58Z</time></trkpt>
<trkpt lat="33.01868" lon="35.26611"><ele>455.0</ele><time>2013-09-03T16:50:01Z</time></trkpt>
<trkpt lat="33.01862" lon="35.26621"><ele>456.0</ele><time>2013-09-03T16:50:05Z</time></trkpt>
<trkpt lat="33.01856" lon="35.26633"><ele>457.0</ele><time>2013-09-03T16:50:07Z</time></trkpt>
<trkpt lat="33.01851" lon="35.26642"><ele>457.0</ele><time>2013-09-03T16:50:10Z</time></trkpt>
<trkpt lat="33.01847" lon="35.2665"><ele>458.0</ele><time>2013-09-03T16:50:11Z</time></trkpt>
<trkpt lat="33.01843" lon="35.26659"><ele>458.0</ele><time>2013-09-03T16:50:14Z</time></trkpt>
<trkpt lat="33.01837" lon="35.26671"><ele>458.0</ele><time>2013-09-03T16:50:17Z</time></trkpt>
<trkpt lat="33.01832" lon="35.26684"><ele>458.0</ele><time>2013-09-03T16:50:20Z</time></trkpt>
<trkpt lat="33.01828" lon="35.26693"><ele>458.0</ele><time>2013-09-03T16:50:22Z</time></trkpt>
<trkpt lat="33.01823" lon="35.26705"><ele>458.0</ele><time>2013-09-03T16:50:24Z</time></trkpt>
<trkpt lat="33.01818" lon="35.26716"><ele>458.0</ele><time>2013-09-03T16:50:28Z</time></trkpt>
<trkpt lat="33.01813" lon="35.26727"><ele>458.0</ele><time>2013-09-03T16:50:30Z</time></trkpt>
<trkpt lat="33.01808" lon="35.26739"><ele>458.0</ele><time>2013-09-03T16:50:34Z</time></trkpt>
<trkpt lat="33.01804" lon="35.26752"><ele>458.0</ele><time>2013-09-03T16:50:37Z</time></trkpt>
<trkpt lat="33.018" lon="35.26765"><ele>458.0</ele><time>2013-09-03T16:50:39Z</time></trkpt>
<trkpt lat="33.01797" lon="35.26775"><ele>458.0</ele><time>2013-09-03T16:50:41Z</time></trkpt>
<trkpt lat="33.01795" lon="35.26789"><ele>459.0</ele><time>2013-09-03T16:50:43Z</time></trkpt>
<trkpt lat="33.01796" lon="35.26799"><ele>459.0</ele><time>2013-09-03T16:50:46Z</time></trkpt>
<trkpt lat="33.01796" lon="35.26809"><ele>460.0</ele><time>2013-09-03T16:50:48Z</time></trkpt>
<trkpt lat="33.01793" lon="35.26819"><ele>460.0</ele><time>2013-09-03T16:50:49Z</time></trkpt>
<trkpt lat="33.0179" lon="35.26829"><ele>460.0</ele><time>2013-09-03T16:50:51Z</time></trkpt>
<trkpt lat="33.01787" lon="35.26839"><ele>460.0</ele><time>2013-09-03T16:50:53Z</time></trkpt>
<trkpt lat="33.01783" lon="35.2685"><ele>460.0</ele><time>2013-09-03T16:50:57Z</time></trkpt>
<trkpt lat="33.0178" lon="35.26861"><ele>460.0</ele><time>2013-09-03T16:51:01Z</time></trkpt>
<trkpt lat="33.01781" lon="35.26874"><ele>460.0</ele><time>2013-09-03T16:51:04Z</time></trkpt>
<trkpt lat="33.01787" lon="35.26882"><ele>460.0</ele><time>2013-09-03T16:51:06Z</time></trkpt>
<trkpt lat="33.01796" lon="35.26889"><ele>459.0</ele><time>2013-09-03T16:51:07Z</time></trkpt>
<trkpt lat="33.01806" lon="35.26894"><ele>459.0</ele><time>2013-09-03T16:51:10Z</time></trkpt>
<trkpt lat="33.01816" lon="35.26899"><ele>458.0</ele><time>2013-09-03T16:51:11Z</time></trkpt>
<trkpt lat="33.01825" lon="35.26902"><ele>457.0</ele><time>2013-09-03T16:51:14Z</time></trkpt>
<trkpt lat="33.01835" lon="35.26905"><ele>457.0</ele><time>2013-09-03T16:51:16Z</time></trkpt>
<trkpt lat="33.01844" lon="35.26909"><ele>457.0</ele><time>2013-09-03T16:51:18Z</time></trkpt>
<trkpt lat="33.01853" lon="35.26913"><ele>457.0</ele><time>2013-09-03T16:51:20Z</time></trkpt>
<trkpt lat="33.01862" lon="35.26918"><ele>457.0</ele><time>2013-09-03T16:51:22Z</time></trkpt>
<trkpt lat="33.01871" lon="35.26923"><ele>457.0</ele><time>2013-09-03T16:51:24Z</time></trkpt>
<trkpt lat="33.01878" lon="35.26931"><ele>457.0</ele><time>2013-09-03T16:51:26Z</time></trkpt>
<trkpt lat="33.01883" lon="35.26941"><ele>457.0</ele><time>2013-09-03T16:51:28Z</time></trkpt>
<trkpt lat="33.0189" lon="35.26948"><ele>457.0</ele><time>2013-09-03T16:51:30Z</time></trkpt>
<trkpt lat="33.01902" lon="35.26947"><ele>457.0</ele><time>2013-09-03T16:51:31Z</time></trkpt>
<trkpt lat="33.01912" lon="35.26944"><ele>457.0</ele><time>2013-09-03T16:51:34Z</time></trkpt>
<trkpt lat="33.01923" lon="35.26943"><ele>457.0</ele><time>2013-09-03T16:51:36Z</time></trkpt>
<trkpt lat="33.01935" lon="35.26945"><ele>457.0</ele><time>2013-09-03T16:51:38Z</time></trkpt>
<trkpt lat="33.01946" lon="35.26948"><ele>457.0</ele><time>2013-09-03T16:51:39Z</time></trkpt>
<trkpt lat="33.01958" lon="35.2695"><ele>457.0</ele><time>2013-09-03T16:51:41Z</time></trkpt>
<trkpt lat="33.01969" lon="35.26952"><ele>456.0</ele><time>2013-09-03T16:51:43Z</time></trkpt>
<trkpt lat="33.0198" lon="35.26954"><ele>456.0</ele><time>2013-09-03T16:51:45Z</time></trkpt>
<trkpt lat="33.01991" lon="35.26955"><ele>456.0</ele><time>2013-09-03T16:51:46Z</time></trkpt>
<trkpt lat="33.02001" lon="35.26957"><ele>456.0</ele><time>2013-09-03T16:51:49Z</time></trkpt>
<trkpt lat="33.02011" lon="35.26958"><ele>456.0</ele><time>2013-09-03T16:51:51Z</time></trkpt>
<trkpt lat="33.02022" lon="35.26958"><ele>455.0</ele><time>2013-09-03T16:51:52Z</time></trkpt>
<trkpt lat="33.02032" lon="35.2696"><ele>455.0</ele><time>2013-09-03T16:51:54Z</time></trkpt>
<trkpt lat="33.02042" lon="35.2696"><ele>455.0</ele><time>2013-09-03T16:51:57Z</time></trkpt>
<trkpt lat="33.02052" lon="35.26962"><ele>455.0</ele><time>2013-09-03T16:51:59Z</time></trkpt>
<trkpt lat="33.02061" lon="35.26966"><ele>455.0</ele><time>2013-09-03T16:52:01Z</time></trkpt>
<trkpt lat="33.0207" lon="35.26968"><ele>455.0</ele><time>2013-09-03T16:52:04Z</time></trkpt>
<trkpt lat="33.02079" lon="35.26966"><ele>455.0</ele><time>2013-09-03T16:52:06Z</time></trkpt>
<trkpt lat="33.02088" lon="35.26964"><ele>455.0</ele><time>2013-09-03T16:52:08Z</time></trkpt>
<trkpt lat="33.02098" lon="35.26963"><ele>455.0</ele><time>2013-09-03T16:52:10Z</time></trkpt>
<trkpt lat="33.02108" lon="35.26965"><ele>455.0</ele><time>2013-09-03T16:52:12Z</time></trkpt>
<trkpt lat="33.02119" lon="35.26967"><ele>455.0</ele><time>2013-09-03T16:52:13Z</time></trkpt>
<trkpt lat="33.02129" lon="35.26969"><ele>456.0</ele><time>2013-09-03T16:52:16Z</time></trkpt>
<trkpt lat="33.02139" lon="35.26972"><ele>456.0</ele><time>2013-09-03T16:52:18Z</time></trkpt>
<trkpt lat="33.02149" lon="35.26976"><ele>456.0</ele><time>2013-09-03T16:52:19Z</time></trkpt>
<trkpt lat="33.02157" lon="35.2698"><ele>456.0</ele><time>2013-09-03T16:52:22Z</time></trkpt>
<trkpt lat="33.02164" lon="35.26984"><ele>456.0</ele><time>2013-09-03T16:52:23Z</time></trkpt>
<trkpt lat="33.02172" lon="35.26988"><ele>457.0</ele><time>2013-09-03T16:52:25Z</time></trkpt>
<trkpt lat="33.02179" lon="35.26993"><ele>457.0</ele><time>2013-09-03T16:52:28Z</time></trkpt>
<trkpt lat="33.02188" lon="35.26999"><ele>457.0</ele><time>2013-09-03T16:52:31Z</time></trkpt>
<trkpt lat="33.02196" lon="35.27002"><ele>457.0</ele><time>2013-09-03T16:52:35Z</time></trkpt>
<trkpt lat="33.02205" lon="35.26997"><ele>458.0</ele><time>2013-09-03T16:52:40Z</time></trkpt>
<trkpt lat="33.02214" lon="35.26993"><ele>458.0</ele><time>2013-09-03T16:52:45Z</time></trkpt>
<trkpt lat="33.02222" lon="35.26988"><ele>458.0</ele><time>2013-09-03T16:52:46Z</time></trkpt>
<trkpt lat="33.02231" lon="35.26981"><ele>458.0</ele><time>2013-09-03T16:52:48Z</time></trkpt>
<trkpt lat="33.02238" lon="35.26974"><ele>459.0</ele><time>2013-09-03T16:52:51Z</time></trkpt>
<trkpt lat="33.02245" lon="35.26968"><ele>459.0</ele><time>2013-09-03T16:52:53Z</time></trkpt>
<trkpt lat="33.02255" lon="35.2696"><ele>460.0</ele><time>2013-09-03T16:52:56Z</time></trkpt>
<trkpt lat="33.02264" lon="35.26953"><ele>460.0</ele><time>2013-09-03T16:52:58Z</time></trkpt>
<trkpt lat="33.02273" lon="35.26946"><ele>461.0</ele><time>2013-09-03T16:53:03Z</time></trkpt>
<trkpt lat="33.02282" lon="35.2694"><ele>461.0</ele><time>2013-09-03T16:53:05Z</time></trkpt>
<trkpt lat="33.02292" lon="35.26937"><ele>462.0</ele><time>2013-09-03T16:53:08Z</time></trkpt>
<trkpt lat="33.02301" lon="35.26935"><ele>462.0</ele><time>2013-09-03T16:53:12Z</time></trkpt>
<trkpt lat="33.02311" lon="35.26934"><ele>463.0</ele><time>2013-09-03T16:53:16Z</time></trkpt>
<trkpt lat="33.0232" lon="35.26934"><ele>463.0</ele><time>2013-09-03T16:53:18Z</time></trkpt>
<trkpt lat="33.02329" lon="35.26934"><ele>464.0</ele><time>2013-09-03T16:53:22Z</time></trkpt>
<trkpt lat="33.02337" lon="35.26933"><ele>466.0</ele><time>2013-09-03T16:53:25Z</time></trkpt>
<trkpt lat="33.02348" lon="35.26932"><ele>467.0</ele><time>2013-09-03T16:53:29Z</time></trkpt>
<trkpt lat="33.02357" lon="35.26929"><ele>468.0</ele><time>2013-09-03T16:53:32Z</time></trkpt>
<trkpt lat="33.02366" lon="35.26926"><ele>469.0</ele><time>2013-09-03T16:53:37Z</time></trkpt>
<trkpt lat="33.02376" lon="35.26923"><ele>469.0</ele><time>2013-09-03T16:53:40Z</time></trkpt>
<trkpt lat="33.02385" lon="35.26921"><ele>470.0</ele><time>2013-09-03T16:53:44Z</time></trkpt>
<trkpt lat="33.02395" lon="35.26919"><ele>471.0</ele><time>2013-09-03T16:53:48Z</time></trkpt>
<trkpt lat="33.02403" lon="35.26918"><ele>472.0</ele><time>2013-09-03T16:53:51Z</time></trkpt>
<trkpt lat="33.02413" lon="35.26918"><ele>473.0</ele><time>2013-09-03T16:53:54Z</time></trkpt>
<trkpt lat="33.02423" lon="35.26918"><ele>474.0</ele><time>2013-09-03T16:54:00Z</time></trkpt>
<trkpt lat="33.02433" lon="35.26917"><ele>474.0</ele><time>2013-09-03T16:54:04Z</time></trkpt>
<trkpt lat="33.02443" lon="35.26918"><ele>474.0</ele><time>2013-09-03T16:54:07Z</time></trkpt>
<trkpt lat="33.02454" lon="35.26917"><ele>474.0</ele><time>2013-09-03T16:54:11Z</time></trkpt>
<trkpt lat="33.02464" lon="35.26916"><ele>475.0</ele><time>2013-09-03T16:54:16Z</time></trkpt>
<trkpt lat="33.02473" lon="35.26915"><ele>475.0</ele><time>2013-09-03T16:54:19Z</time></trkpt>
<trkpt lat="33.02483" lon="35.26913"><ele>475.0</ele><time>2013-09-03T16:54:23Z</time></trkpt>
<trkpt lat="33.02492" lon="35.26908"><ele>475.0</ele><time>2013-09-03T16:54:26Z</time></trkpt>
<trkpt lat="33.025" lon="35.26905"><ele>475.0</ele><time>2013-09-03T16:54:30Z</time></trkpt>
<trkpt lat="33.0251" lon="35.26902"><ele>475.0</ele><time>2013-09-03T16:54:33Z</time></trkpt>
<trkpt lat="33.02521" lon="35.26899"><ele>475.0</ele><time>2013-09-03T16:54:36Z</time></trkpt>
<trkpt lat="33.02532" lon="35.26898"><ele>475.0</ele><time>2013-09-03T16:54:38Z</time></trkpt>
<trkpt lat="33.02544" lon="35.26899"><ele>475.0</ele><time>2013-09-03T16:54:39Z</time></trkpt>
<trkpt lat="33.02557" lon="35.26901"><ele>474.0</ele><time>2013-09-03T16:54:41Z</time></trkpt>
<trkpt lat="33.02571" lon="35.26903"><ele>474.0</ele><time>2013-09-03T16:54:42Z</time></trkpt>
<trkpt lat="33.02584" lon="35.26904"><ele>473.0</ele><time>2013-09-03T16:54:45Z</time></trkpt>
<trkpt lat="33.02598" lon="35.26906"><ele>472.0</ele><time>2013-09-03T16:54:47Z</time></trkpt>
<trkpt lat="33.02613" lon="35.26908"><ele>471.0</ele><time>2013-09-03T16:54:48Z</time></trkpt>
<trkpt lat="33.02627" lon="35.2691"><ele>470.0</ele><time>2013-09-03T16:54:51Z</time></trkpt>
<trkpt lat="33.02641" lon="35.26911"><ele>469.0</ele><time>2013-09-03T16:54:52Z</time></trkpt>
<trkpt lat="33.02656" lon="35.26912"><ele>467.0</ele><time>2013-09-03T16:54:55Z</time></trkpt>
<trkpt lat="33.0267" lon="35.2691"><ele>466.0</ele><time>2013-09-03T16:54:57Z</time></trkpt>
<trkpt lat="33.02685" lon="35.26905"><ele>464.0</ele><time>2013-09-03T16:55:00Z</time></trkpt>
<trkpt lat="33.02699" lon="35.269"><ele>463.0</ele><time>2013-09-03T16:55:01Z</time></trkpt>
<trkpt lat="33.02711" lon="35.26895"><ele>461.0</ele><time>2013-09-03T16:55:04Z</time></trkpt>
<trkpt lat="33.02723" lon="35.2689"><ele>460.0</ele><time>2013-09-03T16:55:06Z</time></trkpt>
<trkpt lat="33.02734" lon="35.26884"><ele>460.0</ele><time>2013-09-03T16:55:07Z</time></trkpt>
<trkpt lat="33.02747" lon="35.26873"><ele>459.0</ele><time>2013-09-03T16:55:10Z</time></trkpt>
<trkpt lat="33.02753" lon="35.26866"><ele>458.0</ele><time>2013-09-03T16:55:11Z</time></trkpt>
<trkpt lat="33.02768" lon="35.26853"><ele>455.0</ele><time>2013-09-03T16:55:12Z</time></trkpt>
<trkpt lat="33.02775" lon="35.26847"><ele>453.0</ele><time>2013-09-03T16:55:13Z</time></trkpt>
<trkpt lat="33.02783" lon="35.26841"><ele>452.0</ele><time>2013-09-03T16:55:15Z</time></trkpt>
<trkpt lat="33.0279" lon="35.26836"><ele>451.0</ele><time>2013-09-03T16:55:16Z</time></trkpt>
<trkpt lat="33.02811" lon="35.26822"><ele>447.0</ele><time>2013-09-03T16:55:19Z</time></trkpt>
<trkpt lat="33.02824" lon="35.26815"><ele>445.0</ele><time>2013-09-03T16:55:21Z</time></trkpt>
<trkpt lat="33.02838" lon="35.26811"><ele>443.0</ele><time>2013-09-03T16:55:22Z</time></trkpt>
<trkpt lat="33.02853" lon="35.2681"><ele>441.0</ele><time>2013-09-03T16:55:25Z</time></trkpt>
<trkpt lat="33.02867" lon="35.26808"><ele>439.0</ele><time>2013-09-03T16:55:27Z</time></trkpt>
<trkpt lat="33.0288" lon="35.26806"><ele>438.0</ele><time>2013-09-03T16:55:28Z</time></trkpt>
<trkpt lat="33.02893" lon="35.26805"><ele>437.0</ele><time>2013-09-03T16:55:31Z</time></trkpt>
<trkpt lat="33.02905" lon="35.26808"><ele>436.0</ele><time>2013-09-03T16:55:33Z</time></trkpt>
<trkpt lat="33.02914" lon="35.2681"><ele>435.0</ele><time>2013-09-03T16:55:35Z</time></trkpt>
<trkpt lat="33.02923" lon="35.26815"><ele>433.0</ele><time>2013-09-03T16:55:36Z</time></trkpt>
<trkpt lat="33.02932" lon="35.26821"><ele>431.0</ele><time>2013-09-03T16:55:38Z</time></trkpt>
<trkpt lat="33.0294" lon="35.26827"><ele>431.0</ele><time>2013-09-03T16:55:40Z</time></trkpt>
<trkpt lat="33.02949" lon="35.26833"><ele>430.0</ele><time>2013-09-03T16:55:42Z</time></trkpt>
<trkpt lat="33.02958" lon="35.26838"><ele>429.0</ele><time>2013-09-03T16:55:46Z</time></trkpt>
<trkpt lat="33.02968" lon="35.26843"><ele>429.0</ele><time>2013-09-03T16:56:05Z</time></trkpt>
<trkpt lat="33.02977" lon="35.2685"><ele>428.0</ele><time>2013-09-03T16:56:09Z</time></trkpt>
<trkpt lat="33.02987" lon="35.26855"><ele>427.0</ele><time>2013-09-03T16:56:11Z</time></trkpt>
<trkpt lat="33.02995" lon="35.26856"><ele>427.0</ele><time>2013-09-03T16:56:14Z</time></trkpt>
<trkpt lat="33.03004" lon="35.26856"><ele>426.0</ele><time>2013-09-03T16:56:16Z</time></trkpt>
<trkpt lat="33.03012" lon="35.26854"><ele>425.0</ele><time>2013-09-03T16:56:17Z</time></trkpt>
<trkpt lat="33.03021" lon="35.2685"><ele>425.0</ele><time>2013-09-03T16:56:20Z</time></trkpt>
<trkpt lat="33.03029" lon="35.26847"><ele>425.0</ele><time>2013-09-03T16:56:22Z</time></trkpt>
<trkpt lat="33.03037" lon="35.26842"><ele>425.0</ele><time>2013-09-03T16:56:24Z</time></trkpt>
<trkpt lat="33.03045" lon="35.26836"><ele>425.0</ele><time>2013-09-03T16:56:26Z</time></trkpt>
<trkpt lat="33.03052" lon="35.2683"><ele>423.0</ele><time>2013-09-03T16:56:28Z</time></trkpt>
<trkpt lat="33.03061" lon="35.26832"><ele>422.0</ele><time>2013-09-03T16:56:30Z</time></trkpt>
<trkpt lat="33.03067" lon="35.2684"><ele>420.0</ele><time>2013-09-03T16:56:32Z</time></trkpt>
<trkpt lat="33.03069" lon="35.26853"><ele>418.0</ele><time>2013-09-03T16:56:35Z</time></trkpt>
<trkpt lat="33.03068" lon="35.26867"><ele>417.0</ele><time>2013-09-03T16:56:37Z</time></trkpt>
<trkpt lat="33.03066" lon="35.2688"><ele>416.0</ele><time>2013-09-03T16:56:38Z</time></trkpt>
<trkpt lat="33.03061" lon="35.26892"><ele>416.0</ele><time>2013-09-03T16:56:39Z</time></trkpt>
<trkpt lat="33.03056" lon="35.26902"><ele>415.0</ele><time>2013-09-03T16:56:42Z</time></trkpt>
<trkpt lat="33.0305" lon="35.26911"><ele>414.0</ele><time>2013-09-03T16:56:43Z</time></trkpt>
<trkpt lat="33.03043" lon="35.2692"><ele>413.0</ele><time>2013-09-03T16:56:46Z</time></trkpt>
<trkpt lat="33.03033" lon="35.26925"><ele>412.0</ele><time>2013-09-03T16:56:48Z</time></trkpt>
<trkpt lat="33.03022" lon="35.26928"><ele>413.0</ele><time>2013-09-03T16:56:50Z</time></trkpt>
<trkpt lat="33.03011" lon="35.26931"><ele>412.0</ele><time>2013-09-03T16:56:52Z</time></trkpt>
<trkpt lat="33.03003" lon="35.26936"><ele>411.0</ele><time>2013-09-03T16:56:53Z</time></trkpt>
<trkpt lat="33.03" lon="35.26946"><ele>410.0</ele><time>2013-09-03T16:56:55Z</time></trkpt>
<trkpt lat="33.03001" lon="35.26958"><ele>408.0</ele><time>2013-09-03T16:56:58Z</time></trkpt>
<trkpt lat="33.03003" lon="35.2697"><ele>406.0</ele><time>2013-09-03T16:56:59Z</time></trkpt>
<trkpt lat="33.03003" lon="35.26982"><ele>405.0</ele><time>2013-09-03T16:57:03Z</time></trkpt>
<trkpt lat="33.03003" lon="35.26995"><ele>403.0</ele><time>2013-09-03T16:57:05Z</time></trkpt>
<trkpt lat="33.03001" lon="35.27004"><ele>401.0</ele><time>2013-09-03T16:57:07Z</time></trkpt>
<trkpt lat="33.03005" lon="35.27015"><ele>401.0</ele><time>2013-09-03T16:57:10Z</time></trkpt>
<trkpt lat="33.03015" lon="35.27009"><ele>401.0</ele><time>2013-09-03T16:57:12Z</time></trkpt>
<trkpt lat="33.03019" lon="35.26998"><ele>401.0</ele><time>2013-09-03T16:57:14Z</time></trkpt>
<trkpt lat="33.03021" lon="35.26988"><ele>402.0</ele><time>2013-09-03T16:57:17Z</time></trkpt>
<trkpt lat="33.03024" lon="35.26977"><ele>403.0</ele><time>2013-09-03T16:57:19Z</time></trkpt>
<trkpt lat="33.03028" lon="35.26968"><ele>404.0</ele><time>2013-09-03T16:57:20Z</time></trkpt>
<trkpt lat="33.03036" lon="35.26958"><ele>405.0</ele><time>2013-09-03T16:57:24Z</time></trkpt>
<trkpt lat="33.03048" lon="35.26954"><ele>406.0</ele><time>2013-09-03T16:57:26Z</time></trkpt>
<trkpt lat="33.03058" lon="35.26952"><ele>407.0</ele><time>2013-09-03T16:57:29Z</time></trkpt>
<trkpt lat="33.03067" lon="35.26949"><ele>409.0</ele><time>2013-09-03T16:57:31Z</time></trkpt>
<trkpt lat="33.03076" lon="35.26946"><ele>407.0</ele><time>2013-09-03T16:57:32Z</time></trkpt>
<trkpt lat="33.03085" lon="35.26946"><ele>404.0</ele><time>2013-09-03T16:57:35Z</time></trkpt>
<trkpt lat="33.03093" lon="35.26951"><ele>401.0</ele><time>2013-09-03T16:57:37Z</time></trkpt>
<trkpt lat="33.031" lon="35.2696"><ele>400.0</ele><time>2013-09-03T16:57:38Z</time></trkpt>
<trkpt lat="33.03106" lon="35.2697"><ele>399.0</ele><time>2013-09-03T16:57:40Z</time></trkpt>
<trkpt lat="33.0311" lon="35.26982"><ele>398.0</ele><time>2013-09-03T16:57:41Z</time></trkpt>
<trkpt lat="33.03115" lon="35.26994"><ele>397.0</ele><time>2013-09-03T16:57:43Z</time></trkpt>
<trkpt lat="33.03123" lon="35.27002"><ele>397.0</ele><time>2013-09-03T16:57:45Z</time></trkpt>
<trkpt lat="33.03134" lon="35.27006"><ele>396.0</ele><time>2013-09-03T16:57:48Z</time></trkpt>
<trkpt lat="33.03147" lon="35.2701"><ele>395.0</ele><time>2013-09-03T16:57:50Z</time></trkpt>
<trkpt lat="33.0316" lon="35.27015"><ele>391.0</ele><time>2013-09-03T16:57:51Z</time></trkpt>
<trkpt lat="33.03173" lon="35.27021"><ele>394.0</ele><time>2013-09-03T16:57:53Z</time></trkpt>
<trkpt lat="33.03184" lon="35.27029"><ele>397.0</ele><time>2013-09-03T16:57:56Z</time></trkpt>
<trkpt lat="33.03194" lon="35.27039"><ele>401.0</ele><time>2013-09-03T16:57:58Z</time></trkpt>
<trkpt lat="33.03203" lon="35.27051"><ele>402.0</ele><time>2013-09-03T16:57:59Z</time></trkpt>
<trkpt lat="33.03209" lon="35.27065"><ele>401.0</ele><time>2013-09-03T16:58:02Z</time></trkpt>
<trkpt lat="33.03216" lon="35.2708"><ele>400.0</ele><time>2013-09-03T16:58:05Z</time></trkpt>
<trkpt lat="33.0322" lon="35.27096"><ele>396.0</ele><time>2013-09-03T16:58:06Z</time></trkpt>
<trkpt lat="33.0322" lon="35.27114"><ele>392.0</ele><time>2013-09-03T16:58:08Z</time></trkpt>
<trkpt lat="33.03219" lon="35.27132"><ele>387.0</ele><time>2013-09-03T16:58:11Z</time></trkpt>
<trkpt lat="33.03216" lon="35.2715"><ele>384.0</ele><time>2013-09-03T16:58:12Z</time></trkpt>
<trkpt lat="33.03213" lon="35.27168"><ele>384.0</ele><time>2013-09-03T16:58:14Z</time></trkpt>
<trkpt lat="33.0321" lon="35.27186"><ele>379.0</ele><time>2013-09-03T16:58:16Z</time></trkpt>
<trkpt lat="33.03208" lon="35.27204"><ele>375.0</ele><time>2013-09-03T16:58:19Z</time></trkpt>
<trkpt lat="33.03209" lon="35.2722"><ele>370.0</ele><time>2013-09-03T16:58:20Z</time></trkpt>
<trkpt lat="33.03214" lon="35.27236"><ele>366.0</ele><time>2013-09-03T16:58:23Z</time></trkpt>
<trkpt lat="33.03223" lon="35.27251"><ele>363.0</ele><time>2013-09-03T16:58:24Z</time></trkpt>
<trkpt lat="33.03234" lon="35.27263"><ele>363.0</ele><time>2013-09-03T16:58:27Z</time></trkpt>
<trkpt lat="33.03242" lon="35.27266"><ele>367.0</ele><time>2013-09-03T16:58:28Z</time></trkpt>
<trkpt lat="33.03257" lon="35.27268"><ele>370.0</ele><time>2013-09-03T16:58:29Z</time></trkpt>
<trkpt lat="33.03272" lon="35.2727"><ele>374.0</ele><time>2013-09-03T16:58:32Z</time></trkpt>
<trkpt lat="33.03285" lon="35.27272"><ele>376.0</ele><time>2013-09-03T16:58:33Z</time></trkpt>
<trkpt lat="33.03299" lon="35.27273"><ele>379.0</ele><time>2013-09-03T16:58:36Z</time></trkpt>
<trkpt lat="33.03312" lon="35.27274"><ele>377.0</ele><time>2013-09-03T16:58:37Z</time></trkpt>
<trkpt lat="33.03325" lon="35.27277"><ele>377.0</ele><time>2013-09-03T16:58:39Z</time></trkpt>
<trkpt lat="33.03338" lon="35.27282"><ele>376.0</ele><time>2013-09-03T16:58:40Z</time></trkpt>
<trkpt lat="33.03349" lon="35.27287"><ele>376.0</ele><time>2013-09-03T16:58:42Z</time></trkpt>
<trkpt lat="33.0336" lon="35.27294"><ele>376.0</ele><time>2013-09-03T16:58:44Z</time></trkpt>
<trkpt lat="33.03372" lon="35.27302"><ele>373.0</ele><time>2013-09-03T16:58:47Z</time></trkpt>
<trkpt lat="33.03383" lon="35.27314"><ele>371.0</ele><time>2013-09-03T16:58:48Z</time></trkpt>
<trkpt lat="33.03395" lon="35.27325"><ele>366.0</ele><time>2013-09-03T16:58:50Z</time></trkpt>
<trkpt lat="33.03407" lon="35.27337"><ele>362.0</ele><time>2013-09-03T16:58:52Z</time></trkpt>
<trkpt lat="33.03419" lon="35.27349"><ele>357.0</ele><time>2013-09-03T16:58:54Z</time></trkpt>
<trkpt lat="33.03429" lon="35.27362"><ele>353.0</ele><time>2013-09-03T16:58:57Z</time></trkpt>
<trkpt lat="33.03438" lon="35.27377"><ele>354.0</ele><time>2013-09-03T16:58:58Z</time></trkpt>
<trkpt lat="33.03446" lon="35.27393"><ele>353.0</ele><time>2013-09-03T16:59:01Z</time></trkpt>
<trkpt lat="33.03451" lon="35.27402"><ele>353.0</ele><time>2013-09-03T16:59:03Z</time></trkpt>
<trkpt lat="33.03455" lon="35.2741"><ele>352.0</ele><time>2013-09-03T16:59:04Z</time></trkpt>
<trkpt lat="33.03463" lon="35.27426"><ele>352.0</ele><time>2013-09-03T16:59:05Z</time></trkpt>
<trkpt lat="33.03475" lon="35.27438"><ele>351.0</ele><time>2013-09-03T16:59:07Z</time></trkpt>
<trkpt lat="33.03482" lon="35.27443"><ele>351.0</ele><time>2013-09-03T16:59:09Z</time></trkpt>
<trkpt lat="33.03497" lon="35.27449"><ele>352.0</ele><time>2013-09-03T16:59:10Z</time></trkpt>
<trkpt lat="33.03505" lon="35.27451"><ele>352.0</ele><time>2013-09-03T16:59:11Z</time></trkpt>
<trkpt lat="33.03513" lon="35.27451"><ele>352.0</ele><time>2013-09-03T16:59:12Z</time></trkpt>
<trkpt lat="33.03522" lon="35.2745"><ele>352.0</ele><time>2013-09-03T16:59:14Z</time></trkpt>
<trkpt lat="33.03539" lon="35.27446"><ele>349.0</ele><time>2013-09-03T16:59:15Z</time></trkpt>
<trkpt lat="33.03553" lon="35.2744"><ele>348.0</ele><time>2013-09-03T16:59:17Z</time></trkpt>
<trkpt lat="33.03565" lon="35.2743"><ele>346.0</ele><time>2013-09-03T16:59:20Z</time></trkpt>
<trkpt lat="33.03571" lon="35.27422"><ele>345.0</ele><time>2013-09-03T16:59:21Z</time></trkpt>
<trkpt lat="33.03578" lon="35.27415"><ele>346.0</ele><time>2013-09-03T16:59:22Z</time></trkpt>
<trkpt lat="33.03591" lon="35.27403"><ele>349.0</ele><time>2013-09-03T16:59:23Z</time></trkpt>
<trkpt lat="33.03598" lon="35.27396"><ele>348.0</ele><time>2013-09-03T16:59:24Z</time></trkpt>
<trkpt lat="33.03604" lon="35.27389"><ele>347.0</ele><time>2013-09-03T16:59:25Z</time></trkpt>
<trkpt lat="33.0361" lon="35.27382"><ele>346.0</ele><time>2013-09-03T16:59:26Z</time></trkpt>
<trkpt lat="33.03617" lon="35.27375"><ele>345.0</ele><time>2013-09-03T16:59:27Z</time></trkpt>
<trkpt lat="33.03624" lon="35.27369"><ele>344.0</ele><time>2013-09-03T16:59:29Z</time></trkpt>
<trkpt lat="33.03635" lon="35.27358"><ele>343.0</ele><time>2013-09-03T16:59:30Z</time></trkpt>
<trkpt lat="33.03648" lon="35.27346"><ele>342.0</ele><time>2013-09-03T16:59:32Z</time></trkpt>
<trkpt lat="33.0366" lon="35.27336"><ele>341.0</ele><time>2013-09-03T16:59:34Z</time></trkpt>
<trkpt lat="33.03672" lon="35.27327"><ele>337.0</ele><time>2013-09-03T16:59:36Z</time></trkpt>
<trkpt lat="33.03688" lon="35.27319"><ele>332.0</ele><time>2013-09-03T16:59:38Z</time></trkpt>
<trkpt lat="33.03697" lon="35.27316"><ele>328.0</ele><time>2013-09-03T16:59:39Z</time></trkpt>
<trkpt lat="33.03712" lon="35.27307"><ele>326.0</ele><time>2013-09-03T16:59:40Z</time></trkpt>
<trkpt lat="33.03719" lon="35.27301"><ele>326.0</ele><time>2013-09-03T16:59:41Z</time></trkpt>
<trkpt lat="33.03731" lon="35.27291"><ele>325.0</ele><time>2013-09-03T16:59:43Z</time></trkpt>
<trkpt lat="33.0374" lon="35.27279"><ele>326.0</ele><time>2013-09-03T16:59:45Z</time></trkpt>
<trkpt lat="33.03747" lon="35.27267"><ele>326.0</ele><time>2013-09-03T16:59:47Z</time></trkpt>
<trkpt lat="33.03754" lon="35.27255"><ele>327.0</ele><time>2013-09-03T16:59:50Z</time></trkpt>
<trkpt lat="33.0376" lon="35.2724"><ele>328.0</ele><time>2013-09-03T16:59:52Z</time></trkpt>
<trkpt lat="33.03765" lon="35.27224"><ele>329.0</ele><time>2013-09-03T16:59:53Z</time></trkpt>
<trkpt lat="33.0377" lon="35.27208"><ele>331.0</ele><time>2013-09-03T16:59:55Z</time></trkpt>
<trkpt lat="33.03775" lon="35.27194"><ele>333.0</ele><time>2013-09-03T16:59:58Z</time></trkpt>
<trkpt lat="33.03778" lon="35.27178"><ele>335.0</ele><time>2013-09-03T17:00:00Z</time></trkpt>
<trkpt lat="33.03781" lon="35.27165"><ele>337.0</ele><time>2013-09-03T17:00:02Z</time></trkpt>
<trkpt lat="33.03783" lon="35.27153"><ele>339.0</ele><time>2013-09-03T17:00:04Z</time></trkpt>
<trkpt lat="33.03785" lon="35.27139"><ele>341.0</ele><time>2013-09-03T17:00:06Z</time></trkpt>
<trkpt lat="33.03785" lon="35.27125"><ele>341.0</ele><time>2013-09-03T17:00:08Z</time></trkpt>
<trkpt lat="33.03786" lon="35.27111"><ele>342.0</ele><time>2013-09-03T17:00:11Z</time></trkpt>
<trkpt lat="33.03787" lon="35.27097"><ele>343.0</ele><time>2013-09-03T17:00:12Z</time></trkpt>
<trkpt lat="33.03787" lon="35.27084"><ele>343.0</ele><time>2013-09-03T17:00:14Z</time></trkpt>
<trkpt lat="33.03788" lon="35.27071"><ele>342.0</ele><time>2013-09-03T17:00:17Z</time></trkpt>
<trkpt lat="33.03788" lon="35.2706"><ele>341.0</ele><time>2013-09-03T17:00:18Z</time></trkpt>
<trkpt lat="33.03788" lon="35.27048"><ele>339.0</ele><time>2013-09-03T17:00:20Z</time></trkpt>
<trkpt lat="33.0379" lon="35.27036"><ele>337.0</ele><time>2013-09-03T17:00:22Z</time></trkpt>
<trkpt lat="33.03792" lon="35.27025"><ele>335.0</ele><time>2013-09-03T17:00:25Z</time></trkpt>
<trkpt lat="33.03794" lon="35.27015"><ele>333.0</ele><time>2013-09-03T17:00:26Z</time></trkpt>
<trkpt lat="33.03796" lon="35.27005"><ele>331.0</ele><time>2013-09-03T17:00:28Z</time></trkpt>
<trkpt lat="33.03799" lon="35.26993"><ele>329.0</ele><time>2013-09-03T17:00:31Z</time></trkpt>
<trkpt lat="33.03802" lon="35.26983"><ele>327.0</ele><time>2013-09-03T17:00:36Z</time></trkpt>
<trkpt lat="33.03804" lon="35.26973"><ele>325.0</ele><time>2013-09-03T17:00:39Z</time></trkpt>
<trkpt lat="33.03807" lon="35.26982"><ele>323.0</ele><time>2013-09-03T17:03:13Z</time></trkpt>
<trkpt lat="33.03804" lon="35.26993"><ele>323.0</ele><time>2013-09-03T17:03:16Z</time></trkpt>
<trkpt lat="33.03802" lon="35.27004"><ele>323.0</ele><time>2013-09-03T17:03:21Z</time></trkpt>
<trkpt lat="33.038" lon="35.27014"><ele>325.0</ele><time>2013-09-03T17:03:24Z</time></trkpt>
<trkpt lat="33.03798" lon="35.27023"><ele>327.0</ele><time>2013-09-03T17:03:28Z</time></trkpt>
<trkpt lat="33.03795" lon="35.27034"><ele>329.0</ele><time>2013-09-03T17:03:32Z</time></trkpt>
<trkpt lat="33.03794" lon="35.27044"><ele>331.0</ele><time>2013-09-03T17:03:37Z</time></trkpt>
<trkpt lat="33.03793" lon="35.27055"><ele>333.0</ele><time>2013-09-03T17:03:40Z</time></trkpt>
<trkpt lat="33.0379" lon="35.27066"><ele>335.0</ele><time>2013-09-03T17:03:45Z</time></trkpt>
<trkpt lat="33.03789" lon="35.27078"><ele>337.0</ele><time>2013-09-03T17:03:49Z</time></trkpt>
<trkpt lat="33.03789" lon="35.27089"><ele>338.0</ele><time>2013-09-03T17:03:53Z</time></trkpt>
<trkpt lat="33.0379" lon="35.271"><ele>339.0</ele><time>2013-09-03T17:03:55Z</time></trkpt>
<trkpt lat="33.03789" lon="35.27111"><ele>341.0</ele><time>2013-09-03T17:04:00Z</time></trkpt>
<trkpt lat="33.03788" lon="35.27122"><ele>342.0</ele><time>2013-09-03T17:04:02Z</time></trkpt>
<trkpt lat="33.03787" lon="35.27132"><ele>341.0</ele><time>2013-09-03T17:04:06Z</time></trkpt>
<trkpt lat="33.03787" lon="35.27143"><ele>341.0</ele><time>2013-09-03T17:04:08Z</time></trkpt>
<trkpt lat="33.03784" lon="35.27155"><ele>340.0</ele><time>2013-09-03T17:04:11Z</time></trkpt>
<trkpt lat="33.03783" lon="35.27165"><ele>338.0</ele><time>2013-09-03T17:04:14Z</time></trkpt>
<trkpt lat="33.03782" lon="35.27176"><ele>336.0</ele><time>2013-09-03T17:04:17Z</time></trkpt>
<trkpt lat="33.03779" lon="35.27187"><ele>334.0</ele><time>2013-09-03T17:04:20Z</time></trkpt>
<trkpt lat="33.03776" lon="35.27198"><ele>332.0</ele><time>2013-09-03T17:04:23Z</time></trkpt>
<trkpt lat="33.03773" lon="35.27209"><ele>331.0</ele><time>2013-09-03T17:04:26Z</time></trkpt>
<trkpt lat="33.03768" lon="35.27221"><ele>329.0</ele><time>2013-09-03T17:04:29Z</time></trkpt>
<trkpt lat="33.03763" lon="35.27234"><ele>328.0</ele><time>2013-09-03T17:04:33Z</time></trkpt>
<trkpt lat="33.0376" lon="35.27243"><ele>326.0</ele><time>2013-09-03T17:04:34Z</time></trkpt>
<trkpt lat="33.03756" lon="35.27251"><ele>325.0</ele><time>2013-09-03T17:04:36Z</time></trkpt>
<trkpt lat="33.03752" lon="35.2726"><ele>323.0</ele><time>2013-09-03T17:04:38Z</time></trkpt>
<trkpt lat="33.03748" lon="35.27268"><ele>322.0</ele><time>2013-09-03T17:04:39Z</time></trkpt>
<trkpt lat="33.03743" lon="35.27276"><ele>323.0</ele><time>2013-09-03T17:04:41Z</time></trkpt>
<trkpt lat="33.03737" lon="35.27284"><ele>324.0</ele><time>2013-09-03T17:04:44Z</time></trkpt>
<trkpt lat="33.0373" lon="35.27293"><ele>324.0</ele><time>2013-09-03T17:04:46Z</time></trkpt>
<trkpt lat="33.03724" lon="35.273"><ele>325.0</ele><time>2013-09-03T17:04:49Z</time></trkpt>
<trkpt lat="33.03714" lon="35.27308"><ele>326.0</ele><time>2013-09-03T17:04:52Z</time></trkpt>
<trkpt lat="33.03703" lon="35.27315"><ele>326.0</ele><time>2013-09-03T17:04:54Z</time></trkpt>
<trkpt lat="33.03696" lon="35.2732"><ele>327.0</ele><time>2013-09-03T17:04:57Z</time></trkpt>
<trkpt lat="33.03685" lon="35.27326"><ele>328.0</ele><time>2013-09-03T17:05:00Z</time></trkpt>
<trkpt lat="33.03678" lon="35.27331"><ele>329.0</ele><time>2013-09-03T17:05:02Z</time></trkpt>
<trkpt lat="33.03671" lon="35.27336"><ele>329.0</ele><time>2013-09-03T17:05:05Z</time></trkpt>
<trkpt lat="33.03664" lon="35.27342"><ele>333.0</ele><time>2013-09-03T17:05:06Z</time></trkpt>
<trkpt lat="33.03654" lon="35.27349"><ele>334.0</ele><time>2013-09-03T17:05:10Z</time></trkpt>
<trkpt lat="33.03645" lon="35.27358"><ele>335.0</ele><time>2013-09-03T17:05:12Z</time></trkpt>
<trkpt lat="33.03637" lon="35.27364"><ele>336.0</ele><time>2013-09-03T17:05:15Z</time></trkpt>
<trkpt lat="33.03631" lon="35.27371"><ele>337.0</ele><time>2013-09-03T17:05:18Z</time></trkpt>
<trkpt lat="33.03623" lon="35.2738"><ele>338.0</ele><time>2013-09-03T17:05:22Z</time></trkpt>
<trkpt lat="33.03613" lon="35.27387"><ele>339.0</ele><time>2013-09-03T17:05:26Z</time></trkpt>
<trkpt lat="33.03605" lon="35.27393"><ele>340.0</ele><time>2013-09-03T17:05:30Z</time></trkpt>
<trkpt lat="33.03598" lon="35.27399"><ele>341.0</ele><time>2013-09-03T17:05:35Z</time></trkpt>
<trkpt lat="33.03591" lon="35.27405"><ele>342.0</ele><time>2013-09-03T17:05:40Z</time></trkpt>
<trkpt lat="33.03584" lon="35.27412"><ele>343.0</ele><time>2013-09-03T17:05:47Z</time></trkpt>
<trkpt lat="33.03578" lon="35.27419"><ele>342.0</ele><time>2013-09-03T17:05:53Z</time></trkpt>
<trkpt lat="33.0357" lon="35.27426"><ele>343.0</ele><time>2013-09-03T17:05:58Z</time></trkpt>
<trkpt lat="33.03564" lon="35.27432"><ele>345.0</ele><time>2013-09-03T17:06:06Z</time></trkpt>
<trkpt lat="33.03556" lon="35.27439"><ele>346.0</ele><time>2013-09-03T17:06:12Z</time></trkpt>
<trkpt lat="33.03547" lon="35.27444"><ele>348.0</ele><time>2013-09-03T17:06:16Z</time></trkpt>
<trkpt lat="33.03539" lon="35.27447"><ele>349.0</ele><time>2013-09-03T17:06:22Z</time></trkpt>
<trkpt lat="33.0353" lon="35.2745"><ele>351.0</ele><time>2013-09-03T17:06:26Z</time></trkpt>
<trkpt lat="33.03521" lon="35.27452"><ele>352.0</ele><time>2013-09-03T17:06:32Z</time></trkpt>
<trkpt lat="33.03512" lon="35.27452"><ele>354.0</ele><time>2013-09-03T17:06:39Z</time></trkpt>
<trkpt lat="33.03503" lon="35.27452"><ele>354.0</ele><time>2013-09-03T17:06:43Z</time></trkpt>
<trkpt lat="33.03495" lon="35.27452"><ele>354.0</ele><time>2013-09-03T17:06:48Z</time></trkpt>
<trkpt lat="33.03487" lon="35.27449"><ele>352.0</ele><time>2013-09-03T17:06:54Z</time></trkpt>
<trkpt lat="33.03478" lon="35.27444"><ele>351.0</ele><time>2013-09-03T17:07:00Z</time></trkpt>
<trkpt lat="33.0347" lon="35.27439"><ele>349.0</ele><time>2013-09-03T17:07:05Z</time></trkpt>
<trkpt lat="33.03463" lon="35.27432"><ele>348.0</ele><time>2013-09-03T17:07:11Z</time></trkpt>
<trkpt lat="33.03457" lon="35.27424"><ele>348.0</ele><time>2013-09-03T17:07:16Z</time></trkpt>
<trkpt lat="33.03452" lon="35.27414"><ele>349.0</ele><time>2013-09-03T17:07:20Z</time></trkpt>
<trkpt lat="33.03447" lon="35.27405"><ele>349.0</ele><time>2013-09-03T17:07:26Z</time></trkpt>
<trkpt lat="33.03443" lon="35.27394"><ele>350.0</ele><time>2013-09-03T17:07:31Z</time></trkpt>
<trkpt lat="33.03439" lon="35.27386"><ele>351.0</ele><time>2013-09-03T17:07:34Z</time></trkpt>
<trkpt lat="33.03435" lon="35.27377"><ele>353.0</ele><time>2013-09-03T17:07:38Z</time></trkpt>
<trkpt lat="33.03429" lon="35.27367"><ele>355.0</ele><time>2013-09-03T17:07:42Z</time></trkpt>
<trkpt lat="33.03424" lon="35.27358"><ele>357.0</ele><time>2013-09-03T17:07:46Z</time></trkpt>
<trkpt lat="33.03418" lon="35.27351"><ele>359.0</ele><time>2013-09-03T17:07:50Z</time></trkpt>
<trkpt lat="33.0341" lon="35.27342"><ele>359.0</ele><time>2013-09-03T17:07:55Z</time></trkpt>
<trkpt lat="33.03403" lon="35.27334"><ele>363.0</ele><time>2013-09-03T17:07:58Z</time></trkpt>
<trkpt lat="33.03396" lon="35.27328"><ele>366.0</ele><time>2013-09-03T17:08:03Z</time></trkpt>
<trkpt lat="33.03388" lon="35.2732"><ele>368.0</ele><time>2013-09-03T17:08:06Z</time></trkpt>
<trkpt lat="33.0338" lon="35.27311"><ele>371.0</ele><time>2013-09-03T17:08:11Z</time></trkpt>
<trkpt lat="33.03372" lon="35.27303"><ele>373.0</ele><time>2013-09-03T17:08:14Z</time></trkpt>
<trkpt lat="33.03363" lon="35.27297"><ele>376.0</ele><time>2013-09-03T17:08:19Z</time></trkpt>
<trkpt lat="33.03356" lon="35.27291"><ele>379.0</ele><time>2013-09-03T17:08:23Z</time></trkpt>
<trkpt lat="33.03348" lon="35.27287"><ele>381.0</ele><time>2013-09-03T17:08:26Z</time></trkpt>
<trkpt lat="33.0334" lon="35.27282"><ele>381.0</ele><time>2013-09-03T17:08:30Z</time></trkpt>
<trkpt lat="33.03331" lon="35.27278"><ele>381.0</ele><time>2013-09-03T17:08:34Z</time></trkpt>
<trkpt lat="33.03323" lon="35.27275"><ele>383.0</ele><time>2013-09-03T17:08:37Z</time></trkpt>
<trkpt lat="33.03314" lon="35.27272"><ele>381.0</ele><time>2013-09-03T17:08:39Z</time></trkpt>
<trkpt lat="33.03303" lon="35.2727"><ele>379.0</ele><time>2013-09-03T17:08:42Z</time></trkpt>
<trkpt lat="33.03292" lon="35.27269"><ele>376.0</ele><time>2013-09-03T17:08:46Z</time></trkpt>
<trkpt lat="33.0328" lon="35.27268"><ele>374.0</ele><time>2013-09-03T17:08:48Z</time></trkpt>
<trkpt lat="33.03272" lon="35.27267"><ele>372.0</ele><time>2013-09-03T17:08:50Z</time></trkpt>
<trkpt lat="33.03263" lon="35.27266"><ele>369.0</ele><time>2013-09-03T17:08:53Z</time></trkpt>
<trkpt lat="33.03255" lon="35.27264"><ele>367.0</ele><time>2013-09-03T17:08:54Z</time></trkpt>
<trkpt lat="33.03247" lon="35.27263"><ele>363.0</ele><time>2013-09-03T17:08:56Z</time></trkpt>
<trkpt lat="33.03238" lon="35.27261"><ele>362.0</ele><time>2013-09-03T17:08:58Z</time></trkpt>
<trkpt lat="33.0323" lon="35.27258"><ele>361.0</ele><time>2013-09-03T17:09:02Z</time></trkpt>
<trkpt lat="33.03222" lon="35.27253"><ele>359.0</ele><time>2013-09-03T17:09:05Z</time></trkpt>
<trkpt lat="33.03215" lon="35.27246"><ele>358.0</ele><time>2013-09-03T17:09:07Z</time></trkpt>
<trkpt lat="33.0321" lon="35.27238"><ele>357.0</ele><time>2013-09-03T17:09:11Z</time></trkpt>
<trkpt lat="33.03207" lon="35.2723"><ele>355.0</ele><time>2013-09-03T17:09:13Z</time></trkpt>
<trkpt lat="33.03203" lon="35.27218"><ele>354.0</ele><time>2013-09-03T17:09:18Z</time></trkpt>
<trkpt lat="33.03204" lon="35.27208"><ele>357.0</ele><time>2013-09-03T17:09:21Z</time></trkpt>
<trkpt lat="33.03204" lon="35.27198"><ele>359.0</ele><time>2013-09-03T17:09:26Z</time></trkpt>
<trkpt lat="33.03206" lon="35.27187"><ele>364.0</ele><time>2013-09-03T17:09:29Z</time></trkpt>
<trkpt lat="33.03208" lon="35.27176"><ele>370.0</ele><time>2013-09-03T17:09:34Z</time></trkpt>
<trkpt lat="33.0321" lon="35.27165"><ele>375.0</ele><time>2013-09-03T17:09:39Z</time></trkpt>
<trkpt lat="33.03211" lon="35.27154"><ele>381.0</ele><time>2013-09-03T17:09:43Z</time></trkpt>
<trkpt lat="33.03213" lon="35.27142"><ele>387.0</ele><time>2013-09-03T17:09:49Z</time></trkpt>
<trkpt lat="33.03215" lon="35.27132"><ele>393.0</ele><time>2013-09-03T17:09:54Z</time></trkpt>
<trkpt lat="33.03216" lon="35.27123"><ele>394.0</ele><time>2013-09-03T17:09:58Z</time></trkpt>
<trkpt lat="33.03216" lon="35.27113"><ele>396.0</ele><time>2013-09-03T17:10:02Z</time></trkpt>
<trkpt lat="33.03216" lon="35.27101"><ele>400.0</ele><time>2013-09-03T17:10:07Z</time></trkpt>
<trkpt lat="33.03215" lon="35.27092"><ele>401.0</ele><time>2013-09-03T17:10:12Z</time></trkpt>
<trkpt lat="33.03213" lon="35.27082"><ele>402.0</ele><time>2013-09-03T17:10:16Z</time></trkpt>
<trkpt lat="33.03209" lon="35.27072"><ele>400.0</ele><time>2013-09-03T17:10:19Z</time></trkpt>
<trkpt lat="33.03205" lon="35.27063"><ele>399.0</ele><time>2013-09-03T17:10:23Z</time></trkpt>
<trkpt lat="33.032" lon="35.27054"><ele>397.0</ele><time>2013-09-03T17:10:27Z</time></trkpt>
<trkpt lat="33.03196" lon="35.27045"><ele>396.0</ele><time>2013-09-03T17:10:31Z</time></trkpt>
<trkpt lat="33.0319" lon="35.27037"><ele>395.0</ele><time>2013-09-03T17:10:36Z</time></trkpt>
<trkpt lat="33.03183" lon="35.2703"><ele>393.0</ele><time>2013-09-03T17:10:39Z</time></trkpt>
<trkpt lat="33.03177" lon="35.27022"><ele>396.0</ele><time>2013-09-03T17:10:43Z</time></trkpt>
<trkpt lat="33.03168" lon="35.27015"><ele>398.0</ele><time>2013-09-03T17:10:46Z</time></trkpt>
<trkpt lat="33.03159" lon="35.27009"><ele>396.0</ele><time>2013-09-03T17:10:50Z</time></trkpt>
<trkpt lat="33.03149" lon="35.27005"><ele>394.0</ele><time>2013-09-03T17:10:54Z</time></trkpt>
<trkpt lat="33.03141" lon="35.27002"><ele>392.0</ele><time>2013-09-03T17:10:58Z</time></trkpt>
<trkpt lat="33.03133" lon="35.26999"><ele>393.0</ele><time>2013-09-03T17:11:02Z</time></trkpt>
<trkpt lat="33.03123" lon="35.26996"><ele>394.0</ele><time>2013-09-03T17:11:06Z</time></trkpt>
<trkpt lat="33.03115" lon="35.26991"><ele>395.0</ele><time>2013-09-03T17:11:10Z</time></trkpt>
<trkpt lat="33.03108" lon="35.26983"><ele>396.0</ele><time>2013-09-03T17:11:15Z</time></trkpt>
<trkpt lat="33.03104" lon="35.26974"><ele>396.0</ele><time>2013-09-03T17:11:19Z</time></trkpt>
<trkpt lat="33.031" lon="35.26964"><ele>397.0</ele><time>2013-09-03T17:11:25Z</time></trkpt>
<trkpt lat="33.03095" lon="35.26955"><ele>398.0</ele><time>2013-09-03T17:11:29Z</time></trkpt>
<trkpt lat="33.03089" lon="35.26948"><ele>401.0</ele><time>2013-09-03T17:11:35Z</time></trkpt>
<trkpt lat="33.03082" lon="35.26942"><ele>404.0</ele><time>2013-09-03T17:11:40Z</time></trkpt>
<trkpt lat="33.03073" lon="35.26944"><ele>407.0</ele><time>2013-09-03T17:11:48Z</time></trkpt>
<trkpt lat="33.03065" lon="35.26946"><ele>410.0</ele><time>2013-09-03T17:11:54Z</time></trkpt>
<trkpt lat="33.03057" lon="35.2695"><ele>409.0</ele><time>2013-09-03T17:11:59Z</time></trkpt>
<trkpt lat="33.03049" lon="35.26953"><ele>408.0</ele><time>2013-09-03T17:12:07Z</time></trkpt>
<trkpt lat="33.03041" lon="35.26956"><ele>407.0</ele><time>2013-09-03T17:12:13Z</time></trkpt>
<trkpt lat="33.03033" lon="35.26959"><ele>406.0</ele><time>2013-09-03T17:12:18Z</time></trkpt>
<trkpt lat="33.03026" lon="35.26966"><ele>405.0</ele><time>2013-09-03T17:12:24Z</time></trkpt>
<trkpt lat="33.03022" lon="35.26976"><ele>404.0</ele><time>2013-09-03T17:12:32Z</time></trkpt>
<trkpt lat="33.03021" lon="35.26986"><ele>403.0</ele><time>2013-09-03T17:12:37Z</time></trkpt>
<trkpt lat="33.03018" lon="35.26997"><ele>403.0</ele><time>2013-09-03T17:12:42Z</time></trkpt>
<trkpt lat="33.03014" lon="35.27007"><ele>403.0</ele><time>2013-09-03T17:12:48Z</time></trkpt>
<trkpt lat="33.03007" lon="35.27013"><ele>403.0</ele><time>2013-09-03T17:12:54Z</time></trkpt>
<trkpt lat="33.03" lon="35.27009"><ele>403.0</ele><time>2013-09-03T17:13:01Z</time></trkpt>
<trkpt lat="33.03001" lon="35.26999"><ele>404.0</ele><time>2013-09-03T17:13:06Z</time></trkpt>
<trkpt lat="33.02999" lon="35.26953"><ele>405.0</ele><time>2013-09-03T17:13:37Z</time></trkpt>
<trkpt lat="33.02999" lon="35.26943"><ele>407.0</ele><time>2013-09-03T17:13:42Z</time></trkpt>
<trkpt lat="33.03034" lon="35.26922"><ele>410.0</ele><time>2013-09-03T17:14:13Z</time></trkpt>
<trkpt lat="33.03055" lon="35.26899"><ele>412.0</ele><time>2013-09-03T17:14:32Z</time></trkpt>
<trkpt lat="33.03059" lon="35.2689"><ele>415.0</ele><time>2013-09-03T17:14:38Z</time></trkpt>
<trkpt lat="33.03062" lon="35.26881"><ele>417.0</ele><time>2013-09-03T17:14:43Z</time></trkpt>
<trkpt lat="33.03065" lon="35.2687"><ele>418.0</ele><time>2013-09-03T17:14:49Z</time></trkpt>
<trkpt lat="33.03066" lon="35.26859"><ele>419.0</ele><time>2013-09-03T17:14:55Z</time></trkpt>
<trkpt lat="33.03066" lon="35.26849"><ele>420.0</ele><time>2013-09-03T17:15:03Z</time></trkpt>
<trkpt lat="33.03065" lon="35.26837"><ele>421.0</ele><time>2013-09-03T17:15:08Z</time></trkpt>
<trkpt lat="33.03059" lon="35.2683"><ele>423.0</ele><time>2013-09-03T17:15:14Z</time></trkpt>
<trkpt lat="33.0305" lon="35.2683"><ele>424.0</ele><time>2013-09-03T17:15:19Z</time></trkpt>
<trkpt lat="33.03043" lon="35.26835"><ele>425.0</ele><time>2013-09-03T17:15:24Z</time></trkpt>
<trkpt lat="33.03036" lon="35.2684"><ele>425.0</ele><time>2013-09-03T17:15:31Z</time></trkpt>
<trkpt lat="33.03029" lon="35.26845"><ele>425.0</ele><time>2013-09-03T17:15:37Z</time></trkpt>
<trkpt lat="33.0302" lon="35.26849"><ele>425.0</ele><time>2013-09-03T17:15:42Z</time></trkpt>
<trkpt lat="33.03012" lon="35.26853"><ele>425.0</ele><time>2013-09-03T17:15:47Z</time></trkpt>
<trkpt lat="33.03004" lon="35.26855"><ele>426.0</ele><time>2013-09-03T17:15:51Z</time></trkpt>
<trkpt lat="33.02994" lon="35.26856"><ele>427.0</ele><time>2013-09-03T17:15:57Z</time></trkpt>
<trkpt lat="33.02985" lon="35.26854"><ele>427.0</ele><time>2013-09-03T17:16:02Z</time></trkpt>
<trkpt lat="33.02977" lon="35.2685"><ele>428.0</ele><time>2013-09-03T17:16:07Z</time></trkpt>
<trkpt lat="33.02969" lon="35.26846"><ele>430.0</ele><time>2013-09-03T17:16:12Z</time></trkpt>
<trkpt lat="33.0293" lon="35.26823"><ele>431.0</ele><time>2013-09-03T17:17:02Z</time></trkpt>
<trkpt lat="33.02893" lon="35.26806"><ele>433.0</ele><time>2013-09-03T17:17:42Z</time></trkpt>
<trkpt lat="33.02884" lon="35.26807"><ele>435.0</ele><time>2013-09-03T17:17:49Z</time></trkpt>
<trkpt lat="33.02876" lon="35.26808"><ele>436.0</ele><time>2013-09-03T17:17:55Z</time></trkpt>
<trkpt lat="33.02868" lon="35.2681"><ele>438.0</ele><time>2013-09-03T17:18:02Z</time></trkpt>
<trkpt lat="33.0286" lon="35.26812"><ele>440.0</ele><time>2013-09-03T17:18:07Z</time></trkpt>
<trkpt lat="33.02852" lon="35.26813"><ele>441.0</ele><time>2013-09-03T17:18:11Z</time></trkpt>
<trkpt lat="33.02843" lon="35.26813"><ele>443.0</ele><time>2013-09-03T17:18:18Z</time></trkpt>
<trkpt lat="33.02835" lon="35.26814"><ele>445.0</ele><time>2013-09-03T17:18:24Z</time></trkpt>
<trkpt lat="33.02826" lon="35.26816"><ele>447.0</ele><time>2013-09-03T17:18:29Z</time></trkpt>
<trkpt lat="33.02817" lon="35.26819"><ele>448.0</ele><time>2013-09-03T17:18:36Z</time></trkpt>
<trkpt lat="33.02808" lon="35.26824"><ele>449.0</ele><time>2013-09-03T17:18:41Z</time></trkpt>
<trkpt lat="33.02786" lon="35.2684"><ele>451.0</ele><time>2013-09-03T17:19:02Z</time></trkpt>
<trkpt lat="33.02778" lon="35.26846"><ele>452.0</ele><time>2013-09-03T17:19:09Z</time></trkpt>
<trkpt lat="33.0277" lon="35.26851"><ele>453.0</ele><time>2013-09-03T17:19:14Z</time></trkpt>
<trkpt lat="33.02763" lon="35.26856"><ele>455.0</ele><time>2013-09-03T17:19:20Z</time></trkpt>
<trkpt lat="33.02756" lon="35.26861"><ele>456.0</ele><time>2013-09-03T17:19:26Z</time></trkpt>
<trkpt lat="33.02748" lon="35.26867"><ele>458.0</ele><time>2013-09-03T17:19:32Z</time></trkpt>
<trkpt lat="33.02741" lon="35.26873"><ele>459.0</ele><time>2013-09-03T17:19:38Z</time></trkpt>
<trkpt lat="33.02735" lon="35.26879"><ele>460.0</ele><time>2013-09-03T17:19:43Z</time></trkpt>
<trkpt lat="33.02721" lon="35.26892"><ele>460.0</ele><time>2013-09-03T17:19:56Z</time></trkpt>
<trkpt lat="33.02713" lon="35.26895"><ele>461.0</ele><time>2013-09-03T17:20:05Z</time></trkpt>
<trkpt lat="33.02704" lon="35.26899"><ele>462.0</ele><time>2013-09-03T17:20:12Z</time></trkpt>
<trkpt lat="33.02696" lon="35.26902"><ele>463.0</ele><time>2013-09-03T17:20:17Z</time></trkpt>
<trkpt lat="33.02687" lon="35.26906"><ele>464.0</ele><time>2013-09-03T17:20:24Z</time></trkpt>
<trkpt lat="33.0268" lon="35.26908"><ele>464.0</ele><time>2013-09-03T17:20:30Z</time></trkpt>
<trkpt lat="33.02672" lon="35.26912"><ele>466.0</ele><time>2013-09-03T17:20:36Z</time></trkpt>
<trkpt lat="33.02663" lon="35.26914"><ele>467.0</ele><time>2013-09-03T17:20:42Z</time></trkpt>
<trkpt lat="33.02654" lon="35.26914"><ele>468.0</ele><time>2013-09-03T17:20:47Z</time></trkpt>
<trkpt lat="33.02646" lon="35.26915"><ele>468.0</ele><time>2013-09-03T17:20:54Z</time></trkpt>
<trkpt lat="33.02637" lon="35.26914"><ele>469.0</ele><time>2013-09-03T17:21:00Z</time></trkpt>
<trkpt lat="33.02628" lon="35.26913"><ele>470.0</ele><time>2013-09-03T17:21:07Z</time></trkpt>
<trkpt lat="33.02619" lon="35.26912"><ele>471.0</ele><time>2013-09-03T17:21:13Z</time></trkpt>
<trkpt lat="33.0261" lon="35.26911"><ele>471.0</ele><time>2013-09-03T17:21:19Z</time></trkpt>
<trkpt lat="33.02601" lon="35.26911"><ele>472.0</ele><time>2013-09-03T17:21:24Z</time></trkpt>
<trkpt lat="33.02592" lon="35.26909"><ele>473.0</ele><time>2013-09-03T17:21:30Z</time></trkpt>
<trkpt lat="33.02583" lon="35.26908"><ele>474.0</ele><time>2013-09-03T17:21:36Z</time></trkpt>
<trkpt lat="33.02573" lon="35.26907"><ele>474.0</ele><time>2013-09-03T17:21:42Z</time></trkpt>
<trkpt lat="33.02564" lon="35.26906"><ele>474.0</ele><time>2013-09-03T17:21:48Z</time></trkpt>
<trkpt lat="33.02554" lon="35.26904"><ele>474.0</ele><time>2013-09-03T17:21:54Z</time></trkpt>
<trkpt lat="33.02545" lon="35.26902"><ele>475.0</ele><time>2013-09-03T17:22:00Z</time></trkpt>
<trkpt lat="33.02536" lon="35.26901"><ele>475.0</ele><time>2013-09-03T17:22:07Z</time></trkpt>
<trkpt lat="33.02526" lon="35.26901"><ele>475.0</ele><time>2013-09-03T17:22:13Z</time></trkpt>
<trkpt lat="33.02517" lon="35.26901"><ele>475.0</ele><time>2013-09-03T17:22:18Z</time></trkpt>
<trkpt lat="33.02508" lon="35.26903"><ele>475.0</ele><time>2013-09-03T17:22:24Z</time></trkpt>
<trkpt lat="33.02501" lon="35.26905"><ele>475.0</ele><time>2013-09-03T17:22:31Z</time></trkpt>
<trkpt lat="33.02491" lon="35.26908"><ele>475.0</ele><time>2013-09-03T17:22:37Z</time></trkpt>
<trkpt lat="33.02475" lon="35.26913"><ele>475.0</ele><time>2013-09-03T17:25:08Z</time></trkpt>
<trkpt lat="33.02465" lon="35.26915"><ele>475.0</ele><time>2013-09-03T17:25:13Z</time></trkpt>
<trkpt lat="33.02455" lon="35.26916"><ele>474.0</ele><time>2013-09-03T17:25:17Z</time></trkpt>
<trkpt lat="33.02446" lon="35.26917"><ele>474.0</ele><time>2013-09-03T17:25:18Z</time></trkpt>
<trkpt lat="33.02437" lon="35.26916"><ele>474.0</ele><time>2013-09-03T17:25:20Z</time></trkpt>
<trkpt lat="33.02426" lon="35.26916"><ele>473.0</ele><time>2013-09-03T17:25:23Z</time></trkpt>
<trkpt lat="33.02414" lon="35.26916"><ele>472.0</ele><time>2013-09-03T17:25:24Z</time></trkpt>
<trkpt lat="33.02402" lon="35.26917"><ele>471.0</ele><time>2013-09-03T17:25:26Z</time></trkpt>
<trkpt lat="33.02391" lon="35.26917"><ele>470.0</ele><time>2013-09-03T17:25:29Z</time></trkpt>
<trkpt lat="33.0238" lon="35.26919"><ele>469.0</ele><time>2013-09-03T17:25:31Z</time></trkpt>
<trkpt lat="33.02368" lon="35.26923"><ele>469.0</ele><time>2013-09-03T17:25:32Z</time></trkpt>
<trkpt lat="33.02357" lon="35.26926"><ele>467.0</ele><time>2013-09-03T17:25:35Z</time></trkpt>
<trkpt lat="33.02345" lon="35.2693"><ele>466.0</ele><time>2013-09-03T17:25:36Z</time></trkpt>
<trkpt lat="33.02331" lon="35.26932"><ele>465.0</ele><time>2013-09-03T17:25:38Z</time></trkpt>
<trkpt lat="33.02317" lon="35.26933"><ele>464.0</ele><time>2013-09-03T17:25:39Z</time></trkpt>
<trkpt lat="33.02302" lon="35.26933"><ele>462.0</ele><time>2013-09-03T17:25:41Z</time></trkpt>
<trkpt lat="33.02289" lon="35.26935"><ele>462.0</ele><time>2013-09-03T17:25:43Z</time></trkpt>
<trkpt lat="33.02275" lon="35.2694"><ele>461.0</ele><time>2013-09-03T17:25:46Z</time></trkpt>
<trkpt lat="33.02264" lon="35.26947"><ele>461.0</ele><time>2013-09-03T17:25:47Z</time></trkpt>
<trkpt lat="33.02254" lon="35.26956"><ele>460.0</ele><time>2013-09-03T17:25:49Z</time></trkpt>
<trkpt lat="33.02243" lon="35.26964"><ele>459.0</ele><time>2013-09-03T17:25:52Z</time></trkpt>
<trkpt lat="33.02233" lon="35.26973"><ele>458.0</ele><time>2013-09-03T17:25:54Z</time></trkpt>
<trkpt lat="33.02223" lon="35.26981"><ele>458.0</ele><time>2013-09-03T17:25:55Z</time></trkpt>
<trkpt lat="33.02214" lon="35.26988"><ele>458.0</ele><time>2013-09-03T17:25:58Z</time></trkpt>
<trkpt lat="33.02207" lon="35.26995"><ele>458.0</ele><time>2013-09-03T17:26:01Z</time></trkpt>
<trkpt lat="33.02197" lon="35.26993"><ele>457.0</ele><time>2013-09-03T17:26:05Z</time></trkpt>
<trkpt lat="33.02188" lon="35.26986"><ele>457.0</ele><time>2013-09-03T17:26:08Z</time></trkpt>
<trkpt lat="33.02177" lon="35.26978"><ele>457.0</ele><time>2013-09-03T17:26:12Z</time></trkpt>
<trkpt lat="33.02168" lon="35.26973"><ele>456.0</ele><time>2013-09-03T17:26:13Z</time></trkpt>
<trkpt lat="33.02159" lon="35.26969"><ele>456.0</ele><time>2013-09-03T17:26:16Z</time></trkpt>
<trkpt lat="33.02149" lon="35.26963"><ele>456.0</ele><time>2013-09-03T17:26:17Z</time></trkpt>
<trkpt lat="33.02138" lon="35.26959"><ele>456.0</ele><time>2013-09-03T17:26:19Z</time></trkpt>
<trkpt lat="33.02127" lon="35.26956"><ele>455.0</ele><time>2013-09-03T17:26:22Z</time></trkpt>
<trkpt lat="33.02115" lon="35.26954"><ele>455.0</ele><time>2013-09-03T17:26:23Z</time></trkpt>
<trkpt lat="33.02104" lon="35.26952"><ele>455.0</ele><time>2013-09-03T17:26:25Z</time></trkpt>
<trkpt lat="33.02093" lon="35.26951"><ele>455.0</ele><time>2013-09-03T17:26:28Z</time></trkpt>
<trkpt lat="33.02085" lon="35.26949"><ele>455.0</ele><time>2013-09-03T17:26:29Z</time></trkpt>
<trkpt lat="33.02073" lon="35.26945"><ele>455.0</ele><time>2013-09-03T17:26:32Z</time></trkpt>
<trkpt lat="33.02064" lon="35.26943"><ele>455.0</ele><time>2013-09-03T17:26:34Z</time></trkpt>
<trkpt lat="33.02056" lon="35.26944"><ele>455.0</ele><time>2013-09-03T17:26:37Z</time></trkpt>
<trkpt lat="33.02046" lon="35.26945"><ele>455.0</ele><time>2013-09-03T17:26:39Z</time></trkpt>
<trkpt lat="33.02027" lon="35.26945"><ele>455.0</ele><time>2013-09-03T17:26:42Z</time></trkpt>
<trkpt lat="33.02017" lon="35.26944"><ele>455.0</ele><time>2013-09-03T17:26:43Z</time></trkpt>
<trkpt lat="33.02008" lon="35.26943"><ele>456.0</ele><time>2013-09-03T17:26:45Z</time></trkpt>
<trkpt lat="33.01999" lon="35.26942"><ele>456.0</ele><time>2013-09-03T17:26:47Z</time></trkpt>
<trkpt lat="33.01991" lon="35.2694"><ele>456.0</ele><time>2013-09-03T17:26:49Z</time></trkpt>
<trkpt lat="33.0198" lon="35.26939"><ele>456.0</ele><time>2013-09-03T17:26:53Z</time></trkpt>
<trkpt lat="33.01967" lon="35.26937"><ele>456.0</ele><time>2013-09-03T17:26:56Z</time></trkpt>
<trkpt lat="33.01959" lon="35.26936"><ele>457.0</ele><time>2013-09-03T17:26:58Z</time></trkpt>
<trkpt lat="33.01948" lon="35.26934"><ele>457.0</ele><time>2013-09-03T17:27:02Z</time></trkpt>
<trkpt lat="33.01936" lon="35.26932"><ele>457.0</ele><time>2013-09-03T17:27:04Z</time></trkpt>
<trkpt lat="33.01925" lon="35.2693"><ele>457.0</ele><time>2013-09-03T17:27:08Z</time></trkpt>
<trkpt lat="33.01914" lon="35.26928"><ele>457.0</ele><time>2013-09-03T17:27:11Z</time></trkpt>
<trkpt lat="33.01904" lon="35.26924"><ele>457.0</ele><time>2013-09-03T17:27:13Z</time></trkpt>
<trkpt lat="33.01893" lon="35.26918"><ele>457.0</ele><time>2013-09-03T17:27:16Z</time></trkpt>
<trkpt lat="33.01884" lon="35.26915"><ele>457.0</ele><time>2013-09-03T17:27:19Z</time></trkpt>
<trkpt lat="33.01876" lon="35.26913"><ele>457.0</ele><time>2013-09-03T17:27:23Z</time></trkpt>
<trkpt lat="33.01865" lon="35.26907"><ele>457.0</ele><time>2013-09-03T17:27:25Z</time></trkpt>
<trkpt lat="33.01858" lon="35.26902"><ele>457.0</ele><time>2013-09-03T17:27:27Z</time></trkpt>
<trkpt lat="33.0185" lon="35.26898"><ele>457.0</ele><time>2013-09-03T17:27:30Z</time></trkpt>
<trkpt lat="33.01843" lon="35.26894"><ele>457.0</ele><time>2013-09-03T17:27:31Z</time></trkpt>
<trkpt lat="33.01835" lon="35.2689"><ele>457.0</ele><time>2013-09-03T17:27:34Z</time></trkpt>
<trkpt lat="33.01825" lon="35.26884"><ele>458.0</ele><time>2013-09-03T17:27:37Z</time></trkpt>
<trkpt lat="33.01815" lon="35.26879"><ele>458.0</ele><time>2013-09-03T17:27:39Z</time></trkpt>
<trkpt lat="33.01806" lon="35.26874"><ele>459.0</ele><time>2013-09-03T17:27:42Z</time></trkpt>
<trkpt lat="33.01798" lon="35.26872"><ele>459.0</ele><time>2013-09-03T17:27:44Z</time></trkpt>
<trkpt lat="33.01788" lon="35.2687"><ele>460.0</ele><time>2013-09-03T17:28:18Z</time></trkpt>
<trkpt lat="33.01781" lon="35.26864"><ele>460.0</ele><time>2013-09-03T17:28:21Z</time></trkpt>
<trkpt lat="33.01776" lon="35.26853"><ele>461.0</ele><time>2013-09-03T17:28:25Z</time></trkpt>
<trkpt lat="33.01773" lon="35.26841"><ele>461.0</ele><time>2013-09-03T17:28:28Z</time></trkpt>
<trkpt lat="33.01768" lon="35.26832"><ele>462.0</ele><time>2013-09-03T17:28:31Z</time></trkpt>
<trkpt lat="33.0176" lon="35.26827"><ele>463.0</ele><time>2013-09-03T17:28:37Z</time></trkpt>
<trkpt lat="33.01751" lon="35.26827"><ele>463.0</ele><time>2013-09-03T17:28:39Z</time></trkpt>
<trkpt lat="33.01741" lon="35.2683"><ele>464.0</ele><time>2013-09-03T17:28:44Z</time></trkpt>
<trkpt lat="33.01732" lon="35.26833"><ele>465.0</ele><time>2013-09-03T17:28:47Z</time></trkpt>
<trkpt lat="33.01724" lon="35.26838"><ele>466.0</ele><time>2013-09-03T17:28:51Z</time></trkpt>
<trkpt lat="33.01715" lon="35.26842"><ele>467.0</ele><time>2013-09-03T17:28:55Z</time></trkpt>
<trkpt lat="33.01707" lon="35.26844"><ele>468.0</ele><time>2013-09-03T17:29:01Z</time></trkpt>
<trkpt lat="33.01698" lon="35.26843"><ele>469.0</ele><time>2013-09-03T17:29:07Z</time></trkpt>
<trkpt lat="33.01689" lon="35.26841"><ele>470.0</ele><time>2013-09-03T17:29:12Z</time></trkpt>
<trkpt lat="33.01681" lon="35.26838"><ele>471.0</ele><time>2013-09-03T17:29:19Z</time></trkpt>
<trkpt lat="33.01672" lon="35.26835"><ele>473.0</ele><time>2013-09-03T17:29:25Z</time></trkpt>
<trkpt lat="33.01664" lon="35.26832"><ele>475.0</ele><time>2013-09-03T17:29:31Z</time></trkpt>
<trkpt lat="33.01657" lon="35.26827"><ele>476.0</ele><time>2013-09-03T17:29:37Z</time></trkpt>
<trkpt lat="33.01651" lon="35.26819"><ele>477.0</ele><time>2013-09-03T17:29:43Z</time></trkpt>
<trkpt lat="33.0163" lon="35.26796"><ele>478.0</ele><time>2013-09-03T17:30:08Z</time></trkpt>
<trkpt lat="33.01596" lon="35.26775"><ele>479.0</ele><time>2013-09-03T17:30:42Z</time></trkpt>
<trkpt lat="33.01579" lon="35.26764"><ele>481.0</ele><time>2013-09-03T17:30:56Z</time></trkpt>
<trkpt lat="33.01571" lon="35.2676"><ele>482.0</ele><time>2013-09-03T17:31:03Z</time></trkpt>
<trkpt lat="33.01563" lon="35.26757"><ele>484.0</ele><time>2013-09-03T17:31:09Z</time></trkpt>
<trkpt lat="33.01554" lon="35.26754"><ele>485.0</ele><time>2013-09-03T17:31:13Z</time></trkpt>
<trkpt lat="33.01545" lon="35.26751"><ele>487.0</ele><time>2013-09-03T17:31:18Z</time></trkpt>
<trkpt lat="33.01536" lon="35.26747"><ele>487.0</ele><time>2013-09-03T17:31:24Z</time></trkpt>
<trkpt lat="33.01527" lon="35.26745"><ele>488.0</ele><time>2013-09-03T17:31:27Z</time></trkpt>
<trkpt lat="33.01519" lon="35.26743"><ele>488.0</ele><time>2013-09-03T17:31:31Z</time></trkpt>
<trkpt lat="33.0151" lon="35.26739"><ele>489.0</ele><time>2013-09-03T17:31:36Z</time></trkpt>
<trkpt lat="33.01502" lon="35.26735"><ele>490.0</ele><time>2013-09-03T17:31:39Z</time></trkpt>
<trkpt lat="33.01496" lon="35.26743"><ele>490.0</ele><time>2013-09-03T17:31:43Z</time></trkpt>
<trkpt lat="33.01486" lon="35.26745"><ele>490.0</ele><time>2013-09-03T17:31:49Z</time></trkpt>
<trkpt lat="33.01477" lon="35.26744"><ele>491.0</ele><time>2013-09-03T17:31:54Z</time></trkpt>
<trkpt lat="33.01467" lon="35.26745"><ele>491.0</ele><time>2013-09-03T17:31:58Z</time></trkpt>
<trkpt lat="33.01458" lon="35.26745"><ele>491.0</ele><time>2013-09-03T17:32:05Z</time></trkpt>
<trkpt lat="33.0145" lon="35.26748"><ele>491.0</ele><time>2013-09-03T17:32:09Z</time></trkpt>
<trkpt lat="33.01442" lon="35.26752"><ele>492.0</ele><time>2013-09-03T17:32:13Z</time></trkpt>
<trkpt lat="33.01434" lon="35.26758"><ele>492.0</ele><time>2013-09-03T17:32:19Z</time></trkpt>
<trkpt lat="33.01426" lon="35.26759"><ele>492.0</ele><time>2013-09-03T17:32:22Z</time></trkpt>
<trkpt lat="33.01418" lon="35.26758"><ele>493.0</ele><time>2013-09-03T17:32:28Z</time></trkpt>
<trkpt lat="33.01411" lon="35.26751"><ele>492.0</ele><time>2013-09-03T17:32:30Z</time></trkpt>
<trkpt lat="33.01404" lon="35.2674"><ele>493.0</ele><time>2013-09-03T17:32:33Z</time></trkpt>
<trkpt lat="33.01399" lon="35.26731"><ele>493.0</ele><time>2013-09-03T17:32:36Z</time></trkpt>
<trkpt lat="33.01392" lon="35.26723"><ele>493.0</ele><time>2013-09-03T17:32:37Z</time></trkpt>
<trkpt lat="33.01385" lon="35.26714"><ele>493.0</ele><time>2013-09-03T17:32:39Z</time></trkpt>
<trkpt lat="33.01379" lon="35.26706"><ele>494.0</ele><time>2013-09-03T17:32:40Z</time></trkpt>
<trkpt lat="33.01373" lon="35.26694"><ele>494.0</ele><time>2013-09-03T17:32:43Z</time></trkpt>
<trkpt lat="33.0137" lon="35.26685"><ele>493.0</ele><time>2013-09-03T17:32:46Z</time></trkpt>
<trkpt lat="33.01367" lon="35.26673"><ele>492.0</ele><time>2013-09-03T17:32:52Z</time></trkpt>
<trkpt lat="33.01367" lon="35.26664"><ele>490.0</ele><time>2013-09-03T17:32:54Z</time></trkpt>
<trkpt lat="33.0137" lon="35.2665"><ele>489.0</ele><time>2013-09-03T17:32:57Z</time></trkpt>
<trkpt lat="33.01374" lon="35.26639"><ele>488.0</ele><time>2013-09-03T17:33:01Z</time></trkpt>
<trkpt lat="33.0138" lon="35.26628"><ele>487.0</ele><time>2013-09-03T17:33:02Z</time></trkpt>
<trkpt lat="33.01389" lon="35.26615"><ele>485.0</ele><time>2013-09-03T17:33:04Z</time></trkpt>
<trkpt lat="33.01402" lon="35.26604"><ele>484.0</ele><time>2013-09-03T17:33:06Z</time></trkpt>
<trkpt lat="33.01409" lon="35.266"><ele>482.0</ele><time>2013-09-03T17:33:08Z</time></trkpt>
<trkpt lat="33.01425" lon="35.26595"><ele>479.0</ele><time>2013-09-03T17:33:09Z</time></trkpt>
<trkpt lat="33.01433" lon="35.26594"><ele>479.0</ele><time>2013-09-03T17:33:11Z</time></trkpt>
<trkpt lat="33.01442" lon="35.26593"><ele>479.0</ele><time>2013-09-03T17:33:12Z</time></trkpt>
<trkpt lat="33.01459" lon="35.26593"><ele>478.0</ele><time>2013-09-03T17:33:13Z</time></trkpt>
<trkpt lat="33.01468" lon="35.26594"><ele>478.0</ele><time>2013-09-03T17:33:14Z</time></trkpt>
<trkpt lat="33.01477" lon="35.26595"><ele>478.0</ele><time>2013-09-03T17:33:15Z</time></trkpt>
<trkpt lat="33.01486" lon="35.26595"><ele>477.0</ele><time>2013-09-03T17:33:16Z</time></trkpt>
<trkpt lat="33.01494" lon="35.26594"><ele>477.0</ele><time>2013-09-03T17:33:17Z</time></trkpt>
<trkpt lat="33.0151" lon="35.26591"><ele>476.0</ele><time>2013-09-03T17:33:19Z</time></trkpt>
<trkpt lat="33.01523" lon="35.26584"><ele>475.0</ele><time>2013-09-03T17:33:22Z</time></trkpt>
<trkpt lat="33.01534" lon="35.26577"><ele>475.0</ele><time>2013-09-03T17:33:23Z</time></trkpt>
<trkpt lat="33.0154" lon="35.26567"><ele>474.0</ele><time>2013-09-03T17:33:25Z</time></trkpt>
<trkpt lat="33.01541" lon="35.26553"><ele>473.0</ele><time>2013-09-03T17:33:28Z</time></trkpt>
<trkpt lat="33.01541" lon="35.26539"><ele>473.0</ele><time>2013-09-03T17:33:29Z</time></trkpt>
<trkpt lat="33.01541" lon="35.26523"><ele>472.0</ele><time>2013-09-03T17:33:31Z</time></trkpt>
<trkpt lat="33.01541" lon="35.26505"><ele>471.0</ele><time>2013-09-03T17:33:34Z</time></trkpt>
<trkpt lat="33.01541" lon="35.26489"><ele>470.0</ele><time>2013-09-03T17:33:35Z</time></trkpt>
<trkpt lat="33.01541" lon="35.26474"><ele>469.0</ele><time>2013-09-03T17:33:37Z</time></trkpt>
<trkpt lat="33.01541" lon="35.26459"><ele>468.0</ele><time>2013-09-03T17:33:39Z</time></trkpt>
<trkpt lat="33.01541" lon="35.26444"><ele>468.0</ele><time>2013-09-03T17:33:40Z</time></trkpt>
<trkpt lat="33.01541" lon="35.2643"><ele>468.0</ele><time>2013-09-03T17:33:43Z</time></trkpt>
<trkpt lat="33.01541" lon="35.26418"><ele>467.0</ele><time>2013-09-03T17:33:44Z</time></trkpt>
<trkpt lat="33.0154" lon="35.26407"><ele>467.0</ele><time>2013-09-03T17:33:46Z</time></trkpt>
<trkpt lat="33.01539" lon="35.26397"><ele>466.0</ele><time>2013-09-03T17:33:48Z</time></trkpt>
<trkpt lat="33.01536" lon="35.26388"><ele>466.0</ele><time>2013-09-03T17:33:50Z</time></trkpt>
<trkpt lat="33.01532" lon="35.26378"><ele>465.0</ele><time>2013-09-03T17:33:53Z</time></trkpt>
<trkpt lat="33.01529" lon="35.26367"><ele>465.0</ele><time>2013-09-03T17:33:54Z</time></trkpt>
<trkpt lat="33.01529" lon="35.26355"><ele>464.0</ele><time>2013-09-03T17:33:56Z</time></trkpt>
<trkpt lat="33.0153" lon="35.26343"><ele>464.0</ele><time>2013-09-03T17:33:58Z</time></trkpt>
<trkpt lat="33.01532" lon="35.26332"><ele>463.0</ele><time>2013-09-03T17:34:01Z</time></trkpt>
<trkpt lat="33.01533" lon="35.26318"><ele>462.0</ele><time>2013-09-03T17:34:05Z</time></trkpt>
<trkpt lat="33.01535" lon="35.26304"><ele>463.0</ele><time>2013-09-03T17:34:08Z</time></trkpt>
<trkpt lat="33.01537" lon="35.26294"><ele>463.0</ele><time>2013-09-03T17:34:10Z</time></trkpt>
<trkpt lat="33.01539" lon="35.26284"><ele>463.0</ele><time>2013-09-03T17:34:11Z</time></trkpt>
<trkpt lat="33.01542" lon="35.26274"><ele>464.0</ele><time>2013-09-03T17:34:13Z</time></trkpt>
<trkpt lat="33.01546" lon="35.26264"><ele>463.0</ele><time>2013-09-03T17:34:15Z</time></trkpt>
<trkpt lat="33.0155" lon="35.26255"><ele>463.0</ele><time>2013-09-03T17:34:17Z</time></trkpt>
<trkpt lat="33.01555" lon="35.26245"><ele>462.0</ele><time>2013-09-03T17:34:20Z</time></trkpt>
<trkpt lat="33.01561" lon="35.26236"><ele>462.0</ele><time>2013-09-03T17:34:21Z</time></trkpt>
<trkpt lat="33.01567" lon="35.26226"><ele>462.0</ele><time>2013-09-03T17:34:24Z</time></trkpt>
<trkpt lat="33.01573" lon="35.26216"><ele>462.0</ele><time>2013-09-03T17:34:25Z</time></trkpt>
<trkpt lat="33.01579" lon="35.26206"><ele>462.0</ele><time>2013-09-03T17:34:27Z</time></trkpt>
<trkpt lat="33.01585" lon="35.26197"><ele>461.0</ele><time>2013-09-03T17:34:29Z</time></trkpt>
<trkpt lat="33.01593" lon="35.2619"><ele>461.0</ele><time>2013-09-03T17:34:31Z</time></trkpt>
<trkpt lat="33.016" lon="35.26182"><ele>460.0</ele><time>2013-09-03T17:34:33Z</time></trkpt>
<trkpt lat="33.01607" lon="35.26174"><ele>459.0</ele><time>2013-09-03T17:34:36Z</time></trkpt>
<trkpt lat="33.01616" lon="35.2617"><ele>459.0</ele><time>2013-09-03T17:34:37Z</time></trkpt>
<trkpt lat="33.01625" lon="35.26168"><ele>459.0</ele><time>2013-09-03T17:34:39Z</time></trkpt>
<trkpt lat="33.01635" lon="35.26166"><ele>459.0</ele><time>2013-09-03T17:34:41Z</time></trkpt>
<trkpt lat="33.01644" lon="35.26164"><ele>459.0</ele><time>2013-09-03T17:34:42Z</time></trkpt>
<trkpt lat="33.01652" lon="35.26161"><ele>458.0</ele><time>2013-09-03T17:34:44Z</time></trkpt>
<trkpt lat="33.01662" lon="35.26158"><ele>458.0</ele><time>2013-09-03T17:34:46Z</time></trkpt>
<trkpt lat="33.01674" lon="35.26153"><ele>457.0</ele><time>2013-09-03T17:34:49Z</time></trkpt>
<trkpt lat="33.01687" lon="35.26149"><ele>456.0</ele><time>2013-09-03T17:34:50Z</time></trkpt>
<trkpt lat="33.017" lon="35.26144"><ele>455.0</ele><time>2013-09-03T17:34:52Z</time></trkpt>
<trkpt lat="33.01714" lon="35.2614"><ele>454.0</ele><time>2013-09-03T17:34:55Z</time></trkpt>
<trkpt lat="33.01728" lon="35.26135"><ele>453.0</ele><time>2013-09-03T17:34:57Z</time></trkpt>
<trkpt lat="33.0174" lon="35.26131"><ele>453.0</ele><time>2013-09-03T17:34:58Z</time></trkpt>
<trkpt lat="33.01752" lon="35.26128"><ele>452.0</ele><time>2013-09-03T17:35:01Z</time></trkpt>
<trkpt lat="33.01762" lon="35.26128"><ele>452.0</ele><time>2013-09-03T17:35:03Z</time></trkpt>
<trkpt lat="33.01772" lon="35.2613"><ele>451.0</ele><time>2013-09-03T17:35:06Z</time></trkpt>
<trkpt lat="33.01783" lon="35.26133"><ele>450.0</ele><time>2013-09-03T17:35:07Z</time></trkpt>
<trkpt lat="33.01791" lon="35.26136"><ele>450.0</ele><time>2013-09-03T17:35:09Z</time></trkpt>
</trkseg></trk></gpx>