<?xml version="1.0" encoding="utf-8"?>
<gpx version="1.1"><trk><trkseg>
<trkpt lat="33.00597" lon="35.21475"><ele>349.0</ele><time>2013-04-26T05:48:00Z</time></trkpt>
<trkpt lat="33.00605" lon="35.21472"><ele>349.0</ele><time>2013-04-26T05:48:09Z</time></trkpt>
<trkpt lat="33.00597" lon="35.21471"><ele>349.0</ele><time>2013-04-26T05:48:55Z</time></trkpt>
<trkpt lat="33.00601" lon="35.21463"><ele>348.0</ele><time>2013-04-26T05:49:10Z</time></trkpt>
<trkpt lat="33.00606" lon="35.21474"><ele>348.0</ele><time>2013-04-26T05:49:50Z</time></trkpt>
<trkpt lat="33.00598" lon="35.21477"><ele>348.0</ele><time>2013-04-26T05:49:56Z</time></trkpt>
<trkpt lat="33.00593" lon="35.21468"><ele>347.0</ele><time>2013-04-26T05:50:02Z</time></trkpt>
<trkpt lat="33.00587" lon="35.2146"><ele>347.0</ele><time>2013-04-26T05:50:05Z</time></trkpt>
<trkpt lat="33.0058" lon="35.21452"><ele>347.0</ele><time>2013-04-26T05:50:08Z</time></trkpt>
<trkpt lat="33.00574" lon="35.21443"><ele>347.0</ele><time>2013-04-26T05:50:11Z</time></trkpt>
<trkpt lat="33.00568" lon="35.21434"><ele>346.0</ele><time>2013-04-26T05:50:14Z</time></trkpt>
<trkpt lat="33.00562" lon="35.21424"><ele>346.0</ele><time>2013-04-26T05:50:17Z</time></trkpt>
<trkpt lat="33.00556" lon="35.21414"><ele>345.0</ele><time>2013-04-26T05:50:20Z</time></trkpt>
<trkpt lat="33.0055" lon="35.21405"><ele>345.0</ele><time>2013-04-26T05:50:23Z</time></trkpt>
<trkpt lat="33.00547" lon="35.21394"><ele>345.0</ele><time>2013-04-26T05:50:26Z</time></trkpt>
<trkpt lat="33.00547" lon="35.21381"><ele>344.0</ele><time>2013-04-26T05:50:29Z</time></trkpt>
<trkpt lat="33.0055" lon="35.21368"><ele>344.0</ele><time>2013-04-26T05:50:31Z</time></trkpt>
<trkpt lat="33.00556" lon="35.21355"><ele>344.0</ele><time>2013-04-26T05:50:33Z</time></trkpt>
<trkpt lat="33.00562" lon="35.21344"><ele>343.0</ele><time>2013-04-26T05:50:35Z</time></trkpt>
<trkpt lat="33.00568" lon="35.21334"><ele>342.0</ele><time>2013-04-26T05:50:37Z</time></trkpt>
<trkpt lat="33.00574" lon="35.21322"><ele>341.0</ele><time>2013-04-26T05:50:39Z</time></trkpt>
<trkpt lat="33.0058" lon="35.21312"><ele>341.0</ele><time>2013-04-26T05:50:41Z</time></trkpt>
<trkpt lat="33.00588" lon="35.21301"><ele>340.0</ele><time>2013-04-26T05:50:43Z</time></trkpt>
<trkpt lat="33.00596" lon="35.21289"><ele>340.0</ele><time>2013-04-26T05:50:44Z</time></trkpt>
<trkpt lat="33.00603" lon="35.21278"><ele>339.0</ele><time>2013-04-26T05:50:46Z</time></trkpt>
<trkpt lat="33.00612" lon="35.21266"><ele>338.0</ele><time>2013-04-26T05:50:48Z</time></trkpt>
<trkpt lat="33.00619" lon="35.21255"><ele>337.0</ele><time>2013-04-26T05:50:50Z</time></trkpt>
<trkpt lat="33.00626" lon="35.21244"><ele>336.0</ele><time>2013-04-26T05:50:52Z</time></trkpt>
<trkpt lat="33.00632" lon="35.21233"><ele>336.0</ele><time>2013-04-26T05:50:54Z</time></trkpt>
<trkpt lat="33.00637" lon="35.21223"><ele>336.0</ele><time>2013-04-26T05:50:56Z</time></trkpt>
<trkpt lat="33.00641" lon="35.21214"><ele>335.0</ele><time>2013-04-26T05:50:58Z</time></trkpt>
<trkpt lat="33.00644" lon="35.21202"><ele>335.0</ele><time>2013-04-26T05:51:01Z</time></trkpt>
<trkpt lat="33.00646" lon="35.21189"><ele>334.0</ele><time>2013-04-26T05:51:03Z</time></trkpt>
<trkpt lat="33.00647" lon="35.21178"><ele>333.0</ele><time>2013-04-26T05:51:05Z</time></trkpt>
<trkpt lat="33.00649" lon="35.21167"><ele>332.0</ele><time>2013-04-26T05:51:07Z</time></trkpt>
<trkpt lat="33.00651" lon="35.21155"><ele>331.0</ele><time>2013-04-26T05:51:09Z</time></trkpt>
<trkpt lat="33.00652" lon="35.21143"><ele>331.0</ele><time>2013-04-26T05:51:11Z</time></trkpt>
<trkpt lat="33.00654" lon="35.21129"><ele>330.0</ele><time>2013-04-26T05:51:13Z</time></trkpt>
<trkpt lat="33.00655" lon="35.21117"><ele>330.0</ele><time>2013-04-26T05:51:15Z</time></trkpt>
<trkpt lat="33.00656" lon="35.21105"><ele>329.0</ele><time>2013-04-26T05:51:17Z</time></trkpt>
<trkpt lat="33.00657" lon="35.21094"><ele>328.0</ele><time>2013-04-26T05:51:19Z</time></trkpt>
<trkpt lat="33.00658" lon="35.21082"><ele>326.0</ele><time>2013-04-26T05:51:21Z</time></trkpt>
<trkpt lat="33.00657" lon="35.2107"><ele>325.0</ele><time>2013-04-26T05:51:23Z</time></trkpt>
<trkpt lat="33.00656" lon="35.2106"><ele>325.0</ele><time>2013-04-26T05:51:25Z</time></trkpt>
<trkpt lat="33.00656" lon="35.21049"><ele>324.0</ele><time>2013-04-26T05:51:27Z</time></trkpt>
<trkpt lat="33.00655" lon="35.21037"><ele>324.0</ele><time>2013-04-26T05:51:29Z</time></trkpt>
<trkpt lat="33.00655" lon="35.21025"><ele>323.0</ele><time>2013-04-26T05:51:31Z</time></trkpt>
<trkpt lat="33.00655" lon="35.21014"><ele>322.0</ele><time>2013-04-26T05:51:33Z</time></trkpt>
<trkpt lat="33.00654" lon="35.21005"><ele>322.0</ele><time>2013-04-26T05:51:35Z</time></trkpt>
<trkpt lat="33.00654" lon="35.20995"><ele>321.0</ele><time>2013-04-26T05:51:37Z</time></trkpt>
<trkpt lat="33.00653" lon="35.20985"><ele>320.0</ele><time>2013-04-26T05:51:39Z</time></trkpt>
<trkpt lat="33.00653" lon="35.20975"><ele>320.0</ele><time>2013-04-26T05:51:41Z</time></trkpt>
<trkpt lat="33.00653" lon="35.20963"><ele>320.0</ele><time>2013-04-26T05:51:43Z</time></trkpt>
<trkpt lat="33.0065" lon="35.20952"><ele>320.0</ele><time>2013-04-26T05:51:48Z</time></trkpt>
<trkpt lat="33.00651" lon="35.20943"><ele>319.0</ele><time>2013-04-26T05:52:22Z</time></trkpt>
<trkpt lat="33.00648" lon="35.20933"><ele>319.0</ele><time>2013-04-26T05:52:27Z</time></trkpt>
<trkpt lat="33.0065" lon="35.20921"><ele>319.0</ele><time>2013-04-26T05:52:30Z</time></trkpt>
<trkpt lat="33.00653" lon="35.20908"><ele>319.0</ele><time>2013-04-26T05:52:33Z</time></trkpt>
<trkpt lat="33.00659" lon="35.20897"><ele>319.0</ele><time>2013-04-26T05:52:36Z</time></trkpt>
<trkpt lat="33.0067" lon="35.20895"><ele>319.0</ele><time>2013-04-26T05:52:39Z</time></trkpt>
<trkpt lat="33.00679" lon="35.20903"><ele>318.0</ele><time>2013-04-26T05:52:42Z</time></trkpt>
<trkpt lat="33.00688" lon="35.20913"><ele>317.0</ele><time>2013-04-26T05:52:44Z</time></trkpt>
<trkpt lat="33.00696" lon="35.20922"><ele>317.0</ele><time>2013-04-26T05:52:47Z</time></trkpt>
<trkpt lat="33.00705" lon="35.20931"><ele>317.0</ele><time>2013-04-26T05:52:50Z</time></trkpt>
<trkpt lat="33.00711" lon="35.20938"><ele>317.0</ele><time>2013-04-26T05:52:52Z</time></trkpt>
<trkpt lat="33.00717" lon="35.20946"><ele>316.0</ele><time>2013-04-26T05:52:54Z</time></trkpt>
<trkpt lat="33.00723" lon="35.20955"><ele>316.0</ele><time>2013-04-26T05:52:56Z</time></trkpt>
<trkpt lat="33.00729" lon="35.20964"><ele>316.0</ele><time>2013-04-26T05:52:58Z</time></trkpt>
<trkpt lat="33.00734" lon="35.20974"><ele>316.0</ele><time>2013-04-26T05:53:01Z</time></trkpt>
<trkpt lat="33.00738" lon="35.20984"><ele>316.0</ele><time>2013-04-26T05:53:03Z</time></trkpt>
<trkpt lat="33.00742" lon="35.20994"><ele>315.0</ele><time>2013-04-26T05:53:05Z</time></trkpt>
<trkpt lat="33.00744" lon="35.21005"><ele>316.0</ele><time>2013-04-26T05:53:07Z</time></trkpt>
<trkpt lat="33.00747" lon="35.21015"><ele>316.0</ele><time>2013-04-26T05:53:09Z</time></trkpt>
<trkpt lat="33.0075" lon="35.21025"><ele>317.0</ele><time>2013-04-26T05:53:11Z</time></trkpt>
<trkpt lat="33.00753" lon="35.21034"><ele>317.0</ele><time>2013-04-26T05:53:13Z</time></trkpt>
<trkpt lat="33.00756" lon="35.21044"><ele>318.0</ele><time>2013-04-26T05:53:15Z</time></trkpt>
<trkpt lat="33.00759" lon="35.21053"><ele>318.0</ele><time>2013-04-26T05:53:17Z</time></trkpt>
<trkpt lat="33.00761" lon="35.21063"><ele>318.0</ele><time>2013-04-26T05:53:19Z</time></trkpt>
<trkpt lat="33.00764" lon="35.21072"><ele>318.0</ele><time>2013-04-26T05:53:21Z</time></trkpt>
<trkpt lat="33.00768" lon="35.21086"><ele>319.0</ele><time>2013-04-26T05:53:24Z</time></trkpt>
<trkpt lat="33.00772" lon="35.21098"><ele>320.0</ele><time>2013-04-26T05:53:27Z</time></trkpt>
<trkpt lat="33.00776" lon="35.2111"><ele>321.0</ele><time>2013-04-26T05:53:30Z</time></trkpt>
<trkpt lat="33.00779" lon="35.21122"><ele>321.0</ele><time>2013-04-26T05:53:33Z</time></trkpt>
<trkpt lat="33.00782" lon="35.21134"><ele>321.0</ele><time>2013-04-26T05:53:36Z</time></trkpt>
<trkpt lat="33.00786" lon="35.21146"><ele>320.0</ele><time>2013-04-26T05:53:39Z</time></trkpt>
<trkpt lat="33.0079" lon="35.21158"><ele>320.0</ele><time>2013-04-26T05:53:42Z</time></trkpt>
<trkpt lat="33.00793" lon="35.2117"><ele>321.0</ele><time>2013-04-26T05:53:44Z</time></trkpt>
<trkpt lat="33.00797" lon="35.21181"><ele>321.0</ele><time>2013-04-26T05:53:47Z</time></trkpt>
<trkpt lat="33.008" lon="35.21192"><ele>321.0</ele><time>2013-04-26T05:53:50Z</time></trkpt>
<trkpt lat="33.00803" lon="35.21203"><ele>322.0</ele><time>2013-04-26T05:53:53Z</time></trkpt>
<trkpt lat="33.00806" lon="35.21214"><ele>322.0</ele><time>2013-04-26T05:53:56Z</time></trkpt>
<trkpt lat="33.00809" lon="35.21225"><ele>322.0</ele><time>2013-04-26T05:54:00Z</time></trkpt>
<trkpt lat="33.00812" lon="35.21236"><ele>322.0</ele><time>2013-04-26T05:54:03Z</time></trkpt>
<trkpt lat="33.00815" lon="35.21246"><ele>322.0</ele><time>2013-04-26T05:54:06Z</time></trkpt>
<trkpt lat="33.00818" lon="35.21257"><ele>323.0</ele><time>2013-04-26T05:54:09Z</time></trkpt>
<trkpt lat="33.00819" lon="35.21267"><ele>324.0</ele><time>2013-04-26T05:54:12Z</time></trkpt>
<trkpt lat="33.0082" lon="35.21277"><ele>325.0</ele><time>2013-04-26T05:54:15Z</time></trkpt>
<trkpt lat="33.0082" lon="35.21287"><ele>326.0</ele><time>2013-04-26T05:54:18Z</time></trkpt>
<trkpt lat="33.00821" lon="35.213"><ele>326.0</ele><time>2013-04-26T05:54:22Z</time></trkpt>
<trkpt lat="33.00821" lon="35.21312"><ele>326.0</ele><time>2013-04-26T05:54:26Z</time></trkpt>
<trkpt lat="33.00821" lon="35.21322"><ele>326.0</ele><time>2013-04-26T05:54:29Z</time></trkpt>
<trkpt lat="33.00823" lon="35.21334"><ele>327.0</ele><time>2013-04-26T05:54:33Z</time></trkpt>
<trkpt lat="33.00828" lon="35.21343"><ele>327.0</ele><time>2013-04-26T05:54:37Z</time></trkpt>
<trkpt lat="33.0083" lon="35.21355"><ele>327.0</ele><time>2013-04-26T05:54:41Z</time></trkpt>
<trkpt lat="33.0083" lon="35.21367"><ele>328.0</ele><time>2013-04-26T05:54:44Z</time></trkpt>
<trkpt lat="33.0083" lon="35.21376"><ele>328.0</ele><time>2013-04-26T05:54:48Z</time></trkpt>
<trkpt lat="33.00838" lon="35.21381"><ele>328.0</ele><time>2013-04-26T05:55:12Z</time></trkpt>
<trkpt lat="33.00846" lon="35.21379"><ele>328.0</ele><time>2013-04-26T05:56:49Z</time></trkpt>
<trkpt lat="33.00847" lon="35.21369"><ele>328.0</ele><time>2013-04-26T05:56:54Z</time></trkpt>
<trkpt lat="33.00847" lon="35.2136"><ele>328.0</ele><time>2013-04-26T05:57:00Z</time></trkpt>
<trkpt lat="33.00848" lon="35.21348"><ele>327.0</ele><time>2013-04-26T05:57:06Z</time></trkpt>
<trkpt lat="33.00848" lon="35.21337"><ele>327.0</ele><time>2013-04-26T05:57:12Z</time></trkpt>
<trkpt lat="33.00847" lon="35.21327"><ele>327.0</ele><time>2013-04-26T05:57:17Z</time></trkpt>
<trkpt lat="33.00848" lon="35.21316"><ele>326.0</ele><time>2013-04-26T05:57:22Z</time></trkpt>
<trkpt lat="33.00848" lon="35.21306"><ele>326.0</ele><time>2013-04-26T05:57:26Z</time></trkpt>
<trkpt lat="33.00848" lon="35.21296"><ele>326.0</ele><time>2013-04-26T05:57:30Z</time></trkpt>
<trkpt lat="33.00848" lon="35.21286"><ele>326.0</ele><time>2013-04-26T05:57:35Z</time></trkpt>
<trkpt lat="33.00853" lon="35.21278"><ele>324.0</ele><time>2013-04-26T05:58:17Z</time></trkpt>
<trkpt lat="33.00856" lon="35.21269"><ele>323.0</ele><time>2013-04-26T05:58:32Z</time></trkpt>
<trkpt lat="33.0086" lon="35.21259"><ele>322.0</ele><time>2013-04-26T05:58:43Z</time></trkpt>
<trkpt lat="33.00865" lon="35.21251"><ele>320.0</ele><time>2013-04-26T05:58:54Z</time></trkpt>
<trkpt lat="33.00873" lon="35.21251"><ele>319.0</ele><time>2013-04-26T05:59:05Z</time></trkpt>
<trkpt lat="33.00881" lon="35.21253"><ele>318.0</ele><time>2013-04-26T05:59:16Z</time></trkpt>
<trkpt lat="33.00888" lon="35.2126"><ele>317.0</ele><time>2013-04-26T05:59:27Z</time></trkpt>
<trkpt lat="33.00892" lon="35.21269"><ele>316.0</ele><time>2013-04-26T05:59:35Z</time></trkpt>
<trkpt lat="33.00897" lon="35.21278"><ele>315.0</ele><time>2013-04-26T05:59:43Z</time></trkpt>
<trkpt lat="33.00899" lon="35.21287"><ele>314.0</ele><time>2013-04-26T05:59:53Z</time></trkpt>
<trkpt lat="33.00907" lon="35.21293"><ele>313.0</ele><time>2013-04-26T06:00:12Z</time></trkpt>
<trkpt lat="33.00914" lon="35.21283"><ele>313.0</ele><time>2013-04-26T06:00:16Z</time></trkpt>
<trkpt lat="33.00918" lon="35.21273"><ele>313.0</ele><time>2013-04-26T06:00:19Z</time></trkpt>
<trkpt lat="33.00921" lon="35.21262"><ele>312.0</ele><time>2013-04-26T06:00:23Z</time></trkpt>
<trkpt lat="33.00925" lon="35.21252"><ele>311.0</ele><time>2013-04-26T06:00:27Z</time></trkpt>
<trkpt lat="33.00926" lon="35.21242"><ele>310.0</ele><time>2013-04-26T06:00:31Z</time></trkpt>
<trkpt lat="33.00926" lon="35.21231"><ele>309.0</ele><time>2013-04-26T06:00:38Z</time></trkpt>
<trkpt lat="33.00927" lon="35.2122"><ele>308.0</ele><time>2013-04-26T06:00:44Z</time></trkpt>
<trkpt lat="33.00929" lon="35.2121"><ele>308.0</ele><time>2013-04-26T06:00:50Z</time></trkpt>
<trkpt lat="33.00931" lon="35.21199"><ele>307.0</ele><time>2013-04-26T06:00:57Z</time></trkpt>
<trkpt lat="33.00932" lon="35.21188"><ele>306.0</ele><time>2013-04-26T06:01:06Z</time></trkpt>
<trkpt lat="33.00933" lon="35.21177"><ele>304.0</ele><time>2013-04-26T06:01:20Z</time></trkpt>
<trkpt lat="33.00934" lon="35.21168"><ele>303.0</ele><time>2013-04-26T06:01:33Z</time></trkpt>
<trkpt lat="33.00935" lon="35.21158"><ele>301.0</ele><time>2013-04-26T06:01:48Z</time></trkpt>
<trkpt lat="33.00935" lon="35.21147"><ele>300.0</ele><time>2013-04-26T06:01:56Z</time></trkpt>
<trkpt lat="33.00936" lon="35.21137"><ele>299.0</ele><time>2013-04-26T06:02:07Z</time></trkpt>
<trkpt lat="33.00935" lon="35.21127"><ele>298.0</ele><time>2013-04-26T06:02:20Z</time></trkpt>
<trkpt lat="33.00937" lon="35.2111"><ele>297.0</ele><time>2013-04-26T06:02:52Z</time></trkpt>
<trkpt lat="33.0094" lon="35.211"><ele>296.0</ele><time>2013-04-26T06:03:02Z</time></trkpt>
<trkpt lat="33.00941" lon="35.2109"><ele>294.0</ele><time>2013-04-26T06:03:10Z</time></trkpt>
<trkpt lat="33.0094" lon="35.21081"><ele>292.0</ele><time>2013-04-26T06:03:18Z</time></trkpt>
<trkpt lat="33.00937" lon="35.21072"><ele>291.0</ele><time>2013-04-26T06:03:29Z</time></trkpt>
<trkpt lat="33.00938" lon="35.21061"><ele>290.0</ele><time>2013-04-26T06:03:43Z</time></trkpt>
<trkpt lat="33.00942" lon="35.21052"><ele>289.0</ele><time>2013-04-26T06:03:51Z</time></trkpt>
<trkpt lat="33.00942" lon="35.21041"><ele>288.0</ele><time>2013-04-26T06:04:07Z</time></trkpt>
<trkpt lat="33.00943" lon="35.21031"><ele>288.0</ele><time>2013-04-26T06:04:17Z</time></trkpt>
<trkpt lat="33.00946" lon="35.21022"><ele>287.0</ele><time>2013-04-26T06:04:29Z</time></trkpt>
<trkpt lat="33.00949" lon="35.21012"><ele>286.0</ele><time>2013-04-26T06:04:38Z</time></trkpt>
<trkpt lat="33.00952" lon="35.21003"><ele>285.0</ele><time>2013-04-26T06:04:45Z</time></trkpt>
<trkpt lat="33.00952" lon="35.20993"><ele>285.0</ele><time>2013-04-26T06:04:56Z</time></trkpt>
<trkpt lat="33.0095" lon="35.20983"><ele>284.0</ele><time>2013-04-26T06:05:05Z</time></trkpt>
<trkpt lat="33.00952" lon="35.20973"><ele>284.0</ele><time>2013-04-26T06:05:13Z</time></trkpt>
<trkpt lat="33.00954" lon="35.20963"><ele>284.0</ele><time>2013-04-26T06:05:28Z</time></trkpt>
<trkpt lat="33.00958" lon="35.20954"><ele>283.0</ele><time>2013-04-26T06:05:36Z</time></trkpt>
<trkpt lat="33.00959" lon="35.20944"><ele>282.0</ele><time>2013-04-26T06:05:46Z</time></trkpt>
<trkpt lat="33.0096" lon="35.20934"><ele>281.0</ele><time>2013-04-26T06:05:57Z</time></trkpt>
<trkpt lat="33.00964" lon="35.20924"><ele>279.0</ele><time>2013-04-26T06:06:08Z</time></trkpt>
<trkpt lat="33.00964" lon="35.20915"><ele>278.0</ele><time>2013-04-26T06:06:20Z</time></trkpt>
<trkpt lat="33.00968" lon="35.20905"><ele>277.0</ele><time>2013-04-26T06:06:33Z</time></trkpt>
<trkpt lat="33.00973" lon="35.20892"><ele>276.0</ele><time>2013-04-26T06:06:48Z</time></trkpt>
<trkpt lat="33.00976" lon="35.20883"><ele>274.0</ele><time>2013-04-26T06:06:53Z</time></trkpt>
<trkpt lat="33.00981" lon="35.20874"><ele>273.0</ele><time>2013-04-26T06:07:07Z</time></trkpt>
<trkpt lat="33.00985" lon="35.20863"><ele>272.0</ele><time>2013-04-26T06:07:22Z</time></trkpt>
<trkpt lat="33.00987" lon="35.20853"><ele>271.0</ele><time>2013-04-26T06:07:33Z</time></trkpt>
<trkpt lat="33.0099" lon="35.20843"><ele>270.0</ele><time>2013-04-26T06:07:37Z</time></trkpt>
<trkpt lat="33.00995" lon="35.20835"><ele>269.0</ele><time>2013-04-26T06:07:41Z</time></trkpt>
<trkpt lat="33.00999" lon="35.20826"><ele>268.0</ele><time>2013-04-26T06:07:44Z</time></trkpt>
<trkpt lat="33.01001" lon="35.20816"><ele>268.0</ele><time>2013-04-26T06:07:48Z</time></trkpt>
<trkpt lat="33.01004" lon="35.20806"><ele>267.0</ele><time>2013-04-26T06:07:52Z</time></trkpt>
<trkpt lat="33.01007" lon="35.20796"><ele>266.0</ele><time>2013-04-26T06:07:55Z</time></trkpt>
<trkpt lat="33.01009" lon="35.20784"><ele>266.0</ele><time>2013-04-26T06:08:00Z</time></trkpt>
<trkpt lat="33.01008" lon="35.20773"><ele>265.0</ele><time>2013-04-26T06:08:05Z</time></trkpt>
<trkpt lat="33.01012" lon="35.20761"><ele>264.0</ele><time>2013-04-26T06:08:09Z</time></trkpt>
<trkpt lat="33.01016" lon="35.20753"><ele>263.0</ele><time>2013-04-26T06:08:13Z</time></trkpt>
<trkpt lat="33.01017" lon="35.20742"><ele>261.0</ele><time>2013-04-26T06:08:18Z</time></trkpt>
<trkpt lat="33.01019" lon="35.20732"><ele>260.0</ele><time>2013-04-26T06:08:23Z</time></trkpt>
<trkpt lat="33.01022" lon="35.20722"><ele>259.0</ele><time>2013-04-26T06:08:29Z</time></trkpt>
<trkpt lat="33.01023" lon="35.20712"><ele>258.0</ele><time>2013-04-26T06:08:36Z</time></trkpt>
<trkpt lat="33.01024" lon="35.20703"><ele>257.0</ele><time>2013-04-26T06:08:41Z</time></trkpt>
<trkpt lat="33.01023" lon="35.20692"><ele>256.0</ele><time>2013-04-26T06:08:45Z</time></trkpt>
<trkpt lat="33.01014" lon="35.20689"><ele>255.0</ele><time>2013-04-26T06:09:23Z</time></trkpt>
<trkpt lat="33.0101" lon="35.2068"><ele>254.0</ele><time>2013-04-26T06:09:28Z</time></trkpt>
<trkpt lat="33.01005" lon="35.20671"><ele>253.0</ele><time>2013-04-26T06:09:33Z</time></trkpt>
<trkpt lat="33.01001" lon="35.20662"><ele>251.0</ele><time>2013-04-26T06:09:37Z</time></trkpt>
<trkpt lat="33.00995" lon="35.20652"><ele>252.0</ele><time>2013-04-26T06:09:40Z</time></trkpt>
<trkpt lat="33.00988" lon="35.20646"><ele>254.0</ele><time>2013-04-26T06:09:43Z</time></trkpt>
<trkpt lat="33.00981" lon="35.20638"><ele>255.0</ele><time>2013-04-26T06:09:48Z</time></trkpt>
<trkpt lat="33.00973" lon="35.20633"><ele>256.0</ele><time>2013-04-26T06:09:55Z</time></trkpt>
<trkpt lat="33.00967" lon="35.20623"><ele>257.0</ele><time>2013-04-26T06:10:03Z</time></trkpt>
<trkpt lat="33.00963" lon="35.20614"><ele>258.0</ele><time>2013-04-26T06:10:08Z</time></trkpt>
<trkpt lat="33.00957" lon="35.20606"><ele>260.0</ele><time>2013-04-26T06:10:14Z</time></trkpt>
<trkpt lat="33.00948" lon="35.20605"><ele>261.0</ele><time>2013-04-26T06:10:35Z</time></trkpt>
<trkpt lat="33.00938" lon="35.206"><ele>260.0</ele><time>2013-04-26T06:12:03Z</time></trkpt>
<trkpt lat="33.00936" lon="35.20612"><ele>260.0</ele><time>2013-04-26T06:13:38Z</time></trkpt>
<trkpt lat="33.00943" lon="35.20607"><ele>261.0</ele><time>2013-04-26T06:13:50Z</time></trkpt>
<trkpt lat="33.00952" lon="35.20611"><ele>260.0</ele><time>2013-04-26T06:13:57Z</time></trkpt>
<trkpt lat="33.00959" lon="35.2062"><ele>258.0</ele><time>2013-04-26T06:14:02Z</time></trkpt>
<trkpt lat="33.00964" lon="35.20628"><ele>257.0</ele><time>2013-04-26T06:14:07Z</time></trkpt>
<trkpt lat="33.0097" lon="35.20635"><ele>256.0</ele><time>2013-04-26T06:14:11Z</time></trkpt>
<trkpt lat="33.00977" lon="35.20642"><ele>254.0</ele><time>2013-04-26T06:14:14Z</time></trkpt>
<trkpt lat="33.00985" lon="35.20647"><ele>253.0</ele><time>2013-04-26T06:14:18Z</time></trkpt>
<trkpt lat="33.00993" lon="35.20645"><ele>251.0</ele><time>2013-04-26T06:14:22Z</time></trkpt>
<trkpt lat="33.00997" lon="35.20634"><ele>250.0</ele><time>2013-04-26T06:14:27Z</time></trkpt>
<trkpt lat="33.00996" lon="35.20623"><ele>250.0</ele><time>2013-04-26T06:14:30Z</time></trkpt>
<trkpt lat="33.00994" lon="35.20613"><ele>250.0</ele><time>2013-04-26T06:14:33Z</time></trkpt>
<trkpt lat="33.00991" lon="35.20602"><ele>249.0</ele><time>2013-04-26T06:14:37Z</time></trkpt>
<trkpt lat="33.00988" lon="35.20593"><ele>249.0</ele><time>2013-04-26T06:14:40Z</time></trkpt>
<trkpt lat="33.00986" lon="35.20582"><ele>249.0</ele><time>2013-04-26T06:14:43Z</time></trkpt>
<trkpt lat="33.00983" lon="35.20572"><ele>248.0</ele><time>2013-04-26T06:14:45Z</time></trkpt>
<trkpt lat="33.0098" lon="35.20562"><ele>248.0</ele><time>2013-04-26T06:14:48Z</time></trkpt>
<trkpt lat="33.00976" lon="35.20554"><ele>248.0</ele><time>2013-04-26T06:14:56Z</time></trkpt>
<trkpt lat="33.00973" lon="35.20544"><ele>248.0</ele><time>2013-04-26T06:15:06Z</time></trkpt>
<trkpt lat="33.00975" lon="35.20532"><ele>248.0</ele><time>2013-04-26T06:15:11Z</time></trkpt>
<trkpt lat="33.00974" lon="35.20519"><ele>248.0</ele><time>2013-04-26T06:15:15Z</time></trkpt>
<trkpt lat="33.00972" lon="35.20507"><ele>247.0</ele><time>2013-04-26T06:15:18Z</time></trkpt>
<trkpt lat="33.0097" lon="35.20495"><ele>247.0</ele><time>2013-04-26T06:15:21Z</time></trkpt>
<trkpt lat="33.0097" lon="35.20482"><ele>247.0</ele><time>2013-04-26T06:15:24Z</time></trkpt>
<trkpt lat="33.00969" lon="35.20469"><ele>247.0</ele><time>2013-04-26T06:15:27Z</time></trkpt>
<trkpt lat="33.0097" lon="35.20457"><ele>246.0</ele><time>2013-04-26T06:15:30Z</time></trkpt>
<trkpt lat="33.0097" lon="35.20445"><ele>246.0</ele><time>2013-04-26T06:15:33Z</time></trkpt>
<trkpt lat="33.0097" lon="35.20434"><ele>246.0</ele><time>2013-04-26T06:15:36Z</time></trkpt>
<trkpt lat="33.0097" lon="35.20424"><ele>245.0</ele><time>2013-04-26T06:15:46Z</time></trkpt>
<trkpt lat="33.00972" lon="35.20414"><ele>244.0</ele><time>2013-04-26T06:15:55Z</time></trkpt>
<trkpt lat="33.00974" lon="35.20401"><ele>243.0</ele><time>2013-04-26T06:15:58Z</time></trkpt>
<trkpt lat="33.00976" lon="35.20389"><ele>243.0</ele><time>2013-04-26T06:16:02Z</time></trkpt>
<trkpt lat="33.00978" lon="35.20376"><ele>242.0</ele><time>2013-04-26T06:16:05Z</time></trkpt>
<trkpt lat="33.00979" lon="35.20364"><ele>242.0</ele><time>2013-04-26T06:16:08Z</time></trkpt>
<trkpt lat="33.00981" lon="35.20352"><ele>241.0</ele><time>2013-04-26T06:16:12Z</time></trkpt>
<trkpt lat="33.00986" lon="35.20342"><ele>241.0</ele><time>2013-04-26T06:16:16Z</time></trkpt>
<trkpt lat="33.00992" lon="35.20334"><ele>240.0</ele><time>2013-04-26T06:16:19Z</time></trkpt>
<trkpt lat="33.00997" lon="35.20326"><ele>240.0</ele><time>2013-04-26T06:16:22Z</time></trkpt>
<trkpt lat="33.01002" lon="35.20315"><ele>240.0</ele><time>2013-04-26T06:16:26Z</time></trkpt>
<trkpt lat="33.01003" lon="35.20305"><ele>240.0</ele><time>2013-04-26T06:16:29Z</time></trkpt>
<trkpt lat="33.01004" lon="35.20295"><ele>240.0</ele><time>2013-04-26T06:16:32Z</time></trkpt>
<trkpt lat="33.01006" lon="35.20285"><ele>240.0</ele><time>2013-04-26T06:16:35Z</time></trkpt>
<trkpt lat="33.01011" lon="35.20275"><ele>240.0</ele><time>2013-04-26T06:16:38Z</time></trkpt>
<trkpt lat="33.01016" lon="35.20263"><ele>241.0</ele><time>2013-04-26T06:16:41Z</time></trkpt>
<trkpt lat="33.0102" lon="35.20251"><ele>241.0</ele><time>2013-04-26T06:16:43Z</time></trkpt>
<trkpt lat="33.01024" lon="35.20239"><ele>241.0</ele><time>2013-04-26T06:16:46Z</time></trkpt>
<trkpt lat="33.01029" lon="35.20231"><ele>240.0</ele><time>2013-04-26T06:16:49Z</time></trkpt>
<trkpt lat="33.01033" lon="35.20222"><ele>239.0</ele><time>2013-04-26T06:16:52Z</time></trkpt>
<trkpt lat="33.01038" lon="35.20214"><ele>239.0</ele><time>2013-04-26T06:16:55Z</time></trkpt>
<trkpt lat="33.01042" lon="35.20205"><ele>238.0</ele><time>2013-04-26T06:16:58Z</time></trkpt>
<trkpt lat="33.01047" lon="35.20196"><ele>237.0</ele><time>2013-04-26T06:17:04Z</time></trkpt>
<trkpt lat="33.01053" lon="35.20189"><ele>236.0</ele><time>2013-04-26T06:17:08Z</time></trkpt>
<trkpt lat="33.01058" lon="35.20181"><ele>236.0</ele><time>2013-04-26T06:17:13Z</time></trkpt>
<trkpt lat="33.01063" lon="35.20173"><ele>235.0</ele><time>2013-04-26T06:17:29Z</time></trkpt>
<trkpt lat="33.01069" lon="35.20167"><ele>234.0</ele><time>2013-04-26T06:17:40Z</time></trkpt>
<trkpt lat="33.01075" lon="35.2016"><ele>233.0</ele><time>2013-04-26T06:17:54Z</time></trkpt>
<trkpt lat="33.01084" lon="35.20155"><ele>233.0</ele><time>2013-04-26T06:18:05Z</time></trkpt>
<trkpt lat="33.01092" lon="35.20153"><ele>233.0</ele><time>2013-04-26T06:18:09Z</time></trkpt>
<trkpt lat="33.011" lon="35.2015"><ele>234.0</ele><time>2013-04-26T06:18:13Z</time></trkpt>
<trkpt lat="33.01107" lon="35.20143"><ele>234.0</ele><time>2013-04-26T06:18:18Z</time></trkpt>
<trkpt lat="33.0111" lon="35.20133"><ele>234.0</ele><time>2013-04-26T06:18:23Z</time></trkpt>
<trkpt lat="33.01115" lon="35.20123"><ele>234.0</ele><time>2013-04-26T06:18:40Z</time></trkpt>
<trkpt lat="33.01121" lon="35.20115"><ele>235.0</ele><time>2013-04-26T06:18:44Z</time></trkpt>
<trkpt lat="33.01126" lon="35.20107"><ele>235.0</ele><time>2013-04-26T06:18:49Z</time></trkpt>
<trkpt lat="33.01132" lon="35.20097"><ele>234.0</ele><time>2013-04-26T06:18:54Z</time></trkpt>
<trkpt lat="33.01137" lon="35.20089"><ele>234.0</ele><time>2013-04-26T06:18:59Z</time></trkpt>
<trkpt lat="33.01141" lon="35.20079"><ele>233.0</ele><time>2013-04-26T06:19:11Z</time></trkpt>
<trkpt lat="33.01142" lon="35.2007"><ele>232.0</ele><time>2013-04-26T06:19:40Z</time></trkpt>
<trkpt lat="33.01139" lon="35.2006"><ele>231.0</ele><time>2013-04-26T06:19:46Z</time></trkpt>
<trkpt lat="33.01134" lon="35.20053"><ele>231.0</ele><time>2013-04-26T06:19:51Z</time></trkpt>
<trkpt lat="33.01131" lon="35.20044"><ele>230.0</ele><time>2013-04-26T06:19:56Z</time></trkpt>
<trkpt lat="33.01129" lon="35.20034"><ele>229.0</ele><time>2013-04-26T06:20:05Z</time></trkpt>
<trkpt lat="33.01132" lon="35.20024"><ele>228.0</ele><time>2013-04-26T06:20:11Z</time></trkpt>
<trkpt lat="33.01134" lon="35.20014"><ele>227.0</ele><time>2013-04-26T06:20:16Z</time></trkpt>
<trkpt lat="33.01138" lon="35.20004"><ele>226.0</ele><time>2013-04-26T06:20:21Z</time></trkpt>
<trkpt lat="33.0114" lon="35.19995"><ele>226.0</ele><time>2013-04-26T06:20:25Z</time></trkpt>
<trkpt lat="33.01143" lon="35.19985"><ele>226.0</ele><time>2013-04-26T06:20:29Z</time></trkpt>
<trkpt lat="33.01147" lon="35.19975"><ele>226.0</ele><time>2013-04-26T06:20:33Z</time></trkpt>
<trkpt lat="33.0115" lon="35.19965"><ele>226.0</ele><time>2013-04-26T06:20:36Z</time></trkpt>
<trkpt lat="33.01152" lon="35.19955"><ele>226.0</ele><time>2013-04-26T06:20:39Z</time></trkpt>
<trkpt lat="33.01156" lon="35.19943"><ele>226.0</ele><time>2013-04-26T06:20:43Z</time></trkpt>
<trkpt lat="33.01158" lon="35.19932"><ele>226.0</ele><time>2013-04-26T06:20:47Z</time></trkpt>
<trkpt lat="33.01158" lon="35.19922"><ele>226.0</ele><time>2013-04-26T06:20:52Z</time></trkpt>
<trkpt lat="33.01157" lon="35.19912"><ele>225.0</ele><time>2013-04-26T06:20:57Z</time></trkpt>
<trkpt lat="33.01155" lon="35.19902"><ele>225.0</ele><time>2013-04-26T06:21:04Z</time></trkpt>
<trkpt lat="33.01152" lon="35.19892"><ele>225.0</ele><time>2013-04-26T06:21:26Z</time></trkpt>
<trkpt lat="33.01145" lon="35.19884"><ele>225.0</ele><time>2013-04-26T06:21:35Z</time></trkpt>
<trkpt lat="33.01144" lon="35.19874"><ele>224.0</ele><time>2013-04-26T06:21:42Z</time></trkpt>
<trkpt lat="33.01143" lon="35.19864"><ele>224.0</ele><time>2013-04-26T06:21:47Z</time></trkpt>
<trkpt lat="33.0114" lon="35.19854"><ele>227.0</ele><time>2013-04-26T06:21:54Z</time></trkpt>
<trkpt lat="33.01138" lon="35.19844"><ele>228.0</ele><time>2013-04-26T06:22:01Z</time></trkpt>
<trkpt lat="33.01136" lon="35.19835"><ele>230.0</ele><time>2013-04-26T06:22:07Z</time></trkpt>
<trkpt lat="33.01133" lon="35.19824"><ele>232.0</ele><time>2013-04-26T06:22:13Z</time></trkpt>
<trkpt lat="33.01131" lon="35.19813"><ele>234.0</ele><time>2013-04-26T06:22:19Z</time></trkpt>
<trkpt lat="33.01127" lon="35.19803"><ele>236.0</ele><time>2013-04-26T06:22:24Z</time></trkpt>
<trkpt lat="33.01125" lon="35.19794"><ele>238.0</ele><time>2013-04-26T06:22:29Z</time></trkpt>
<trkpt lat="33.01122" lon="35.19783"><ele>240.0</ele><time>2013-04-26T06:22:35Z</time></trkpt>
<trkpt lat="33.01119" lon="35.19772"><ele>242.0</ele><time>2013-04-26T06:22:40Z</time></trkpt>
<trkpt lat="33.01117" lon="35.19761"><ele>244.0</ele><time>2013-04-26T06:22:44Z</time></trkpt>
<trkpt lat="33.01114" lon="35.19751"><ele>245.0</ele><time>2013-04-26T06:22:49Z</time></trkpt>
<trkpt lat="33.01111" lon="35.19739"><ele>244.0</ele><time>2013-04-26T06:22:54Z</time></trkpt>
<trkpt lat="33.01107" lon="35.1973"><ele>243.0</ele><time>2013-04-26T06:22:59Z</time></trkpt>
<trkpt lat="33.01104" lon="35.1972"><ele>243.0</ele><time>2013-04-26T06:23:05Z</time></trkpt>
<trkpt lat="33.01101" lon="35.19711"><ele>242.0</ele><time>2013-04-26T06:23:09Z</time></trkpt>
<trkpt lat="33.01099" lon="35.19701"><ele>242.0</ele><time>2013-04-26T06:23:13Z</time></trkpt>
<trkpt lat="33.01095" lon="35.19691"><ele>241.0</ele><time>2013-04-26T06:23:18Z</time></trkpt>
<trkpt lat="33.0109" lon="35.19683"><ele>240.0</ele><time>2013-04-26T06:23:23Z</time></trkpt>
<trkpt lat="33.01087" lon="35.19671"><ele>238.0</ele><time>2013-04-26T06:23:28Z</time></trkpt>
<trkpt lat="33.01086" lon="35.19662"><ele>237.0</ele><time>2013-04-26T06:23:31Z</time></trkpt>
<trkpt lat="33.01084" lon="35.1965"><ele>236.0</ele><time>2013-04-26T06:23:34Z</time></trkpt>
<trkpt lat="33.01081" lon="35.19638"><ele>235.0</ele><time>2013-04-26T06:23:37Z</time></trkpt>
<trkpt lat="33.01077" lon="35.19629"><ele>234.0</ele><time>2013-04-26T06:23:40Z</time></trkpt>
<trkpt lat="33.01071" lon="35.19619"><ele>233.0</ele><time>2013-04-26T06:23:43Z</time></trkpt>
<trkpt lat="33.01066" lon="35.1961"><ele>232.0</ele><time>2013-04-26T06:23:46Z</time></trkpt>
<trkpt lat="33.01061" lon="35.19599"><ele>232.0</ele><time>2013-04-26T06:23:49Z</time></trkpt>
<trkpt lat="33.01057" lon="35.19586"><ele>232.0</ele><time>2013-04-26T06:23:52Z</time></trkpt>
<trkpt lat="33.01054" lon="35.19573"><ele>232.0</ele><time>2013-04-26T06:23:55Z</time></trkpt>
<trkpt lat="33.01052" lon="35.19563"><ele>234.0</ele><time>2013-04-26T06:23:57Z</time></trkpt>
<trkpt lat="33.0105" lon="35.19553"><ele>235.0</ele><time>2013-04-26T06:23:59Z</time></trkpt>
<trkpt lat="33.01047" lon="35.1954"><ele>236.0</ele><time>2013-04-26T06:24:03Z</time></trkpt>
<trkpt lat="33.01044" lon="35.1953"><ele>237.0</ele><time>2013-04-26T06:24:06Z</time></trkpt>
<trkpt lat="33.01041" lon="35.19519"><ele>238.0</ele><time>2013-04-26T06:24:10Z</time></trkpt>
<trkpt lat="33.01038" lon="35.19508"><ele>239.0</ele><time>2013-04-26T06:24:14Z</time></trkpt>
<trkpt lat="33.01035" lon="35.19496"><ele>240.0</ele><time>2013-04-26T06:24:18Z</time></trkpt>
<trkpt lat="33.01031" lon="35.19484"><ele>241.0</ele><time>2013-04-26T06:24:22Z</time></trkpt>
<trkpt lat="33.01028" lon="35.19473"><ele>241.0</ele><time>2013-04-26T06:24:26Z</time></trkpt>
<trkpt lat="33.01024" lon="35.19461"><ele>241.0</ele><time>2013-04-26T06:24:30Z</time></trkpt>
<trkpt lat="33.01021" lon="35.1945"><ele>241.0</ele><time>2013-04-26T06:24:34Z</time></trkpt>
<trkpt lat="33.01017" lon="35.19439"><ele>240.0</ele><time>2013-04-26T06:24:38Z</time></trkpt>
<trkpt lat="33.01013" lon="35.19429"><ele>239.0</ele><time>2013-04-26T06:24:42Z</time></trkpt>
<trkpt lat="33.0101" lon="35.19419"><ele>238.0</ele><time>2013-04-26T06:24:44Z</time></trkpt>
<trkpt lat="33.01008" lon="35.19405"><ele>238.0</ele><time>2013-04-26T06:24:47Z</time></trkpt>
<trkpt lat="33.0101" lon="35.19392"><ele>237.0</ele><time>2013-04-26T06:24:50Z</time></trkpt>
<trkpt lat="33.01011" lon="35.19378"><ele>237.0</ele><time>2013-04-26T06:24:53Z</time></trkpt>
<trkpt lat="33.01014" lon="35.19365"><ele>236.0</ele><time>2013-04-26T06:24:56Z</time></trkpt>
<trkpt lat="33.01016" lon="35.19351"><ele>236.0</ele><time>2013-04-26T06:24:59Z</time></trkpt>
<trkpt lat="33.01016" lon="35.19338"><ele>235.0</ele><time>2013-04-26T06:25:03Z</time></trkpt>
<trkpt lat="33.01014" lon="35.19327"><ele>234.0</ele><time>2013-04-26T06:25:05Z</time></trkpt>
<trkpt lat="33.01009" lon="35.19318"><ele>233.0</ele><time>2013-04-26T06:25:07Z</time></trkpt>
<trkpt lat="33.01002" lon="35.19312"><ele>232.0</ele><time>2013-04-26T06:25:09Z</time></trkpt>
<trkpt lat="33.00993" lon="35.19306"><ele>232.0</ele><time>2013-04-26T06:25:12Z</time></trkpt>
<trkpt lat="33.00984" lon="35.193"><ele>231.0</ele><time>2013-04-26T06:25:15Z</time></trkpt>
<trkpt lat="33.00976" lon="35.19292"><ele>231.0</ele><time>2013-04-26T06:25:18Z</time></trkpt>
<trkpt lat="33.00968" lon="35.19284"><ele>230.0</ele><time>2013-04-26T06:25:21Z</time></trkpt>
<trkpt lat="33.00961" lon="35.19274"><ele>230.0</ele><time>2013-04-26T06:25:24Z</time></trkpt>
<trkpt lat="33.00953" lon="35.19263"><ele>229.0</ele><time>2013-04-26T06:25:27Z</time></trkpt>
<trkpt lat="33.00947" lon="35.19254"><ele>229.0</ele><time>2013-04-26T06:25:30Z</time></trkpt>
<trkpt lat="33.0094" lon="35.19244"><ele>228.0</ele><time>2013-04-26T06:25:33Z</time></trkpt>
<trkpt lat="33.00934" lon="35.19237"><ele>228.0</ele><time>2013-04-26T06:25:35Z</time></trkpt>
<trkpt lat="33.00928" lon="35.19228"><ele>228.0</ele><time>2013-04-26T06:25:37Z</time></trkpt>
<trkpt lat="33.00923" lon="35.1922"><ele>227.0</ele><time>2013-04-26T06:25:39Z</time></trkpt>
<trkpt lat="33.00917" lon="35.19213"><ele>227.0</ele><time>2013-04-26T06:25:41Z</time></trkpt>
<trkpt lat="33.0091" lon="35.19202"><ele>226.0</ele><time>2013-04-26T06:25:43Z</time></trkpt>
<trkpt lat="33.00903" lon="35.19192"><ele>227.0</ele><time>2013-04-26T06:25:46Z</time></trkpt>
<trkpt lat="33.00897" lon="35.19184"><ele>227.0</ele><time>2013-04-26T06:25:50Z</time></trkpt>
<trkpt lat="33.00889" lon="35.19174"><ele>227.0</ele><time>2013-04-26T06:25:54Z</time></trkpt>
<trkpt lat="33.00885" lon="35.19167"><ele>227.0</ele><time>2013-04-26T06:25:57Z</time></trkpt>
<trkpt lat="33.0088" lon="35.19158"><ele>227.0</ele><time>2013-04-26T06:26:01Z</time></trkpt>
<trkpt lat="33.00874" lon="35.19148"><ele>228.0</ele><time>2013-04-26T06:26:05Z</time></trkpt>
<trkpt lat="33.0087" lon="35.19138"><ele>229.0</ele><time>2013-04-26T06:26:21Z</time></trkpt>
<trkpt lat="33.00866" lon="35.1913"><ele>230.0</ele><time>2013-04-26T06:26:25Z</time></trkpt>
<trkpt lat="33.00858" lon="35.19123"><ele>231.0</ele><time>2013-04-26T06:26:30Z</time></trkpt>
<trkpt lat="33.00854" lon="35.19132"><ele>232.0</ele><time>2013-04-26T06:26:38Z</time></trkpt>
<trkpt lat="33.00849" lon="35.19141"><ele>233.0</ele><time>2013-04-26T06:26:43Z</time></trkpt>
<trkpt lat="33.00844" lon="35.19152"><ele>233.0</ele><time>2013-04-26T06:26:47Z</time></trkpt>
<trkpt lat="33.00842" lon="35.19163"><ele>233.0</ele><time>2013-04-26T06:26:52Z</time></trkpt>
<trkpt lat="33.0084" lon="35.19173"><ele>234.0</ele><time>2013-04-26T06:26:57Z</time></trkpt>
<trkpt lat="33.00838" lon="35.19184"><ele>235.0</ele><time>2013-04-26T06:27:03Z</time></trkpt>
<trkpt lat="33.00837" lon="35.19195"><ele>235.0</ele><time>2013-04-26T06:27:08Z</time></trkpt>
<trkpt lat="33.00835" lon="35.19206"><ele>236.0</ele><time>2013-04-26T06:27:13Z</time></trkpt>
<trkpt lat="33.00834" lon="35.19217"><ele>236.0</ele><time>2013-04-26T06:27:18Z</time></trkpt>
<trkpt lat="33.00833" lon="35.19228"><ele>236.0</ele><time>2013-04-26T06:27:23Z</time></trkpt>
<trkpt lat="33.00832" lon="35.19239"><ele>236.0</ele><time>2013-04-26T06:27:28Z</time></trkpt>
<trkpt lat="33.00832" lon="35.1925"><ele>237.0</ele><time>2013-04-26T06:27:33Z</time></trkpt>
<trkpt lat="33.00833" lon="35.19261"><ele>238.0</ele><time>2013-04-26T06:27:38Z</time></trkpt>
<trkpt lat="33.00834" lon="35.19272"><ele>238.0</ele><time>2013-04-26T06:27:43Z</time></trkpt>
<trkpt lat="33.00836" lon="35.19284"><ele>239.0</ele><time>2013-04-26T06:27:47Z</time></trkpt>
<trkpt lat="33.00838" lon="35.19295"><ele>239.0</ele><time>2013-04-26T06:27:52Z</time></trkpt>
<trkpt lat="33.0084" lon="35.19306"><ele>240.0</ele><time>2013-04-26T06:27:57Z</time></trkpt>
<trkpt lat="33.00842" lon="35.19316"><ele>240.0</ele><time>2013-04-26T06:28:03Z</time></trkpt>
<trkpt lat="33.00843" lon="35.19327"><ele>240.0</ele><time>2013-04-26T06:28:08Z</time></trkpt>
<trkpt lat="33.00845" lon="35.19338"><ele>241.0</ele><time>2013-04-26T06:28:13Z</time></trkpt>
<trkpt lat="33.00847" lon="35.19348"><ele>242.0</ele><time>2013-04-26T06:28:18Z</time></trkpt>
<trkpt lat="33.00849" lon="35.19359"><ele>243.0</ele><time>2013-04-26T06:28:23Z</time></trkpt>
<trkpt lat="33.0085" lon="35.19369"><ele>243.0</ele><time>2013-04-26T06:28:28Z</time></trkpt>
<trkpt lat="33.00852" lon="35.1938"><ele>243.0</ele><time>2013-04-26T06:28:33Z</time></trkpt>
<trkpt lat="33.00854" lon="35.19391"><ele>244.0</ele><time>2013-04-26T06:28:38Z</time></trkpt>
<trkpt lat="33.00855" lon="35.19401"><ele>244.0</ele><time>2013-04-26T06:28:43Z</time></trkpt>
<trkpt lat="33.00857" lon="35.19411"><ele>244.0</ele><time>2013-04-26T06:28:47Z</time></trkpt>
<trkpt lat="33.00859" lon="35.19421"><ele>245.0</ele><time>2013-04-26T06:28:52Z</time></trkpt>
<trkpt lat="33.00862" lon="35.19431"><ele>246.0</ele><time>2013-04-26T06:28:57Z</time></trkpt>
<trkpt lat="33.00865" lon="35.1944"><ele>247.0</ele><time>2013-04-26T06:29:03Z</time></trkpt>
<trkpt lat="33.00869" lon="35.19449"><ele>247.0</ele><time>2013-04-26T06:29:08Z</time></trkpt>
<trkpt lat="33.00873" lon="35.19458"><ele>247.0</ele><time>2013-04-26T06:29:13Z</time></trkpt>
<trkpt lat="33.00878" lon="35.19467"><ele>248.0</ele><time>2013-04-26T06:29:18Z</time></trkpt>
<trkpt lat="33.00882" lon="35.19475"><ele>248.0</ele><time>2013-04-26T06:29:23Z</time></trkpt>
<trkpt lat="33.00887" lon="35.19484"><ele>248.0</ele><time>2013-04-26T06:29:28Z</time></trkpt>
<trkpt lat="33.00892" lon="35.19493"><ele>249.0</ele><time>2013-04-26T06:29:33Z</time></trkpt>
<trkpt lat="33.00896" lon="35.19502"><ele>250.0</ele><time>2013-04-26T06:29:38Z</time></trkpt>
<trkpt lat="33.00901" lon="35.19512"><ele>251.0</ele><time>2013-04-26T06:29:43Z</time></trkpt>
<trkpt lat="33.00905" lon="35.19521"><ele>251.0</ele><time>2013-04-26T06:29:48Z</time></trkpt>
<trkpt lat="33.00908" lon="35.19531"><ele>252.0</ele><time>2013-04-26T06:29:53Z</time></trkpt>
<trkpt lat="33.00912" lon="35.19541"><ele>252.0</ele><time>2013-04-26T06:29:58Z</time></trkpt>
<trkpt lat="33.00915" lon="35.19552"><ele>253.0</ele><time>2013-04-26T06:30:04Z</time></trkpt>
<trkpt lat="33.00918" lon="35.19562"><ele>253.0</ele><time>2013-04-26T06:30:09Z</time></trkpt>
<trkpt lat="33.00921" lon="35.19572"><ele>254.0</ele><time>2013-04-26T06:30:14Z</time></trkpt>
<trkpt lat="33.00925" lon="35.19582"><ele>255.0</ele><time>2013-04-26T06:30:19Z</time></trkpt>
<trkpt lat="33.00928" lon="35.19592"><ele>256.0</ele><time>2013-04-26T06:30:24Z</time></trkpt>
<trkpt lat="33.00931" lon="35.19601"><ele>257.0</ele><time>2013-04-26T06:30:29Z</time></trkpt>
<trkpt lat="33.00934" lon="35.19611"><ele>257.0</ele><time>2013-04-26T06:30:34Z</time></trkpt>
<trkpt lat="33.00937" lon="35.1962"><ele>257.0</ele><time>2013-04-26T06:30:39Z</time></trkpt>
<trkpt lat="33.00939" lon="35.1963"><ele>258.0</ele><time>2013-04-26T06:30:43Z</time></trkpt>
<trkpt lat="33.00942" lon="35.1964"><ele>258.0</ele><time>2013-04-26T06:30:48Z</time></trkpt>
<trkpt lat="33.00946" lon="35.19649"><ele>258.0</ele><time>2013-04-26T06:30:53Z</time></trkpt>
<trkpt lat="33.00948" lon="35.19659"><ele>259.0</ele><time>2013-04-26T06:30:58Z</time></trkpt>
<trkpt lat="33.00951" lon="35.19669"><ele>260.0</ele><time>2013-04-26T06:31:04Z</time></trkpt>
<trkpt lat="33.00953" lon="35.19679"><ele>261.0</ele><time>2013-04-26T06:31:09Z</time></trkpt>
<trkpt lat="33.00956" lon="35.19689"><ele>261.0</ele><time>2013-04-26T06:31:14Z</time></trkpt>
<trkpt lat="33.00958" lon="35.197"><ele>262.0</ele><time>2013-04-26T06:31:19Z</time></trkpt>
<trkpt lat="33.00959" lon="35.19711"><ele>262.0</ele><time>2013-04-26T06:31:24Z</time></trkpt>
<trkpt lat="33.0096" lon="35.19722"><ele>263.0</ele><time>2013-04-26T06:31:29Z</time></trkpt>
<trkpt lat="33.0096" lon="35.19733"><ele>263.0</ele><time>2013-04-26T06:31:34Z</time></trkpt>
<trkpt lat="33.00959" lon="35.19744"><ele>264.0</ele><time>2013-04-26T06:31:39Z</time></trkpt>
<trkpt lat="33.00958" lon="35.19755"><ele>266.0</ele><time>2013-04-26T06:31:43Z</time></trkpt>
<trkpt lat="33.00957" lon="35.19765"><ele>267.0</ele><time>2013-04-26T06:31:48Z</time></trkpt>
<trkpt lat="33.00956" lon="35.19776"><ele>268.0</ele><time>2013-04-26T06:31:53Z</time></trkpt>
<trkpt lat="33.00955" lon="35.19786"><ele>268.0</ele><time>2013-04-26T06:31:58Z</time></trkpt>
<trkpt lat="33.00954" lon="35.19797"><ele>269.0</ele><time>2013-04-26T06:32:04Z</time></trkpt>
<trkpt lat="33.00953" lon="35.19807"><ele>269.0</ele><time>2013-04-26T06:32:09Z</time></trkpt>
<trkpt lat="33.00951" lon="35.19818"><ele>270.0</ele><time>2013-04-26T06:32:14Z</time></trkpt>
<trkpt lat="33.0095" lon="35.19828"><ele>271.0</ele><time>2013-04-26T06:32:19Z</time></trkpt>
<trkpt lat="33.00948" lon="35.19839"><ele>272.0</ele><time>2013-04-26T06:32:24Z</time></trkpt>
<trkpt lat="33.00946" lon="35.1985"><ele>272.0</ele><time>2013-04-26T06:32:29Z</time></trkpt>
<trkpt lat="33.00944" lon="35.1986"><ele>273.0</ele><time>2013-04-26T06:32:34Z</time></trkpt>
<trkpt lat="33.00941" lon="35.1987"><ele>273.0</ele><time>2013-04-26T06:32:39Z</time></trkpt>
<trkpt lat="33.00938" lon="35.1988"><ele>273.0</ele><time>2013-04-26T06:32:43Z</time></trkpt>
<trkpt lat="33.00936" lon="35.19891"><ele>273.0</ele><time>2013-04-26T06:32:48Z</time></trkpt>
<trkpt lat="33.00933" lon="35.19901"><ele>274.0</ele><time>2013-04-26T06:32:53Z</time></trkpt>
<trkpt lat="33.0093" lon="35.19911"><ele>274.0</ele><time>2013-04-26T06:32:58Z</time></trkpt>
<trkpt lat="33.00928" lon="35.19921"><ele>274.0</ele><time>2013-04-26T06:33:04Z</time></trkpt>
<trkpt lat="33.00925" lon="35.19931"><ele>275.0</ele><time>2013-04-26T06:33:09Z</time></trkpt>
<trkpt lat="33.00921" lon="35.19941"><ele>275.0</ele><time>2013-04-26T06:33:14Z</time></trkpt>
<trkpt lat="33.00917" lon="35.1995"><ele>275.0</ele><time>2013-04-26T06:33:19Z</time></trkpt>
<trkpt lat="33.00911" lon="35.19958"><ele>275.0</ele><time>2013-04-26T06:33:24Z</time></trkpt>
<trkpt lat="33.00905" lon="35.19966"><ele>275.0</ele><time>2013-04-26T06:33:29Z</time></trkpt>
<trkpt lat="33.00898" lon="35.19972"><ele>276.0</ele><time>2013-04-26T06:33:34Z</time></trkpt>
<trkpt lat="33.00892" lon="35.1998"><ele>276.0</ele><time>2013-04-26T06:33:39Z</time></trkpt>
<trkpt lat="33.00885" lon="35.19987"><ele>277.0</ele><time>2013-04-26T06:33:43Z</time></trkpt>
<trkpt lat="33.00878" lon="35.19995"><ele>277.0</ele><time>2013-04-26T06:33:48Z</time></trkpt>
<trkpt lat="33.00871" lon="35.20002"><ele>278.0</ele><time>2013-04-26T06:33:53Z</time></trkpt>
<trkpt lat="33.00864" lon="35.20009"><ele>278.0</ele><time>2013-04-26T06:33:58Z</time></trkpt>
<trkpt lat="33.00856" lon="35.20017"><ele>278.0</ele><time>2013-04-26T06:34:04Z</time></trkpt>
<trkpt lat="33.0085" lon="35.20023"><ele>279.0</ele><time>2013-04-26T06:34:08Z</time></trkpt>
<trkpt lat="33.00843" lon="35.20031"><ele>280.0</ele><time>2013-04-26T06:34:13Z</time></trkpt>
<trkpt lat="33.00835" lon="35.2004"><ele>280.0</ele><time>2013-04-26T06:34:18Z</time></trkpt>
<trkpt lat="33.00829" lon="35.20046"><ele>280.0</ele><time>2013-04-26T06:34:22Z</time></trkpt>
<trkpt lat="33.00823" lon="35.20052"><ele>280.0</ele><time>2013-04-26T06:34:26Z</time></trkpt>
<trkpt lat="33.00817" lon="35.20058"><ele>280.0</ele><time>2013-04-26T06:34:30Z</time></trkpt>
<trkpt lat="33.00811" lon="35.20065"><ele>280.0</ele><time>2013-04-26T06:34:34Z</time></trkpt>
<trkpt lat="33.00805" lon="35.20072"><ele>280.0</ele><time>2013-04-26T06:34:38Z</time></trkpt>
<trkpt lat="33.00798" lon="35.20079"><ele>279.0</ele><time>2013-04-26T06:34:42Z</time></trkpt>
<trkpt lat="33.00792" lon="35.20086"><ele>279.0</ele><time>2013-04-26T06:34:45Z</time></trkpt>
<trkpt lat="33.00785" lon="35.20093"><ele>279.0</ele><time>2013-04-26T06:34:49Z</time></trkpt>
<trkpt lat="33.00779" lon="35.201"><ele>279.0</ele><time>2013-04-26T06:34:53Z</time></trkpt>
<trkpt lat="33.00773" lon="35.20106"><ele>279.0</ele><time>2013-04-26T06:34:57Z</time></trkpt>
<trkpt lat="33.00767" lon="35.20113"><ele>279.0</ele><time>2013-04-26T06:35:02Z</time></trkpt>
<trkpt lat="33.00761" lon="35.20119"><ele>279.0</ele><time>2013-04-26T06:35:06Z</time></trkpt>
<trkpt lat="33.00754" lon="35.20126"><ele>279.0</ele><time>2013-04-26T06:35:10Z</time></trkpt>
<trkpt lat="33.00748" lon="35.20132"><ele>280.0</ele><time>2013-04-26T06:35:14Z</time></trkpt>
<trkpt lat="33.00741" lon="35.20139"><ele>280.0</ele><time>2013-04-26T06:35:18Z</time></trkpt>
<trkpt lat="33.00735" lon="35.20146"><ele>280.0</ele><time>2013-04-26T06:35:22Z</time></trkpt>
<trkpt lat="33.00728" lon="35.20154"><ele>281.0</ele><time>2013-04-26T06:35:27Z</time></trkpt>
<trkpt lat="33.00722" lon="35.2016"><ele>281.0</ele><time>2013-04-26T06:35:31Z</time></trkpt>
<trkpt lat="33.00715" lon="35.20167"><ele>281.0</ele><time>2013-04-26T06:35:35Z</time></trkpt>
<trkpt lat="33.0071" lon="35.20174"><ele>281.0</ele><time>2013-04-26T06:35:39Z</time></trkpt>
<trkpt lat="33.00704" lon="35.20181"><ele>282.0</ele><time>2013-04-26T06:35:43Z</time></trkpt>
<trkpt lat="33.00699" lon="35.20188"><ele>282.0</ele><time>2013-04-26T06:35:46Z</time></trkpt>
<trkpt lat="33.00693" lon="35.20196"><ele>283.0</ele><time>2013-04-26T06:35:50Z</time></trkpt>
<trkpt lat="33.00688" lon="35.20204"><ele>283.0</ele><time>2013-04-26T06:35:54Z</time></trkpt>
<trkpt lat="33.00683" lon="35.20212"><ele>283.0</ele><time>2013-04-26T06:35:58Z</time></trkpt>
<trkpt lat="33.00678" lon="35.2022"><ele>284.0</ele><time>2013-04-26T06:36:03Z</time></trkpt>
<trkpt lat="33.00674" lon="35.20228"><ele>284.0</ele><time>2013-04-26T06:36:07Z</time></trkpt>
<trkpt lat="33.00669" lon="35.20236"><ele>285.0</ele><time>2013-04-26T06:36:11Z</time></trkpt>
<trkpt lat="33.00665" lon="35.20246"><ele>285.0</ele><time>2013-04-26T06:36:16Z</time></trkpt>
<trkpt lat="33.00661" lon="35.20256"><ele>286.0</ele><time>2013-04-26T06:36:21Z</time></trkpt>
<trkpt lat="33.00658" lon="35.20266"><ele>287.0</ele><time>2013-04-26T06:36:26Z</time></trkpt>
<trkpt lat="33.00656" lon="35.20276"><ele>287.0</ele><time>2013-04-26T06:36:31Z</time></trkpt>
<trkpt lat="33.00654" lon="35.20287"><ele>288.0</ele><time>2013-04-26T06:36:36Z</time></trkpt>
<trkpt lat="33.00651" lon="35.20298"><ele>288.0</ele><time>2013-04-26T06:36:41Z</time></trkpt>
<trkpt lat="33.00649" lon="35.20308"><ele>288.0</ele><time>2013-04-26T06:36:45Z</time></trkpt>
<trkpt lat="33.00647" lon="35.20318"><ele>288.0</ele><time>2013-04-26T06:36:50Z</time></trkpt>
<trkpt lat="33.00645" lon="35.20329"><ele>289.0</ele><time>2013-04-26T06:36:55Z</time></trkpt>
<trkpt lat="33.00643" lon="35.20339"><ele>289.0</ele><time>2013-04-26T06:37:01Z</time></trkpt>
<trkpt lat="33.00641" lon="35.2035"><ele>290.0</ele><time>2013-04-26T06:37:06Z</time></trkpt>
<trkpt lat="33.0064" lon="35.20361"><ele>291.0</ele><time>2013-04-26T06:37:11Z</time></trkpt>
<trkpt lat="33.00638" lon="35.20371"><ele>291.0</ele><time>2013-04-26T06:37:16Z</time></trkpt>
<trkpt lat="33.00637" lon="35.20382"><ele>292.0</ele><time>2013-04-26T06:37:21Z</time></trkpt>
<trkpt lat="33.00635" lon="35.20392"><ele>292.0</ele><time>2013-04-26T06:37:26Z</time></trkpt>
<trkpt lat="33.00634" lon="35.20403"><ele>293.0</ele><time>2013-04-26T06:37:31Z</time></trkpt>
<trkpt lat="33.00632" lon="35.20414"><ele>293.0</ele><time>2013-04-26T06:37:36Z</time></trkpt>
<trkpt lat="33.00631" lon="35.20424"><ele>294.0</ele><time>2013-04-26T06:37:41Z</time></trkpt>
<trkpt lat="33.00629" lon="35.20435"><ele>295.0</ele><time>2013-04-26T06:37:45Z</time></trkpt>
<trkpt lat="33.00628" lon="35.20446"><ele>296.0</ele><time>2013-04-26T06:37:50Z</time></trkpt>
<trkpt lat="33.00626" lon="35.20457"><ele>296.0</ele><time>2013-04-26T06:37:55Z</time></trkpt>
<trkpt lat="33.00625" lon="35.20468"><ele>297.0</ele><time>2013-04-26T06:38:01Z</time></trkpt>
<trkpt lat="33.00623" lon="35.20479"><ele>297.0</ele><time>2013-04-26T06:38:06Z</time></trkpt>
<trkpt lat="33.00621" lon="35.20489"><ele>297.0</ele><time>2013-04-26T06:38:11Z</time></trkpt>
<trkpt lat="33.0062" lon="35.20501"><ele>298.0</ele><time>2013-04-26T06:38:16Z</time></trkpt>
<trkpt lat="33.00619" lon="35.20512"><ele>299.0</ele><time>2013-04-26T06:38:21Z</time></trkpt>
<trkpt lat="33.00619" lon="35.20524"><ele>300.0</ele><time>2013-04-26T06:38:26Z</time></trkpt>
<trkpt lat="33.00617" lon="35.20535"><ele>300.0</ele><time>2013-04-26T06:38:31Z</time></trkpt>
<trkpt lat="33.00617" lon="35.20547"><ele>300.0</ele><time>2013-04-26T06:38:36Z</time></trkpt>
<trkpt lat="33.00615" lon="35.20559"><ele>301.0</ele><time>2013-04-26T06:38:41Z</time></trkpt>
<trkpt lat="33.00614" lon="35.2057"><ele>301.0</ele><time>2013-04-26T06:38:45Z</time></trkpt>
<trkpt lat="33.00614" lon="35.20582"><ele>302.0</ele><time>2013-04-26T06:38:50Z</time></trkpt>
<trkpt lat="33.00614" lon="35.20592"><ele>303.0</ele><time>2013-04-26T06:38:55Z</time></trkpt>
<trkpt lat="33.00615" lon="35.20603"><ele>304.0</ele><time>2013-04-26T06:39:01Z</time></trkpt>
<trkpt lat="33.00617" lon="35.20613"><ele>304.0</ele><time>2013-04-26T06:39:06Z</time></trkpt>
<trkpt lat="33.00618" lon="35.20624"><ele>305.0</ele><time>2013-04-26T06:39:11Z</time></trkpt>
<trkpt lat="33.00619" lon="35.20635"><ele>305.0</ele><time>2013-04-26T06:39:16Z</time></trkpt>
<trkpt lat="33.00621" lon="35.20645"><ele>306.0</ele><time>2013-04-26T06:39:21Z</time></trkpt>
<trkpt lat="33.00621" lon="35.20656"><ele>306.0</ele><time>2013-04-26T06:39:26Z</time></trkpt>
<trkpt lat="33.00623" lon="35.20667"><ele>307.0</ele><time>2013-04-26T06:39:31Z</time></trkpt>
<trkpt lat="33.00623" lon="35.20677"><ele>308.0</ele><time>2013-04-26T06:39:36Z</time></trkpt>
<trkpt lat="33.00624" lon="35.20688"><ele>309.0</ele><time>2013-04-26T06:39:41Z</time></trkpt>
<trkpt lat="33.00626" lon="35.20699"><ele>309.0</ele><time>2013-04-26T06:39:45Z</time></trkpt>
<trkpt lat="33.00627" lon="35.20709"><ele>309.0</ele><time>2013-04-26T06:39:50Z</time></trkpt>
<trkpt lat="33.00628" lon="35.20719"><ele>309.0</ele><time>2013-04-26T06:39:56Z</time></trkpt>
<trkpt lat="33.00629" lon="35.2073"><ele>310.0</ele><time>2013-04-26T06:40:03Z</time></trkpt>
<trkpt lat="33.0063" lon="35.2074"><ele>310.0</ele><time>2013-04-26T06:40:08Z</time></trkpt>
<trkpt lat="33.00631" lon="35.2075"><ele>311.0</ele><time>2013-04-26T06:40:13Z</time></trkpt>
<trkpt lat="33.00633" lon="35.20761"><ele>311.0</ele><time>2013-04-26T06:40:19Z</time></trkpt>
<trkpt lat="33.00634" lon="35.20773"><ele>312.0</ele><time>2013-04-26T06:40:25Z</time></trkpt>
<trkpt lat="33.00635" lon="35.20782"><ele>312.0</ele><time>2013-04-26T06:40:30Z</time></trkpt>
<trkpt lat="33.00636" lon="35.20792"><ele>313.0</ele><time>2013-04-26T06:40:35Z</time></trkpt>
<trkpt lat="33.00637" lon="35.20803"><ele>313.0</ele><time>2013-04-26T06:40:41Z</time></trkpt>
<trkpt lat="33.00638" lon="35.20812"><ele>314.0</ele><time>2013-04-26T06:40:46Z</time></trkpt>
<trkpt lat="33.00639" lon="35.20823"><ele>314.0</ele><time>2013-04-26T06:40:52Z</time></trkpt>
<trkpt lat="33.00641" lon="35.20834"><ele>315.0</ele><time>2013-04-26T06:40:58Z</time></trkpt>
<trkpt lat="33.00643" lon="35.20843"><ele>316.0</ele><time>2013-04-26T06:41:04Z</time></trkpt>
<trkpt lat="33.00644" lon="35.20853"><ele>316.0</ele><time>2013-04-26T06:41:09Z</time></trkpt>
<trkpt lat="33.00646" lon="35.20863"><ele>317.0</ele><time>2013-04-26T06:41:14Z</time></trkpt>
<trkpt lat="33.00648" lon="35.20875"><ele>317.0</ele><time>2013-04-26T06:41:19Z</time></trkpt>
<trkpt lat="33.00649" lon="35.20887"><ele>317.0</ele><time>2013-04-26T06:41:24Z</time></trkpt>
<trkpt lat="33.00648" lon="35.20896"><ele>317.0</ele><time>2013-04-26T06:41:29Z</time></trkpt>
<trkpt lat="33.00649" lon="35.20907"><ele>318.0</ele><time>2013-04-26T06:41:34Z</time></trkpt>
<trkpt lat="33.0065" lon="35.20917"><ele>318.0</ele><time>2013-04-26T06:41:39Z</time></trkpt>
<trkpt lat="33.0065" lon="35.20927"><ele>319.0</ele><time>2013-04-26T06:41:43Z</time></trkpt>
<trkpt lat="33.0065" lon="35.20938"><ele>319.0</ele><time>2013-04-26T06:41:49Z</time></trkpt>
<trkpt lat="33.00652" lon="35.20949"><ele>319.0</ele><time>2013-04-26T06:42:21Z</time></trkpt>
<trkpt lat="33.00649" lon="35.2096"><ele>320.0</ele><time>2013-04-26T06:42:27Z</time></trkpt>
<trkpt lat="33.0065" lon="35.2097"><ele>320.0</ele><time>2013-04-26T06:42:33Z</time></trkpt>
<trkpt lat="33.0065" lon="35.2098"><ele>320.0</ele><time>2013-04-26T06:42:38Z</time></trkpt>
<trkpt lat="33.00651" lon="35.20991"><ele>320.0</ele><time>2013-04-26T06:42:43Z</time></trkpt>
<trkpt lat="33.00651" lon="35.21001"><ele>321.0</ele><time>2013-04-26T06:42:49Z</time></trkpt>
<trkpt lat="33.00651" lon="35.21012"><ele>322.0</ele><time>2013-04-26T06:42:54Z</time></trkpt>
<trkpt lat="33.00652" lon="35.21022"><ele>322.0</ele><time>2013-04-26T06:42:59Z</time></trkpt>
<trkpt lat="33.00651" lon="35.21032"><ele>323.0</ele><time>2013-04-26T06:43:05Z</time></trkpt>
<trkpt lat="33.00652" lon="35.21043"><ele>324.0</ele><time>2013-04-26T06:43:10Z</time></trkpt>
<trkpt lat="33.00652" lon="35.21053"><ele>324.0</ele><time>2013-04-26T06:43:15Z</time></trkpt>
<trkpt lat="33.00653" lon="35.21064"><ele>325.0</ele><time>2013-04-26T06:43:20Z</time></trkpt>
<trkpt lat="33.00654" lon="35.21074"><ele>325.0</ele><time>2013-04-26T06:43:25Z</time></trkpt>
<trkpt lat="33.00653" lon="35.21084"><ele>326.0</ele><time>2013-04-26T06:43:30Z</time></trkpt>
<trkpt lat="33.00652" lon="35.21095"><ele>328.0</ele><time>2013-04-26T06:43:36Z</time></trkpt>
<trkpt lat="33.00652" lon="35.21105"><ele>329.0</ele><time>2013-04-26T06:43:41Z</time></trkpt>
<trkpt lat="33.0065" lon="35.21115"><ele>330.0</ele><time>2013-04-26T06:43:46Z</time></trkpt>
<trkpt lat="33.00651" lon="35.21126"><ele>330.0</ele><time>2013-04-26T06:43:50Z</time></trkpt>
<trkpt lat="33.0065" lon="35.21137"><ele>331.0</ele><time>2013-04-26T06:43:54Z</time></trkpt>
<trkpt lat="33.00648" lon="35.21147"><ele>331.0</ele><time>2013-04-26T06:43:59Z</time></trkpt>
<trkpt lat="33.00646" lon="35.21157"><ele>332.0</ele><time>2013-04-26T06:44:05Z</time></trkpt>
<trkpt lat="33.00645" lon="35.21167"><ele>332.0</ele><time>2013-04-26T06:44:10Z</time></trkpt>
<trkpt lat="33.00643" lon="35.21177"><ele>333.0</ele><time>2013-04-26T06:44:15Z</time></trkpt>
<trkpt lat="33.00642" lon="35.21187"><ele>334.0</ele><time>2013-04-26T06:44:21Z</time></trkpt>
<trkpt lat="33.00641" lon="35.21199"><ele>335.0</ele><time>2013-04-26T06:44:26Z</time></trkpt>
<trkpt lat="33.00638" lon="35.21209"><ele>335.0</ele><time>2013-04-26T06:44:32Z</time></trkpt>
<trkpt lat="33.00634" lon="35.21218"><ele>335.0</ele><time>2013-04-26T06:44:38Z</time></trkpt>
<trkpt lat="33.00631" lon="35.21227"><ele>336.0</ele><time>2013-04-26T06:44:43Z</time></trkpt>
<trkpt lat="33.00627" lon="35.21236"><ele>336.0</ele><time>2013-04-26T06:44:50Z</time></trkpt>
<trkpt lat="33.0062" lon="35.21245"><ele>336.0</ele><time>2013-04-26T06:44:57Z</time></trkpt>
<trkpt lat="33.00614" lon="35.21252"><ele>337.0</ele><time>2013-04-26T06:45:04Z</time></trkpt>
<trkpt lat="33.00609" lon="35.2126"><ele>338.0</ele><time>2013-04-26T06:45:10Z</time></trkpt>
<trkpt lat="33.00603" lon="35.21269"><ele>339.0</ele><time>2013-04-26T06:45:16Z</time></trkpt>
<trkpt lat="33.00597" lon="35.21278"><ele>339.0</ele><time>2013-04-26T06:45:22Z</time></trkpt>
<trkpt lat="33.00592" lon="35.21285"><ele>340.0</ele><time>2013-04-26T06:45:27Z</time></trkpt>
<trkpt lat="33.00586" lon="35.21295"><ele>340.0</ele><time>2013-04-26T06:45:32Z</time></trkpt>
<trkpt lat="33.0058" lon="35.21303"><ele>341.0</ele><time>2013-04-26T06:45:38Z</time></trkpt>
<trkpt lat="33.00575" lon="35.21311"><ele>341.0</ele><time>2013-04-26T06:45:43Z</time></trkpt>
<trkpt lat="33.0057" lon="35.21319"><ele>340.0</ele><time>2013-04-26T06:45:47Z</time></trkpt>
<trkpt lat="33.00566" lon="35.21329"><ele>340.0</ele><time>2013-04-26T06:45:51Z</time></trkpt>
<trkpt lat="33.00561" lon="35.21339"><ele>340.0</ele><time>2013-04-26T06:45:56Z</time></trkpt>
<trkpt lat="33.00553" lon="35.21345"><ele>340.0</ele><time>2013-04-26T06:46:03Z</time></trkpt>
<trkpt lat="33.00545" lon="35.2135"><ele>340.0</ele><time>2013-04-26T06:46:08Z</time></trkpt>
<trkpt lat="33.00537" lon="35.21356"><ele>339.0</ele><time>2013-04-26T06:46:12Z</time></trkpt>
<trkpt lat="33.00531" lon="35.21363"><ele>340.0</ele><time>2013-04-26T06:46:16Z</time></trkpt>
<trkpt lat="33.00529" lon="35.21375"><ele>340.0</ele><time>2013-04-26T06:46:21Z</time></trkpt>
<trkpt lat="33.00533" lon="35.21384"><ele>340.0</ele><time>2013-04-26T06:46:26Z</time></trkpt>
<trkpt lat="33.00539" lon="35.21392"><ele>340.0</ele><time>2013-04-26T06:46:31Z</time></trkpt>
<trkpt lat="33.00545" lon="35.214"><ele>341.0</ele><time>2013-04-26T06:46:37Z</time></trkpt>
<trkpt lat="33.0055" lon="35.21408"><ele>342.0</ele><time>2013-04-26T06:46:43Z</time></trkpt>
<trkpt lat="33.00554" lon="35.21417"><ele>343.0</ele><time>2013-04-26T06:46:48Z</time></trkpt>
<trkpt lat="33.00561" lon="35.21426"><ele>345.0</ele><time>2013-04-26T06:46:54Z</time></trkpt>
<trkpt lat="33.00566" lon="35.21434"><ele>345.0</ele><time>2013-04-26T06:47:01Z</time></trkpt>
<trkpt lat="33.00573" lon="35.21441"><ele>346.0</ele><time>2013-04-26T06:47:07Z</time></trkpt>
<trkpt lat="33.00579" lon="35.21448"><ele>347.0</ele><time>2013-04-26T06:47:12Z</time></trkpt>
<trkpt lat="33.00585" lon="35.21455"><ele>347.0</ele><time>2013-04-26T06:47:18Z</time></trkpt>
<trkpt lat="33.00589" lon="35.21465"><ele>348.0</ele><time>2013-04-26T06:47:23Z</time></trkpt>
<trkpt lat="33.00591" lon="35.21476"><ele>348.0</ele><time>2013-04-26T06:47:29Z</time></trkpt>
<trkpt lat="33.00594" lon="35.21485"><ele>348.0</ele><time>2013-04-26T06:47:34Z</time></trkpt>
<trkpt lat="33.00594" lon="35.21495"><ele>349.0</ele><time>2013-04-26T06:47:40Z</time></trkpt>
<trkpt lat="33.00586" lon="35.21501"><ele>349.0</ele><time>2013-04-26T06:47:47Z</time></trkpt>
<trkpt lat="33.00578" lon="35.21506"><ele>349.0</ele><time>2013-04-26T06:47:53Z</time></trkpt>
<trkpt lat="33.00571" lon="35.21511"><ele>349.0</ele><time>2013-04-26T06:47:58Z</time></trkpt>
<trkpt lat="33.00563" lon="35.21517"><ele>349.0</ele><time>2013-04-26T06:48:05Z</time></trkpt>
<trkpt lat="33.00555" lon="35.21525"><ele>349.0</ele><time>2013-04-26T06:48:10Z</time></trkpt>
<trkpt lat="33.00549" lon="35.21534"><ele>350.0</ele><time>2013-04-26T06:48:15Z</time></trkpt>
<trkpt lat="33.00541" lon="35.21537"><ele>350.0</ele><time>2013-04-26T06:48:23Z</time></trkpt>
<trkpt lat="33.00532" lon="35.21539"><ele>350.0</ele><time>2013-04-26T06:48:28Z</time></trkpt>
<trkpt lat="33.00523" lon="35.21545"><ele>350.0</ele><time>2013-04-26T06:48:32Z</time></trkpt>
<trkpt lat="33.00516" lon="35.21552"><ele>350.0</ele><time>2013-04-26T06:48:36Z</time></trkpt>
<trkpt lat="33.00508" lon="35.21549"><ele>350.0</ele><time>2013-04-26T06:48:42Z</time></trkpt>
</trkseg></trk></gpx>