<?xml version="1.0" encoding="utf-8"?>
<gpx version="1.1"><trk><trkseg>
<trkpt lat="33.00496" lon="35.21569"><ele>353.0</ele><time>2013-06-26T13:49:00Z</time></trkpt>
<trkpt lat="33.00499" lon="35.21559"><ele>353.0</ele><time>2013-06-26T13:49:10Z</time></trkpt>
<trkpt lat="33.005" lon="35.21549"><ele>352.0</ele><time>2013-06-26T13:49:19Z</time></trkpt>
<trkpt lat="33.00506" lon="35.21557"><ele>351.0</ele><time>2013-06-26T13:50:57Z</time></trkpt>
<trkpt lat="33.00514" lon="35.21562"><ele>351.0</ele><time>2013-06-26T13:51:04Z</time></trkpt>
<trkpt lat="33.00521" lon="35.21555"><ele>351.0</ele><time>2013-06-26T13:51:10Z</time></trkpt>
<trkpt lat="33.00528" lon="35.21548"><ele>351.0</ele><time>2013-06-26T13:51:15Z</time></trkpt>
<trkpt lat="33.00537" lon="35.21544"><ele>351.0</ele><time>2013-06-26T13:51:20Z</time></trkpt>
<trkpt lat="33.00546" lon="35.21545"><ele>350.0</ele><time>2013-06-26T13:51:24Z</time></trkpt>
<trkpt lat="33.00551" lon="35.21536"><ele>350.0</ele><time>2013-06-26T13:51:30Z</time></trkpt>
<trkpt lat="33.00555" lon="35.21528"><ele>350.0</ele><time>2013-06-26T13:51:32Z</time></trkpt>
<trkpt lat="33.00564" lon="35.21519"><ele>349.0</ele><time>2013-06-26T13:51:36Z</time></trkpt>
<trkpt lat="33.00571" lon="35.21514"><ele>349.0</ele><time>2013-06-26T13:51:38Z</time></trkpt>
<trkpt lat="33.0058" lon="35.21509"><ele>349.0</ele><time>2013-06-26T13:51:41Z</time></trkpt>
<trkpt lat="33.00589" lon="35.21503"><ele>349.0</ele><time>2013-06-26T13:51:44Z</time></trkpt>
<trkpt lat="33.00598" lon="35.21498"><ele>349.0</ele><time>2013-06-26T13:51:49Z</time></trkpt>
<trkpt lat="33.00599" lon="35.21487"><ele>348.0</ele><time>2013-06-26T13:51:52Z</time></trkpt>
<trkpt lat="33.00596" lon="35.21475"><ele>348.0</ele><time>2013-06-26T13:51:56Z</time></trkpt>
<trkpt lat="33.00591" lon="35.21466"><ele>348.0</ele><time>2013-06-26T13:52:01Z</time></trkpt>
<trkpt lat="33.00582" lon="35.21457"><ele>347.0</ele><time>2013-06-26T13:52:04Z</time></trkpt>
<trkpt lat="33.00574" lon="35.2145"><ele>347.0</ele><time>2013-06-26T13:52:06Z</time></trkpt>
<trkpt lat="33.00568" lon="35.21443"><ele>346.0</ele><time>2013-06-26T13:52:08Z</time></trkpt>
<trkpt lat="33.00562" lon="35.21434"><ele>344.0</ele><time>2013-06-26T13:52:09Z</time></trkpt>
<trkpt lat="33.00556" lon="35.21425"><ele>344.0</ele><time>2013-06-26T13:52:11Z</time></trkpt>
<trkpt lat="33.00551" lon="35.21415"><ele>343.0</ele><time>2013-06-26T13:52:13Z</time></trkpt>
<trkpt lat="33.00547" lon="35.21404"><ele>343.0</ele><time>2013-06-26T13:52:15Z</time></trkpt>
<trkpt lat="33.00544" lon="35.21391"><ele>343.0</ele><time>2013-06-26T13:52:16Z</time></trkpt>
<trkpt lat="33.00544" lon="35.21378"><ele>343.0</ele><time>2013-06-26T13:52:19Z</time></trkpt>
<trkpt lat="33.00548" lon="35.21365"><ele>343.0</ele><time>2013-06-26T13:52:21Z</time></trkpt>
<trkpt lat="33.00554" lon="35.21352"><ele>342.0</ele><time>2013-06-26T13:52:23Z</time></trkpt>
<trkpt lat="33.00563" lon="35.21338"><ele>341.0</ele><time>2013-06-26T13:52:25Z</time></trkpt>
<trkpt lat="33.00571" lon="35.21327"><ele>341.0</ele><time>2013-06-26T13:52:26Z</time></trkpt>
<trkpt lat="33.00579" lon="35.21316"><ele>341.0</ele><time>2013-06-26T13:52:29Z</time></trkpt>
<trkpt lat="33.00585" lon="35.21308"><ele>341.0</ele><time>2013-06-26T13:52:31Z</time></trkpt>
<trkpt lat="33.00593" lon="35.21297"><ele>340.0</ele><time>2013-06-26T13:52:32Z</time></trkpt>
<trkpt lat="33.00602" lon="35.21284"><ele>339.0</ele><time>2013-06-26T13:52:34Z</time></trkpt>
<trkpt lat="33.00609" lon="35.21269"><ele>338.0</ele><time>2013-06-26T13:52:36Z</time></trkpt>
<trkpt lat="33.00616" lon="35.21255"><ele>337.0</ele><time>2013-06-26T13:52:38Z</time></trkpt>
<trkpt lat="33.00623" lon="35.21241"><ele>337.0</ele><time>2013-06-26T13:52:41Z</time></trkpt>
<trkpt lat="33.00629" lon="35.21229"><ele>336.0</ele><time>2013-06-26T13:52:43Z</time></trkpt>
<trkpt lat="33.00634" lon="35.21218"><ele>335.0</ele><time>2013-06-26T13:52:45Z</time></trkpt>
<trkpt lat="33.00639" lon="35.21204"><ele>334.0</ele><time>2013-06-26T13:52:46Z</time></trkpt>
<trkpt lat="33.00643" lon="35.2119"><ele>333.0</ele><time>2013-06-26T13:52:49Z</time></trkpt>
<trkpt lat="33.00646" lon="35.21175"><ele>333.0</ele><time>2013-06-26T13:52:50Z</time></trkpt>
<trkpt lat="33.00648" lon="35.2116"><ele>332.0</ele><time>2013-06-26T13:52:53Z</time></trkpt>
<trkpt lat="33.00649" lon="35.21144"><ele>331.0</ele><time>2013-06-26T13:52:55Z</time></trkpt>
<trkpt lat="33.00651" lon="35.21128"><ele>330.0</ele><time>2013-06-26T13:52:57Z</time></trkpt>
<trkpt lat="33.00654" lon="35.21113"><ele>329.0</ele><time>2013-06-26T13:53:00Z</time></trkpt>
<trkpt lat="33.00655" lon="35.21097"><ele>328.0</ele><time>2013-06-26T13:53:02Z</time></trkpt>
<trkpt lat="33.00657" lon="35.21081"><ele>326.0</ele><time>2013-06-26T13:53:04Z</time></trkpt>
<trkpt lat="33.00657" lon="35.21066"><ele>325.0</ele><time>2013-06-26T13:53:06Z</time></trkpt>
<trkpt lat="33.00656" lon="35.21051"><ele>324.0</ele><time>2013-06-26T13:53:08Z</time></trkpt>
<trkpt lat="33.00655" lon="35.21037"><ele>324.0</ele><time>2013-06-26T13:53:10Z</time></trkpt>
<trkpt lat="33.00654" lon="35.21024"><ele>323.0</ele><time>2013-06-26T13:53:11Z</time></trkpt>
<trkpt lat="33.00654" lon="35.21014"><ele>322.0</ele><time>2013-06-26T13:53:13Z</time></trkpt>
<trkpt lat="33.00654" lon="35.21003"><ele>321.0</ele><time>2013-06-26T13:53:17Z</time></trkpt>
<trkpt lat="33.00652" lon="35.20991"><ele>320.0</ele><time>2013-06-26T13:53:22Z</time></trkpt>
<trkpt lat="33.00653" lon="35.20979"><ele>320.0</ele><time>2013-06-26T13:53:26Z</time></trkpt>
<trkpt lat="33.00653" lon="35.20965"><ele>320.0</ele><time>2013-06-26T13:53:29Z</time></trkpt>
<trkpt lat="33.00652" lon="35.20954"><ele>320.0</ele><time>2013-06-26T13:53:32Z</time></trkpt>
<trkpt lat="33.0065" lon="35.20942"><ele>319.0</ele><time>2013-06-26T13:53:39Z</time></trkpt>
<trkpt lat="33.0065" lon="35.2093"><ele>319.0</ele><time>2013-06-26T13:53:42Z</time></trkpt>
<trkpt lat="33.00648" lon="35.20919"><ele>318.0</ele><time>2013-06-26T13:53:44Z</time></trkpt>
<trkpt lat="33.00646" lon="35.20908"><ele>318.0</ele><time>2013-06-26T13:53:46Z</time></trkpt>
<trkpt lat="33.00646" lon="35.20895"><ele>317.0</ele><time>2013-06-26T13:53:48Z</time></trkpt>
<trkpt lat="33.00647" lon="35.20883"><ele>317.0</ele><time>2013-06-26T13:53:50Z</time></trkpt>
<trkpt lat="33.00645" lon="35.20871"><ele>317.0</ele><time>2013-06-26T13:53:51Z</time></trkpt>
<trkpt lat="33.00643" lon="35.20859"><ele>316.0</ele><time>2013-06-26T13:53:54Z</time></trkpt>
<trkpt lat="33.00641" lon="35.20846"><ele>315.0</ele><time>2013-06-26T13:53:56Z</time></trkpt>
<trkpt lat="33.00639" lon="35.20833"><ele>315.0</ele><time>2013-06-26T13:53:57Z</time></trkpt>
<trkpt lat="33.00637" lon="35.20818"><ele>314.0</ele><time>2013-06-26T13:54:01Z</time></trkpt>
<trkpt lat="33.00635" lon="35.20803"><ele>313.0</ele><time>2013-06-26T13:54:03Z</time></trkpt>
<trkpt lat="33.00634" lon="35.20788"><ele>313.0</ele><time>2013-06-26T13:54:04Z</time></trkpt>
<trkpt lat="33.00632" lon="35.20772"><ele>312.0</ele><time>2013-06-26T13:54:06Z</time></trkpt>
<trkpt lat="33.0063" lon="35.20757"><ele>311.0</ele><time>2013-06-26T13:54:09Z</time></trkpt>
<trkpt lat="33.00629" lon="35.20741"><ele>311.0</ele><time>2013-06-26T13:54:10Z</time></trkpt>
<trkpt lat="33.00627" lon="35.20726"><ele>310.0</ele><time>2013-06-26T13:54:12Z</time></trkpt>
<trkpt lat="33.00626" lon="35.20711"><ele>309.0</ele><time>2013-06-26T13:54:14Z</time></trkpt>
<trkpt lat="33.00624" lon="35.20695"><ele>308.0</ele><time>2013-06-26T13:54:15Z</time></trkpt>
<trkpt lat="33.00622" lon="35.20679"><ele>308.0</ele><time>2013-06-26T13:54:18Z</time></trkpt>
<trkpt lat="33.0062" lon="35.20663"><ele>307.0</ele><time>2013-06-26T13:54:20Z</time></trkpt>
<trkpt lat="33.00618" lon="35.20647"><ele>306.0</ele><time>2013-06-26T13:54:22Z</time></trkpt>
<trkpt lat="33.00617" lon="35.20631"><ele>305.0</ele><time>2013-06-26T13:54:23Z</time></trkpt>
<trkpt lat="33.00615" lon="35.20617"><ele>305.0</ele><time>2013-06-26T13:54:26Z</time></trkpt>
<trkpt lat="33.00614" lon="35.20605"><ele>304.0</ele><time>2013-06-26T13:54:28Z</time></trkpt>
<trkpt lat="33.00616" lon="35.20593"><ele>303.0</ele><time>2013-06-26T13:54:29Z</time></trkpt>
<trkpt lat="33.00616" lon="35.20581"><ele>302.0</ele><time>2013-06-26T13:54:32Z</time></trkpt>
<trkpt lat="33.00615" lon="35.20567"><ele>302.0</ele><time>2013-06-26T13:54:33Z</time></trkpt>
<trkpt lat="33.00616" lon="35.20552"><ele>301.0</ele><time>2013-06-26T13:54:35Z</time></trkpt>
<trkpt lat="33.00617" lon="35.20537"><ele>300.0</ele><time>2013-06-26T13:54:38Z</time></trkpt>
<trkpt lat="33.00619" lon="35.20521"><ele>299.0</ele><time>2013-06-26T13:54:40Z</time></trkpt>
<trkpt lat="33.0062" lon="35.20505"><ele>298.0</ele><time>2013-06-26T13:54:42Z</time></trkpt>
<trkpt lat="33.00621" lon="35.20488"><ele>298.0</ele><time>2013-06-26T13:54:44Z</time></trkpt>
<trkpt lat="33.00623" lon="35.20472"><ele>297.0</ele><time>2013-06-26T13:54:45Z</time></trkpt>
<trkpt lat="33.00626" lon="35.20457"><ele>296.0</ele><time>2013-06-26T13:54:47Z</time></trkpt>
<trkpt lat="33.0063" lon="35.2044"><ele>295.0</ele><time>2013-06-26T13:54:50Z</time></trkpt>
<trkpt lat="33.00632" lon="35.20424"><ele>294.0</ele><time>2013-06-26T13:54:52Z</time></trkpt>
<trkpt lat="33.00634" lon="35.20407"><ele>293.0</ele><time>2013-06-26T13:54:53Z</time></trkpt>
<trkpt lat="33.00636" lon="35.20391"><ele>293.0</ele><time>2013-06-26T13:54:56Z</time></trkpt>
<trkpt lat="33.00638" lon="35.20375"><ele>291.0</ele><time>2013-06-26T13:54:58Z</time></trkpt>
<trkpt lat="33.0064" lon="35.20359"><ele>291.0</ele><time>2013-06-26T13:55:01Z</time></trkpt>
<trkpt lat="33.00643" lon="35.20343"><ele>290.0</ele><time>2013-06-26T13:55:03Z</time></trkpt>
<trkpt lat="33.00646" lon="35.20326"><ele>289.0</ele><time>2013-06-26T13:55:04Z</time></trkpt>
<trkpt lat="33.00649" lon="35.20309"><ele>289.0</ele><time>2013-06-26T13:55:07Z</time></trkpt>
<trkpt lat="33.00653" lon="35.20291"><ele>287.0</ele><time>2013-06-26T13:55:09Z</time></trkpt>
<trkpt lat="33.00657" lon="35.20273"><ele>287.0</ele><time>2013-06-26T13:55:10Z</time></trkpt>
<trkpt lat="33.00662" lon="35.20255"><ele>286.0</ele><time>2013-06-26T13:55:12Z</time></trkpt>
<trkpt lat="33.00668" lon="35.20239"><ele>285.0</ele><time>2013-06-26T13:55:14Z</time></trkpt>
<trkpt lat="33.00675" lon="35.20225"><ele>284.0</ele><time>2013-06-26T13:55:15Z</time></trkpt>
<trkpt lat="33.00684" lon="35.20211"><ele>284.0</ele><time>2013-06-26T13:55:18Z</time></trkpt>
<trkpt lat="33.00692" lon="35.20197"><ele>283.0</ele><time>2013-06-26T13:55:20Z</time></trkpt>
<trkpt lat="33.00701" lon="35.20185"><ele>282.0</ele><time>2013-06-26T13:55:21Z</time></trkpt>
<trkpt lat="33.00711" lon="35.20174"><ele>282.0</ele><time>2013-06-26T13:55:23Z</time></trkpt>
<trkpt lat="33.0072" lon="35.20164"><ele>281.0</ele><time>2013-06-26T13:55:26Z</time></trkpt>
<trkpt lat="33.00729" lon="35.20154"><ele>280.0</ele><time>2013-06-26T13:55:27Z</time></trkpt>
<trkpt lat="33.00737" lon="35.20145"><ele>280.0</ele><time>2013-06-26T13:55:29Z</time></trkpt>
<trkpt lat="33.00745" lon="35.20136"><ele>279.0</ele><time>2013-06-26T13:55:32Z</time></trkpt>
<trkpt lat="33.00753" lon="35.20128"><ele>279.0</ele><time>2013-06-26T13:55:33Z</time></trkpt>
<trkpt lat="33.00761" lon="35.2012"><ele>279.0</ele><time>2013-06-26T13:55:35Z</time></trkpt>
<trkpt lat="33.00768" lon="35.20113"><ele>279.0</ele><time>2013-06-26T13:55:38Z</time></trkpt>
<trkpt lat="33.00775" lon="35.20106"><ele>279.0</ele><time>2013-06-26T13:55:40Z</time></trkpt>
<trkpt lat="33.00782" lon="35.20098"><ele>279.0</ele><time>2013-06-26T13:55:41Z</time></trkpt>
<trkpt lat="33.0079" lon="35.20091"><ele>279.0</ele><time>2013-06-26T13:55:44Z</time></trkpt>
<trkpt lat="33.00797" lon="35.20084"><ele>280.0</ele><time>2013-06-26T13:55:45Z</time></trkpt>
<trkpt lat="33.00803" lon="35.20076"><ele>280.0</ele><time>2013-06-26T13:55:48Z</time></trkpt>
<trkpt lat="33.0081" lon="35.20069"><ele>280.0</ele><time>2013-06-26T13:55:50Z</time></trkpt>
<trkpt lat="33.00817" lon="35.20062"><ele>280.0</ele><time>2013-06-26T13:55:51Z</time></trkpt>
<trkpt lat="33.00824" lon="35.20054"><ele>280.0</ele><time>2013-06-26T13:55:54Z</time></trkpt>
<trkpt lat="33.00831" lon="35.20047"><ele>280.0</ele><time>2013-06-26T13:55:56Z</time></trkpt>
<trkpt lat="33.00838" lon="35.20039"><ele>280.0</ele><time>2013-06-26T13:55:58Z</time></trkpt>
<trkpt lat="33.00845" lon="35.20031"><ele>279.0</ele><time>2013-06-26T13:55:59Z</time></trkpt>
<trkpt lat="33.00852" lon="35.20023"><ele>279.0</ele><time>2013-06-26T13:56:03Z</time></trkpt>
<trkpt lat="33.0086" lon="35.20015"><ele>278.0</ele><time>2013-06-26T13:56:04Z</time></trkpt>
<trkpt lat="33.00868" lon="35.20007"><ele>278.0</ele><time>2013-06-26T13:56:07Z</time></trkpt>
<trkpt lat="33.00876" lon="35.19999"><ele>277.0</ele><time>2013-06-26T13:56:09Z</time></trkpt>
<trkpt lat="33.00883" lon="35.1999"><ele>277.0</ele><time>2013-06-26T13:56:11Z</time></trkpt>
<trkpt lat="33.00899" lon="35.19973"><ele>276.0</ele><time>2013-06-26T13:56:14Z</time></trkpt>
<trkpt lat="33.00907" lon="35.19964"><ele>275.0</ele><time>2013-06-26T13:56:16Z</time></trkpt>
<trkpt lat="33.00915" lon="35.19955"><ele>275.0</ele><time>2013-06-26T13:56:17Z</time></trkpt>
<trkpt lat="33.00921" lon="35.19943"><ele>275.0</ele><time>2013-06-26T13:56:20Z</time></trkpt>
<trkpt lat="33.00927" lon="35.1993"><ele>274.0</ele><time>2013-06-26T13:56:22Z</time></trkpt>
<trkpt lat="33.00931" lon="35.19917"><ele>274.0</ele><time>2013-06-26T13:56:23Z</time></trkpt>
<trkpt lat="33.00935" lon="35.19902"><ele>274.0</ele><time>2013-06-26T13:56:26Z</time></trkpt>
<trkpt lat="33.00939" lon="35.19887"><ele>273.0</ele><time>2013-06-26T13:56:28Z</time></trkpt>
<trkpt lat="33.00943" lon="35.19872"><ele>272.0</ele><time>2013-06-26T13:56:30Z</time></trkpt>
<trkpt lat="33.00947" lon="35.19856"><ele>272.0</ele><time>2013-06-26T13:56:32Z</time></trkpt>
<trkpt lat="33.0095" lon="35.1984"><ele>271.0</ele><time>2013-06-26T13:56:34Z</time></trkpt>
<trkpt lat="33.00952" lon="35.19824"><ele>270.0</ele><time>2013-06-26T13:56:35Z</time></trkpt>
<trkpt lat="33.00955" lon="35.19807"><ele>269.0</ele><time>2013-06-26T13:56:38Z</time></trkpt>
<trkpt lat="33.00956" lon="35.1979"><ele>268.0</ele><time>2013-06-26T13:56:40Z</time></trkpt>
<trkpt lat="33.00958" lon="35.19774"><ele>267.0</ele><time>2013-06-26T13:56:41Z</time></trkpt>
<trkpt lat="33.00959" lon="35.19757"><ele>266.0</ele><time>2013-06-26T13:56:44Z</time></trkpt>
<trkpt lat="33.00961" lon="35.1974"><ele>264.0</ele><time>2013-06-26T13:56:46Z</time></trkpt>
<trkpt lat="33.00961" lon="35.19723"><ele>263.0</ele><time>2013-06-26T13:56:48Z</time></trkpt>
<trkpt lat="33.00961" lon="35.19705"><ele>262.0</ele><time>2013-06-26T13:56:50Z</time></trkpt>
<trkpt lat="33.00958" lon="35.19688"><ele>261.0</ele><time>2013-06-26T13:56:51Z</time></trkpt>
<trkpt lat="33.00954" lon="35.19671"><ele>260.0</ele><time>2013-06-26T13:56:53Z</time></trkpt>
<trkpt lat="33.00949" lon="35.19654"><ele>259.0</ele><time>2013-06-26T13:56:56Z</time></trkpt>
<trkpt lat="33.00944" lon="35.19636"><ele>258.0</ele><time>2013-06-26T13:56:58Z</time></trkpt>
<trkpt lat="33.00938" lon="35.19619"><ele>257.0</ele><time>2013-06-26T13:56:59Z</time></trkpt>
<trkpt lat="33.00933" lon="35.19603"><ele>256.0</ele><time>2013-06-26T13:57:03Z</time></trkpt>
<trkpt lat="33.00928" lon="35.19587"><ele>255.0</ele><time>2013-06-26T13:57:04Z</time></trkpt>
<trkpt lat="33.00923" lon="35.19571"><ele>254.0</ele><time>2013-06-26T13:57:06Z</time></trkpt>
<trkpt lat="33.00918" lon="35.19555"><ele>253.0</ele><time>2013-06-26T13:57:09Z</time></trkpt>
<trkpt lat="33.00912" lon="35.19538"><ele>252.0</ele><time>2013-06-26T13:57:10Z</time></trkpt>
<trkpt lat="33.00907" lon="35.19521"><ele>251.0</ele><time>2013-06-26T13:57:11Z</time></trkpt>
<trkpt lat="33.009" lon="35.19506"><ele>250.0</ele><time>2013-06-26T13:57:14Z</time></trkpt>
<trkpt lat="33.00892" lon="35.1949"><ele>250.0</ele><time>2013-06-26T13:57:15Z</time></trkpt>
<trkpt lat="33.00883" lon="35.19474"><ele>249.0</ele><time>2013-06-26T13:57:17Z</time></trkpt>
<trkpt lat="33.00879" lon="35.19465"><ele>248.0</ele><time>2013-06-26T13:57:19Z</time></trkpt>
<trkpt lat="33.00871" lon="35.19449"><ele>247.0</ele><time>2013-06-26T13:57:20Z</time></trkpt>
<trkpt lat="33.00867" lon="35.19441"><ele>246.0</ele><time>2013-06-26T13:57:22Z</time></trkpt>
<trkpt lat="33.00863" lon="35.19432"><ele>246.0</ele><time>2013-06-26T13:57:23Z</time></trkpt>
<trkpt lat="33.00858" lon="35.19414"><ele>245.0</ele><time>2013-06-26T13:57:25Z</time></trkpt>
<trkpt lat="33.00854" lon="35.19396"><ele>244.0</ele><time>2013-06-26T13:57:27Z</time></trkpt>
<trkpt lat="33.00851" lon="35.19378"><ele>243.0</ele><time>2013-06-26T13:57:29Z</time></trkpt>
<trkpt lat="33.00849" lon="35.19361"><ele>242.0</ele><time>2013-06-26T13:57:30Z</time></trkpt>
<trkpt lat="33.00846" lon="35.19343"><ele>242.0</ele><time>2013-06-26T13:57:33Z</time></trkpt>
<trkpt lat="33.00843" lon="35.19326"><ele>241.0</ele><time>2013-06-26T13:57:35Z</time></trkpt>
<trkpt lat="33.00841" lon="35.19308"><ele>240.0</ele><time>2013-06-26T13:57:36Z</time></trkpt>
<trkpt lat="33.00838" lon="35.1929"><ele>239.0</ele><time>2013-06-26T13:57:39Z</time></trkpt>
<trkpt lat="33.00835" lon="35.19272"><ele>238.0</ele><time>2013-06-26T13:57:40Z</time></trkpt>
<trkpt lat="33.00832" lon="35.19256"><ele>238.0</ele><time>2013-06-26T13:57:43Z</time></trkpt>
<trkpt lat="33.00831" lon="35.19239"><ele>237.0</ele><time>2013-06-26T13:57:44Z</time></trkpt>
<trkpt lat="33.00832" lon="35.19222"><ele>237.0</ele><time>2013-06-26T13:57:47Z</time></trkpt>
<trkpt lat="33.00835" lon="35.19206"><ele>235.0</ele><time>2013-06-26T13:57:49Z</time></trkpt>
<trkpt lat="33.00837" lon="35.19189"><ele>235.0</ele><time>2013-06-26T13:57:51Z</time></trkpt>
<trkpt lat="33.00839" lon="35.19173"><ele>234.0</ele><time>2013-06-26T13:57:52Z</time></trkpt>
<trkpt lat="33.00842" lon="35.19157"><ele>233.0</ele><time>2013-06-26T13:57:55Z</time></trkpt>
<trkpt lat="33.00844" lon="35.1914"><ele>232.0</ele><time>2013-06-26T13:57:57Z</time></trkpt>
<trkpt lat="33.00847" lon="35.19123"><ele>231.0</ele><time>2013-06-26T13:57:58Z</time></trkpt>
<trkpt lat="33.0085" lon="35.19105"><ele>230.0</ele><time>2013-06-26T13:58:02Z</time></trkpt>
<trkpt lat="33.00852" lon="35.19088"><ele>230.0</ele><time>2013-06-26T13:58:03Z</time></trkpt>
<trkpt lat="33.00855" lon="35.19069"><ele>229.0</ele><time>2013-06-26T13:58:05Z</time></trkpt>
<trkpt lat="33.00857" lon="35.19051"><ele>229.0</ele><time>2013-06-26T13:58:07Z</time></trkpt>
<trkpt lat="33.0086" lon="35.19033"><ele>228.0</ele><time>2013-06-26T13:58:10Z</time></trkpt>
<trkpt lat="33.00863" lon="35.19015"><ele>227.0</ele><time>2013-06-26T13:58:11Z</time></trkpt>
<trkpt lat="33.00865" lon="35.18998"><ele>226.0</ele><time>2013-06-26T13:58:12Z</time></trkpt>
<trkpt lat="33.00867" lon="35.18981"><ele>225.0</ele><time>2013-06-26T13:58:15Z</time></trkpt>
<trkpt lat="33.0087" lon="35.18965"><ele>224.0</ele><time>2013-06-26T13:58:17Z</time></trkpt>
<trkpt lat="33.00873" lon="35.18948"><ele>222.0</ele><time>2013-06-26T13:58:18Z</time></trkpt>
<trkpt lat="33.00876" lon="35.18931"><ele>221.0</ele><time>2013-06-26T13:58:21Z</time></trkpt>
<trkpt lat="33.00879" lon="35.18914"><ele>220.0</ele><time>2013-06-26T13:58:23Z</time></trkpt>
<trkpt lat="33.00882" lon="35.18897"><ele>218.0</ele><time>2013-06-26T13:58:24Z</time></trkpt>
<trkpt lat="33.00886" lon="35.18881"><ele>217.0</ele><time>2013-06-26T13:58:26Z</time></trkpt>
<trkpt lat="33.00889" lon="35.18864"><ele>215.0</ele><time>2013-06-26T13:58:28Z</time></trkpt>
<trkpt lat="33.00893" lon="35.18848"><ele>213.0</ele><time>2013-06-26T13:58:31Z</time></trkpt>
<trkpt lat="33.00896" lon="35.18833"><ele>212.0</ele><time>2013-06-26T13:58:33Z</time></trkpt>
<trkpt lat="33.00899" lon="35.18818"><ele>211.0</ele><time>2013-06-26T13:58:34Z</time></trkpt>
<trkpt lat="33.00902" lon="35.18805"><ele>210.0</ele><time>2013-06-26T13:58:37Z</time></trkpt>
<trkpt lat="33.00904" lon="35.18791"><ele>209.0</ele><time>2013-06-26T13:58:39Z</time></trkpt>
<trkpt lat="33.00906" lon="35.18776"><ele>208.0</ele><time>2013-06-26T13:58:41Z</time></trkpt>
<trkpt lat="33.00908" lon="35.18761"><ele>207.0</ele><time>2013-06-26T13:58:42Z</time></trkpt>
<trkpt lat="33.0091" lon="35.18744"><ele>206.0</ele><time>2013-06-26T13:58:45Z</time></trkpt>
<trkpt lat="33.00913" lon="35.18727"><ele>205.0</ele><time>2013-06-26T13:58:47Z</time></trkpt>
<trkpt lat="33.00916" lon="35.1871"><ele>204.0</ele><time>2013-06-26T13:58:48Z</time></trkpt>
<trkpt lat="33.00919" lon="35.18692"><ele>204.0</ele><time>2013-06-26T13:58:50Z</time></trkpt>
<trkpt lat="33.00923" lon="35.18676"><ele>204.0</ele><time>2013-06-26T13:58:53Z</time></trkpt>
<trkpt lat="33.00928" lon="35.1866"><ele>202.0</ele><time>2013-06-26T13:58:55Z</time></trkpt>
<trkpt lat="33.00934" lon="35.18645"><ele>200.0</ele><time>2013-06-26T13:58:57Z</time></trkpt>
<trkpt lat="33.0094" lon="35.18631"><ele>199.0</ele><time>2013-06-26T13:58:58Z</time></trkpt>
<trkpt lat="33.00947" lon="35.18618"><ele>197.0</ele><time>2013-06-26T13:59:02Z</time></trkpt>
<trkpt lat="33.00956" lon="35.18606"><ele>196.0</ele><time>2013-06-26T13:59:04Z</time></trkpt>
<trkpt lat="33.00964" lon="35.18593"><ele>195.0</ele><time>2013-06-26T13:59:05Z</time></trkpt>
<trkpt lat="33.00974" lon="35.1858"><ele>194.0</ele><time>2013-06-26T13:59:07Z</time></trkpt>
<trkpt lat="33.0098" lon="35.18572"><ele>193.0</ele><time>2013-06-26T13:59:09Z</time></trkpt>
<trkpt lat="33.00985" lon="35.18564"><ele>192.0</ele><time>2013-06-26T13:59:10Z</time></trkpt>
<trkpt lat="33.0099" lon="35.18555"><ele>191.0</ele><time>2013-06-26T13:59:11Z</time></trkpt>
<trkpt lat="33.01005" lon="35.18529"><ele>191.0</ele><time>2013-06-26T13:59:12Z</time></trkpt>
<trkpt lat="33.0101" lon="35.1852"><ele>191.0</ele><time>2013-06-26T13:59:14Z</time></trkpt>
<trkpt lat="33.01014" lon="35.18511"><ele>191.0</ele><time>2013-06-26T13:59:15Z</time></trkpt>
<trkpt lat="33.01019" lon="35.18502"><ele>192.0</ele><time>2013-06-26T13:59:16Z</time></trkpt>
<trkpt lat="33.01024" lon="35.18493"><ele>192.0</ele><time>2013-06-26T13:59:17Z</time></trkpt>
<trkpt lat="33.01028" lon="35.18485"><ele>191.0</ele><time>2013-06-26T13:59:18Z</time></trkpt>
<trkpt lat="33.01037" lon="35.18467"><ele>190.0</ele><time>2013-06-26T13:59:20Z</time></trkpt>
<trkpt lat="33.01041" lon="35.18459"><ele>189.0</ele><time>2013-06-26T13:59:21Z</time></trkpt>
<trkpt lat="33.01048" lon="35.18442"><ele>189.0</ele><time>2013-06-26T13:59:23Z</time></trkpt>
<trkpt lat="33.01055" lon="35.18427"><ele>189.0</ele><time>2013-06-26T13:59:25Z</time></trkpt>
<trkpt lat="33.01061" lon="35.18413"><ele>189.0</ele><time>2013-06-26T13:59:27Z</time></trkpt>
<trkpt lat="33.01068" lon="35.18399"><ele>189.0</ele><time>2013-06-26T13:59:28Z</time></trkpt>
<trkpt lat="33.01073" lon="35.18386"><ele>189.0</ele><time>2013-06-26T13:59:30Z</time></trkpt>
<trkpt lat="33.01079" lon="35.18373"><ele>188.0</ele><time>2013-06-26T13:59:33Z</time></trkpt>
<trkpt lat="33.01083" lon="35.18361"><ele>189.0</ele><time>2013-06-26T13:59:35Z</time></trkpt>
<trkpt lat="33.0109" lon="35.18351"><ele>190.0</ele><time>2013-06-26T13:59:36Z</time></trkpt>
<trkpt lat="33.01096" lon="35.18341"><ele>191.0</ele><time>2013-06-26T13:59:39Z</time></trkpt>
<trkpt lat="33.01102" lon="35.18332"><ele>192.0</ele><time>2013-06-26T13:59:40Z</time></trkpt>
<trkpt lat="33.01107" lon="35.18324"><ele>192.0</ele><time>2013-06-26T13:59:42Z</time></trkpt>
<trkpt lat="33.01113" lon="35.18316"><ele>191.0</ele><time>2013-06-26T13:59:45Z</time></trkpt>
<trkpt lat="33.01118" lon="35.18308"><ele>190.0</ele><time>2013-06-26T13:59:47Z</time></trkpt>
<trkpt lat="33.01123" lon="35.183"><ele>189.0</ele><time>2013-06-26T13:59:48Z</time></trkpt>
<trkpt lat="33.01128" lon="35.18291"><ele>189.0</ele><time>2013-06-26T13:59:51Z</time></trkpt>
<trkpt lat="33.01133" lon="35.18283"><ele>188.0</ele><time>2013-06-26T13:59:53Z</time></trkpt>
<trkpt lat="33.01138" lon="35.18274"><ele>187.0</ele><time>2013-06-26T13:59:55Z</time></trkpt>
<trkpt lat="33.01143" lon="35.18265"><ele>186.0</ele><time>2013-06-26T13:59:57Z</time></trkpt>
<trkpt lat="33.01147" lon="35.18255"><ele>185.0</ele><time>2013-06-26T13:59:58Z</time></trkpt>
<trkpt lat="33.01152" lon="35.18245"><ele>184.0</ele><time>2013-06-26T14:00:01Z</time></trkpt>
<trkpt lat="33.01158" lon="35.18234"><ele>183.0</ele><time>2013-06-26T14:00:04Z</time></trkpt>
<trkpt lat="33.01164" lon="35.18222"><ele>183.0</ele><time>2013-06-26T14:00:06Z</time></trkpt>
<trkpt lat="33.01171" lon="35.18208"><ele>182.0</ele><time>2013-06-26T14:00:07Z</time></trkpt>
<trkpt lat="33.01178" lon="35.18194"><ele>182.0</ele><time>2013-06-26T14:00:09Z</time></trkpt>
<trkpt lat="33.01184" lon="35.18179"><ele>181.0</ele><time>2013-06-26T14:00:11Z</time></trkpt>
<trkpt lat="33.0119" lon="35.18162"><ele>180.0</ele><time>2013-06-26T14:00:13Z</time></trkpt>
<trkpt lat="33.01194" lon="35.18145"><ele>180.0</ele><time>2013-06-26T14:00:15Z</time></trkpt>
<trkpt lat="33.01196" lon="35.18127"><ele>179.0</ele><time>2013-06-26T14:00:16Z</time></trkpt>
<trkpt lat="33.01197" lon="35.18109"><ele>179.0</ele><time>2013-06-26T14:00:19Z</time></trkpt>
<trkpt lat="33.01197" lon="35.18091"><ele>178.0</ele><time>2013-06-26T14:00:21Z</time></trkpt>
<trkpt lat="33.01197" lon="35.18074"><ele>178.0</ele><time>2013-06-26T14:00:22Z</time></trkpt>
<trkpt lat="33.01198" lon="35.18057"><ele>177.0</ele><time>2013-06-26T14:00:24Z</time></trkpt>
<trkpt lat="33.012" lon="35.1804"><ele>176.0</ele><time>2013-06-26T14:00:27Z</time></trkpt>
<trkpt lat="33.01202" lon="35.18023"><ele>175.0</ele><time>2013-06-26T14:00:28Z</time></trkpt>
<trkpt lat="33.01204" lon="35.18006"><ele>174.0</ele><time>2013-06-26T14:00:31Z</time></trkpt>
<trkpt lat="33.01207" lon="35.17989"><ele>173.0</ele><time>2013-06-26T14:00:33Z</time></trkpt>
<trkpt lat="33.01211" lon="35.17971"><ele>172.0</ele><time>2013-06-26T14:00:35Z</time></trkpt>
<trkpt lat="33.01214" lon="35.17953"><ele>170.0</ele><time>2013-06-26T14:00:36Z</time></trkpt>
<trkpt lat="33.01217" lon="35.17935"><ele>169.0</ele><time>2013-06-26T14:00:39Z</time></trkpt>
<trkpt lat="33.01221" lon="35.17918"><ele>168.0</ele><time>2013-06-26T14:00:41Z</time></trkpt>
<trkpt lat="33.01223" lon="35.17901"><ele>166.0</ele><time>2013-06-26T14:00:42Z</time></trkpt>
<trkpt lat="33.01227" lon="35.17885"><ele>165.0</ele><time>2013-06-26T14:00:45Z</time></trkpt>
<trkpt lat="33.0123" lon="35.17869"><ele>164.0</ele><time>2013-06-26T14:00:46Z</time></trkpt>
<trkpt lat="33.01234" lon="35.17852"><ele>163.0</ele><time>2013-06-26T14:00:48Z</time></trkpt>
<trkpt lat="33.01238" lon="35.17835"><ele>163.0</ele><time>2013-06-26T14:00:51Z</time></trkpt>
<trkpt lat="33.01241" lon="35.17819"><ele>162.0</ele><time>2013-06-26T14:00:53Z</time></trkpt>
<trkpt lat="33.01245" lon="35.17802"><ele>162.0</ele><time>2013-06-26T14:00:54Z</time></trkpt>
<trkpt lat="33.01249" lon="35.17785"><ele>161.0</ele><time>2013-06-26T14:00:57Z</time></trkpt>
<trkpt lat="33.01253" lon="35.17769"><ele>161.0</ele><time>2013-06-26T14:00:58Z</time></trkpt>
<trkpt lat="33.01256" lon="35.17752"><ele>161.0</ele><time>2013-06-26T14:01:02Z</time></trkpt>
<trkpt lat="33.01259" lon="35.17736"><ele>161.0</ele><time>2013-06-26T14:01:03Z</time></trkpt>
<trkpt lat="33.01263" lon="35.1772"><ele>161.0</ele><time>2013-06-26T14:01:05Z</time></trkpt>
<trkpt lat="33.01267" lon="35.17704"><ele>161.0</ele><time>2013-06-26T14:01:07Z</time></trkpt>
<trkpt lat="33.0127" lon="35.17689"><ele>160.0</ele><time>2013-06-26T14:01:10Z</time></trkpt>
<trkpt lat="33.01274" lon="35.17673"><ele>159.0</ele><time>2013-06-26T14:01:11Z</time></trkpt>
<trkpt lat="33.01278" lon="35.17657"><ele>158.0</ele><time>2013-06-26T14:01:12Z</time></trkpt>
<trkpt lat="33.01282" lon="35.17641"><ele>157.0</ele><time>2013-06-26T14:01:15Z</time></trkpt>
<trkpt lat="33.01286" lon="35.17625"><ele>156.0</ele><time>2013-06-26T14:01:16Z</time></trkpt>
<trkpt lat="33.0129" lon="35.1761"><ele>155.0</ele><time>2013-06-26T14:01:19Z</time></trkpt>
<trkpt lat="33.01295" lon="35.17594"><ele>153.0</ele><time>2013-06-26T14:01:20Z</time></trkpt>
<trkpt lat="33.01299" lon="35.17579"><ele>152.0</ele><time>2013-06-26T14:01:23Z</time></trkpt>
<trkpt lat="33.01304" lon="35.17564"><ele>150.0</ele><time>2013-06-26T14:01:24Z</time></trkpt>
<trkpt lat="33.01308" lon="35.17549"><ele>149.0</ele><time>2013-06-26T14:01:27Z</time></trkpt>
<trkpt lat="33.01313" lon="35.17535"><ele>148.0</ele><time>2013-06-26T14:01:29Z</time></trkpt>
<trkpt lat="33.01318" lon="35.17522"><ele>146.0</ele><time>2013-06-26T14:01:31Z</time></trkpt>
<trkpt lat="33.01323" lon="35.17509"><ele>146.0</ele><time>2013-06-26T14:01:32Z</time></trkpt>
<trkpt lat="33.01328" lon="35.17497"><ele>145.0</ele><time>2013-06-26T14:01:34Z</time></trkpt>
<trkpt lat="33.01332" lon="35.17486"><ele>144.0</ele><time>2013-06-26T14:01:37Z</time></trkpt>
<trkpt lat="33.01336" lon="35.17475"><ele>143.0</ele><time>2013-06-26T14:01:39Z</time></trkpt>
<trkpt lat="33.01341" lon="35.17466"><ele>143.0</ele><time>2013-06-26T14:01:41Z</time></trkpt>
<trkpt lat="33.01345" lon="35.17457"><ele>143.0</ele><time>2013-06-26T14:01:42Z</time></trkpt>
<trkpt lat="33.01351" lon="35.17447"><ele>143.0</ele><time>2013-06-26T14:01:45Z</time></trkpt>
<trkpt lat="33.0135" lon="35.17436"><ele>143.0</ele><time>2013-06-26T14:01:50Z</time></trkpt>
<trkpt lat="33.01344" lon="35.17444"><ele>143.0</ele><time>2013-06-26T14:01:56Z</time></trkpt>
<trkpt lat="33.01346" lon="35.17453"><ele>143.0</ele><time>2013-06-26T14:02:01Z</time></trkpt>
<trkpt lat="33.01341" lon="35.17464"><ele>143.0</ele><time>2013-06-26T14:02:06Z</time></trkpt>
<trkpt lat="33.01337" lon="35.17474"><ele>143.0</ele><time>2013-06-26T14:02:11Z</time></trkpt>
<trkpt lat="33.01332" lon="35.17484"><ele>143.0</ele><time>2013-06-26T14:02:14Z</time></trkpt>
<trkpt lat="33.01328" lon="35.17493"><ele>144.0</ele><time>2013-06-26T14:02:17Z</time></trkpt>
<trkpt lat="33.01324" lon="35.17503"><ele>144.0</ele><time>2013-06-26T14:02:22Z</time></trkpt>
<trkpt lat="33.0132" lon="35.17513"><ele>145.0</ele><time>2013-06-26T14:02:26Z</time></trkpt>
<trkpt lat="33.01317" lon="35.17522"><ele>146.0</ele><time>2013-06-26T14:02:29Z</time></trkpt>
<trkpt lat="33.01313" lon="35.17531"><ele>146.0</ele><time>2013-06-26T14:02:33Z</time></trkpt>
<trkpt lat="33.0131" lon="35.17541"><ele>147.0</ele><time>2013-06-26T14:02:38Z</time></trkpt>
<trkpt lat="33.01306" lon="35.1755"><ele>148.0</ele><time>2013-06-26T14:02:41Z</time></trkpt>
<trkpt lat="33.01303" lon="35.17559"><ele>149.0</ele><time>2013-06-26T14:02:46Z</time></trkpt>
<trkpt lat="33.013" lon="35.17569"><ele>150.0</ele><time>2013-06-26T14:02:50Z</time></trkpt>
<trkpt lat="33.01297" lon="35.1758"><ele>152.0</ele><time>2013-06-26T14:02:55Z</time></trkpt>
<trkpt lat="33.01294" lon="35.17591"><ele>153.0</ele><time>2013-06-26T14:02:59Z</time></trkpt>
<trkpt lat="33.01292" lon="35.176"><ele>155.0</ele><time>2013-06-26T14:03:06Z</time></trkpt>
<trkpt lat="33.01289" lon="35.17611"><ele>156.0</ele><time>2013-06-26T14:03:11Z</time></trkpt>
<trkpt lat="33.01286" lon="35.1762"><ele>157.0</ele><time>2013-06-26T14:03:14Z</time></trkpt>
<trkpt lat="33.01283" lon="35.17632"><ele>158.0</ele><time>2013-06-26T14:03:18Z</time></trkpt>
<trkpt lat="33.01282" lon="35.17643"><ele>159.0</ele><time>2013-06-26T14:03:25Z</time></trkpt>
<trkpt lat="33.01281" lon="35.17652"><ele>160.0</ele><time>2013-06-26T14:03:30Z</time></trkpt>
<trkpt lat="33.0128" lon="35.17663"><ele>160.0</ele><time>2013-06-26T14:03:35Z</time></trkpt>
<trkpt lat="33.01278" lon="35.17672"><ele>160.0</ele><time>2013-06-26T14:03:40Z</time></trkpt>
<trkpt lat="33.01274" lon="35.17682"><ele>161.0</ele><time>2013-06-26T14:03:46Z</time></trkpt>
<trkpt lat="33.0127" lon="35.17692"><ele>161.0</ele><time>2013-06-26T14:03:51Z</time></trkpt>
<trkpt lat="33.01267" lon="35.17703"><ele>161.0</ele><time>2013-06-26T14:03:57Z</time></trkpt>
<trkpt lat="33.01265" lon="35.17713"><ele>161.0</ele><time>2013-06-26T14:04:03Z</time></trkpt>
<trkpt lat="33.01263" lon="35.17724"><ele>161.0</ele><time>2013-06-26T14:04:09Z</time></trkpt>
<trkpt lat="33.01261" lon="35.17734"><ele>161.0</ele><time>2013-06-26T14:04:13Z</time></trkpt>
<trkpt lat="33.0126" lon="35.17744"><ele>161.0</ele><time>2013-06-26T14:04:17Z</time></trkpt>
<trkpt lat="33.01255" lon="35.17753"><ele>161.0</ele><time>2013-06-26T14:04:23Z</time></trkpt>
<trkpt lat="33.01252" lon="35.17763"><ele>162.0</ele><time>2013-06-26T14:04:28Z</time></trkpt>
<trkpt lat="33.01249" lon="35.17773"><ele>162.0</ele><time>2013-06-26T14:04:33Z</time></trkpt>
<trkpt lat="33.01248" lon="35.17784"><ele>162.0</ele><time>2013-06-26T14:04:38Z</time></trkpt>
<trkpt lat="33.01247" lon="35.17795"><ele>162.0</ele><time>2013-06-26T14:04:43Z</time></trkpt>
<trkpt lat="33.01243" lon="35.17804"><ele>162.0</ele><time>2013-06-26T14:04:47Z</time></trkpt>
<trkpt lat="33.01241" lon="35.17815"><ele>162.0</ele><time>2013-06-26T14:04:52Z</time></trkpt>
<trkpt lat="33.01239" lon="35.17827"><ele>162.0</ele><time>2013-06-26T14:04:58Z</time></trkpt>
<trkpt lat="33.01238" lon="35.17837"><ele>162.0</ele><time>2013-06-26T14:05:03Z</time></trkpt>
<trkpt lat="33.01235" lon="35.17848"><ele>163.0</ele><time>2013-06-26T14:05:09Z</time></trkpt>
<trkpt lat="33.01233" lon="35.17858"><ele>163.0</ele><time>2013-06-26T14:05:14Z</time></trkpt>
<trkpt lat="33.01229" lon="35.17867"><ele>164.0</ele><time>2013-06-26T14:05:19Z</time></trkpt>
<trkpt lat="33.01228" lon="35.17878"><ele>164.0</ele><time>2013-06-26T14:05:23Z</time></trkpt>
<trkpt lat="33.01226" lon="35.17889"><ele>165.0</ele><time>2013-06-26T14:05:29Z</time></trkpt>
<trkpt lat="33.01223" lon="35.17899"><ele>165.0</ele><time>2013-06-26T14:05:34Z</time></trkpt>
<trkpt lat="33.0122" lon="35.17911"><ele>166.0</ele><time>2013-06-26T14:05:39Z</time></trkpt>
<trkpt lat="33.01219" lon="35.1792"><ele>167.0</ele><time>2013-06-26T14:05:42Z</time></trkpt>
<trkpt lat="33.01216" lon="35.1793"><ele>169.0</ele><time>2013-06-26T14:05:46Z</time></trkpt>
<trkpt lat="33.01213" lon="35.1794"><ele>169.0</ele><time>2013-06-26T14:05:51Z</time></trkpt>
<trkpt lat="33.01211" lon="35.1795"><ele>170.0</ele><time>2013-06-26T14:05:56Z</time></trkpt>
<trkpt lat="33.01212" lon="35.1796"><ele>171.0</ele><time>2013-06-26T14:06:01Z</time></trkpt>
<trkpt lat="33.01209" lon="35.1797"><ele>172.0</ele><time>2013-06-26T14:06:06Z</time></trkpt>
<trkpt lat="33.01207" lon="35.17981"><ele>173.0</ele><time>2013-06-26T14:06:10Z</time></trkpt>
<trkpt lat="33.01205" lon="35.17992"><ele>174.0</ele><time>2013-06-26T14:06:14Z</time></trkpt>
<trkpt lat="33.01203" lon="35.18001"><ele>175.0</ele><time>2013-06-26T14:06:18Z</time></trkpt>
<trkpt lat="33.01201" lon="35.18012"><ele>176.0</ele><time>2013-06-26T14:06:22Z</time></trkpt>
<trkpt lat="33.012" lon="35.18023"><ele>176.0</ele><time>2013-06-26T14:06:27Z</time></trkpt>
<trkpt lat="33.01199" lon="35.18034"><ele>176.0</ele><time>2013-06-26T14:06:30Z</time></trkpt>
<trkpt lat="33.01199" lon="35.18044"><ele>176.0</ele><time>2013-06-26T14:06:35Z</time></trkpt>
<trkpt lat="33.01198" lon="35.18055"><ele>177.0</ele><time>2013-06-26T14:06:39Z</time></trkpt>
<trkpt lat="33.01196" lon="35.18066"><ele>177.0</ele><time>2013-06-26T14:06:42Z</time></trkpt>
<trkpt lat="33.01196" lon="35.18077"><ele>177.0</ele><time>2013-06-26T14:06:47Z</time></trkpt>
<trkpt lat="33.01196" lon="35.18088"><ele>178.0</ele><time>2013-06-26T14:06:51Z</time></trkpt>
<trkpt lat="33.01196" lon="35.18098"><ele>178.0</ele><time>2013-06-26T14:06:55Z</time></trkpt>
<trkpt lat="33.01196" lon="35.18109"><ele>179.0</ele><time>2013-06-26T14:06:58Z</time></trkpt>
<trkpt lat="33.01197" lon="35.18119"><ele>179.0</ele><time>2013-06-26T14:07:03Z</time></trkpt>
<trkpt lat="33.01196" lon="35.18129"><ele>179.0</ele><time>2013-06-26T14:07:08Z</time></trkpt>
<trkpt lat="33.01195" lon="35.1814"><ele>180.0</ele><time>2013-06-26T14:07:11Z</time></trkpt>
<trkpt lat="33.01193" lon="35.1815"><ele>180.0</ele><time>2013-06-26T14:07:15Z</time></trkpt>
<trkpt lat="33.01191" lon="35.1816"><ele>180.0</ele><time>2013-06-26T14:07:18Z</time></trkpt>
<trkpt lat="33.01188" lon="35.18171"><ele>181.0</ele><time>2013-06-26T14:07:22Z</time></trkpt>
<trkpt lat="33.01183" lon="35.1818"><ele>181.0</ele><time>2013-06-26T14:07:28Z</time></trkpt>
<trkpt lat="33.01178" lon="35.18189"><ele>182.0</ele><time>2013-06-26T14:07:32Z</time></trkpt>
<trkpt lat="33.01173" lon="35.18198"><ele>182.0</ele><time>2013-06-26T14:07:36Z</time></trkpt>
<trkpt lat="33.01168" lon="35.18207"><ele>182.0</ele><time>2013-06-26T14:07:40Z</time></trkpt>
<trkpt lat="33.01163" lon="35.18217"><ele>182.0</ele><time>2013-06-26T14:07:44Z</time></trkpt>
<trkpt lat="33.01159" lon="35.18226"><ele>183.0</ele><time>2013-06-26T14:07:47Z</time></trkpt>
<trkpt lat="33.01155" lon="35.18235"><ele>183.0</ele><time>2013-06-26T14:07:51Z</time></trkpt>
<trkpt lat="33.0115" lon="35.18245"><ele>184.0</ele><time>2013-06-26T14:07:56Z</time></trkpt>
<trkpt lat="33.01146" lon="35.18253"><ele>185.0</ele><time>2013-06-26T14:08:01Z</time></trkpt>
<trkpt lat="33.01142" lon="35.18261"><ele>186.0</ele><time>2013-06-26T14:08:04Z</time></trkpt>
<trkpt lat="33.01138" lon="35.1827"><ele>187.0</ele><time>2013-06-26T14:08:08Z</time></trkpt>
<trkpt lat="33.01133" lon="35.18279"><ele>188.0</ele><time>2013-06-26T14:08:11Z</time></trkpt>
<trkpt lat="33.01129" lon="35.18289"><ele>189.0</ele><time>2013-06-26T14:08:16Z</time></trkpt>
<trkpt lat="33.01123" lon="35.18299"><ele>189.0</ele><time>2013-06-26T14:08:20Z</time></trkpt>
<trkpt lat="33.01117" lon="35.18309"><ele>190.0</ele><time>2013-06-26T14:08:24Z</time></trkpt>
<trkpt lat="33.01112" lon="35.18317"><ele>191.0</ele><time>2013-06-26T14:08:26Z</time></trkpt>
<trkpt lat="33.01106" lon="35.18324"><ele>192.0</ele><time>2013-06-26T14:08:29Z</time></trkpt>
<trkpt lat="33.01102" lon="35.18333"><ele>192.0</ele><time>2013-06-26T14:08:33Z</time></trkpt>
<trkpt lat="33.01097" lon="35.18341"><ele>191.0</ele><time>2013-06-26T14:08:35Z</time></trkpt>
<trkpt lat="33.01092" lon="35.18348"><ele>190.0</ele><time>2013-06-26T14:08:39Z</time></trkpt>
<trkpt lat="33.01087" lon="35.18357"><ele>190.0</ele><time>2013-06-26T14:08:42Z</time></trkpt>
<trkpt lat="33.01083" lon="35.18366"><ele>189.0</ele><time>2013-06-26T14:08:45Z</time></trkpt>
<trkpt lat="33.01078" lon="35.18374"><ele>188.0</ele><time>2013-06-26T14:08:47Z</time></trkpt>
<trkpt lat="33.01073" lon="35.18383"><ele>188.0</ele><time>2013-06-26T14:08:51Z</time></trkpt>
<trkpt lat="33.0107" lon="35.18392"><ele>187.0</ele><time>2013-06-26T14:08:54Z</time></trkpt>
<trkpt lat="33.01066" lon="35.18401"><ele>188.0</ele><time>2013-06-26T14:08:57Z</time></trkpt>
<trkpt lat="33.01062" lon="35.18409"><ele>188.0</ele><time>2013-06-26T14:09:01Z</time></trkpt>
<trkpt lat="33.01056" lon="35.1842"><ele>188.0</ele><time>2013-06-26T14:09:05Z</time></trkpt>
<trkpt lat="33.01053" lon="35.18429"><ele>188.0</ele><time>2013-06-26T14:09:08Z</time></trkpt>
<trkpt lat="33.01049" lon="35.18438"><ele>189.0</ele><time>2013-06-26T14:09:10Z</time></trkpt>
<trkpt lat="33.01045" lon="35.18447"><ele>190.0</ele><time>2013-06-26T14:09:13Z</time></trkpt>
<trkpt lat="33.01041" lon="35.18457"><ele>190.0</ele><time>2013-06-26T14:09:16Z</time></trkpt>
<trkpt lat="33.01037" lon="35.18466"><ele>191.0</ele><time>2013-06-26T14:09:18Z</time></trkpt>
<trkpt lat="33.01032" lon="35.18477"><ele>192.0</ele><time>2013-06-26T14:09:23Z</time></trkpt>
<trkpt lat="33.01027" lon="35.18488"><ele>192.0</ele><time>2013-06-26T14:09:27Z</time></trkpt>
<trkpt lat="33.01022" lon="35.18498"><ele>193.0</ele><time>2013-06-26T14:09:31Z</time></trkpt>
<trkpt lat="33.01016" lon="35.18507"><ele>192.0</ele><time>2013-06-26T14:09:35Z</time></trkpt>
<trkpt lat="33.01011" lon="35.18517"><ele>191.0</ele><time>2013-06-26T14:09:39Z</time></trkpt>
<trkpt lat="33.01006" lon="35.18527"><ele>191.0</ele><time>2013-06-26T14:09:42Z</time></trkpt>
<trkpt lat="33.01001" lon="35.18537"><ele>190.0</ele><time>2013-06-26T14:09:46Z</time></trkpt>
<trkpt lat="33.00996" lon="35.18547"><ele>190.0</ele><time>2013-06-26T14:09:51Z</time></trkpt>
<trkpt lat="33.00991" lon="35.18557"><ele>191.0</ele><time>2013-06-26T14:09:55Z</time></trkpt>
<trkpt lat="33.00985" lon="35.18565"><ele>192.0</ele><time>2013-06-26T14:09:58Z</time></trkpt>
<trkpt lat="33.00979" lon="35.18573"><ele>193.0</ele><time>2013-06-26T14:10:04Z</time></trkpt>
<trkpt lat="33.00973" lon="35.18582"><ele>194.0</ele><time>2013-06-26T14:10:09Z</time></trkpt>
<trkpt lat="33.00967" lon="35.1859"><ele>195.0</ele><time>2013-06-26T14:10:14Z</time></trkpt>
<trkpt lat="33.00962" lon="35.18599"><ele>196.0</ele><time>2013-06-26T14:10:18Z</time></trkpt>
<trkpt lat="33.00956" lon="35.18607"><ele>197.0</ele><time>2013-06-26T14:10:24Z</time></trkpt>
<trkpt lat="33.0095" lon="35.18615"><ele>199.0</ele><time>2013-06-26T14:10:30Z</time></trkpt>
<trkpt lat="33.00945" lon="35.18623"><ele>200.0</ele><time>2013-06-26T14:10:35Z</time></trkpt>
<trkpt lat="33.0094" lon="35.18633"><ele>201.0</ele><time>2013-06-26T14:10:42Z</time></trkpt>
<trkpt lat="33.00936" lon="35.18641"><ele>203.0</ele><time>2013-06-26T14:10:47Z</time></trkpt>
<trkpt lat="33.00932" lon="35.18652"><ele>203.0</ele><time>2013-06-26T14:10:52Z</time></trkpt>
<trkpt lat="33.00928" lon="35.18661"><ele>203.0</ele><time>2013-06-26T14:10:58Z</time></trkpt>
<trkpt lat="33.00924" lon="35.18672"><ele>203.0</ele><time>2013-06-26T14:11:05Z</time></trkpt>
<trkpt lat="33.00921" lon="35.18681"><ele>204.0</ele><time>2013-06-26T14:11:11Z</time></trkpt>
<trkpt lat="33.00918" lon="35.18692"><ele>204.0</ele><time>2013-06-26T14:11:17Z</time></trkpt>
<trkpt lat="33.00916" lon="35.18703"><ele>204.0</ele><time>2013-06-26T14:11:23Z</time></trkpt>
<trkpt lat="33.00915" lon="35.18714"><ele>205.0</ele><time>2013-06-26T14:11:29Z</time></trkpt>
<trkpt lat="33.00913" lon="35.18724"><ele>205.0</ele><time>2013-06-26T14:11:35Z</time></trkpt>
<trkpt lat="33.00912" lon="35.18735"><ele>205.0</ele><time>2013-06-26T14:11:42Z</time></trkpt>
<trkpt lat="33.0091" lon="35.18745"><ele>206.0</ele><time>2013-06-26T14:11:47Z</time></trkpt>
<trkpt lat="33.00909" lon="35.18755"><ele>207.0</ele><time>2013-06-26T14:11:54Z</time></trkpt>
<trkpt lat="33.00908" lon="35.18765"><ele>209.0</ele><time>2013-06-26T14:11:59Z</time></trkpt>
<trkpt lat="33.00906" lon="35.18775"><ele>210.0</ele><time>2013-06-26T14:12:07Z</time></trkpt>
<trkpt lat="33.00905" lon="35.18786"><ele>211.0</ele><time>2013-06-26T14:12:12Z</time></trkpt>
<trkpt lat="33.00899" lon="35.18825"><ele>212.0</ele><time>2013-06-26T14:12:39Z</time></trkpt>
<trkpt lat="33.0089" lon="35.18871"><ele>213.0</ele><time>2013-06-26T14:13:11Z</time></trkpt>
<trkpt lat="33.00888" lon="35.18881"><ele>214.0</ele><time>2013-06-26T14:13:16Z</time></trkpt>
<trkpt lat="33.00885" lon="35.18892"><ele>215.0</ele><time>2013-06-26T14:13:24Z</time></trkpt>
<trkpt lat="33.00882" lon="35.18903"><ele>217.0</ele><time>2013-06-26T14:13:31Z</time></trkpt>
<trkpt lat="33.00879" lon="35.18912"><ele>219.0</ele><time>2013-06-26T14:13:36Z</time></trkpt>
<trkpt lat="33.00878" lon="35.18923"><ele>221.0</ele><time>2013-06-26T14:13:44Z</time></trkpt>
<trkpt lat="33.00876" lon="35.18933"><ele>222.0</ele><time>2013-06-26T14:13:50Z</time></trkpt>
<trkpt lat="33.00873" lon="35.18943"><ele>223.0</ele><time>2013-06-26T14:13:56Z</time></trkpt>
<trkpt lat="33.00872" lon="35.18964"><ele>224.0</ele><time>2013-06-26T14:14:09Z</time></trkpt>
<trkpt lat="33.00869" lon="35.18974"><ele>225.0</ele><time>2013-06-26T14:14:14Z</time></trkpt>
<trkpt lat="33.00868" lon="35.18985"><ele>226.0</ele><time>2013-06-26T14:14:20Z</time></trkpt>
<trkpt lat="33.00867" lon="35.18995"><ele>227.0</ele><time>2013-06-26T14:14:26Z</time></trkpt>
<trkpt lat="33.00863" lon="35.19009"><ele>228.0</ele><time>2013-06-26T14:14:35Z</time></trkpt>
<trkpt lat="33.00862" lon="35.19019"><ele>228.0</ele><time>2013-06-26T14:14:40Z</time></trkpt>
<trkpt lat="33.00861" lon="35.19029"><ele>228.0</ele><time>2013-06-26T14:14:45Z</time></trkpt>
<trkpt lat="33.0086" lon="35.19039"><ele>228.0</ele><time>2013-06-26T14:14:50Z</time></trkpt>
<trkpt lat="33.00858" lon="35.19049"><ele>228.0</ele><time>2013-06-26T14:14:55Z</time></trkpt>
<trkpt lat="33.00857" lon="35.19059"><ele>228.0</ele><time>2013-06-26T14:15:01Z</time></trkpt>
<trkpt lat="33.00857" lon="35.1907"><ele>228.0</ele><time>2013-06-26T14:15:06Z</time></trkpt>
<trkpt lat="33.00855" lon="35.1908"><ele>228.0</ele><time>2013-06-26T14:15:11Z</time></trkpt>
<trkpt lat="33.00853" lon="35.19089"><ele>229.0</ele><time>2013-06-26T14:15:15Z</time></trkpt>
<trkpt lat="33.00852" lon="35.19099"><ele>230.0</ele><time>2013-06-26T14:15:20Z</time></trkpt>
<trkpt lat="33.0085" lon="35.1911"><ele>230.0</ele><time>2013-06-26T14:15:26Z</time></trkpt>
<trkpt lat="33.00848" lon="35.19121"><ele>231.0</ele><time>2013-06-26T14:15:31Z</time></trkpt>
<trkpt lat="33.00848" lon="35.19132"><ele>231.0</ele><time>2013-06-26T14:15:35Z</time></trkpt>
<trkpt lat="33.00845" lon="35.19141"><ele>232.0</ele><time>2013-06-26T14:15:41Z</time></trkpt>
<trkpt lat="33.00844" lon="35.19151"><ele>232.0</ele><time>2013-06-26T14:15:46Z</time></trkpt>
<trkpt lat="33.00842" lon="35.19161"><ele>233.0</ele><time>2013-06-26T14:15:51Z</time></trkpt>
<trkpt lat="33.00841" lon="35.19172"><ele>234.0</ele><time>2013-06-26T14:15:56Z</time></trkpt>
<trkpt lat="33.00839" lon="35.19182"><ele>235.0</ele><time>2013-06-26T14:16:03Z</time></trkpt>
<trkpt lat="33.00838" lon="35.19193"><ele>235.0</ele><time>2013-06-26T14:16:09Z</time></trkpt>
<trkpt lat="33.00836" lon="35.19203"><ele>236.0</ele><time>2013-06-26T14:16:13Z</time></trkpt>
<trkpt lat="33.00835" lon="35.19214"><ele>236.0</ele><time>2013-06-26T14:16:19Z</time></trkpt>
<trkpt lat="33.00834" lon="35.19224"><ele>236.0</ele><time>2013-06-26T14:16:24Z</time></trkpt>
<trkpt lat="33.00833" lon="35.19234"><ele>236.0</ele><time>2013-06-26T14:16:28Z</time></trkpt>
<trkpt lat="33.00833" lon="35.19244"><ele>237.0</ele><time>2013-06-26T14:16:34Z</time></trkpt>
<trkpt lat="33.00833" lon="35.19254"><ele>237.0</ele><time>2013-06-26T14:16:39Z</time></trkpt>
<trkpt lat="33.00834" lon="35.19264"><ele>238.0</ele><time>2013-06-26T14:16:44Z</time></trkpt>
<trkpt lat="33.00836" lon="35.19275"><ele>239.0</ele><time>2013-06-26T14:16:49Z</time></trkpt>
<trkpt lat="33.00838" lon="35.19285"><ele>239.0</ele><time>2013-06-26T14:16:54Z</time></trkpt>
<trkpt lat="33.00841" lon="35.19296"><ele>239.0</ele><time>2013-06-26T14:17:01Z</time></trkpt>
<trkpt lat="33.00842" lon="35.19305"><ele>240.0</ele><time>2013-06-26T14:17:05Z</time></trkpt>
<trkpt lat="33.00844" lon="35.19315"><ele>240.0</ele><time>2013-06-26T14:17:10Z</time></trkpt>
<trkpt lat="33.00846" lon="35.19326"><ele>240.0</ele><time>2013-06-26T14:17:15Z</time></trkpt>
<trkpt lat="33.00847" lon="35.19336"><ele>241.0</ele><time>2013-06-26T14:17:20Z</time></trkpt>
<trkpt lat="33.00849" lon="35.19347"><ele>242.0</ele><time>2013-06-26T14:17:26Z</time></trkpt>
<trkpt lat="33.00851" lon="35.19357"><ele>243.0</ele><time>2013-06-26T14:17:32Z</time></trkpt>
<trkpt lat="33.00852" lon="35.19367"><ele>243.0</ele><time>2013-06-26T14:17:36Z</time></trkpt>
<trkpt lat="33.00856" lon="35.19377"><ele>243.0</ele><time>2013-06-26T14:17:42Z</time></trkpt>
<trkpt lat="33.00856" lon="35.19388"><ele>244.0</ele><time>2013-06-26T14:17:47Z</time></trkpt>
<trkpt lat="33.00858" lon="35.194"><ele>244.0</ele><time>2013-06-26T14:17:54Z</time></trkpt>
<trkpt lat="33.00861" lon="35.19409"><ele>244.0</ele><time>2013-06-26T14:17:59Z</time></trkpt>
<trkpt lat="33.00862" lon="35.1942"><ele>245.0</ele><time>2013-06-26T14:18:05Z</time></trkpt>
<trkpt lat="33.00864" lon="35.19429"><ele>246.0</ele><time>2013-06-26T14:18:10Z</time></trkpt>
<trkpt lat="33.00868" lon="35.1944"><ele>246.0</ele><time>2013-06-26T14:18:16Z</time></trkpt>
<trkpt lat="33.00872" lon="35.19449"><ele>247.0</ele><time>2013-06-26T14:18:21Z</time></trkpt>
<trkpt lat="33.00876" lon="35.19457"><ele>247.0</ele><time>2013-06-26T14:18:26Z</time></trkpt>
<trkpt lat="33.00881" lon="35.19466"><ele>248.0</ele><time>2013-06-26T14:18:31Z</time></trkpt>
<trkpt lat="33.00885" lon="35.19475"><ele>248.0</ele><time>2013-06-26T14:18:36Z</time></trkpt>
<trkpt lat="33.00889" lon="35.19483"><ele>248.0</ele><time>2013-06-26T14:18:40Z</time></trkpt>
<trkpt lat="33.00893" lon="35.19492"><ele>249.0</ele><time>2013-06-26T14:18:45Z</time></trkpt>
<trkpt lat="33.00897" lon="35.195"><ele>249.0</ele><time>2013-06-26T14:18:50Z</time></trkpt>
<trkpt lat="33.00902" lon="35.19509"><ele>250.0</ele><time>2013-06-26T14:18:56Z</time></trkpt>
<trkpt lat="33.00906" lon="35.19518"><ele>251.0</ele><time>2013-06-26T14:19:01Z</time></trkpt>
<trkpt lat="33.0091" lon="35.19528"><ele>251.0</ele><time>2013-06-26T14:19:07Z</time></trkpt>
<trkpt lat="33.00912" lon="35.19538"><ele>252.0</ele><time>2013-06-26T14:19:11Z</time></trkpt>
<trkpt lat="33.00916" lon="35.19547"><ele>252.0</ele><time>2013-06-26T14:19:17Z</time></trkpt>
<trkpt lat="33.00918" lon="35.19557"><ele>253.0</ele><time>2013-06-26T14:19:21Z</time></trkpt>
<trkpt lat="33.00921" lon="35.19566"><ele>253.0</ele><time>2013-06-26T14:19:27Z</time></trkpt>
<trkpt lat="33.00924" lon="35.19576"><ele>254.0</ele><time>2013-06-26T14:19:32Z</time></trkpt>
<trkpt lat="33.00928" lon="35.19585"><ele>255.0</ele><time>2013-06-26T14:19:36Z</time></trkpt>
<trkpt lat="33.00931" lon="35.19595"><ele>256.0</ele><time>2013-06-26T14:19:41Z</time></trkpt>
<trkpt lat="33.00933" lon="35.19604"><ele>257.0</ele><time>2013-06-26T14:19:46Z</time></trkpt>
<trkpt lat="33.00936" lon="35.19613"><ele>257.0</ele><time>2013-06-26T14:19:52Z</time></trkpt>
<trkpt lat="33.00939" lon="35.19623"><ele>257.0</ele><time>2013-06-26T14:19:57Z</time></trkpt>
<trkpt lat="33.00942" lon="35.19633"><ele>258.0</ele><time>2013-06-26T14:20:03Z</time></trkpt>
<trkpt lat="33.00945" lon="35.19642"><ele>258.0</ele><time>2013-06-26T14:20:08Z</time></trkpt>
<trkpt lat="33.00948" lon="35.19651"><ele>258.0</ele><time>2013-06-26T14:20:11Z</time></trkpt>
<trkpt lat="33.00951" lon="35.19662"><ele>259.0</ele><time>2013-06-26T14:20:16Z</time></trkpt>
<trkpt lat="33.00954" lon="35.19671"><ele>260.0</ele><time>2013-06-26T14:20:21Z</time></trkpt>
<trkpt lat="33.00957" lon="35.19681"><ele>261.0</ele><time>2013-06-26T14:20:27Z</time></trkpt>
<trkpt lat="33.00959" lon="35.1969"><ele>261.0</ele><time>2013-06-26T14:20:32Z</time></trkpt>
<trkpt lat="33.00961" lon="35.197"><ele>262.0</ele><time>2013-06-26T14:20:37Z</time></trkpt>
<trkpt lat="33.00963" lon="35.19711"><ele>262.0</ele><time>2013-06-26T14:20:41Z</time></trkpt>
<trkpt lat="33.00963" lon="35.19721"><ele>263.0</ele><time>2013-06-26T14:20:47Z</time></trkpt>
<trkpt lat="33.00963" lon="35.19731"><ele>263.0</ele><time>2013-06-26T14:20:51Z</time></trkpt>
<trkpt lat="33.00961" lon="35.19741"><ele>264.0</ele><time>2013-06-26T14:20:56Z</time></trkpt>
<trkpt lat="33.0096" lon="35.19752"><ele>265.0</ele><time>2013-06-26T14:21:03Z</time></trkpt>
<trkpt lat="33.00959" lon="35.19762"><ele>266.0</ele><time>2013-06-26T14:21:08Z</time></trkpt>
<trkpt lat="33.00958" lon="35.19772"><ele>267.0</ele><time>2013-06-26T14:21:11Z</time></trkpt>
<trkpt lat="33.00957" lon="35.19782"><ele>268.0</ele><time>2013-06-26T14:21:17Z</time></trkpt>
<trkpt lat="33.00956" lon="35.19793"><ele>268.0</ele><time>2013-06-26T14:21:22Z</time></trkpt>
<trkpt lat="33.00955" lon="35.19804"><ele>269.0</ele><time>2013-06-26T14:21:27Z</time></trkpt>
<trkpt lat="33.00953" lon="35.19814"><ele>269.0</ele><time>2013-06-26T14:21:33Z</time></trkpt>
<trkpt lat="33.00952" lon="35.19824"><ele>270.0</ele><time>2013-06-26T14:21:38Z</time></trkpt>
<trkpt lat="33.0095" lon="35.19834"><ele>271.0</ele><time>2013-06-26T14:21:42Z</time></trkpt>
<trkpt lat="33.00948" lon="35.19845"><ele>272.0</ele><time>2013-06-26T14:21:47Z</time></trkpt>
<trkpt lat="33.00946" lon="35.19855"><ele>272.0</ele><time>2013-06-26T14:21:52Z</time></trkpt>
<trkpt lat="33.00943" lon="35.19864"><ele>273.0</ele><time>2013-06-26T14:21:57Z</time></trkpt>
<trkpt lat="33.0094" lon="35.19874"><ele>273.0</ele><time>2013-06-26T14:22:04Z</time></trkpt>
<trkpt lat="33.00937" lon="35.19884"><ele>273.0</ele><time>2013-06-26T14:22:09Z</time></trkpt>
<trkpt lat="33.00935" lon="35.19893"><ele>273.0</ele><time>2013-06-26T14:22:13Z</time></trkpt>
<trkpt lat="33.00933" lon="35.19903"><ele>274.0</ele><time>2013-06-26T14:22:18Z</time></trkpt>
<trkpt lat="33.0093" lon="35.19912"><ele>274.0</ele><time>2013-06-26T14:22:22Z</time></trkpt>
<trkpt lat="33.00927" lon="35.19921"><ele>274.0</ele><time>2013-06-26T14:22:28Z</time></trkpt>
<trkpt lat="33.00924" lon="35.19931"><ele>275.0</ele><time>2013-06-26T14:22:33Z</time></trkpt>
<trkpt lat="33.00919" lon="35.1994"><ele>275.0</ele><time>2013-06-26T14:22:38Z</time></trkpt>
<trkpt lat="33.00916" lon="35.19951"><ele>275.0</ele><time>2013-06-26T14:22:42Z</time></trkpt>
<trkpt lat="33.0091" lon="35.19958"><ele>275.0</ele><time>2013-06-26T14:22:47Z</time></trkpt>
<trkpt lat="33.00903" lon="35.19966"><ele>275.0</ele><time>2013-06-26T14:22:52Z</time></trkpt>
<trkpt lat="33.00897" lon="35.19972"><ele>276.0</ele><time>2013-06-26T14:22:58Z</time></trkpt>
<trkpt lat="33.00891" lon="35.19979"><ele>276.0</ele><time>2013-06-26T14:23:04Z</time></trkpt>
<trkpt lat="33.00885" lon="35.19986"><ele>277.0</ele><time>2013-06-26T14:23:09Z</time></trkpt>
<trkpt lat="33.00878" lon="35.19993"><ele>277.0</ele><time>2013-06-26T14:23:13Z</time></trkpt>
<trkpt lat="33.00871" lon="35.2"><ele>278.0</ele><time>2013-06-26T14:23:17Z</time></trkpt>
<trkpt lat="33.00865" lon="35.20006"><ele>278.0</ele><time>2013-06-26T14:23:22Z</time></trkpt>
<trkpt lat="33.00858" lon="35.20014"><ele>278.0</ele><time>2013-06-26T14:23:27Z</time></trkpt>
<trkpt lat="33.00852" lon="35.2002"><ele>279.0</ele><time>2013-06-26T14:23:33Z</time></trkpt>
<trkpt lat="33.00845" lon="35.20027"><ele>280.0</ele><time>2013-06-26T14:23:38Z</time></trkpt>
<trkpt lat="33.00838" lon="35.20034"><ele>280.0</ele><time>2013-06-26T14:23:42Z</time></trkpt>
<trkpt lat="33.00831" lon="35.20042"><ele>280.0</ele><time>2013-06-26T14:23:48Z</time></trkpt>
<trkpt lat="33.00823" lon="35.20049"><ele>280.0</ele><time>2013-06-26T14:23:54Z</time></trkpt>
<trkpt lat="33.00817" lon="35.20058"><ele>280.0</ele><time>2013-06-26T14:24:00Z</time></trkpt>
<trkpt lat="33.00809" lon="35.20065"><ele>280.0</ele><time>2013-06-26T14:24:04Z</time></trkpt>
<trkpt lat="33.00802" lon="35.20073"><ele>280.0</ele><time>2013-06-26T14:24:10Z</time></trkpt>
<trkpt lat="33.00796" lon="35.2008"><ele>279.0</ele><time>2013-06-26T14:24:12Z</time></trkpt>
<trkpt lat="33.0079" lon="35.20087"><ele>279.0</ele><time>2013-06-26T14:24:17Z</time></trkpt>
<trkpt lat="33.00783" lon="35.20094"><ele>279.0</ele><time>2013-06-26T14:24:20Z</time></trkpt>
<trkpt lat="33.00776" lon="35.20101"><ele>279.0</ele><time>2013-06-26T14:24:25Z</time></trkpt>
<trkpt lat="33.00769" lon="35.20109"><ele>279.0</ele><time>2013-06-26T14:24:28Z</time></trkpt>
<trkpt lat="33.00762" lon="35.20116"><ele>279.0</ele><time>2013-06-26T14:24:33Z</time></trkpt>
<trkpt lat="33.00754" lon="35.20123"><ele>279.0</ele><time>2013-06-26T14:24:37Z</time></trkpt>
<trkpt lat="33.00747" lon="35.20132"><ele>280.0</ele><time>2013-06-26T14:24:40Z</time></trkpt>
<trkpt lat="33.0074" lon="35.20139"><ele>280.0</ele><time>2013-06-26T14:24:45Z</time></trkpt>
<trkpt lat="33.00733" lon="35.20146"><ele>280.0</ele><time>2013-06-26T14:24:49Z</time></trkpt>
<trkpt lat="33.00726" lon="35.20153"><ele>281.0</ele><time>2013-06-26T14:24:52Z</time></trkpt>
<trkpt lat="33.00719" lon="35.20161"><ele>281.0</ele><time>2013-06-26T14:24:57Z</time></trkpt>
<trkpt lat="33.00713" lon="35.20169"><ele>281.0</ele><time>2013-06-26T14:25:01Z</time></trkpt>
<trkpt lat="33.00706" lon="35.20177"><ele>282.0</ele><time>2013-06-26T14:25:06Z</time></trkpt>
<trkpt lat="33.00699" lon="35.20186"><ele>282.0</ele><time>2013-06-26T14:25:09Z</time></trkpt>
<trkpt lat="33.00694" lon="35.20194"><ele>283.0</ele><time>2013-06-26T14:25:13Z</time></trkpt>
<trkpt lat="33.00688" lon="35.20203"><ele>283.0</ele><time>2013-06-26T14:25:16Z</time></trkpt>
<trkpt lat="33.00682" lon="35.20211"><ele>283.0</ele><time>2013-06-26T14:25:21Z</time></trkpt>
<trkpt lat="33.00677" lon="35.2022"><ele>284.0</ele><time>2013-06-26T14:25:25Z</time></trkpt>
<trkpt lat="33.00673" lon="35.2023"><ele>284.0</ele><time>2013-06-26T14:25:28Z</time></trkpt>
<trkpt lat="33.00668" lon="35.20238"><ele>285.0</ele><time>2013-06-26T14:25:33Z</time></trkpt>
<trkpt lat="33.00664" lon="35.20248"><ele>286.0</ele><time>2013-06-26T14:25:37Z</time></trkpt>
<trkpt lat="33.00661" lon="35.20258"><ele>287.0</ele><time>2013-06-26T14:25:40Z</time></trkpt>
<trkpt lat="33.00658" lon="35.20269"><ele>287.0</ele><time>2013-06-26T14:25:46Z</time></trkpt>
<trkpt lat="33.00655" lon="35.2028"><ele>288.0</ele><time>2013-06-26T14:25:50Z</time></trkpt>
<trkpt lat="33.00652" lon="35.20291"><ele>288.0</ele><time>2013-06-26T14:25:56Z</time></trkpt>
<trkpt lat="33.0065" lon="35.20303"><ele>288.0</ele><time>2013-06-26T14:26:01Z</time></trkpt>
<trkpt lat="33.00648" lon="35.20314"><ele>288.0</ele><time>2013-06-26T14:26:07Z</time></trkpt>
<trkpt lat="33.00645" lon="35.20326"><ele>289.0</ele><time>2013-06-26T14:26:11Z</time></trkpt>
<trkpt lat="33.00643" lon="35.20337"><ele>289.0</ele><time>2013-06-26T14:26:16Z</time></trkpt>
<trkpt lat="33.00642" lon="35.20347"><ele>290.0</ele><time>2013-06-26T14:26:20Z</time></trkpt>
<trkpt lat="33.0064" lon="35.20359"><ele>291.0</ele><time>2013-06-26T14:26:25Z</time></trkpt>
<trkpt lat="33.00638" lon="35.2037"><ele>291.0</ele><time>2013-06-26T14:26:30Z</time></trkpt>
<trkpt lat="33.00637" lon="35.20382"><ele>292.0</ele><time>2013-06-26T14:26:35Z</time></trkpt>
<trkpt lat="33.00636" lon="35.20392"><ele>292.0</ele><time>2013-06-26T14:26:39Z</time></trkpt>
<trkpt lat="33.00634" lon="35.20403"><ele>293.0</ele><time>2013-06-26T14:26:44Z</time></trkpt>
<trkpt lat="33.00632" lon="35.20413"><ele>293.0</ele><time>2013-06-26T14:26:47Z</time></trkpt>
<trkpt lat="33.00631" lon="35.20423"><ele>294.0</ele><time>2013-06-26T14:26:52Z</time></trkpt>
<trkpt lat="33.0063" lon="35.20432"><ele>295.0</ele><time>2013-06-26T14:26:56Z</time></trkpt>
<trkpt lat="33.00627" lon="35.20441"><ele>295.0</ele><time>2013-06-26T14:27:01Z</time></trkpt>
<trkpt lat="33.00627" lon="35.20452"><ele>296.0</ele><time>2013-06-26T14:27:04Z</time></trkpt>
<trkpt lat="33.00626" lon="35.20463"><ele>296.0</ele><time>2013-06-26T14:27:10Z</time></trkpt>
<trkpt lat="33.00623" lon="35.20474"><ele>296.0</ele><time>2013-06-26T14:27:14Z</time></trkpt>
<trkpt lat="33.00622" lon="35.20484"><ele>297.0</ele><time>2013-06-26T14:27:18Z</time></trkpt>
<trkpt lat="33.00621" lon="35.20495"><ele>298.0</ele><time>2013-06-26T14:27:23Z</time></trkpt>
<trkpt lat="33.0062" lon="35.20506"><ele>298.0</ele><time>2013-06-26T14:27:27Z</time></trkpt>
<trkpt lat="33.0062" lon="35.20517"><ele>299.0</ele><time>2013-06-26T14:27:33Z</time></trkpt>
<trkpt lat="33.0062" lon="35.20527"><ele>300.0</ele><time>2013-06-26T14:27:38Z</time></trkpt>
<trkpt lat="33.00618" lon="35.20538"><ele>300.0</ele><time>2013-06-26T14:27:44Z</time></trkpt>
<trkpt lat="33.00617" lon="35.2055"><ele>301.0</ele><time>2013-06-26T14:27:48Z</time></trkpt>
<trkpt lat="33.00617" lon="35.2056"><ele>301.0</ele><time>2013-06-26T14:27:53Z</time></trkpt>
<trkpt lat="33.00616" lon="35.20571"><ele>301.0</ele><time>2013-06-26T14:27:58Z</time></trkpt>
<trkpt lat="33.00617" lon="35.20581"><ele>302.0</ele><time>2013-06-26T14:28:04Z</time></trkpt>
<trkpt lat="33.00617" lon="35.20591"><ele>303.0</ele><time>2013-06-26T14:28:09Z</time></trkpt>
<trkpt lat="33.00617" lon="35.20602"><ele>304.0</ele><time>2013-06-26T14:28:14Z</time></trkpt>
<trkpt lat="33.00616" lon="35.20612"><ele>304.0</ele><time>2013-06-26T14:28:19Z</time></trkpt>
<trkpt lat="33.00618" lon="35.20623"><ele>305.0</ele><time>2013-06-26T14:28:24Z</time></trkpt>
<trkpt lat="33.0062" lon="35.20634"><ele>305.0</ele><time>2013-06-26T14:28:28Z</time></trkpt>
<trkpt lat="33.0062" lon="35.20644"><ele>306.0</ele><time>2013-06-26T14:28:33Z</time></trkpt>
<trkpt lat="33.0062" lon="35.20655"><ele>306.0</ele><time>2013-06-26T14:28:39Z</time></trkpt>
<trkpt lat="33.00623" lon="35.20666"><ele>307.0</ele><time>2013-06-26T14:28:44Z</time></trkpt>
<trkpt lat="33.00623" lon="35.20676"><ele>308.0</ele><time>2013-06-26T14:28:48Z</time></trkpt>
<trkpt lat="33.00625" lon="35.20686"><ele>308.0</ele><time>2013-06-26T14:28:54Z</time></trkpt>
<trkpt lat="33.00627" lon="35.20697"><ele>309.0</ele><time>2013-06-26T14:28:58Z</time></trkpt>
<trkpt lat="33.00628" lon="35.20707"><ele>309.0</ele><time>2013-06-26T14:29:04Z</time></trkpt>
<trkpt lat="33.00629" lon="35.20718"><ele>309.0</ele><time>2013-06-26T14:29:10Z</time></trkpt>
<trkpt lat="33.00631" lon="35.20727"><ele>309.0</ele><time>2013-06-26T14:29:14Z</time></trkpt>
<trkpt lat="33.00633" lon="35.20738"><ele>310.0</ele><time>2013-06-26T14:29:19Z</time></trkpt>
<trkpt lat="33.00634" lon="35.20748"><ele>310.0</ele><time>2013-06-26T14:29:23Z</time></trkpt>
<trkpt lat="33.00635" lon="35.20759"><ele>311.0</ele><time>2013-06-26T14:29:29Z</time></trkpt>
<trkpt lat="33.00636" lon="35.20769"><ele>312.0</ele><time>2013-06-26T14:29:34Z</time></trkpt>
<trkpt lat="33.00636" lon="35.2078"><ele>312.0</ele><time>2013-06-26T14:29:40Z</time></trkpt>
<trkpt lat="33.00638" lon="35.20791"><ele>313.0</ele><time>2013-06-26T14:29:45Z</time></trkpt>
<trkpt lat="33.00638" lon="35.20802"><ele>313.0</ele><time>2013-06-26T14:29:51Z</time></trkpt>
<trkpt lat="33.0064" lon="35.20813"><ele>314.0</ele><time>2013-06-26T14:29:57Z</time></trkpt>
<trkpt lat="33.00641" lon="35.20823"><ele>314.0</ele><time>2013-06-26T14:30:05Z</time></trkpt>
<trkpt lat="33.00643" lon="35.20834"><ele>315.0</ele><time>2013-06-26T14:30:10Z</time></trkpt>
<trkpt lat="33.00643" lon="35.20844"><ele>316.0</ele><time>2013-06-26T14:30:16Z</time></trkpt>
<trkpt lat="33.00644" lon="35.20855"><ele>317.0</ele><time>2013-06-26T14:30:22Z</time></trkpt>
<trkpt lat="33.00646" lon="35.20866"><ele>317.0</ele><time>2013-06-26T14:30:27Z</time></trkpt>
<trkpt lat="33.00648" lon="35.20877"><ele>317.0</ele><time>2013-06-26T14:30:32Z</time></trkpt>
<trkpt lat="33.0065" lon="35.20887"><ele>317.0</ele><time>2013-06-26T14:30:36Z</time></trkpt>
<trkpt lat="33.00654" lon="35.20896"><ele>318.0</ele><time>2013-06-26T14:30:41Z</time></trkpt>
<trkpt lat="33.00653" lon="35.20906"><ele>318.0</ele><time>2013-06-26T14:30:47Z</time></trkpt>
<trkpt lat="33.00653" lon="35.20916"><ele>318.0</ele><time>2013-06-26T14:30:52Z</time></trkpt>
<trkpt lat="33.00656" lon="35.20926"><ele>319.0</ele><time>2013-06-26T14:30:56Z</time></trkpt>
<trkpt lat="33.00657" lon="35.20936"><ele>319.0</ele><time>2013-06-26T14:31:03Z</time></trkpt>
<trkpt lat="33.00656" lon="35.20947"><ele>319.0</ele><time>2013-06-26T14:31:09Z</time></trkpt>
<trkpt lat="33.00657" lon="35.20958"><ele>320.0</ele><time>2013-06-26T14:31:14Z</time></trkpt>
<trkpt lat="33.00657" lon="35.20967"><ele>320.0</ele><time>2013-06-26T14:31:20Z</time></trkpt>
<trkpt lat="33.00664" lon="35.20974"><ele>320.0</ele><time>2013-06-26T14:31:25Z</time></trkpt>
<trkpt lat="33.00675" lon="35.20977"><ele>320.0</ele><time>2013-06-26T14:31:27Z</time></trkpt>
<trkpt lat="33.00683" lon="35.20983"><ele>320.0</ele><time>2013-06-26T14:31:29Z</time></trkpt>
<trkpt lat="33.00692" lon="35.2099"><ele>320.0</ele><time>2013-06-26T14:31:32Z</time></trkpt>
<trkpt lat="33.007" lon="35.20999"><ele>320.0</ele><time>2013-06-26T14:31:34Z</time></trkpt>
<trkpt lat="33.00707" lon="35.21009"><ele>320.0</ele><time>2013-06-26T14:31:36Z</time></trkpt>
<trkpt lat="33.00713" lon="35.21021"><ele>320.0</ele><time>2013-06-26T14:31:38Z</time></trkpt>
<trkpt lat="33.00718" lon="35.21032"><ele>319.0</ele><time>2013-06-26T14:31:39Z</time></trkpt>
<trkpt lat="33.00722" lon="35.21042"><ele>319.0</ele><time>2013-06-26T14:31:42Z</time></trkpt>
<trkpt lat="33.00727" lon="35.21055"><ele>319.0</ele><time>2013-06-26T14:31:45Z</time></trkpt>
<trkpt lat="33.0073" lon="35.21066"><ele>319.0</ele><time>2013-06-26T14:31:48Z</time></trkpt>
<trkpt lat="33.00734" lon="35.21076"><ele>319.0</ele><time>2013-06-26T14:31:52Z</time></trkpt>
<trkpt lat="33.00738" lon="35.21085"><ele>319.0</ele><time>2013-06-26T14:31:56Z</time></trkpt>
<trkpt lat="33.00743" lon="35.21095"><ele>320.0</ele><time>2013-06-26T14:31:59Z</time></trkpt>
<trkpt lat="33.00748" lon="35.21105"><ele>321.0</ele><time>2013-06-26T14:32:04Z</time></trkpt>
<trkpt lat="33.00753" lon="35.21115"><ele>321.0</ele><time>2013-06-26T14:32:09Z</time></trkpt>
<trkpt lat="33.00759" lon="35.21126"><ele>322.0</ele><time>2013-06-26T14:32:12Z</time></trkpt>
<trkpt lat="33.00762" lon="35.21136"><ele>322.0</ele><time>2013-06-26T14:32:15Z</time></trkpt>
<trkpt lat="33.00766" lon="35.21144"><ele>323.0</ele><time>2013-06-26T14:32:20Z</time></trkpt>
<trkpt lat="33.00771" lon="35.21155"><ele>323.0</ele><time>2013-06-26T14:32:24Z</time></trkpt>
<trkpt lat="33.00774" lon="35.21166"><ele>324.0</ele><time>2013-06-26T14:32:27Z</time></trkpt>
<trkpt lat="33.00775" lon="35.21177"><ele>325.0</ele><time>2013-06-26T14:32:32Z</time></trkpt>
<trkpt lat="33.00778" lon="35.21188"><ele>326.0</ele><time>2013-06-26T14:32:35Z</time></trkpt>
<trkpt lat="33.0078" lon="35.21199"><ele>327.0</ele><time>2013-06-26T14:32:40Z</time></trkpt>
<trkpt lat="33.00782" lon="35.21211"><ele>328.0</ele><time>2013-06-26T14:32:44Z</time></trkpt>
<trkpt lat="33.00785" lon="35.21222"><ele>328.0</ele><time>2013-06-26T14:32:47Z</time></trkpt>
<trkpt lat="33.00785" lon="35.21233"><ele>328.0</ele><time>2013-06-26T14:32:52Z</time></trkpt>
<trkpt lat="33.00788" lon="35.21243"><ele>328.0</ele><time>2013-06-26T14:32:56Z</time></trkpt>
<trkpt lat="33.00792" lon="35.21253"><ele>328.0</ele><time>2013-06-26T14:32:59Z</time></trkpt>
<trkpt lat="33.00793" lon="35.21265"><ele>328.0</ele><time>2013-06-26T14:33:06Z</time></trkpt>
<trkpt lat="33.00794" lon="35.21277"><ele>328.0</ele><time>2013-06-26T14:33:11Z</time></trkpt>
<trkpt lat="33.00796" lon="35.21288"><ele>328.0</ele><time>2013-06-26T14:33:14Z</time></trkpt>
<trkpt lat="33.00798" lon="35.21299"><ele>328.0</ele><time>2013-06-26T14:33:19Z</time></trkpt>
<trkpt lat="33.00799" lon="35.2131"><ele>327.0</ele><time>2013-06-26T14:33:24Z</time></trkpt>
<trkpt lat="33.00799" lon="35.21322"><ele>327.0</ele><time>2013-06-26T14:33:30Z</time></trkpt>
<trkpt lat="33.00799" lon="35.21333"><ele>327.0</ele><time>2013-06-26T14:33:34Z</time></trkpt>
<trkpt lat="33.00802" lon="35.21345"><ele>328.0</ele><time>2013-06-26T14:33:39Z</time></trkpt>
<trkpt lat="33.00802" lon="35.21355"><ele>328.0</ele><time>2013-06-26T14:33:43Z</time></trkpt>
<trkpt lat="33.00801" lon="35.21366"><ele>329.0</ele><time>2013-06-26T14:33:50Z</time></trkpt>
<trkpt lat="33.00801" lon="35.21376"><ele>329.0</ele><time>2013-06-26T14:33:56Z</time></trkpt>
<trkpt lat="33.00802" lon="35.21387"><ele>330.0</ele><time>2013-06-26T14:34:03Z</time></trkpt>
<trkpt lat="33.00803" lon="35.21397"><ele>330.0</ele><time>2013-06-26T14:34:08Z</time></trkpt>
<trkpt lat="33.00804" lon="35.21408"><ele>330.0</ele><time>2013-06-26T14:34:13Z</time></trkpt>
<trkpt lat="33.00807" lon="35.21417"><ele>331.0</ele><time>2013-06-26T14:34:17Z</time></trkpt>
<trkpt lat="33.00809" lon="35.21428"><ele>332.0</ele><time>2013-06-26T14:34:23Z</time></trkpt>
<trkpt lat="33.00809" lon="35.2144"><ele>333.0</ele><time>2013-06-26T14:34:28Z</time></trkpt>
<trkpt lat="33.00811" lon="35.2145"><ele>334.0</ele><time>2013-06-26T14:34:33Z</time></trkpt>
<trkpt lat="33.00813" lon="35.21459"><ele>334.0</ele><time>2013-06-26T14:34:38Z</time></trkpt>
<trkpt lat="33.00815" lon="35.21471"><ele>335.0</ele><time>2013-06-26T14:34:45Z</time></trkpt>
<trkpt lat="33.00816" lon="35.21481"><ele>337.0</ele><time>2013-06-26T14:34:50Z</time></trkpt>
<trkpt lat="33.00817" lon="35.21492"><ele>338.0</ele><time>2013-06-26T14:34:56Z</time></trkpt>
<trkpt lat="33.00818" lon="35.21501"><ele>340.0</ele><time>2013-06-26T14:35:03Z</time></trkpt>
<trkpt lat="33.00824" lon="35.21546"><ele>343.0</ele><time>2013-06-26T14:35:32Z</time></trkpt>
<trkpt lat="33.00834" lon="35.21595"><ele>345.0</ele><time>2013-06-26T14:36:06Z</time></trkpt>
<trkpt lat="33.00836" lon="35.21624"><ele>347.0</ele><time>2013-06-26T14:36:25Z</time></trkpt>
<trkpt lat="33.0084" lon="35.21676"><ele>349.0</ele><time>2013-06-26T14:36:59Z</time></trkpt>
<trkpt lat="33.00836" lon="35.21722"><ele>352.0</ele><time>2013-06-26T14:37:30Z</time></trkpt>
<trkpt lat="33.00823" lon="35.21768"><ele>354.0</ele><time>2013-06-26T14:38:02Z</time></trkpt>
<trkpt lat="33.00809" lon="35.21813"><ele>357.0</ele><time>2013-06-26T14:38:31Z</time></trkpt>
<trkpt lat="33.00807" lon="35.21822"><ele>359.0</ele><time>2013-06-26T14:38:37Z</time></trkpt>
<trkpt lat="33.00804" lon="35.21831"><ele>361.0</ele><time>2013-06-26T14:38:44Z</time></trkpt>
<trkpt lat="33.00786" lon="35.2187"><ele>363.0</ele><time>2013-06-26T14:39:14Z</time></trkpt>
<trkpt lat="33.00752" lon="35.21897"><ele>364.0</ele><time>2013-06-26T14:39:46Z</time></trkpt>
<trkpt lat="33.00744" lon="35.21896"><ele>366.0</ele><time>2013-06-26T14:39:51Z</time></trkpt>
<trkpt lat="33.00736" lon="35.21896"><ele>366.0</ele><time>2013-06-26T14:39:56Z</time></trkpt>
<trkpt lat="33.00728" lon="35.21894"><ele>367.0</ele><time>2013-06-26T14:40:02Z</time></trkpt>
<trkpt lat="33.00719" lon="35.21893"><ele>368.0</ele><time>2013-06-26T14:40:07Z</time></trkpt>
<trkpt lat="33.0071" lon="35.21891"><ele>369.0</ele><time>2013-06-26T14:40:11Z</time></trkpt>
<trkpt lat="33.00701" lon="35.2189"><ele>369.0</ele><time>2013-06-26T14:40:16Z</time></trkpt>
<trkpt lat="33.00693" lon="35.21889"><ele>369.0</ele><time>2013-06-26T14:40:21Z</time></trkpt>
<trkpt lat="33.00684" lon="35.21887"><ele>369.0</ele><time>2013-06-26T14:40:26Z</time></trkpt>
<trkpt lat="33.00674" lon="35.21886"><ele>369.0</ele><time>2013-06-26T14:40:31Z</time></trkpt>
<trkpt lat="33.00665" lon="35.21885"><ele>370.0</ele><time>2013-06-26T14:40:36Z</time></trkpt>
<trkpt lat="33.00656" lon="35.21885"><ele>370.0</ele><time>2013-06-26T14:40:41Z</time></trkpt>
<trkpt lat="33.00646" lon="35.21885"><ele>370.0</ele><time>2013-06-26T14:40:46Z</time></trkpt>
<trkpt lat="33.00637" lon="35.21883"><ele>370.0</ele><time>2013-06-26T14:40:51Z</time></trkpt>
<trkpt lat="33.00627" lon="35.21883"><ele>370.0</ele><time>2013-06-26T14:40:56Z</time></trkpt>
<trkpt lat="33.00619" lon="35.21882"><ele>370.0</ele><time>2013-06-26T14:41:01Z</time></trkpt>
<trkpt lat="33.00609" lon="35.2188"><ele>369.0</ele><time>2013-06-26T14:41:06Z</time></trkpt>
<trkpt lat="33.006" lon="35.21879"><ele>369.0</ele><time>2013-06-26T14:41:10Z</time></trkpt>
<trkpt lat="33.00591" lon="35.21877"><ele>369.0</ele><time>2013-06-26T14:41:12Z</time></trkpt>
<trkpt lat="33.00581" lon="35.21874"><ele>369.0</ele><time>2013-06-26T14:41:15Z</time></trkpt>
<trkpt lat="33.00573" lon="35.2187"><ele>368.0</ele><time>2013-06-26T14:41:17Z</time></trkpt>
<trkpt lat="33.00564" lon="35.21866"><ele>368.0</ele><time>2013-06-26T14:41:19Z</time></trkpt>
<trkpt lat="33.00555" lon="35.21862"><ele>367.0</ele><time>2013-06-26T14:41:21Z</time></trkpt>
<trkpt lat="33.00545" lon="35.21857"><ele>367.0</ele><time>2013-06-26T14:41:23Z</time></trkpt>
<trkpt lat="33.00535" lon="35.21853"><ele>366.0</ele><time>2013-06-26T14:41:25Z</time></trkpt>
<trkpt lat="33.00525" lon="35.21848"><ele>366.0</ele><time>2013-06-26T14:41:27Z</time></trkpt>
<trkpt lat="33.00516" lon="35.21844"><ele>366.0</ele><time>2013-06-26T14:41:29Z</time></trkpt>
<trkpt lat="33.00506" lon="35.21839"><ele>365.0</ele><time>2013-06-26T14:41:32Z</time></trkpt>
<trkpt lat="33.00499" lon="35.21832"><ele>365.0</ele><time>2013-06-26T14:41:35Z</time></trkpt>
<trkpt lat="33.005" lon="35.21821"><ele>364.0</ele><time>2013-06-26T14:41:38Z</time></trkpt>
<trkpt lat="33.00508" lon="35.21811"><ele>364.0</ele><time>2013-06-26T14:41:42Z</time></trkpt>
<trkpt lat="33.00513" lon="35.21803"><ele>363.0</ele><time>2013-06-26T14:41:45Z</time></trkpt>
<trkpt lat="33.00518" lon="35.21794"><ele>363.0</ele><time>2013-06-26T14:41:48Z</time></trkpt>
<trkpt lat="33.00521" lon="35.21782"><ele>362.0</ele><time>2013-06-26T14:41:51Z</time></trkpt>
<trkpt lat="33.00526" lon="35.21773"><ele>362.0</ele><time>2013-06-26T14:41:54Z</time></trkpt>
<trkpt lat="33.00529" lon="35.21763"><ele>361.0</ele><time>2013-06-26T14:41:58Z</time></trkpt>
<trkpt lat="33.00532" lon="35.21752"><ele>360.0</ele><time>2013-06-26T14:42:04Z</time></trkpt>
<trkpt lat="33.00536" lon="35.21741"><ele>360.0</ele><time>2013-06-26T14:42:09Z</time></trkpt>
<trkpt lat="33.0054" lon="35.2173"><ele>359.0</ele><time>2013-06-26T14:42:12Z</time></trkpt>
<trkpt lat="33.00542" lon="35.21718"><ele>359.0</ele><time>2013-06-26T14:42:15Z</time></trkpt>
<trkpt lat="33.00542" lon="35.21706"><ele>359.0</ele><time>2013-06-26T14:42:18Z</time></trkpt>
<trkpt lat="33.00544" lon="35.21696"><ele>359.0</ele><time>2013-06-26T14:42:21Z</time></trkpt>
<trkpt lat="33.00545" lon="35.21685"><ele>358.0</ele><time>2013-06-26T14:42:24Z</time></trkpt>
<trkpt lat="33.00546" lon="35.21672"><ele>357.0</ele><time>2013-06-26T14:42:27Z</time></trkpt>
<trkpt lat="33.00545" lon="35.21659"><ele>356.0</ele><time>2013-06-26T14:42:30Z</time></trkpt>
<trkpt lat="33.00546" lon="35.21646"><ele>356.0</ele><time>2013-06-26T14:42:33Z</time></trkpt>
<trkpt lat="33.00546" lon="35.21634"><ele>355.0</ele><time>2013-06-26T14:42:36Z</time></trkpt>
<trkpt lat="33.00546" lon="35.21623"><ele>355.0</ele><time>2013-06-26T14:42:39Z</time></trkpt>
<trkpt lat="33.00545" lon="35.21613"><ele>355.0</ele><time>2013-06-26T14:42:41Z</time></trkpt>
<trkpt lat="33.00544" lon="35.21603"><ele>354.0</ele><time>2013-06-26T14:42:43Z</time></trkpt>
<trkpt lat="33.00544" lon="35.21593"><ele>353.0</ele><time>2013-06-26T14:42:45Z</time></trkpt>
<trkpt lat="33.00544" lon="35.21579"><ele>353.0</ele><time>2013-06-26T14:42:48Z</time></trkpt>
<trkpt lat="33.00547" lon="35.21566"><ele>352.0</ele><time>2013-06-26T14:42:51Z</time></trkpt>
<trkpt lat="33.00549" lon="35.21554"><ele>352.0</ele><time>2013-06-26T14:42:54Z</time></trkpt>
<trkpt lat="33.00551" lon="35.21544"><ele>352.0</ele><time>2013-06-26T14:42:57Z</time></trkpt>
<trkpt lat="33.00543" lon="35.21541"><ele>352.0</ele><time>2013-06-26T14:43:01Z</time></trkpt>
<trkpt lat="33.00535" lon="35.21543"><ele>352.0</ele><time>2013-06-26T14:43:03Z</time></trkpt>
<trkpt lat="33.00525" lon="35.21549"><ele>352.0</ele><time>2013-06-26T14:43:06Z</time></trkpt>
<trkpt lat="33.00517" lon="35.21558"><ele>351.0</ele><time>2013-06-26T14:43:09Z</time></trkpt>
<trkpt lat="33.00508" lon="35.21558"><ele>351.0</ele><time>2013-06-26T14:43:12Z</time></trkpt>
<trkpt lat="33.00503" lon="35.21549"><ele>351.0</ele><time>2013-06-26T14:43:16Z</time></trkpt>
</trkseg></trk></gpx>