<?xml version="1.0" encoding="utf-8"?>
<gpx version="1.1"><trk><trkseg>
<trkpt lat="33.00533" lon="35.2144"><ele>341.0</ele><time>2013-06-06T15:27:00Z</time></trkpt>
<trkpt lat="33.00528" lon="35.21429"><ele>340.0</ele><time>2013-06-06T15:27:21Z</time></trkpt>
<trkpt lat="33.00526" lon="35.21419"><ele>339.0</ele><time>2013-06-06T15:27:24Z</time></trkpt>
<trkpt lat="33.00524" lon="35.21408"><ele>339.0</ele><time>2013-06-06T15:27:27Z</time></trkpt>
<trkpt lat="33.00525" lon="35.21396"><ele>339.0</ele><time>2013-06-06T15:27:30Z</time></trkpt>
<trkpt lat="33.00528" lon="35.21387"><ele>339.0</ele><time>2013-06-06T15:27:33Z</time></trkpt>
<trkpt lat="33.00535" lon="35.21381"><ele>340.0</ele><time>2013-06-06T15:27:36Z</time></trkpt>
<trkpt lat="33.00541" lon="35.21372"><ele>340.0</ele><time>2013-06-06T15:27:39Z</time></trkpt>
<trkpt lat="33.00546" lon="35.21361"><ele>340.0</ele><time>2013-06-06T15:27:42Z</time></trkpt>
<trkpt lat="33.00551" lon="35.21349"><ele>341.0</ele><time>2013-06-06T15:27:45Z</time></trkpt>
<trkpt lat="33.00556" lon="35.2134"><ele>340.0</ele><time>2013-06-06T15:27:47Z</time></trkpt>
<trkpt lat="33.00563" lon="35.21331"><ele>340.0</ele><time>2013-06-06T15:27:49Z</time></trkpt>
<trkpt lat="33.00568" lon="35.21322"><ele>340.0</ele><time>2013-06-06T15:27:51Z</time></trkpt>
<trkpt lat="33.00575" lon="35.21311"><ele>341.0</ele><time>2013-06-06T15:27:53Z</time></trkpt>
<trkpt lat="33.00582" lon="35.21301"><ele>341.0</ele><time>2013-06-06T15:27:55Z</time></trkpt>
<trkpt lat="33.0059" lon="35.21293"><ele>340.0</ele><time>2013-06-06T15:27:57Z</time></trkpt>
<trkpt lat="33.00597" lon="35.21283"><ele>340.0</ele><time>2013-06-06T15:28:00Z</time></trkpt>
<trkpt lat="33.00603" lon="35.21272"><ele>339.0</ele><time>2013-06-06T15:28:02Z</time></trkpt>
<trkpt lat="33.0061" lon="35.21262"><ele>338.0</ele><time>2013-06-06T15:28:04Z</time></trkpt>
<trkpt lat="33.00616" lon="35.21251"><ele>337.0</ele><time>2013-06-06T15:28:05Z</time></trkpt>
<trkpt lat="33.00623" lon="35.2124"><ele>336.0</ele><time>2013-06-06T15:28:07Z</time></trkpt>
<trkpt lat="33.0063" lon="35.21228"><ele>336.0</ele><time>2013-06-06T15:28:09Z</time></trkpt>
<trkpt lat="33.00636" lon="35.21215"><ele>335.0</ele><time>2013-06-06T15:28:11Z</time></trkpt>
<trkpt lat="33.00639" lon="35.21198"><ele>334.0</ele><time>2013-06-06T15:28:13Z</time></trkpt>
<trkpt lat="33.00643" lon="35.21181"><ele>333.0</ele><time>2013-06-06T15:28:15Z</time></trkpt>
<trkpt lat="33.00645" lon="35.21163"><ele>332.0</ele><time>2013-06-06T15:28:17Z</time></trkpt>
<trkpt lat="33.00649" lon="35.21144"><ele>331.0</ele><time>2013-06-06T15:28:19Z</time></trkpt>
<trkpt lat="33.0065" lon="35.21134"><ele>330.0</ele><time>2013-06-06T15:28:20Z</time></trkpt>
<trkpt lat="33.00652" lon="35.21124"><ele>330.0</ele><time>2013-06-06T15:28:21Z</time></trkpt>
<trkpt lat="33.00652" lon="35.21114"><ele>329.0</ele><time>2013-06-06T15:28:22Z</time></trkpt>
<trkpt lat="33.00653" lon="35.21104"><ele>328.0</ele><time>2013-06-06T15:28:23Z</time></trkpt>
<trkpt lat="33.00654" lon="35.21093"><ele>326.0</ele><time>2013-06-06T15:28:25Z</time></trkpt>
<trkpt lat="33.00655" lon="35.21065"><ele>325.0</ele><time>2013-06-06T15:28:27Z</time></trkpt>
<trkpt lat="33.00655" lon="35.21049"><ele>324.0</ele><time>2013-06-06T15:28:29Z</time></trkpt>
<trkpt lat="33.00654" lon="35.21032"><ele>323.0</ele><time>2013-06-06T15:28:31Z</time></trkpt>
<trkpt lat="33.00652" lon="35.21015"><ele>322.0</ele><time>2013-06-06T15:28:33Z</time></trkpt>
<trkpt lat="33.00651" lon="35.20998"><ele>322.0</ele><time>2013-06-06T15:28:35Z</time></trkpt>
<trkpt lat="33.00651" lon="35.20982"><ele>321.0</ele><time>2013-06-06T15:28:37Z</time></trkpt>
<trkpt lat="33.0065" lon="35.20968"><ele>320.0</ele><time>2013-06-06T15:28:39Z</time></trkpt>
<trkpt lat="33.00649" lon="35.20958"><ele>320.0</ele><time>2013-06-06T15:28:41Z</time></trkpt>
<trkpt lat="33.00649" lon="35.20947"><ele>319.0</ele><time>2013-06-06T15:28:44Z</time></trkpt>
<trkpt lat="33.00651" lon="35.20937"><ele>319.0</ele><time>2013-06-06T15:29:06Z</time></trkpt>
<trkpt lat="33.00649" lon="35.20924"><ele>318.0</ele><time>2013-06-06T15:29:10Z</time></trkpt>
<trkpt lat="33.00649" lon="35.2091"><ele>318.0</ele><time>2013-06-06T15:29:13Z</time></trkpt>
<trkpt lat="33.0065" lon="35.209"><ele>317.0</ele><time>2013-06-06T15:29:15Z</time></trkpt>
<trkpt lat="33.0065" lon="35.20889"><ele>317.0</ele><time>2013-06-06T15:29:17Z</time></trkpt>
<trkpt lat="33.00649" lon="35.20876"><ele>317.0</ele><time>2013-06-06T15:29:19Z</time></trkpt>
<trkpt lat="33.00647" lon="35.20864"><ele>317.0</ele><time>2013-06-06T15:29:21Z</time></trkpt>
<trkpt lat="33.00644" lon="35.20852"><ele>316.0</ele><time>2013-06-06T15:29:23Z</time></trkpt>
<trkpt lat="33.00643" lon="35.20839"><ele>315.0</ele><time>2013-06-06T15:29:25Z</time></trkpt>
<trkpt lat="33.00641" lon="35.20825"><ele>314.0</ele><time>2013-06-06T15:29:27Z</time></trkpt>
<trkpt lat="33.00638" lon="35.2081"><ele>314.0</ele><time>2013-06-06T15:29:29Z</time></trkpt>
<trkpt lat="33.00637" lon="35.20794"><ele>313.0</ele><time>2013-06-06T15:29:31Z</time></trkpt>
<trkpt lat="33.00635" lon="35.20778"><ele>312.0</ele><time>2013-06-06T15:29:33Z</time></trkpt>
<trkpt lat="33.00634" lon="35.20761"><ele>312.0</ele><time>2013-06-06T15:29:35Z</time></trkpt>
<trkpt lat="33.00632" lon="35.20743"><ele>311.0</ele><time>2013-06-06T15:29:37Z</time></trkpt>
<trkpt lat="33.0063" lon="35.20724"><ele>310.0</ele><time>2013-06-06T15:29:39Z</time></trkpt>
<trkpt lat="33.00628" lon="35.20707"><ele>309.0</ele><time>2013-06-06T15:29:41Z</time></trkpt>
<trkpt lat="33.00626" lon="35.20689"><ele>308.0</ele><time>2013-06-06T15:29:43Z</time></trkpt>
<trkpt lat="33.00624" lon="35.2067"><ele>307.0</ele><time>2013-06-06T15:29:45Z</time></trkpt>
<trkpt lat="33.00622" lon="35.20651"><ele>306.0</ele><time>2013-06-06T15:29:47Z</time></trkpt>
<trkpt lat="33.0062" lon="35.20634"><ele>306.0</ele><time>2013-06-06T15:29:49Z</time></trkpt>
<trkpt lat="33.00618" lon="35.20619"><ele>305.0</ele><time>2013-06-06T15:29:51Z</time></trkpt>
<trkpt lat="33.00617" lon="35.20604"><ele>304.0</ele><time>2013-06-06T15:29:53Z</time></trkpt>
<trkpt lat="33.00616" lon="35.20591"><ele>303.0</ele><time>2013-06-06T15:29:55Z</time></trkpt>
<trkpt lat="33.00614" lon="35.20577"><ele>302.0</ele><time>2013-06-06T15:29:57Z</time></trkpt>
<trkpt lat="33.00615" lon="35.20563"><ele>302.0</ele><time>2013-06-06T15:30:00Z</time></trkpt>
<trkpt lat="33.00616" lon="35.20548"><ele>300.0</ele><time>2013-06-06T15:30:02Z</time></trkpt>
<trkpt lat="33.00618" lon="35.20532"><ele>299.0</ele><time>2013-06-06T15:30:04Z</time></trkpt>
<trkpt lat="33.0062" lon="35.20516"><ele>299.0</ele><time>2013-06-06T15:30:05Z</time></trkpt>
<trkpt lat="33.00621" lon="35.20499"><ele>298.0</ele><time>2013-06-06T15:30:07Z</time></trkpt>
<trkpt lat="33.00623" lon="35.20482"><ele>297.0</ele><time>2013-06-06T15:30:09Z</time></trkpt>
<trkpt lat="33.00625" lon="35.20464"><ele>296.0</ele><time>2013-06-06T15:30:11Z</time></trkpt>
<trkpt lat="33.00628" lon="35.20446"><ele>295.0</ele><time>2013-06-06T15:30:13Z</time></trkpt>
<trkpt lat="33.0063" lon="35.20427"><ele>294.0</ele><time>2013-06-06T15:30:15Z</time></trkpt>
<trkpt lat="33.00631" lon="35.20418"><ele>293.0</ele><time>2013-06-06T15:30:16Z</time></trkpt>
<trkpt lat="33.00633" lon="35.20399"><ele>292.0</ele><time>2013-06-06T15:30:18Z</time></trkpt>
<trkpt lat="33.00636" lon="35.2038"><ele>292.0</ele><time>2013-06-06T15:30:20Z</time></trkpt>
<trkpt lat="33.00637" lon="35.2037"><ele>291.0</ele><time>2013-06-06T15:30:21Z</time></trkpt>
<trkpt lat="33.00639" lon="35.20361"><ele>291.0</ele><time>2013-06-06T15:30:22Z</time></trkpt>
<trkpt lat="33.0064" lon="35.20351"><ele>290.0</ele><time>2013-06-06T15:30:23Z</time></trkpt>
<trkpt lat="33.00642" lon="35.2034"><ele>290.0</ele><time>2013-06-06T15:30:24Z</time></trkpt>
<trkpt lat="33.00644" lon="35.20331"><ele>289.0</ele><time>2013-06-06T15:30:25Z</time></trkpt>
<trkpt lat="33.00645" lon="35.2032"><ele>289.0</ele><time>2013-06-06T15:30:26Z</time></trkpt>
<trkpt lat="33.00647" lon="35.20311"><ele>288.0</ele><time>2013-06-06T15:30:27Z</time></trkpt>
<trkpt lat="33.00649" lon="35.20301"><ele>288.0</ele><time>2013-06-06T15:30:28Z</time></trkpt>
<trkpt lat="33.00651" lon="35.20291"><ele>288.0</ele><time>2013-06-06T15:30:29Z</time></trkpt>
<trkpt lat="33.00653" lon="35.20281"><ele>288.0</ele><time>2013-06-06T15:30:30Z</time></trkpt>
<trkpt lat="33.00656" lon="35.20271"><ele>287.0</ele><time>2013-06-06T15:30:31Z</time></trkpt>
<trkpt lat="33.00658" lon="35.20261"><ele>287.0</ele><time>2013-06-06T15:30:32Z</time></trkpt>
<trkpt lat="33.00661" lon="35.20251"><ele>286.0</ele><time>2013-06-06T15:30:33Z</time></trkpt>
<trkpt lat="33.00665" lon="35.20242"><ele>285.0</ele><time>2013-06-06T15:30:34Z</time></trkpt>
<trkpt lat="33.00668" lon="35.20233"><ele>284.0</ele><time>2013-06-06T15:30:35Z</time></trkpt>
<trkpt lat="33.00673" lon="35.20225"><ele>284.0</ele><time>2013-06-06T15:30:36Z</time></trkpt>
<trkpt lat="33.00677" lon="35.20216"><ele>284.0</ele><time>2013-06-06T15:30:37Z</time></trkpt>
<trkpt lat="33.00682" lon="35.20208"><ele>283.0</ele><time>2013-06-06T15:30:38Z</time></trkpt>
<trkpt lat="33.00692" lon="35.20193"><ele>282.0</ele><time>2013-06-06T15:30:40Z</time></trkpt>
<trkpt lat="33.00702" lon="35.2018"><ele>282.0</ele><time>2013-06-06T15:30:42Z</time></trkpt>
<trkpt lat="33.00713" lon="35.20167"><ele>281.0</ele><time>2013-06-06T15:30:44Z</time></trkpt>
<trkpt lat="33.00724" lon="35.20155"><ele>280.0</ele><time>2013-06-06T15:30:46Z</time></trkpt>
<trkpt lat="33.00735" lon="35.20143"><ele>280.0</ele><time>2013-06-06T15:30:48Z</time></trkpt>
<trkpt lat="33.00746" lon="35.20132"><ele>280.0</ele><time>2013-06-06T15:30:50Z</time></trkpt>
<trkpt lat="33.00756" lon="35.20121"><ele>280.0</ele><time>2013-06-06T15:30:52Z</time></trkpt>
<trkpt lat="33.00767" lon="35.2011"><ele>280.0</ele><time>2013-06-06T15:30:54Z</time></trkpt>
<trkpt lat="33.00777" lon="35.20099"><ele>280.0</ele><time>2013-06-06T15:30:56Z</time></trkpt>
<trkpt lat="33.00788" lon="35.20088"><ele>279.0</ele><time>2013-06-06T15:30:58Z</time></trkpt>
<trkpt lat="33.00798" lon="35.20077"><ele>279.0</ele><time>2013-06-06T15:31:01Z</time></trkpt>
<trkpt lat="33.00808" lon="35.20067"><ele>279.0</ele><time>2013-06-06T15:31:03Z</time></trkpt>
<trkpt lat="33.00818" lon="35.20056"><ele>280.0</ele><time>2013-06-06T15:31:04Z</time></trkpt>
<trkpt lat="33.00827" lon="35.20046"><ele>279.0</ele><time>2013-06-06T15:31:06Z</time></trkpt>
<trkpt lat="33.00838" lon="35.20035"><ele>279.0</ele><time>2013-06-06T15:31:08Z</time></trkpt>
<trkpt lat="33.00848" lon="35.20024"><ele>279.0</ele><time>2013-06-06T15:31:10Z</time></trkpt>
<trkpt lat="33.00858" lon="35.20013"><ele>278.0</ele><time>2013-06-06T15:31:12Z</time></trkpt>
<trkpt lat="33.00869" lon="35.20002"><ele>278.0</ele><time>2013-06-06T15:31:14Z</time></trkpt>
<trkpt lat="33.00879" lon="35.19991"><ele>277.0</ele><time>2013-06-06T15:31:16Z</time></trkpt>
<trkpt lat="33.0089" lon="35.1998"><ele>277.0</ele><time>2013-06-06T15:31:18Z</time></trkpt>
<trkpt lat="33.009" lon="35.19969"><ele>276.0</ele><time>2013-06-06T15:31:20Z</time></trkpt>
<trkpt lat="33.00911" lon="35.19957"><ele>275.0</ele><time>2013-06-06T15:31:22Z</time></trkpt>
<trkpt lat="33.00921" lon="35.19943"><ele>275.0</ele><time>2013-06-06T15:31:24Z</time></trkpt>
<trkpt lat="33.00928" lon="35.19927"><ele>274.0</ele><time>2013-06-06T15:31:26Z</time></trkpt>
<trkpt lat="33.00933" lon="35.1991"><ele>274.0</ele><time>2013-06-06T15:31:28Z</time></trkpt>
<trkpt lat="33.00938" lon="35.19892"><ele>273.0</ele><time>2013-06-06T15:31:30Z</time></trkpt>
<trkpt lat="33.00942" lon="35.19874"><ele>272.0</ele><time>2013-06-06T15:31:32Z</time></trkpt>
<trkpt lat="33.00946" lon="35.19858"><ele>272.0</ele><time>2013-06-06T15:31:34Z</time></trkpt>
<trkpt lat="33.0095" lon="35.19842"><ele>271.0</ele><time>2013-06-06T15:31:36Z</time></trkpt>
<trkpt lat="33.00953" lon="35.19825"><ele>270.0</ele><time>2013-06-06T15:31:38Z</time></trkpt>
<trkpt lat="33.00956" lon="35.19806"><ele>269.0</ele><time>2013-06-06T15:31:40Z</time></trkpt>
<trkpt lat="33.00958" lon="35.19787"><ele>268.0</ele><time>2013-06-06T15:31:42Z</time></trkpt>
<trkpt lat="33.00959" lon="35.19769"><ele>267.0</ele><time>2013-06-06T15:31:44Z</time></trkpt>
<trkpt lat="33.00961" lon="35.19751"><ele>266.0</ele><time>2013-06-06T15:31:46Z</time></trkpt>
<trkpt lat="33.00962" lon="35.19732"><ele>264.0</ele><time>2013-06-06T15:31:48Z</time></trkpt>
<trkpt lat="33.00962" lon="35.19713"><ele>263.0</ele><time>2013-06-06T15:31:50Z</time></trkpt>
<trkpt lat="33.00961" lon="35.19694"><ele>262.0</ele><time>2013-06-06T15:31:52Z</time></trkpt>
<trkpt lat="33.00959" lon="35.19684"><ele>261.0</ele><time>2013-06-06T15:31:53Z</time></trkpt>
<trkpt lat="33.00956" lon="35.19675"><ele>260.0</ele><time>2013-06-06T15:31:54Z</time></trkpt>
<trkpt lat="33.00954" lon="35.19666"><ele>260.0</ele><time>2013-06-06T15:31:55Z</time></trkpt>
<trkpt lat="33.00949" lon="35.19648"><ele>259.0</ele><time>2013-06-06T15:31:57Z</time></trkpt>
<trkpt lat="33.00943" lon="35.1963"><ele>258.0</ele><time>2013-06-06T15:32:00Z</time></trkpt>
<trkpt lat="33.0094" lon="35.1962"><ele>257.0</ele><time>2013-06-06T15:32:01Z</time></trkpt>
<trkpt lat="33.00937" lon="35.19611"><ele>257.0</ele><time>2013-06-06T15:32:02Z</time></trkpt>
<trkpt lat="33.00934" lon="35.19602"><ele>257.0</ele><time>2013-06-06T15:32:03Z</time></trkpt>
<trkpt lat="33.00931" lon="35.19592"><ele>256.0</ele><time>2013-06-06T15:32:04Z</time></trkpt>
<trkpt lat="33.00925" lon="35.19572"><ele>254.0</ele><time>2013-06-06T15:32:05Z</time></trkpt>
<trkpt lat="33.00921" lon="35.19562"><ele>253.0</ele><time>2013-06-06T15:32:06Z</time></trkpt>
<trkpt lat="33.00918" lon="35.19552"><ele>253.0</ele><time>2013-06-06T15:32:07Z</time></trkpt>
<trkpt lat="33.00915" lon="35.19542"><ele>252.0</ele><time>2013-06-06T15:32:08Z</time></trkpt>
<trkpt lat="33.00912" lon="35.19532"><ele>252.0</ele><time>2013-06-06T15:32:09Z</time></trkpt>
<trkpt lat="33.00909" lon="35.19523"><ele>251.0</ele><time>2013-06-06T15:32:10Z</time></trkpt>
<trkpt lat="33.00905" lon="35.19514"><ele>251.0</ele><time>2013-06-06T15:32:11Z</time></trkpt>
<trkpt lat="33.00901" lon="35.19505"><ele>250.0</ele><time>2013-06-06T15:32:12Z</time></trkpt>
<trkpt lat="33.00897" lon="35.19496"><ele>249.0</ele><time>2013-06-06T15:32:13Z</time></trkpt>
<trkpt lat="33.00892" lon="35.19488"><ele>248.0</ele><time>2013-06-06T15:32:14Z</time></trkpt>
<trkpt lat="33.00888" lon="35.19479"><ele>248.0</ele><time>2013-06-06T15:32:15Z</time></trkpt>
<trkpt lat="33.00883" lon="35.1947"><ele>248.0</ele><time>2013-06-06T15:32:16Z</time></trkpt>
<trkpt lat="33.00878" lon="35.19461"><ele>247.0</ele><time>2013-06-06T15:32:17Z</time></trkpt>
<trkpt lat="33.00874" lon="35.19453"><ele>247.0</ele><time>2013-06-06T15:32:18Z</time></trkpt>
<trkpt lat="33.0087" lon="35.19444"><ele>246.0</ele><time>2013-06-06T15:32:19Z</time></trkpt>
<trkpt lat="33.00865" lon="35.19434"><ele>246.0</ele><time>2013-06-06T15:32:20Z</time></trkpt>
<trkpt lat="33.00862" lon="35.19424"><ele>245.0</ele><time>2013-06-06T15:32:21Z</time></trkpt>
<trkpt lat="33.00858" lon="35.19414"><ele>244.0</ele><time>2013-06-06T15:32:22Z</time></trkpt>
<trkpt lat="33.00856" lon="35.19404"><ele>244.0</ele><time>2013-06-06T15:32:23Z</time></trkpt>
<trkpt lat="33.00855" lon="35.19393"><ele>244.0</ele><time>2013-06-06T15:32:24Z</time></trkpt>
<trkpt lat="33.00853" lon="35.19382"><ele>243.0</ele><time>2013-06-06T15:32:25Z</time></trkpt>
<trkpt lat="33.00852" lon="35.19371"><ele>243.0</ele><time>2013-06-06T15:32:26Z</time></trkpt>
<trkpt lat="33.0085" lon="35.1936"><ele>243.0</ele><time>2013-06-06T15:32:27Z</time></trkpt>
<trkpt lat="33.00848" lon="35.19348"><ele>242.0</ele><time>2013-06-06T15:32:28Z</time></trkpt>
<trkpt lat="33.00846" lon="35.19337"><ele>241.0</ele><time>2013-06-06T15:32:29Z</time></trkpt>
<trkpt lat="33.00845" lon="35.19326"><ele>240.0</ele><time>2013-06-06T15:32:30Z</time></trkpt>
<trkpt lat="33.00843" lon="35.19314"><ele>240.0</ele><time>2013-06-06T15:32:31Z</time></trkpt>
<trkpt lat="33.00841" lon="35.19303"><ele>240.0</ele><time>2013-06-06T15:32:32Z</time></trkpt>
<trkpt lat="33.00839" lon="35.19292"><ele>239.0</ele><time>2013-06-06T15:32:33Z</time></trkpt>
<trkpt lat="33.00837" lon="35.19281"><ele>239.0</ele><time>2013-06-06T15:32:34Z</time></trkpt>
<trkpt lat="33.00835" lon="35.1927"><ele>238.0</ele><time>2013-06-06T15:32:35Z</time></trkpt>
<trkpt lat="33.00833" lon="35.19259"><ele>238.0</ele><time>2013-06-06T15:32:36Z</time></trkpt>
<trkpt lat="33.00832" lon="35.19248"><ele>237.0</ele><time>2013-06-06T15:32:37Z</time></trkpt>
<trkpt lat="33.00832" lon="35.19237"><ele>236.0</ele><time>2013-06-06T15:32:38Z</time></trkpt>
<trkpt lat="33.00832" lon="35.19226"><ele>236.0</ele><time>2013-06-06T15:32:39Z</time></trkpt>
<trkpt lat="33.00833" lon="35.19215"><ele>236.0</ele><time>2013-06-06T15:32:40Z</time></trkpt>
<trkpt lat="33.00835" lon="35.19204"><ele>236.0</ele><time>2013-06-06T15:32:41Z</time></trkpt>
<trkpt lat="33.00836" lon="35.19193"><ele>235.0</ele><time>2013-06-06T15:32:42Z</time></trkpt>
<trkpt lat="33.00838" lon="35.19183"><ele>235.0</ele><time>2013-06-06T15:32:43Z</time></trkpt>
<trkpt lat="33.00839" lon="35.19172"><ele>234.0</ele><time>2013-06-06T15:32:44Z</time></trkpt>
<trkpt lat="33.00841" lon="35.19161"><ele>233.0</ele><time>2013-06-06T15:32:45Z</time></trkpt>
<trkpt lat="33.00842" lon="35.1915"><ele>232.0</ele><time>2013-06-06T15:32:46Z</time></trkpt>
<trkpt lat="33.00844" lon="35.19139"><ele>232.0</ele><time>2013-06-06T15:32:47Z</time></trkpt>
<trkpt lat="33.00846" lon="35.19129"><ele>231.0</ele><time>2013-06-06T15:32:48Z</time></trkpt>
<trkpt lat="33.00847" lon="35.19118"><ele>231.0</ele><time>2013-06-06T15:32:49Z</time></trkpt>
<trkpt lat="33.00849" lon="35.19107"><ele>230.0</ele><time>2013-06-06T15:32:50Z</time></trkpt>
<trkpt lat="33.00851" lon="35.19097"><ele>230.0</ele><time>2013-06-06T15:32:51Z</time></trkpt>
<trkpt lat="33.00852" lon="35.19086"><ele>229.0</ele><time>2013-06-06T15:32:52Z</time></trkpt>
<trkpt lat="33.00854" lon="35.19076"><ele>228.0</ele><time>2013-06-06T15:32:53Z</time></trkpt>
<trkpt lat="33.00855" lon="35.19065"><ele>228.0</ele><time>2013-06-06T15:32:54Z</time></trkpt>
<trkpt lat="33.00857" lon="35.19055"><ele>228.0</ele><time>2013-06-06T15:32:55Z</time></trkpt>
<trkpt lat="33.00858" lon="35.19044"><ele>228.0</ele><time>2013-06-06T15:32:56Z</time></trkpt>
<trkpt lat="33.0086" lon="35.19034"><ele>228.0</ele><time>2013-06-06T15:32:57Z</time></trkpt>
<trkpt lat="33.00862" lon="35.19024"><ele>228.0</ele><time>2013-06-06T15:32:58Z</time></trkpt>
<trkpt lat="33.00863" lon="35.19014"><ele>228.0</ele><time>2013-06-06T15:32:59Z</time></trkpt>
<trkpt lat="33.00864" lon="35.19004"><ele>228.0</ele><time>2013-06-06T15:33:01Z</time></trkpt>
<trkpt lat="33.00866" lon="35.18994"><ele>227.0</ele><time>2013-06-06T15:33:02Z</time></trkpt>
<trkpt lat="33.00867" lon="35.18984"><ele>226.0</ele><time>2013-06-06T15:33:03Z</time></trkpt>
<trkpt lat="33.00869" lon="35.18974"><ele>226.0</ele><time>2013-06-06T15:33:04Z</time></trkpt>
<trkpt lat="33.00872" lon="35.18954"><ele>224.0</ele><time>2013-06-06T15:33:05Z</time></trkpt>
<trkpt lat="33.00873" lon="35.18945"><ele>223.0</ele><time>2013-06-06T15:33:06Z</time></trkpt>
<trkpt lat="33.00876" lon="35.18926"><ele>222.0</ele><time>2013-06-06T15:33:08Z</time></trkpt>
<trkpt lat="33.00878" lon="35.18916"><ele>221.0</ele><time>2013-06-06T15:33:09Z</time></trkpt>
<trkpt lat="33.00881" lon="35.18906"><ele>219.0</ele><time>2013-06-06T15:33:10Z</time></trkpt>
<trkpt lat="33.00883" lon="35.18896"><ele>218.0</ele><time>2013-06-06T15:33:11Z</time></trkpt>
<trkpt lat="33.00884" lon="35.18887"><ele>217.0</ele><time>2013-06-06T15:33:12Z</time></trkpt>
<trkpt lat="33.00886" lon="35.18877"><ele>215.0</ele><time>2013-06-06T15:33:13Z</time></trkpt>
<trkpt lat="33.00888" lon="35.18867"><ele>214.0</ele><time>2013-06-06T15:33:14Z</time></trkpt>
<trkpt lat="33.0089" lon="35.18858"><ele>213.0</ele><time>2013-06-06T15:33:15Z</time></trkpt>
<trkpt lat="33.00895" lon="35.18839"><ele>212.0</ele><time>2013-06-06T15:33:17Z</time></trkpt>
<trkpt lat="33.00898" lon="35.18821"><ele>211.0</ele><time>2013-06-06T15:33:19Z</time></trkpt>
<trkpt lat="33.00902" lon="35.18802"><ele>210.0</ele><time>2013-06-06T15:33:21Z</time></trkpt>
<trkpt lat="33.00904" lon="35.18793"><ele>209.0</ele><time>2013-06-06T15:33:22Z</time></trkpt>
<trkpt lat="33.00905" lon="35.18783"><ele>209.0</ele><time>2013-06-06T15:33:23Z</time></trkpt>
<trkpt lat="33.00907" lon="35.18773"><ele>208.0</ele><time>2013-06-06T15:33:24Z</time></trkpt>
<trkpt lat="33.00909" lon="35.18763"><ele>208.0</ele><time>2013-06-06T15:33:25Z</time></trkpt>
<trkpt lat="33.00911" lon="35.18753"><ele>207.0</ele><time>2013-06-06T15:33:26Z</time></trkpt>
<trkpt lat="33.00912" lon="35.18743"><ele>206.0</ele><time>2013-06-06T15:33:27Z</time></trkpt>
<trkpt lat="33.00914" lon="35.18733"><ele>205.0</ele><time>2013-06-06T15:33:28Z</time></trkpt>
<trkpt lat="33.00915" lon="35.18723"><ele>205.0</ele><time>2013-06-06T15:33:29Z</time></trkpt>
<trkpt lat="33.00916" lon="35.18713"><ele>205.0</ele><time>2013-06-06T15:33:30Z</time></trkpt>
<trkpt lat="33.00919" lon="35.18694"><ele>204.0</ele><time>2013-06-06T15:33:32Z</time></trkpt>
<trkpt lat="33.00923" lon="35.18676"><ele>204.0</ele><time>2013-06-06T15:33:34Z</time></trkpt>
<trkpt lat="33.00928" lon="35.1866"><ele>204.0</ele><time>2013-06-06T15:33:36Z</time></trkpt>
<trkpt lat="33.00934" lon="35.18643"><ele>203.0</ele><time>2013-06-06T15:33:38Z</time></trkpt>
<trkpt lat="33.00941" lon="35.18626"><ele>202.0</ele><time>2013-06-06T15:33:40Z</time></trkpt>
<trkpt lat="33.00946" lon="35.18618"><ele>200.0</ele><time>2013-06-06T15:33:41Z</time></trkpt>
<trkpt lat="33.00952" lon="35.1861"><ele>199.0</ele><time>2013-06-06T15:33:42Z</time></trkpt>
<trkpt lat="33.00957" lon="35.18602"><ele>197.0</ele><time>2013-06-06T15:33:43Z</time></trkpt>
<trkpt lat="33.00963" lon="35.18594"><ele>196.0</ele><time>2013-06-06T15:33:44Z</time></trkpt>
<trkpt lat="33.00969" lon="35.18586"><ele>195.0</ele><time>2013-06-06T15:33:45Z</time></trkpt>
<trkpt lat="33.00975" lon="35.18577"><ele>194.0</ele><time>2013-06-06T15:33:46Z</time></trkpt>
<trkpt lat="33.00981" lon="35.18569"><ele>193.0</ele><time>2013-06-06T15:33:47Z</time></trkpt>
<trkpt lat="33.00987" lon="35.1856"><ele>192.0</ele><time>2013-06-06T15:33:48Z</time></trkpt>
<trkpt lat="33.00993" lon="35.1855"><ele>191.0</ele><time>2013-06-06T15:33:49Z</time></trkpt>
<trkpt lat="33.00998" lon="35.18541"><ele>190.0</ele><time>2013-06-06T15:33:50Z</time></trkpt>
<trkpt lat="33.01004" lon="35.18531"><ele>190.0</ele><time>2013-06-06T15:33:51Z</time></trkpt>
<trkpt lat="33.01009" lon="35.18522"><ele>191.0</ele><time>2013-06-06T15:33:52Z</time></trkpt>
<trkpt lat="33.01014" lon="35.18513"><ele>191.0</ele><time>2013-06-06T15:33:53Z</time></trkpt>
<trkpt lat="33.01019" lon="35.18503"><ele>192.0</ele><time>2013-06-06T15:33:54Z</time></trkpt>
<trkpt lat="33.01024" lon="35.18494"><ele>193.0</ele><time>2013-06-06T15:33:55Z</time></trkpt>
<trkpt lat="33.01028" lon="35.18485"><ele>192.0</ele><time>2013-06-06T15:33:56Z</time></trkpt>
<trkpt lat="33.01033" lon="35.18476"><ele>192.0</ele><time>2013-06-06T15:33:57Z</time></trkpt>
<trkpt lat="33.01038" lon="35.18467"><ele>191.0</ele><time>2013-06-06T15:33:58Z</time></trkpt>
<trkpt lat="33.01042" lon="35.18458"><ele>190.0</ele><time>2013-06-06T15:33:59Z</time></trkpt>
<trkpt lat="33.01046" lon="35.1845"><ele>190.0</ele><time>2013-06-06T15:34:01Z</time></trkpt>
<trkpt lat="33.0105" lon="35.18441"><ele>190.0</ele><time>2013-06-06T15:34:02Z</time></trkpt>
<trkpt lat="33.01058" lon="35.18424"><ele>190.0</ele><time>2013-06-06T15:34:04Z</time></trkpt>
<trkpt lat="33.01064" lon="35.18409"><ele>190.0</ele><time>2013-06-06T15:34:05Z</time></trkpt>
<trkpt lat="33.0107" lon="35.18394"><ele>190.0</ele><time>2013-06-06T15:34:07Z</time></trkpt>
<trkpt lat="33.01077" lon="35.18378"><ele>190.0</ele><time>2013-06-06T15:34:09Z</time></trkpt>
<trkpt lat="33.01085" lon="35.18363"><ele>189.0</ele><time>2013-06-06T15:34:11Z</time></trkpt>
<trkpt lat="33.01093" lon="35.18349"><ele>189.0</ele><time>2013-06-06T15:34:13Z</time></trkpt>
<trkpt lat="33.011" lon="35.18335"><ele>189.0</ele><time>2013-06-06T15:34:15Z</time></trkpt>
<trkpt lat="33.01108" lon="35.18321"><ele>189.0</ele><time>2013-06-06T15:34:17Z</time></trkpt>
<trkpt lat="33.01117" lon="35.18308"><ele>189.0</ele><time>2013-06-06T15:34:19Z</time></trkpt>
<trkpt lat="33.01125" lon="35.18295"><ele>188.0</ele><time>2013-06-06T15:34:21Z</time></trkpt>
<trkpt lat="33.01133" lon="35.18282"><ele>187.0</ele><time>2013-06-06T15:34:23Z</time></trkpt>
<trkpt lat="33.0114" lon="35.18268"><ele>186.0</ele><time>2013-06-06T15:34:25Z</time></trkpt>
<trkpt lat="33.01146" lon="35.18254"><ele>186.0</ele><time>2013-06-06T15:34:27Z</time></trkpt>
<trkpt lat="33.01153" lon="35.1824"><ele>185.0</ele><time>2013-06-06T15:34:29Z</time></trkpt>
<trkpt lat="33.01161" lon="35.18225"><ele>184.0</ele><time>2013-06-06T15:34:31Z</time></trkpt>
<trkpt lat="33.01169" lon="35.18209"><ele>182.0</ele><time>2013-06-06T15:34:33Z</time></trkpt>
<trkpt lat="33.01176" lon="35.18194"><ele>182.0</ele><time>2013-06-06T15:34:35Z</time></trkpt>
<trkpt lat="33.01183" lon="35.18179"><ele>181.0</ele><time>2013-06-06T15:34:37Z</time></trkpt>
<trkpt lat="33.01189" lon="35.18164"><ele>180.0</ele><time>2013-06-06T15:34:39Z</time></trkpt>
<trkpt lat="33.01193" lon="35.18148"><ele>180.0</ele><time>2013-06-06T15:34:41Z</time></trkpt>
<trkpt lat="33.01196" lon="35.18131"><ele>179.0</ele><time>2013-06-06T15:34:43Z</time></trkpt>
<trkpt lat="33.01197" lon="35.18114"><ele>179.0</ele><time>2013-06-06T15:34:45Z</time></trkpt>
<trkpt lat="33.01197" lon="35.18096"><ele>178.0</ele><time>2013-06-06T15:34:47Z</time></trkpt>
<trkpt lat="33.01197" lon="35.18078"><ele>178.0</ele><time>2013-06-06T15:34:49Z</time></trkpt>
<trkpt lat="33.01198" lon="35.1806"><ele>177.0</ele><time>2013-06-06T15:34:51Z</time></trkpt>
<trkpt lat="33.012" lon="35.18043"><ele>176.0</ele><time>2013-06-06T15:34:53Z</time></trkpt>
<trkpt lat="33.012" lon="35.18025"><ele>175.0</ele><time>2013-06-06T15:34:55Z</time></trkpt>
<trkpt lat="33.01202" lon="35.18008"><ele>174.0</ele><time>2013-06-06T15:34:57Z</time></trkpt>
<trkpt lat="33.01205" lon="35.1799"><ele>173.0</ele><time>2013-06-06T15:34:59Z</time></trkpt>
<trkpt lat="33.01208" lon="35.17971"><ele>172.0</ele><time>2013-06-06T15:35:02Z</time></trkpt>
<trkpt lat="33.01211" lon="35.17953"><ele>170.0</ele><time>2013-06-06T15:35:04Z</time></trkpt>
<trkpt lat="33.01215" lon="35.17935"><ele>169.0</ele><time>2013-06-06T15:35:05Z</time></trkpt>
<trkpt lat="33.01219" lon="35.17916"><ele>168.0</ele><time>2013-06-06T15:35:07Z</time></trkpt>
<trkpt lat="33.01222" lon="35.17898"><ele>166.0</ele><time>2013-06-06T15:35:09Z</time></trkpt>
<trkpt lat="33.01225" lon="35.1788"><ele>165.0</ele><time>2013-06-06T15:35:11Z</time></trkpt>
<trkpt lat="33.01229" lon="35.17862"><ele>164.0</ele><time>2013-06-06T15:35:13Z</time></trkpt>
<trkpt lat="33.01234" lon="35.17844"><ele>163.0</ele><time>2013-06-06T15:35:15Z</time></trkpt>
<trkpt lat="33.01238" lon="35.17827"><ele>163.0</ele><time>2013-06-06T15:35:17Z</time></trkpt>
<trkpt lat="33.01241" lon="35.1781"><ele>162.0</ele><time>2013-06-06T15:35:19Z</time></trkpt>
<trkpt lat="33.01244" lon="35.17794"><ele>162.0</ele><time>2013-06-06T15:35:21Z</time></trkpt>
<trkpt lat="33.01248" lon="35.17777"><ele>161.0</ele><time>2013-06-06T15:35:23Z</time></trkpt>
<trkpt lat="33.01252" lon="35.17762"><ele>161.0</ele><time>2013-06-06T15:35:25Z</time></trkpt>
<trkpt lat="33.01256" lon="35.17745"><ele>161.0</ele><time>2013-06-06T15:35:27Z</time></trkpt>
<trkpt lat="33.0126" lon="35.17728"><ele>161.0</ele><time>2013-06-06T15:35:29Z</time></trkpt>
<trkpt lat="33.01264" lon="35.17711"><ele>161.0</ele><time>2013-06-06T15:35:31Z</time></trkpt>
<trkpt lat="33.01268" lon="35.17693"><ele>160.0</ele><time>2013-06-06T15:35:33Z</time></trkpt>
<trkpt lat="33.01272" lon="35.17677"><ele>159.0</ele><time>2013-06-06T15:35:35Z</time></trkpt>
<trkpt lat="33.01276" lon="35.17659"><ele>158.0</ele><time>2013-06-06T15:35:37Z</time></trkpt>
<trkpt lat="33.0128" lon="35.17642"><ele>157.0</ele><time>2013-06-06T15:35:39Z</time></trkpt>
<trkpt lat="33.01285" lon="35.17624"><ele>156.0</ele><time>2013-06-06T15:35:41Z</time></trkpt>
<trkpt lat="33.01289" lon="35.17606"><ele>154.0</ele><time>2013-06-06T15:35:43Z</time></trkpt>
<trkpt lat="33.01294" lon="35.1759"><ele>153.0</ele><time>2013-06-06T15:35:45Z</time></trkpt>
<trkpt lat="33.01298" lon="35.17575"><ele>151.0</ele><time>2013-06-06T15:35:47Z</time></trkpt>
<trkpt lat="33.01302" lon="35.17561"><ele>150.0</ele><time>2013-06-06T15:35:49Z</time></trkpt>
<trkpt lat="33.01307" lon="35.17547"><ele>148.0</ele><time>2013-06-06T15:35:51Z</time></trkpt>
<trkpt lat="33.01312" lon="35.17532"><ele>147.0</ele><time>2013-06-06T15:35:53Z</time></trkpt>
<trkpt lat="33.01318" lon="35.17516"><ele>145.0</ele><time>2013-06-06T15:35:55Z</time></trkpt>
<trkpt lat="33.01324" lon="35.17501"><ele>145.0</ele><time>2013-06-06T15:35:57Z</time></trkpt>
<trkpt lat="33.0133" lon="35.17487"><ele>144.0</ele><time>2013-06-06T15:35:59Z</time></trkpt>
<trkpt lat="33.01336" lon="35.17473"><ele>143.0</ele><time>2013-06-06T15:36:02Z</time></trkpt>
<trkpt lat="33.01342" lon="35.17461"><ele>143.0</ele><time>2013-06-06T15:36:04Z</time></trkpt>
<trkpt lat="33.01346" lon="35.17451"><ele>143.0</ele><time>2013-06-06T15:36:05Z</time></trkpt>
<trkpt lat="33.01351" lon="35.17442"><ele>143.0</ele><time>2013-06-06T15:36:08Z</time></trkpt>
<trkpt lat="33.01347" lon="35.1745"><ele>143.0</ele><time>2013-06-06T15:36:19Z</time></trkpt>
<trkpt lat="33.01342" lon="35.17462"><ele>143.0</ele><time>2013-06-06T15:36:23Z</time></trkpt>
<trkpt lat="33.01337" lon="35.17472"><ele>143.0</ele><time>2013-06-06T15:36:26Z</time></trkpt>
<trkpt lat="33.01333" lon="35.17483"><ele>143.0</ele><time>2013-06-06T15:36:29Z</time></trkpt>
<trkpt lat="33.01328" lon="35.17494"><ele>144.0</ele><time>2013-06-06T15:36:32Z</time></trkpt>
<trkpt lat="33.01324" lon="35.17504"><ele>144.0</ele><time>2013-06-06T15:36:35Z</time></trkpt>
<trkpt lat="33.0132" lon="35.17514"><ele>145.0</ele><time>2013-06-06T15:36:38Z</time></trkpt>
<trkpt lat="33.01317" lon="35.17523"><ele>146.0</ele><time>2013-06-06T15:36:41Z</time></trkpt>
<trkpt lat="33.01313" lon="35.17533"><ele>146.0</ele><time>2013-06-06T15:36:44Z</time></trkpt>
<trkpt lat="33.0131" lon="35.17542"><ele>147.0</ele><time>2013-06-06T15:36:47Z</time></trkpt>
<trkpt lat="33.01308" lon="35.17551"><ele>147.0</ele><time>2013-06-06T15:36:50Z</time></trkpt>
<trkpt lat="33.01305" lon="35.17561"><ele>148.0</ele><time>2013-06-06T15:36:53Z</time></trkpt>
<trkpt lat="33.01302" lon="35.17573"><ele>150.0</ele><time>2013-06-06T15:36:57Z</time></trkpt>
<trkpt lat="33.01298" lon="35.17585"><ele>151.0</ele><time>2013-06-06T15:37:02Z</time></trkpt>
<trkpt lat="33.01296" lon="35.17594"><ele>153.0</ele><time>2013-06-06T15:37:04Z</time></trkpt>
<trkpt lat="33.01293" lon="35.17604"><ele>154.0</ele><time>2013-06-06T15:37:07Z</time></trkpt>
<trkpt lat="33.0129" lon="35.17615"><ele>155.0</ele><time>2013-06-06T15:37:11Z</time></trkpt>
<trkpt lat="33.01286" lon="35.17626"><ele>156.0</ele><time>2013-06-06T15:37:15Z</time></trkpt>
<trkpt lat="33.01284" lon="35.17637"><ele>157.0</ele><time>2013-06-06T15:37:19Z</time></trkpt>
<trkpt lat="33.01282" lon="35.17648"><ele>158.0</ele><time>2013-06-06T15:37:23Z</time></trkpt>
<trkpt lat="33.01279" lon="35.17658"><ele>159.0</ele><time>2013-06-06T15:37:27Z</time></trkpt>
<trkpt lat="33.01279" lon="35.17668"><ele>160.0</ele><time>2013-06-06T15:37:31Z</time></trkpt>
<trkpt lat="33.01275" lon="35.17679"><ele>160.0</ele><time>2013-06-06T15:37:36Z</time></trkpt>
<trkpt lat="33.01272" lon="35.17688"><ele>161.0</ele><time>2013-06-06T15:37:40Z</time></trkpt>
<trkpt lat="33.01269" lon="35.17699"><ele>161.0</ele><time>2013-06-06T15:37:45Z</time></trkpt>
<trkpt lat="33.01266" lon="35.1771"><ele>161.0</ele><time>2013-06-06T15:37:50Z</time></trkpt>
<trkpt lat="33.01264" lon="35.1772"><ele>161.0</ele><time>2013-06-06T15:37:54Z</time></trkpt>
<trkpt lat="33.01263" lon="35.17731"><ele>161.0</ele><time>2013-06-06T15:37:59Z</time></trkpt>
<trkpt lat="33.01261" lon="35.17741"><ele>161.0</ele><time>2013-06-06T15:38:04Z</time></trkpt>
<trkpt lat="33.01259" lon="35.17752"><ele>161.0</ele><time>2013-06-06T15:38:10Z</time></trkpt>
<trkpt lat="33.01256" lon="35.17761"><ele>161.0</ele><time>2013-06-06T15:38:15Z</time></trkpt>
<trkpt lat="33.01253" lon="35.17771"><ele>162.0</ele><time>2013-06-06T15:38:20Z</time></trkpt>
<trkpt lat="33.0125" lon="35.1778"><ele>162.0</ele><time>2013-06-06T15:38:25Z</time></trkpt>
<trkpt lat="33.01249" lon="35.1779"><ele>162.0</ele><time>2013-06-06T15:38:31Z</time></trkpt>
<trkpt lat="33.01247" lon="35.178"><ele>162.0</ele><time>2013-06-06T15:38:36Z</time></trkpt>
<trkpt lat="33.01244" lon="35.17809"><ele>162.0</ele><time>2013-06-06T15:38:41Z</time></trkpt>
<trkpt lat="33.01241" lon="35.1782"><ele>162.0</ele><time>2013-06-06T15:38:47Z</time></trkpt>
<trkpt lat="33.01238" lon="35.17831"><ele>162.0</ele><time>2013-06-06T15:38:53Z</time></trkpt>
<trkpt lat="33.01237" lon="35.17842"><ele>162.0</ele><time>2013-06-06T15:38:59Z</time></trkpt>
<trkpt lat="33.01235" lon="35.17852"><ele>163.0</ele><time>2013-06-06T15:39:04Z</time></trkpt>
<trkpt lat="33.01233" lon="35.17863"><ele>163.0</ele><time>2013-06-06T15:39:10Z</time></trkpt>
<trkpt lat="33.0123" lon="35.17872"><ele>164.0</ele><time>2013-06-06T15:39:15Z</time></trkpt>
<trkpt lat="33.01228" lon="35.17881"><ele>164.0</ele><time>2013-06-06T15:39:20Z</time></trkpt>
<trkpt lat="33.01226" lon="35.17891"><ele>165.0</ele><time>2013-06-06T15:39:25Z</time></trkpt>
<trkpt lat="33.01224" lon="35.17901"><ele>165.0</ele><time>2013-06-06T15:39:30Z</time></trkpt>
<trkpt lat="33.01221" lon="35.17911"><ele>166.0</ele><time>2013-06-06T15:39:35Z</time></trkpt>
<trkpt lat="33.0122" lon="35.17923"><ele>167.0</ele><time>2013-06-06T15:39:40Z</time></trkpt>
<trkpt lat="33.01219" lon="35.17933"><ele>169.0</ele><time>2013-06-06T15:39:44Z</time></trkpt>
<trkpt lat="33.01217" lon="35.17943"><ele>169.0</ele><time>2013-06-06T15:39:48Z</time></trkpt>
<trkpt lat="33.01215" lon="35.17953"><ele>170.0</ele><time>2013-06-06T15:39:52Z</time></trkpt>
<trkpt lat="33.01213" lon="35.17964"><ele>171.0</ele><time>2013-06-06T15:39:57Z</time></trkpt>
<trkpt lat="33.0121" lon="35.17975"><ele>172.0</ele><time>2013-06-06T15:40:03Z</time></trkpt>
<trkpt lat="33.01208" lon="35.17985"><ele>173.0</ele><time>2013-06-06T15:40:06Z</time></trkpt>
<trkpt lat="33.01206" lon="35.17994"><ele>174.0</ele><time>2013-06-06T15:40:10Z</time></trkpt>
<trkpt lat="33.01205" lon="35.18006"><ele>175.0</ele><time>2013-06-06T15:40:15Z</time></trkpt>
<trkpt lat="33.01204" lon="35.18015"><ele>176.0</ele><time>2013-06-06T15:40:19Z</time></trkpt>
<trkpt lat="33.01203" lon="35.18026"><ele>176.0</ele><time>2013-06-06T15:40:23Z</time></trkpt>
<trkpt lat="33.01202" lon="35.18036"><ele>176.0</ele><time>2013-06-06T15:40:27Z</time></trkpt>
<trkpt lat="33.012" lon="35.18048"><ele>176.0</ele><time>2013-06-06T15:40:31Z</time></trkpt>
<trkpt lat="33.01198" lon="35.18059"><ele>177.0</ele><time>2013-06-06T15:40:35Z</time></trkpt>
<trkpt lat="33.01197" lon="35.18071"><ele>177.0</ele><time>2013-06-06T15:40:39Z</time></trkpt>
<trkpt lat="33.01196" lon="35.18082"><ele>177.0</ele><time>2013-06-06T15:40:43Z</time></trkpt>
<trkpt lat="33.01196" lon="35.18094"><ele>178.0</ele><time>2013-06-06T15:40:47Z</time></trkpt>
<trkpt lat="33.01196" lon="35.18106"><ele>178.0</ele><time>2013-06-06T15:40:51Z</time></trkpt>
<trkpt lat="33.01197" lon="35.18117"><ele>179.0</ele><time>2013-06-06T15:40:55Z</time></trkpt>
<trkpt lat="33.01197" lon="35.18129"><ele>179.0</ele><time>2013-06-06T15:40:59Z</time></trkpt>
<trkpt lat="33.01196" lon="35.18141"><ele>180.0</ele><time>2013-06-06T15:41:04Z</time></trkpt>
<trkpt lat="33.01194" lon="35.18152"><ele>180.0</ele><time>2013-06-06T15:41:07Z</time></trkpt>
<trkpt lat="33.01192" lon="35.18163"><ele>180.0</ele><time>2013-06-06T15:41:11Z</time></trkpt>
<trkpt lat="33.01188" lon="35.18174"><ele>181.0</ele><time>2013-06-06T15:41:15Z</time></trkpt>
<trkpt lat="33.01183" lon="35.18185"><ele>182.0</ele><time>2013-06-06T15:41:19Z</time></trkpt>
<trkpt lat="33.01178" lon="35.18196"><ele>182.0</ele><time>2013-06-06T15:41:23Z</time></trkpt>
<trkpt lat="33.01173" lon="35.18206"><ele>182.0</ele><time>2013-06-06T15:41:27Z</time></trkpt>
<trkpt lat="33.01168" lon="35.18216"><ele>182.0</ele><time>2013-06-06T15:41:31Z</time></trkpt>
<trkpt lat="33.01163" lon="35.18227"><ele>183.0</ele><time>2013-06-06T15:41:35Z</time></trkpt>
<trkpt lat="33.01157" lon="35.18237"><ele>183.0</ele><time>2013-06-06T15:41:39Z</time></trkpt>
<trkpt lat="33.01152" lon="35.18247"><ele>184.0</ele><time>2013-06-06T15:41:43Z</time></trkpt>
<trkpt lat="33.01147" lon="35.18256"><ele>185.0</ele><time>2013-06-06T15:41:47Z</time></trkpt>
<trkpt lat="33.01142" lon="35.18266"><ele>186.0</ele><time>2013-06-06T15:41:51Z</time></trkpt>
<trkpt lat="33.01136" lon="35.18277"><ele>187.0</ele><time>2013-06-06T15:41:55Z</time></trkpt>
<trkpt lat="33.01132" lon="35.18285"><ele>188.0</ele><time>2013-06-06T15:41:58Z</time></trkpt>
<trkpt lat="33.01127" lon="35.18294"><ele>188.0</ele><time>2013-06-06T15:42:02Z</time></trkpt>
<trkpt lat="33.01122" lon="35.18304"><ele>189.0</ele><time>2013-06-06T15:42:04Z</time></trkpt>
<trkpt lat="33.01116" lon="35.18313"><ele>190.0</ele><time>2013-06-06T15:42:07Z</time></trkpt>
<trkpt lat="33.01111" lon="35.18323"><ele>190.0</ele><time>2013-06-06T15:42:10Z</time></trkpt>
<trkpt lat="33.01105" lon="35.18333"><ele>191.0</ele><time>2013-06-06T15:42:13Z</time></trkpt>
<trkpt lat="33.011" lon="35.18342"><ele>191.0</ele><time>2013-06-06T15:42:16Z</time></trkpt>
<trkpt lat="33.01094" lon="35.18352"><ele>190.0</ele><time>2013-06-06T15:42:19Z</time></trkpt>
<trkpt lat="33.01088" lon="35.18362"><ele>189.0</ele><time>2013-06-06T15:42:22Z</time></trkpt>
<trkpt lat="33.01084" lon="35.18373"><ele>188.0</ele><time>2013-06-06T15:42:25Z</time></trkpt>
<trkpt lat="33.01079" lon="35.18383"><ele>188.0</ele><time>2013-06-06T15:42:28Z</time></trkpt>
<trkpt lat="33.01073" lon="35.18393"><ele>187.0</ele><time>2013-06-06T15:42:31Z</time></trkpt>
<trkpt lat="33.01069" lon="35.18403"><ele>188.0</ele><time>2013-06-06T15:42:34Z</time></trkpt>
<trkpt lat="33.01064" lon="35.18413"><ele>188.0</ele><time>2013-06-06T15:42:37Z</time></trkpt>
<trkpt lat="33.0106" lon="35.18424"><ele>188.0</ele><time>2013-06-06T15:42:40Z</time></trkpt>
<trkpt lat="33.01055" lon="35.18434"><ele>188.0</ele><time>2013-06-06T15:42:43Z</time></trkpt>
<trkpt lat="33.01051" lon="35.18445"><ele>188.0</ele><time>2013-06-06T15:42:46Z</time></trkpt>
<trkpt lat="33.01045" lon="35.18456"><ele>189.0</ele><time>2013-06-06T15:42:49Z</time></trkpt>
<trkpt lat="33.01041" lon="35.18466"><ele>190.0</ele><time>2013-06-06T15:42:52Z</time></trkpt>
<trkpt lat="33.01036" lon="35.18476"><ele>190.0</ele><time>2013-06-06T15:42:55Z</time></trkpt>
<trkpt lat="33.01031" lon="35.18486"><ele>191.0</ele><time>2013-06-06T15:42:58Z</time></trkpt>
<trkpt lat="33.01025" lon="35.18496"><ele>192.0</ele><time>2013-06-06T15:43:02Z</time></trkpt>
<trkpt lat="33.0102" lon="35.18504"><ele>192.0</ele><time>2013-06-06T15:43:04Z</time></trkpt>
<trkpt lat="33.01015" lon="35.18513"><ele>191.0</ele><time>2013-06-06T15:43:07Z</time></trkpt>
<trkpt lat="33.01011" lon="35.18523"><ele>191.0</ele><time>2013-06-06T15:43:10Z</time></trkpt>
<trkpt lat="33.01005" lon="35.18533"><ele>190.0</ele><time>2013-06-06T15:43:14Z</time></trkpt>
<trkpt lat="33.01" lon="35.18544"><ele>190.0</ele><time>2013-06-06T15:43:18Z</time></trkpt>
<trkpt lat="33.00994" lon="35.18553"><ele>190.0</ele><time>2013-06-06T15:43:22Z</time></trkpt>
<trkpt lat="33.00988" lon="35.18563"><ele>191.0</ele><time>2013-06-06T15:43:26Z</time></trkpt>
<trkpt lat="33.00983" lon="35.18571"><ele>192.0</ele><time>2013-06-06T15:43:30Z</time></trkpt>
<trkpt lat="33.00977" lon="35.1858"><ele>193.0</ele><time>2013-06-06T15:43:35Z</time></trkpt>
<trkpt lat="33.00972" lon="35.18588"><ele>194.0</ele><time>2013-06-06T15:43:40Z</time></trkpt>
<trkpt lat="33.00966" lon="35.18595"><ele>195.0</ele><time>2013-06-06T15:43:45Z</time></trkpt>
<trkpt lat="33.00961" lon="35.18603"><ele>196.0</ele><time>2013-06-06T15:43:50Z</time></trkpt>
<trkpt lat="33.00956" lon="35.18611"><ele>197.0</ele><time>2013-06-06T15:43:55Z</time></trkpt>
<trkpt lat="33.00951" lon="35.18619"><ele>199.0</ele><time>2013-06-06T15:44:01Z</time></trkpt>
<trkpt lat="33.00946" lon="35.18628"><ele>200.0</ele><time>2013-06-06T15:44:05Z</time></trkpt>
<trkpt lat="33.00941" lon="35.18638"><ele>201.0</ele><time>2013-06-06T15:44:11Z</time></trkpt>
<trkpt lat="33.00936" lon="35.18647"><ele>203.0</ele><time>2013-06-06T15:44:17Z</time></trkpt>
<trkpt lat="33.00933" lon="35.18658"><ele>203.0</ele><time>2013-06-06T15:44:23Z</time></trkpt>
<trkpt lat="33.00929" lon="35.18668"><ele>203.0</ele><time>2013-06-06T15:44:29Z</time></trkpt>
<trkpt lat="33.00926" lon="35.18678"><ele>204.0</ele><time>2013-06-06T15:44:35Z</time></trkpt>
<trkpt lat="33.00923" lon="35.18689"><ele>205.0</ele><time>2013-06-06T15:44:42Z</time></trkpt>
<trkpt lat="33.0092" lon="35.18698"><ele>206.0</ele><time>2013-06-06T15:44:48Z</time></trkpt>
<trkpt lat="33.00912" lon="35.18744"><ele>207.0</ele><time>2013-06-06T15:45:19Z</time></trkpt>
<trkpt lat="33.00907" lon="35.18792"><ele>208.0</ele><time>2013-06-06T15:45:50Z</time></trkpt>
<trkpt lat="33.00906" lon="35.18802"><ele>210.0</ele><time>2013-06-06T15:45:56Z</time></trkpt>
<trkpt lat="33.00904" lon="35.18812"><ele>211.0</ele><time>2013-06-06T15:46:04Z</time></trkpt>
<trkpt lat="33.00892" lon="35.1886"><ele>212.0</ele><time>2013-06-06T15:46:34Z</time></trkpt>
<trkpt lat="33.0089" lon="35.1887"><ele>214.0</ele><time>2013-06-06T15:46:41Z</time></trkpt>
<trkpt lat="33.00887" lon="35.18881"><ele>215.0</ele><time>2013-06-06T15:46:48Z</time></trkpt>
<trkpt lat="33.00885" lon="35.18892"><ele>217.0</ele><time>2013-06-06T15:46:55Z</time></trkpt>
<trkpt lat="33.00884" lon="35.18902"><ele>218.0</ele><time>2013-06-06T15:47:02Z</time></trkpt>
<trkpt lat="33.00882" lon="35.18912"><ele>219.0</ele><time>2013-06-06T15:47:07Z</time></trkpt>
<trkpt lat="33.0088" lon="35.18923"><ele>221.0</ele><time>2013-06-06T15:47:14Z</time></trkpt>
<trkpt lat="33.00877" lon="35.18932"><ele>222.0</ele><time>2013-06-06T15:47:20Z</time></trkpt>
<trkpt lat="33.00871" lon="35.18984"><ele>223.0</ele><time>2013-06-06T15:47:53Z</time></trkpt>
<trkpt lat="33.00869" lon="35.18993"><ele>224.0</ele><time>2013-06-06T15:47:59Z</time></trkpt>
<trkpt lat="33.00867" lon="35.19004"><ele>225.0</ele><time>2013-06-06T15:48:05Z</time></trkpt>
<trkpt lat="33.00865" lon="35.19014"><ele>226.0</ele><time>2013-06-06T15:48:11Z</time></trkpt>
<trkpt lat="33.00864" lon="35.19024"><ele>227.0</ele><time>2013-06-06T15:48:17Z</time></trkpt>
<trkpt lat="33.00863" lon="35.19033"><ele>228.0</ele><time>2013-06-06T15:48:23Z</time></trkpt>
<trkpt lat="33.00861" lon="35.19043"><ele>228.0</ele><time>2013-06-06T15:48:29Z</time></trkpt>
<trkpt lat="33.0086" lon="35.19054"><ele>228.0</ele><time>2013-06-06T15:48:35Z</time></trkpt>
<trkpt lat="33.00858" lon="35.19065"><ele>228.0</ele><time>2013-06-06T15:48:41Z</time></trkpt>
<trkpt lat="33.00857" lon="35.19076"><ele>228.0</ele><time>2013-06-06T15:48:47Z</time></trkpt>
<trkpt lat="33.00855" lon="35.19087"><ele>229.0</ele><time>2013-06-06T15:48:53Z</time></trkpt>
<trkpt lat="33.00853" lon="35.19098"><ele>229.0</ele><time>2013-06-06T15:48:59Z</time></trkpt>
<trkpt lat="33.00851" lon="35.19109"><ele>230.0</ele><time>2013-06-06T15:49:05Z</time></trkpt>
<trkpt lat="33.0085" lon="35.19118"><ele>231.0</ele><time>2013-06-06T15:49:10Z</time></trkpt>
<trkpt lat="33.00848" lon="35.19128"><ele>231.0</ele><time>2013-06-06T15:49:15Z</time></trkpt>
<trkpt lat="33.00846" lon="35.19139"><ele>232.0</ele><time>2013-06-06T15:49:21Z</time></trkpt>
<trkpt lat="33.00845" lon="35.19149"><ele>232.0</ele><time>2013-06-06T15:49:26Z</time></trkpt>
<trkpt lat="33.00844" lon="35.1916"><ele>233.0</ele><time>2013-06-06T15:49:32Z</time></trkpt>
<trkpt lat="33.00843" lon="35.19172"><ele>234.0</ele><time>2013-06-06T15:49:38Z</time></trkpt>
<trkpt lat="33.00841" lon="35.19182"><ele>235.0</ele><time>2013-06-06T15:49:43Z</time></trkpt>
<trkpt lat="33.00839" lon="35.19193"><ele>235.0</ele><time>2013-06-06T15:49:49Z</time></trkpt>
<trkpt lat="33.00838" lon="35.19203"><ele>236.0</ele><time>2013-06-06T15:49:54Z</time></trkpt>
<trkpt lat="33.00837" lon="35.19212"><ele>236.0</ele><time>2013-06-06T15:49:59Z</time></trkpt>
<trkpt lat="33.00836" lon="35.19223"><ele>236.0</ele><time>2013-06-06T15:50:05Z</time></trkpt>
<trkpt lat="33.00835" lon="35.19234"><ele>236.0</ele><time>2013-06-06T15:50:11Z</time></trkpt>
<trkpt lat="33.00834" lon="35.19246"><ele>237.0</ele><time>2013-06-06T15:50:17Z</time></trkpt>
<trkpt lat="33.00835" lon="35.19257"><ele>237.0</ele><time>2013-06-06T15:50:23Z</time></trkpt>
<trkpt lat="33.00836" lon="35.19267"><ele>238.0</ele><time>2013-06-06T15:50:28Z</time></trkpt>
<trkpt lat="33.00838" lon="35.19277"><ele>239.0</ele><time>2013-06-06T15:50:33Z</time></trkpt>
<trkpt lat="33.00839" lon="35.19286"><ele>239.0</ele><time>2013-06-06T15:50:38Z</time></trkpt>
<trkpt lat="33.00841" lon="35.19296"><ele>239.0</ele><time>2013-06-06T15:50:43Z</time></trkpt>
<trkpt lat="33.00842" lon="35.19306"><ele>240.0</ele><time>2013-06-06T15:50:48Z</time></trkpt>
<trkpt lat="33.00843" lon="35.19316"><ele>240.0</ele><time>2013-06-06T15:50:53Z</time></trkpt>
<trkpt lat="33.00845" lon="35.19326"><ele>240.0</ele><time>2013-06-06T15:50:58Z</time></trkpt>
<trkpt lat="33.00846" lon="35.19337"><ele>241.0</ele><time>2013-06-06T15:51:04Z</time></trkpt>
<trkpt lat="33.00849" lon="35.19347"><ele>242.0</ele><time>2013-06-06T15:51:09Z</time></trkpt>
<trkpt lat="33.0085" lon="35.19356"><ele>243.0</ele><time>2013-06-06T15:51:14Z</time></trkpt>
<trkpt lat="33.00852" lon="35.19367"><ele>243.0</ele><time>2013-06-06T15:51:20Z</time></trkpt>
<trkpt lat="33.00854" lon="35.19379"><ele>243.0</ele><time>2013-06-06T15:51:26Z</time></trkpt>
<trkpt lat="33.00856" lon="35.1939"><ele>244.0</ele><time>2013-06-06T15:51:32Z</time></trkpt>
<trkpt lat="33.00857" lon="35.19401"><ele>244.0</ele><time>2013-06-06T15:51:38Z</time></trkpt>
<trkpt lat="33.00859" lon="35.19411"><ele>244.0</ele><time>2013-06-06T15:51:43Z</time></trkpt>
<trkpt lat="33.00862" lon="35.19421"><ele>245.0</ele><time>2013-06-06T15:51:49Z</time></trkpt>
<trkpt lat="33.00864" lon="35.19431"><ele>246.0</ele><time>2013-06-06T15:51:55Z</time></trkpt>
<trkpt lat="33.00868" lon="35.19441"><ele>246.0</ele><time>2013-06-06T15:52:02Z</time></trkpt>
<trkpt lat="33.00872" lon="35.19449"><ele>247.0</ele><time>2013-06-06T15:52:06Z</time></trkpt>
<trkpt lat="33.00877" lon="35.19459"><ele>247.0</ele><time>2013-06-06T15:52:12Z</time></trkpt>
<trkpt lat="33.00882" lon="35.19469"><ele>248.0</ele><time>2013-06-06T15:52:18Z</time></trkpt>
<trkpt lat="33.00887" lon="35.19479"><ele>248.0</ele><time>2013-06-06T15:52:24Z</time></trkpt>
<trkpt lat="33.00891" lon="35.19489"><ele>248.0</ele><time>2013-06-06T15:52:30Z</time></trkpt>
<trkpt lat="33.00895" lon="35.19498"><ele>249.0</ele><time>2013-06-06T15:52:35Z</time></trkpt>
<trkpt lat="33.009" lon="35.19507"><ele>250.0</ele><time>2013-06-06T15:52:41Z</time></trkpt>
<trkpt lat="33.00905" lon="35.19517"><ele>251.0</ele><time>2013-06-06T15:52:47Z</time></trkpt>
<trkpt lat="33.00909" lon="35.19526"><ele>251.0</ele><time>2013-06-06T15:52:53Z</time></trkpt>
<trkpt lat="33.00913" lon="35.19535"><ele>252.0</ele><time>2013-06-06T15:52:59Z</time></trkpt>
<trkpt lat="33.00916" lon="35.19545"><ele>252.0</ele><time>2013-06-06T15:53:05Z</time></trkpt>
<trkpt lat="33.00919" lon="35.19555"><ele>253.0</ele><time>2013-06-06T15:53:11Z</time></trkpt>
<trkpt lat="33.00922" lon="35.19565"><ele>253.0</ele><time>2013-06-06T15:53:17Z</time></trkpt>
<trkpt lat="33.00925" lon="35.19576"><ele>254.0</ele><time>2013-06-06T15:53:23Z</time></trkpt>
<trkpt lat="33.00928" lon="35.19586"><ele>255.0</ele><time>2013-06-06T15:53:29Z</time></trkpt>
<trkpt lat="33.00931" lon="35.19595"><ele>256.0</ele><time>2013-06-06T15:53:34Z</time></trkpt>
<trkpt lat="33.00935" lon="35.19604"><ele>257.0</ele><time>2013-06-06T15:53:40Z</time></trkpt>
<trkpt lat="33.00938" lon="35.19615"><ele>257.0</ele><time>2013-06-06T15:53:46Z</time></trkpt>
<trkpt lat="33.00941" lon="35.19624"><ele>257.0</ele><time>2013-06-06T15:53:51Z</time></trkpt>
<trkpt lat="33.00944" lon="35.19635"><ele>258.0</ele><time>2013-06-06T15:53:57Z</time></trkpt>
<trkpt lat="33.00947" lon="35.19646"><ele>258.0</ele><time>2013-06-06T15:54:04Z</time></trkpt>
<trkpt lat="33.00949" lon="35.19656"><ele>258.0</ele><time>2013-06-06T15:54:09Z</time></trkpt>
<trkpt lat="33.00952" lon="35.19666"><ele>259.0</ele><time>2013-06-06T15:54:15Z</time></trkpt>
<trkpt lat="33.00954" lon="35.19677"><ele>260.0</ele><time>2013-06-06T15:54:21Z</time></trkpt>
<trkpt lat="33.00957" lon="35.19688"><ele>261.0</ele><time>2013-06-06T15:54:27Z</time></trkpt>
<trkpt lat="33.00959" lon="35.19699"><ele>262.0</ele><time>2013-06-06T15:54:33Z</time></trkpt>
<trkpt lat="33.00961" lon="35.1971"><ele>262.0</ele><time>2013-06-06T15:54:39Z</time></trkpt>
<trkpt lat="33.00962" lon="35.19721"><ele>263.0</ele><time>2013-06-06T15:54:45Z</time></trkpt>
<trkpt lat="33.00961" lon="35.19732"><ele>263.0</ele><time>2013-06-06T15:54:51Z</time></trkpt>
<trkpt lat="33.0096" lon="35.19743"><ele>264.0</ele><time>2013-06-06T15:54:57Z</time></trkpt>
<trkpt lat="33.00959" lon="35.19755"><ele>266.0</ele><time>2013-06-06T15:55:04Z</time></trkpt>
<trkpt lat="33.00959" lon="35.19766"><ele>267.0</ele><time>2013-06-06T15:55:09Z</time></trkpt>
<trkpt lat="33.00958" lon="35.19778"><ele>268.0</ele><time>2013-06-06T15:55:15Z</time></trkpt>
<trkpt lat="33.00957" lon="35.19787"><ele>268.0</ele><time>2013-06-06T15:55:20Z</time></trkpt>
<trkpt lat="33.00956" lon="35.19799"><ele>269.0</ele><time>2013-06-06T15:55:26Z</time></trkpt>
<trkpt lat="33.00955" lon="35.1981"><ele>269.0</ele><time>2013-06-06T15:55:32Z</time></trkpt>
<trkpt lat="33.00954" lon="35.1982"><ele>270.0</ele><time>2013-06-06T15:55:37Z</time></trkpt>
<trkpt lat="33.00952" lon="35.1983"><ele>271.0</ele><time>2013-06-06T15:55:42Z</time></trkpt>
<trkpt lat="33.0095" lon="35.19839"><ele>272.0</ele><time>2013-06-06T15:55:47Z</time></trkpt>
<trkpt lat="33.00948" lon="35.19849"><ele>272.0</ele><time>2013-06-06T15:55:52Z</time></trkpt>
<trkpt lat="33.00946" lon="35.19859"><ele>273.0</ele><time>2013-06-06T15:55:57Z</time></trkpt>
<trkpt lat="33.00944" lon="35.19868"><ele>273.0</ele><time>2013-06-06T15:56:03Z</time></trkpt>
<trkpt lat="33.00941" lon="35.19878"><ele>273.0</ele><time>2013-06-06T15:56:07Z</time></trkpt>
<trkpt lat="33.00939" lon="35.19887"><ele>273.0</ele><time>2013-06-06T15:56:12Z</time></trkpt>
<trkpt lat="33.00936" lon="35.19898"><ele>274.0</ele><time>2013-06-06T15:56:18Z</time></trkpt>
<trkpt lat="33.00933" lon="35.19909"><ele>274.0</ele><time>2013-06-06T15:56:24Z</time></trkpt>
<trkpt lat="33.00931" lon="35.19919"><ele>274.0</ele><time>2013-06-06T15:56:29Z</time></trkpt>
<trkpt lat="33.00928" lon="35.19929"><ele>275.0</ele><time>2013-06-06T15:56:34Z</time></trkpt>
<trkpt lat="33.00925" lon="35.19939"><ele>275.0</ele><time>2013-06-06T15:56:39Z</time></trkpt>
<trkpt lat="33.0092" lon="35.19948"><ele>275.0</ele><time>2013-06-06T15:56:44Z</time></trkpt>
<trkpt lat="33.00914" lon="35.19956"><ele>275.0</ele><time>2013-06-06T15:56:49Z</time></trkpt>
<trkpt lat="33.00908" lon="35.19965"><ele>275.0</ele><time>2013-06-06T15:56:54Z</time></trkpt>
<trkpt lat="33.00901" lon="35.19972"><ele>276.0</ele><time>2013-06-06T15:57:00Z</time></trkpt>
<trkpt lat="33.00894" lon="35.19979"><ele>276.0</ele><time>2013-06-06T15:57:04Z</time></trkpt>
<trkpt lat="33.00888" lon="35.19987"><ele>277.0</ele><time>2013-06-06T15:57:09Z</time></trkpt>
<trkpt lat="33.00881" lon="35.19994"><ele>277.0</ele><time>2013-06-06T15:57:14Z</time></trkpt>
<trkpt lat="33.00874" lon="35.20001"><ele>278.0</ele><time>2013-06-06T15:57:19Z</time></trkpt>
<trkpt lat="33.00867" lon="35.20009"><ele>278.0</ele><time>2013-06-06T15:57:24Z</time></trkpt>
<trkpt lat="33.00861" lon="35.20015"><ele>278.0</ele><time>2013-06-06T15:57:28Z</time></trkpt>
<trkpt lat="33.00855" lon="35.20022"><ele>279.0</ele><time>2013-06-06T15:57:32Z</time></trkpt>
<trkpt lat="33.00848" lon="35.20028"><ele>280.0</ele><time>2013-06-06T15:57:36Z</time></trkpt>
<trkpt lat="33.00842" lon="35.20034"><ele>280.0</ele><time>2013-06-06T15:57:40Z</time></trkpt>
<trkpt lat="33.00834" lon="35.20042"><ele>280.0</ele><time>2013-06-06T15:57:45Z</time></trkpt>
<trkpt lat="33.00827" lon="35.20049"><ele>280.0</ele><time>2013-06-06T15:57:49Z</time></trkpt>
<trkpt lat="33.00821" lon="35.20056"><ele>280.0</ele><time>2013-06-06T15:57:53Z</time></trkpt>
<trkpt lat="33.00815" lon="35.20062"><ele>280.0</ele><time>2013-06-06T15:57:57Z</time></trkpt>
<trkpt lat="33.00809" lon="35.20069"><ele>280.0</ele><time>2013-06-06T15:58:02Z</time></trkpt>
<trkpt lat="33.00802" lon="35.20077"><ele>280.0</ele><time>2013-06-06T15:58:05Z</time></trkpt>
<trkpt lat="33.00795" lon="35.20085"><ele>280.0</ele><time>2013-06-06T15:58:09Z</time></trkpt>
<trkpt lat="33.00787" lon="35.20093"><ele>279.0</ele><time>2013-06-06T15:58:13Z</time></trkpt>
<trkpt lat="33.0078" lon="35.20102"><ele>279.0</ele><time>2013-06-06T15:58:17Z</time></trkpt>
<trkpt lat="33.00772" lon="35.2011"><ele>280.0</ele><time>2013-06-06T15:58:21Z</time></trkpt>
<trkpt lat="33.00764" lon="35.20118"><ele>280.0</ele><time>2013-06-06T15:58:25Z</time></trkpt>
<trkpt lat="33.00756" lon="35.20127"><ele>280.0</ele><time>2013-06-06T15:58:29Z</time></trkpt>
<trkpt lat="33.0075" lon="35.20133"><ele>280.0</ele><time>2013-06-06T15:58:32Z</time></trkpt>
<trkpt lat="33.00743" lon="35.2014"><ele>280.0</ele><time>2013-06-06T15:58:35Z</time></trkpt>
<trkpt lat="33.00737" lon="35.20147"><ele>281.0</ele><time>2013-06-06T15:58:38Z</time></trkpt>
<trkpt lat="33.00731" lon="35.20154"><ele>281.0</ele><time>2013-06-06T15:58:41Z</time></trkpt>
<trkpt lat="33.00724" lon="35.2016"><ele>281.0</ele><time>2013-06-06T15:58:44Z</time></trkpt>
<trkpt lat="33.00718" lon="35.20168"><ele>281.0</ele><time>2013-06-06T15:58:47Z</time></trkpt>
<trkpt lat="33.00712" lon="35.20175"><ele>282.0</ele><time>2013-06-06T15:58:50Z</time></trkpt>
<trkpt lat="33.00706" lon="35.20182"><ele>282.0</ele><time>2013-06-06T15:58:53Z</time></trkpt>
<trkpt lat="33.007" lon="35.20189"><ele>282.0</ele><time>2013-06-06T15:58:56Z</time></trkpt>
<trkpt lat="33.00694" lon="35.20197"><ele>283.0</ele><time>2013-06-06T15:58:59Z</time></trkpt>
<trkpt lat="33.00689" lon="35.20205"><ele>283.0</ele><time>2013-06-06T15:59:03Z</time></trkpt>
<trkpt lat="33.00684" lon="35.20213"><ele>283.0</ele><time>2013-06-06T15:59:05Z</time></trkpt>
<trkpt lat="33.00679" lon="35.20222"><ele>284.0</ele><time>2013-06-06T15:59:08Z</time></trkpt>
<trkpt lat="33.00675" lon="35.2023"><ele>284.0</ele><time>2013-06-06T15:59:11Z</time></trkpt>
<trkpt lat="33.0067" lon="35.2024"><ele>285.0</ele><time>2013-06-06T15:59:15Z</time></trkpt>
<trkpt lat="33.00666" lon="35.20251"><ele>286.0</ele><time>2013-06-06T15:59:19Z</time></trkpt>
<trkpt lat="33.00662" lon="35.20262"><ele>287.0</ele><time>2013-06-06T15:59:23Z</time></trkpt>
<trkpt lat="33.00659" lon="35.20272"><ele>287.0</ele><time>2013-06-06T15:59:27Z</time></trkpt>
<trkpt lat="33.00657" lon="35.20282"><ele>288.0</ele><time>2013-06-06T15:59:31Z</time></trkpt>
<trkpt lat="33.00654" lon="35.20292"><ele>288.0</ele><time>2013-06-06T15:59:35Z</time></trkpt>
<trkpt lat="33.00652" lon="35.20302"><ele>288.0</ele><time>2013-06-06T15:59:39Z</time></trkpt>
<trkpt lat="33.0065" lon="35.20312"><ele>288.0</ele><time>2013-06-06T15:59:43Z</time></trkpt>
<trkpt lat="33.00648" lon="35.20321"><ele>289.0</ele><time>2013-06-06T15:59:47Z</time></trkpt>
<trkpt lat="33.00647" lon="35.20331"><ele>289.0</ele><time>2013-06-06T15:59:51Z</time></trkpt>
<trkpt lat="33.00644" lon="35.20342"><ele>290.0</ele><time>2013-06-06T15:59:56Z</time></trkpt>
<trkpt lat="33.00643" lon="35.20352"><ele>291.0</ele><time>2013-06-06T16:00:02Z</time></trkpt>
<trkpt lat="33.00641" lon="35.20363"><ele>291.0</ele><time>2013-06-06T16:00:07Z</time></trkpt>
<trkpt lat="33.00639" lon="35.20374"><ele>292.0</ele><time>2013-06-06T16:00:13Z</time></trkpt>
<trkpt lat="33.00638" lon="35.20385"><ele>292.0</ele><time>2013-06-06T16:00:19Z</time></trkpt>
<trkpt lat="33.00636" lon="35.20395"><ele>293.0</ele><time>2013-06-06T16:00:24Z</time></trkpt>
<trkpt lat="33.00635" lon="35.20405"><ele>293.0</ele><time>2013-06-06T16:00:29Z</time></trkpt>
<trkpt lat="33.00633" lon="35.20414"><ele>293.0</ele><time>2013-06-06T16:00:34Z</time></trkpt>
<trkpt lat="33.00632" lon="35.20424"><ele>294.0</ele><time>2013-06-06T16:00:39Z</time></trkpt>
<trkpt lat="33.00631" lon="35.20434"><ele>295.0</ele><time>2013-06-06T16:00:44Z</time></trkpt>
<trkpt lat="33.0063" lon="35.20444"><ele>295.0</ele><time>2013-06-06T16:00:49Z</time></trkpt>
<trkpt lat="33.00629" lon="35.20454"><ele>296.0</ele><time>2013-06-06T16:00:54Z</time></trkpt>
<trkpt lat="33.00627" lon="35.20463"><ele>296.0</ele><time>2013-06-06T16:00:59Z</time></trkpt>
<trkpt lat="33.00624" lon="35.20473"><ele>297.0</ele><time>2013-06-06T16:01:04Z</time></trkpt>
<trkpt lat="33.00623" lon="35.20483"><ele>297.0</ele><time>2013-06-06T16:01:09Z</time></trkpt>
<trkpt lat="33.00621" lon="35.20494"><ele>297.0</ele><time>2013-06-06T16:01:14Z</time></trkpt>
<trkpt lat="33.0062" lon="35.20504"><ele>298.0</ele><time>2013-06-06T16:01:19Z</time></trkpt>
<trkpt lat="33.00619" lon="35.20515"><ele>299.0</ele><time>2013-06-06T16:01:24Z</time></trkpt>
<trkpt lat="33.00618" lon="35.20525"><ele>300.0</ele><time>2013-06-06T16:01:29Z</time></trkpt>
<trkpt lat="33.00617" lon="35.20536"><ele>300.0</ele><time>2013-06-06T16:01:34Z</time></trkpt>
<trkpt lat="33.00617" lon="35.20546"><ele>300.0</ele><time>2013-06-06T16:01:39Z</time></trkpt>
<trkpt lat="33.00616" lon="35.20556"><ele>301.0</ele><time>2013-06-06T16:01:44Z</time></trkpt>
<trkpt lat="33.00616" lon="35.20566"><ele>301.0</ele><time>2013-06-06T16:01:49Z</time></trkpt>
<trkpt lat="33.00616" lon="35.20576"><ele>302.0</ele><time>2013-06-06T16:01:54Z</time></trkpt>
<trkpt lat="33.00616" lon="35.20587"><ele>303.0</ele><time>2013-06-06T16:01:59Z</time></trkpt>
<trkpt lat="33.00616" lon="35.20598"><ele>304.0</ele><time>2013-06-06T16:02:04Z</time></trkpt>
<trkpt lat="33.00617" lon="35.20609"><ele>304.0</ele><time>2013-06-06T16:02:10Z</time></trkpt>
<trkpt lat="33.00618" lon="35.2062"><ele>305.0</ele><time>2013-06-06T16:02:16Z</time></trkpt>
<trkpt lat="33.00619" lon="35.20631"><ele>305.0</ele><time>2013-06-06T16:02:22Z</time></trkpt>
<trkpt lat="33.00621" lon="35.20641"><ele>306.0</ele><time>2013-06-06T16:02:28Z</time></trkpt>
<trkpt lat="33.00623" lon="35.20652"><ele>306.0</ele><time>2013-06-06T16:02:34Z</time></trkpt>
<trkpt lat="33.00623" lon="35.20664"><ele>307.0</ele><time>2013-06-06T16:02:40Z</time></trkpt>
<trkpt lat="33.00624" lon="35.20673"><ele>308.0</ele><time>2013-06-06T16:02:45Z</time></trkpt>
<trkpt lat="33.00625" lon="35.20683"><ele>309.0</ele><time>2013-06-06T16:02:50Z</time></trkpt>
<trkpt lat="33.00626" lon="35.20694"><ele>309.0</ele><time>2013-06-06T16:02:56Z</time></trkpt>
<trkpt lat="33.00628" lon="35.20703"><ele>309.0</ele><time>2013-06-06T16:03:02Z</time></trkpt>
<trkpt lat="33.00629" lon="35.20714"><ele>309.0</ele><time>2013-06-06T16:03:07Z</time></trkpt>
<trkpt lat="33.00629" lon="35.20725"><ele>310.0</ele><time>2013-06-06T16:03:13Z</time></trkpt>
<trkpt lat="33.00631" lon="35.20736"><ele>310.0</ele><time>2013-06-06T16:03:19Z</time></trkpt>
<trkpt lat="33.00632" lon="35.20747"><ele>311.0</ele><time>2013-06-06T16:03:25Z</time></trkpt>
<trkpt lat="33.00633" lon="35.20756"><ele>311.0</ele><time>2013-06-06T16:03:30Z</time></trkpt>
<trkpt lat="33.00634" lon="35.20766"><ele>312.0</ele><time>2013-06-06T16:03:35Z</time></trkpt>
<trkpt lat="33.00635" lon="35.20777"><ele>312.0</ele><time>2013-06-06T16:03:41Z</time></trkpt>
<trkpt lat="33.00636" lon="35.20788"><ele>313.0</ele><time>2013-06-06T16:03:47Z</time></trkpt>
<trkpt lat="33.00637" lon="35.20799"><ele>313.0</ele><time>2013-06-06T16:03:53Z</time></trkpt>
<trkpt lat="33.00638" lon="35.2081"><ele>314.0</ele><time>2013-06-06T16:03:59Z</time></trkpt>
<trkpt lat="33.0064" lon="35.20821"><ele>314.0</ele><time>2013-06-06T16:04:05Z</time></trkpt>
<trkpt lat="33.00641" lon="35.20832"><ele>315.0</ele><time>2013-06-06T16:04:11Z</time></trkpt>
<trkpt lat="33.00643" lon="35.20844"><ele>316.0</ele><time>2013-06-06T16:04:17Z</time></trkpt>
<trkpt lat="33.00646" lon="35.20854"><ele>316.0</ele><time>2013-06-06T16:04:23Z</time></trkpt>
<trkpt lat="33.00648" lon="35.20864"><ele>317.0</ele><time>2013-06-06T16:04:28Z</time></trkpt>
<trkpt lat="33.00649" lon="35.20874"><ele>317.0</ele><time>2013-06-06T16:04:33Z</time></trkpt>
<trkpt lat="33.0065" lon="35.20885"><ele>317.0</ele><time>2013-06-06T16:04:39Z</time></trkpt>
<trkpt lat="33.0065" lon="35.20897"><ele>317.0</ele><time>2013-06-06T16:04:45Z</time></trkpt>
<trkpt lat="33.0065" lon="35.20907"><ele>318.0</ele><time>2013-06-06T16:04:51Z</time></trkpt>
<trkpt lat="33.0065" lon="35.20918"><ele>318.0</ele><time>2013-06-06T16:04:57Z</time></trkpt>
<trkpt lat="33.00648" lon="35.20928"><ele>318.0</ele><time>2013-06-06T16:05:03Z</time></trkpt>
<trkpt lat="33.00652" lon="35.20939"><ele>319.0</ele><time>2013-06-06T16:05:08Z</time></trkpt>
<trkpt lat="33.00654" lon="35.2095"><ele>319.0</ele><time>2013-06-06T16:05:14Z</time></trkpt>
<trkpt lat="33.00655" lon="35.20961"><ele>319.0</ele><time>2013-06-06T16:05:20Z</time></trkpt>
<trkpt lat="33.0066" lon="35.20969"><ele>320.0</ele><time>2013-06-06T16:05:26Z</time></trkpt>
<trkpt lat="33.00668" lon="35.20972"><ele>319.0</ele><time>2013-06-06T16:05:29Z</time></trkpt>
<trkpt lat="33.00682" lon="35.2098"><ele>319.0</ele><time>2013-06-06T16:05:33Z</time></trkpt>
<trkpt lat="33.00692" lon="35.20989"><ele>319.0</ele><time>2013-06-06T16:05:36Z</time></trkpt>
<trkpt lat="33.00699" lon="35.20997"><ele>319.0</ele><time>2013-06-06T16:05:38Z</time></trkpt>
<trkpt lat="33.00705" lon="35.21005"><ele>319.0</ele><time>2013-06-06T16:05:40Z</time></trkpt>
<trkpt lat="33.00711" lon="35.21015"><ele>319.0</ele><time>2013-06-06T16:05:42Z</time></trkpt>
<trkpt lat="33.00716" lon="35.21024"><ele>319.0</ele><time>2013-06-06T16:05:44Z</time></trkpt>
<trkpt lat="33.00721" lon="35.21033"><ele>319.0</ele><time>2013-06-06T16:05:46Z</time></trkpt>
<trkpt lat="33.00724" lon="35.21044"><ele>319.0</ele><time>2013-06-06T16:05:49Z</time></trkpt>
<trkpt lat="33.00729" lon="35.21055"><ele>319.0</ele><time>2013-06-06T16:05:53Z</time></trkpt>
<trkpt lat="33.00733" lon="35.21066"><ele>318.0</ele><time>2013-06-06T16:05:57Z</time></trkpt>
<trkpt lat="33.00736" lon="35.21075"><ele>319.0</ele><time>2013-06-06T16:06:01Z</time></trkpt>
<trkpt lat="33.00739" lon="35.21084"><ele>319.0</ele><time>2013-06-06T16:06:04Z</time></trkpt>
<trkpt lat="33.00743" lon="35.21093"><ele>320.0</ele><time>2013-06-06T16:06:06Z</time></trkpt>
<trkpt lat="33.00748" lon="35.21102"><ele>321.0</ele><time>2013-06-06T16:06:09Z</time></trkpt>
<trkpt lat="33.00752" lon="35.21111"><ele>321.0</ele><time>2013-06-06T16:06:12Z</time></trkpt>
<trkpt lat="33.00756" lon="35.2112"><ele>322.0</ele><time>2013-06-06T16:06:15Z</time></trkpt>
<trkpt lat="33.00761" lon="35.21129"><ele>322.0</ele><time>2013-06-06T16:06:18Z</time></trkpt>
<trkpt lat="33.00765" lon="35.21138"><ele>323.0</ele><time>2013-06-06T16:06:21Z</time></trkpt>
<trkpt lat="33.00769" lon="35.21146"><ele>323.0</ele><time>2013-06-06T16:06:24Z</time></trkpt>
<trkpt lat="33.00773" lon="35.21155"><ele>324.0</ele><time>2013-06-06T16:06:27Z</time></trkpt>
<trkpt lat="33.00776" lon="35.21167"><ele>325.0</ele><time>2013-06-06T16:06:31Z</time></trkpt>
<trkpt lat="33.00778" lon="35.21177"><ele>326.0</ele><time>2013-06-06T16:06:35Z</time></trkpt>
<trkpt lat="33.0078" lon="35.21189"><ele>327.0</ele><time>2013-06-06T16:06:39Z</time></trkpt>
<trkpt lat="33.00782" lon="35.212"><ele>327.0</ele><time>2013-06-06T16:06:43Z</time></trkpt>
<trkpt lat="33.00784" lon="35.2121"><ele>328.0</ele><time>2013-06-06T16:06:47Z</time></trkpt>
<trkpt lat="33.00785" lon="35.21222"><ele>328.0</ele><time>2013-06-06T16:06:52Z</time></trkpt>
<trkpt lat="33.00787" lon="35.21233"><ele>328.0</ele><time>2013-06-06T16:06:57Z</time></trkpt>
<trkpt lat="33.00789" lon="35.21244"><ele>328.0</ele><time>2013-06-06T16:07:03Z</time></trkpt>
<trkpt lat="33.0079" lon="35.21255"><ele>328.0</ele><time>2013-06-06T16:07:07Z</time></trkpt>
<trkpt lat="33.00792" lon="35.21267"><ele>328.0</ele><time>2013-06-06T16:07:12Z</time></trkpt>
<trkpt lat="33.00793" lon="35.21279"><ele>328.0</ele><time>2013-06-06T16:07:17Z</time></trkpt>
<trkpt lat="33.00795" lon="35.2129"><ele>328.0</ele><time>2013-06-06T16:07:22Z</time></trkpt>
<trkpt lat="33.00797" lon="35.21301"><ele>328.0</ele><time>2013-06-06T16:07:27Z</time></trkpt>
<trkpt lat="33.00798" lon="35.21311"><ele>328.0</ele><time>2013-06-06T16:07:31Z</time></trkpt>
<trkpt lat="33.008" lon="35.21323"><ele>327.0</ele><time>2013-06-06T16:07:36Z</time></trkpt>
<trkpt lat="33.00799" lon="35.21334"><ele>327.0</ele><time>2013-06-06T16:07:41Z</time></trkpt>
<trkpt lat="33.008" lon="35.21343"><ele>328.0</ele><time>2013-06-06T16:07:45Z</time></trkpt>
<trkpt lat="33.008" lon="35.21353"><ele>329.0</ele><time>2013-06-06T16:07:49Z</time></trkpt>
<trkpt lat="33.00801" lon="35.21365"><ele>329.0</ele><time>2013-06-06T16:07:54Z</time></trkpt>
<trkpt lat="33.00802" lon="35.21374"><ele>329.0</ele><time>2013-06-06T16:07:58Z</time></trkpt>
<trkpt lat="33.00803" lon="35.21386"><ele>330.0</ele><time>2013-06-06T16:08:04Z</time></trkpt>
<trkpt lat="33.00804" lon="35.21398"><ele>330.0</ele><time>2013-06-06T16:08:08Z</time></trkpt>
<trkpt lat="33.00805" lon="35.21407"><ele>330.0</ele><time>2013-06-06T16:08:12Z</time></trkpt>
<trkpt lat="33.00807" lon="35.21418"><ele>331.0</ele><time>2013-06-06T16:08:16Z</time></trkpt>
<trkpt lat="33.00809" lon="35.21428"><ele>332.0</ele><time>2013-06-06T16:08:20Z</time></trkpt>
<trkpt lat="33.0081" lon="35.21439"><ele>333.0</ele><time>2013-06-06T16:08:24Z</time></trkpt>
<trkpt lat="33.00812" lon="35.21449"><ele>334.0</ele><time>2013-06-06T16:08:28Z</time></trkpt>
<trkpt lat="33.00814" lon="35.2146"><ele>334.0</ele><time>2013-06-06T16:08:32Z</time></trkpt>
<trkpt lat="33.00815" lon="35.2147"><ele>335.0</ele><time>2013-06-06T16:08:36Z</time></trkpt>
<trkpt lat="33.00817" lon="35.21481"><ele>335.0</ele><time>2013-06-06T16:08:41Z</time></trkpt>
<trkpt lat="33.00818" lon="35.21491"><ele>336.0</ele><time>2013-06-06T16:08:46Z</time></trkpt>
<trkpt lat="33.00819" lon="35.21502"><ele>337.0</ele><time>2013-06-06T16:08:52Z</time></trkpt>
<trkpt lat="33.0082" lon="35.21513"><ele>338.0</ele><time>2013-06-06T16:08:58Z</time></trkpt>
<trkpt lat="33.00822" lon="35.21523"><ele>339.0</ele><time>2013-06-06T16:09:04Z</time></trkpt>
<trkpt lat="33.00824" lon="35.21533"><ele>340.0</ele><time>2013-06-06T16:09:10Z</time></trkpt>
<trkpt lat="33.00826" lon="35.21542"><ele>341.0</ele><time>2013-06-06T16:09:16Z</time></trkpt>
<trkpt lat="33.00829" lon="35.21553"><ele>341.0</ele><time>2013-06-06T16:09:23Z</time></trkpt>
<trkpt lat="33.00831" lon="35.21563"><ele>342.0</ele><time>2013-06-06T16:09:29Z</time></trkpt>
<trkpt lat="33.00832" lon="35.21574"><ele>343.0</ele><time>2013-06-06T16:09:36Z</time></trkpt>
<trkpt lat="33.00835" lon="35.21589"><ele>344.0</ele><time>2013-06-06T16:09:46Z</time></trkpt>
<trkpt lat="33.00836" lon="35.216"><ele>346.0</ele><time>2013-06-06T16:09:52Z</time></trkpt>
<trkpt lat="33.00838" lon="35.21611"><ele>347.0</ele><time>2013-06-06T16:09:58Z</time></trkpt>
<trkpt lat="33.0084" lon="35.2162"><ele>347.0</ele><time>2013-06-06T16:10:04Z</time></trkpt>
<trkpt lat="33.0084" lon="35.2163"><ele>348.0</ele><time>2013-06-06T16:10:10Z</time></trkpt>
<trkpt lat="33.00841" lon="35.21641"><ele>348.0</ele><time>2013-06-06T16:10:16Z</time></trkpt>
<trkpt lat="33.00841" lon="35.21651"><ele>349.0</ele><time>2013-06-06T16:10:22Z</time></trkpt>
<trkpt lat="33.00842" lon="35.21661"><ele>349.0</ele><time>2013-06-06T16:10:28Z</time></trkpt>
<trkpt lat="33.00843" lon="35.21672"><ele>350.0</ele><time>2013-06-06T16:10:34Z</time></trkpt>
<trkpt lat="33.00843" lon="35.21681"><ele>351.0</ele><time>2013-06-06T16:10:40Z</time></trkpt>
<trkpt lat="33.00843" lon="35.21692"><ele>352.0</ele><time>2013-06-06T16:10:46Z</time></trkpt>
<trkpt lat="33.00843" lon="35.21702"><ele>352.0</ele><time>2013-06-06T16:10:52Z</time></trkpt>
<trkpt lat="33.00841" lon="35.21711"><ele>352.0</ele><time>2013-06-06T16:10:58Z</time></trkpt>
<trkpt lat="33.00836" lon="35.21725"><ele>353.0</ele><time>2013-06-06T16:11:07Z</time></trkpt>
<trkpt lat="33.00833" lon="35.21734"><ele>353.0</ele><time>2013-06-06T16:11:13Z</time></trkpt>
<trkpt lat="33.00833" lon="35.21744"><ele>353.0</ele><time>2013-06-06T16:11:19Z</time></trkpt>
<trkpt lat="33.0083" lon="35.21754"><ele>354.0</ele><time>2013-06-06T16:11:25Z</time></trkpt>
<trkpt lat="33.00827" lon="35.21763"><ele>355.0</ele><time>2013-06-06T16:11:31Z</time></trkpt>
<trkpt lat="33.00825" lon="35.21773"><ele>356.0</ele><time>2013-06-06T16:11:37Z</time></trkpt>
<trkpt lat="33.00822" lon="35.21782"><ele>357.0</ele><time>2013-06-06T16:11:43Z</time></trkpt>
<trkpt lat="33.00819" lon="35.21792"><ele>358.0</ele><time>2013-06-06T16:11:49Z</time></trkpt>
<trkpt lat="33.00815" lon="35.21802"><ele>359.0</ele><time>2013-06-06T16:11:56Z</time></trkpt>
<trkpt lat="33.00813" lon="35.21812"><ele>361.0</ele><time>2013-06-06T16:12:03Z</time></trkpt>
<trkpt lat="33.0081" lon="35.21821"><ele>362.0</ele><time>2013-06-06T16:12:08Z</time></trkpt>
<trkpt lat="33.00791" lon="35.21865"><ele>363.0</ele><time>2013-06-06T16:12:39Z</time></trkpt>
<trkpt lat="33.00761" lon="35.21898"><ele>364.0</ele><time>2013-06-06T16:13:12Z</time></trkpt>
<trkpt lat="33.00734" lon="35.21896"><ele>366.0</ele><time>2013-06-06T16:13:32Z</time></trkpt>
<trkpt lat="33.00724" lon="35.21895"><ele>367.0</ele><time>2013-06-06T16:13:38Z</time></trkpt>
<trkpt lat="33.00716" lon="35.21894"><ele>367.0</ele><time>2013-06-06T16:13:43Z</time></trkpt>
<trkpt lat="33.00708" lon="35.21893"><ele>368.0</ele><time>2013-06-06T16:13:48Z</time></trkpt>
<trkpt lat="33.00698" lon="35.21892"><ele>369.0</ele><time>2013-06-06T16:13:54Z</time></trkpt>
<trkpt lat="33.00689" lon="35.2189"><ele>369.0</ele><time>2013-06-06T16:14:01Z</time></trkpt>
<trkpt lat="33.00681" lon="35.21889"><ele>369.0</ele><time>2013-06-06T16:14:05Z</time></trkpt>
<trkpt lat="33.00673" lon="35.21888"><ele>369.0</ele><time>2013-06-06T16:14:10Z</time></trkpt>
<trkpt lat="33.00664" lon="35.21887"><ele>370.0</ele><time>2013-06-06T16:14:15Z</time></trkpt>
<trkpt lat="33.00655" lon="35.21886"><ele>370.0</ele><time>2013-06-06T16:14:20Z</time></trkpt>
<trkpt lat="33.00646" lon="35.21885"><ele>370.0</ele><time>2013-06-06T16:14:25Z</time></trkpt>
<trkpt lat="33.00637" lon="35.21884"><ele>370.0</ele><time>2013-06-06T16:14:30Z</time></trkpt>
<trkpt lat="33.00627" lon="35.21884"><ele>370.0</ele><time>2013-06-06T16:14:35Z</time></trkpt>
<trkpt lat="33.00618" lon="35.21883"><ele>370.0</ele><time>2013-06-06T16:14:39Z</time></trkpt>
<trkpt lat="33.0061" lon="35.21882"><ele>369.0</ele><time>2013-06-06T16:14:43Z</time></trkpt>
<trkpt lat="33.00601" lon="35.2188"><ele>369.0</ele><time>2013-06-06T16:14:47Z</time></trkpt>
<trkpt lat="33.0059" lon="35.21877"><ele>369.0</ele><time>2013-06-06T16:14:51Z</time></trkpt>
<trkpt lat="33.0058" lon="35.21874"><ele>369.0</ele><time>2013-06-06T16:14:54Z</time></trkpt>
<trkpt lat="33.00572" lon="35.21871"><ele>368.0</ele><time>2013-06-06T16:14:56Z</time></trkpt>
<trkpt lat="33.00564" lon="35.21867"><ele>368.0</ele><time>2013-06-06T16:14:58Z</time></trkpt>
<trkpt lat="33.00556" lon="35.21863"><ele>367.0</ele><time>2013-06-06T16:15:01Z</time></trkpt>
<trkpt lat="33.00548" lon="35.2186"><ele>367.0</ele><time>2013-06-06T16:15:03Z</time></trkpt>
<trkpt lat="33.00537" lon="35.21854"><ele>366.0</ele><time>2013-06-06T16:15:05Z</time></trkpt>
<trkpt lat="33.00528" lon="35.21851"><ele>366.0</ele><time>2013-06-06T16:15:07Z</time></trkpt>
<trkpt lat="33.0052" lon="35.21847"><ele>366.0</ele><time>2013-06-06T16:15:09Z</time></trkpt>
<trkpt lat="33.00509" lon="35.21842"><ele>366.0</ele><time>2013-06-06T16:15:12Z</time></trkpt>
<trkpt lat="33.00501" lon="35.21835"><ele>365.0</ele><time>2013-06-06T16:15:15Z</time></trkpt>
<trkpt lat="33.00498" lon="35.21825"><ele>365.0</ele><time>2013-06-06T16:15:18Z</time></trkpt>
<trkpt lat="33.00503" lon="35.21815"><ele>364.0</ele><time>2013-06-06T16:15:22Z</time></trkpt>
<trkpt lat="33.0051" lon="35.21804"><ele>364.0</ele><time>2013-06-06T16:15:26Z</time></trkpt>
<trkpt lat="33.00515" lon="35.21797"><ele>363.0</ele><time>2013-06-06T16:15:29Z</time></trkpt>
<trkpt lat="33.00519" lon="35.21787"><ele>363.0</ele><time>2013-06-06T16:15:32Z</time></trkpt>
<trkpt lat="33.00523" lon="35.21777"><ele>362.0</ele><time>2013-06-06T16:15:35Z</time></trkpt>
<trkpt lat="33.00526" lon="35.21767"><ele>362.0</ele><time>2013-06-06T16:15:39Z</time></trkpt>
<trkpt lat="33.0053" lon="35.21757"><ele>361.0</ele><time>2013-06-06T16:15:43Z</time></trkpt>
<trkpt lat="33.00533" lon="35.21747"><ele>360.0</ele><time>2013-06-06T16:15:47Z</time></trkpt>
<trkpt lat="33.00538" lon="35.21737"><ele>360.0</ele><time>2013-06-06T16:15:52Z</time></trkpt>
<trkpt lat="33.0054" lon="35.21724"><ele>359.0</ele><time>2013-06-06T16:15:56Z</time></trkpt>
<trkpt lat="33.00541" lon="35.21713"><ele>359.0</ele><time>2013-06-06T16:15:59Z</time></trkpt>
<trkpt lat="33.00541" lon="35.21702"><ele>359.0</ele><time>2013-06-06T16:16:03Z</time></trkpt>
<trkpt lat="33.00543" lon="35.21692"><ele>358.0</ele><time>2013-06-06T16:16:05Z</time></trkpt>
<trkpt lat="33.00544" lon="35.21678"><ele>357.0</ele><time>2013-06-06T16:16:08Z</time></trkpt>
<trkpt lat="33.00545" lon="35.21665"><ele>357.0</ele><time>2013-06-06T16:16:11Z</time></trkpt>
<trkpt lat="33.00545" lon="35.21652"><ele>356.0</ele><time>2013-06-06T16:16:14Z</time></trkpt>
<trkpt lat="33.00543" lon="35.21639"><ele>355.0</ele><time>2013-06-06T16:16:17Z</time></trkpt>
<trkpt lat="33.00542" lon="35.21624"><ele>355.0</ele><time>2013-06-06T16:16:20Z</time></trkpt>
<trkpt lat="33.00539" lon="35.21615"><ele>355.0</ele><time>2013-06-06T16:16:22Z</time></trkpt>
<trkpt lat="33.00537" lon="35.21601"><ele>355.0</ele><time>2013-06-06T16:16:25Z</time></trkpt>
<trkpt lat="33.00538" lon="35.2159"><ele>354.0</ele><time>2013-06-06T16:16:27Z</time></trkpt>
<trkpt lat="33.00539" lon="35.21579"><ele>353.0</ele><time>2013-06-06T16:16:29Z</time></trkpt>
<trkpt lat="33.00543" lon="35.21569"><ele>352.0</ele><time>2013-06-06T16:16:31Z</time></trkpt>
<trkpt lat="33.00547" lon="35.2156"><ele>352.0</ele><time>2013-06-06T16:16:34Z</time></trkpt>
<trkpt lat="33.00549" lon="35.21549"><ele>352.0</ele><time>2013-06-06T16:16:38Z</time></trkpt>
<trkpt lat="33.00541" lon="35.21543"><ele>352.0</ele><time>2013-06-06T16:16:43Z</time></trkpt>
<trkpt lat="33.00531" lon="35.21545"><ele>352.0</ele><time>2013-06-06T16:16:46Z</time></trkpt>
<trkpt lat="33.00523" lon="35.21552"><ele>352.0</ele><time>2013-06-06T16:16:49Z</time></trkpt>
<trkpt lat="33.00516" lon="35.21559"><ele>352.0</ele><time>2013-06-06T16:16:53Z</time></trkpt>
<trkpt lat="33.00507" lon="35.21554"><ele>352.0</ele><time>2013-06-06T16:16:58Z</time></trkpt>
</trkseg></trk></gpx>