<?xml version="1.0" encoding="utf-8"?>
<gpx version="1.1"><trk><trkseg>
<trkpt lat="32.99358" lon="35.41465"><ele>1121.0</ele><time>2013-04-19T06:14:00Z</time></trkpt>
<trkpt lat="32.99359" lon="35.41476"><ele>1122.0</ele><time>2013-04-19T06:14:11Z</time></trkpt>
<trkpt lat="32.9936" lon="35.41486"><ele>1122.0</ele><time>2013-04-19T06:14:17Z</time></trkpt>
<trkpt lat="32.99363" lon="35.41496"><ele>1123.0</ele><time>2013-04-19T06:14:24Z</time></trkpt>
<trkpt lat="32.99371" lon="35.415"><ele>1123.0</ele><time>2013-04-19T06:14:33Z</time></trkpt>
<trkpt lat="32.99376" lon="35.41507"><ele>1123.0</ele><time>2013-04-19T06:14:50Z</time></trkpt>
<trkpt lat="32.99385" lon="35.41506"><ele>1124.0</ele><time>2013-04-19T06:14:57Z</time></trkpt>
<trkpt lat="32.99391" lon="35.41513"><ele>1124.0</ele><time>2013-04-19T06:15:10Z</time></trkpt>
<trkpt lat="32.99399" lon="35.41517"><ele>1125.0</ele><time>2013-04-19T06:15:17Z</time></trkpt>
<trkpt lat="32.99407" lon="35.41521"><ele>1125.0</ele><time>2013-04-19T06:15:26Z</time></trkpt>
<trkpt lat="32.99412" lon="35.4153"><ele>1126.0</ele><time>2013-04-19T06:15:36Z</time></trkpt>
<trkpt lat="32.99419" lon="35.41537"><ele>1126.0</ele><time>2013-04-19T06:15:44Z</time></trkpt>
<trkpt lat="32.99424" lon="35.41546"><ele>1126.0</ele><time>2013-04-19T06:15:52Z</time></trkpt>
<trkpt lat="32.99432" lon="35.4155"><ele>1126.0</ele><time>2013-04-19T06:16:01Z</time></trkpt>
<trkpt lat="32.99438" lon="35.41557"><ele>1126.0</ele><time>2013-04-19T06:16:11Z</time></trkpt>
<trkpt lat="32.99444" lon="35.41564"><ele>1126.0</ele><time>2013-04-19T06:16:21Z</time></trkpt>
<trkpt lat="32.99445" lon="35.41573"><ele>1126.0</ele><time>2013-04-19T06:16:30Z</time></trkpt>
<trkpt lat="32.99448" lon="35.41583"><ele>1125.0</ele><time>2013-04-19T06:16:40Z</time></trkpt>
<trkpt lat="32.99451" lon="35.41593"><ele>1124.0</ele><time>2013-04-19T06:16:48Z</time></trkpt>
<trkpt lat="32.99455" lon="35.41602"><ele>1123.0</ele><time>2013-04-19T06:16:57Z</time></trkpt>
<trkpt lat="32.99454" lon="35.41613"><ele>1123.0</ele><time>2013-04-19T06:17:06Z</time></trkpt>
<trkpt lat="32.99453" lon="35.41624"><ele>1122.0</ele><time>2013-04-19T06:17:12Z</time></trkpt>
<trkpt lat="32.99453" lon="35.41635"><ele>1123.0</ele><time>2013-04-19T06:17:19Z</time></trkpt>
<trkpt lat="32.99455" lon="35.41644"><ele>1123.0</ele><time>2013-04-19T06:17:29Z</time></trkpt>
<trkpt lat="32.99461" lon="35.41651"><ele>1122.0</ele><time>2013-04-19T06:17:39Z</time></trkpt>
<trkpt lat="32.99461" lon="35.41662"><ele>1121.0</ele><time>2013-04-19T06:17:53Z</time></trkpt>
<trkpt lat="32.99464" lon="35.41671"><ele>1123.0</ele><time>2013-04-19T06:18:03Z</time></trkpt>
<trkpt lat="32.99465" lon="35.41681"><ele>1124.0</ele><time>2013-04-19T06:18:11Z</time></trkpt>
<trkpt lat="32.99458" lon="35.41686"><ele>1126.0</ele><time>2013-04-19T06:20:53Z</time></trkpt>
<trkpt lat="32.99463" lon="35.41677"><ele>1128.0</ele><time>2013-04-19T06:22:54Z</time></trkpt>
<trkpt lat="32.99458" lon="35.41685"><ele>1131.0</ele><time>2013-04-19T06:28:25Z</time></trkpt>
<trkpt lat="32.99466" lon="35.41681"><ele>1133.0</ele><time>2013-04-19T06:28:54Z</time></trkpt>
<trkpt lat="32.99474" lon="35.41678"><ele>1135.0</ele><time>2013-04-19T06:29:18Z</time></trkpt>
<trkpt lat="32.99483" lon="35.41678"><ele>1135.0</ele><time>2013-04-19T06:29:32Z</time></trkpt>
<trkpt lat="32.99491" lon="35.41676"><ele>1137.0</ele><time>2013-04-19T06:29:59Z</time></trkpt>
<trkpt lat="32.99499" lon="35.41679"><ele>1139.0</ele><time>2013-04-19T06:30:15Z</time></trkpt>
<trkpt lat="32.99508" lon="35.41681"><ele>1143.0</ele><time>2013-04-19T06:30:24Z</time></trkpt>
<trkpt lat="32.99515" lon="35.41687"><ele>1144.0</ele><time>2013-04-19T06:30:33Z</time></trkpt>
<trkpt lat="32.99523" lon="35.41685"><ele>1146.0</ele><time>2013-04-19T06:30:44Z</time></trkpt>
<trkpt lat="32.99531" lon="35.41689"><ele>1147.0</ele><time>2013-04-19T06:30:55Z</time></trkpt>
<trkpt lat="32.99539" lon="35.41693"><ele>1149.0</ele><time>2013-04-19T06:31:08Z</time></trkpt>
<trkpt lat="32.99547" lon="35.41691"><ele>1150.0</ele><time>2013-04-19T06:31:17Z</time></trkpt>
<trkpt lat="32.99555" lon="35.41689"><ele>1152.0</ele><time>2013-04-19T06:31:37Z</time></trkpt>
<trkpt lat="32.99563" lon="35.41694"><ele>1153.0</ele><time>2013-04-19T06:31:46Z</time></trkpt>
<trkpt lat="32.99572" lon="35.41692"><ele>1155.0</ele><time>2013-04-19T06:31:54Z</time></trkpt>
<trkpt lat="32.9958" lon="35.4169"><ele>1156.0</ele><time>2013-04-19T06:32:01Z</time></trkpt>
<trkpt lat="32.99588" lon="35.41695"><ele>1157.0</ele><time>2013-04-19T06:32:17Z</time></trkpt>
<trkpt lat="32.99596" lon="35.41692"><ele>1156.0</ele><time>2013-04-19T06:32:29Z</time></trkpt>
<trkpt lat="32.99604" lon="35.41695"><ele>1156.0</ele><time>2013-04-19T06:32:38Z</time></trkpt>
<trkpt lat="32.99612" lon="35.41695"><ele>1155.0</ele><time>2013-04-19T06:32:46Z</time></trkpt>
<trkpt lat="32.99621" lon="35.41697"><ele>1154.0</ele><time>2013-04-19T06:32:57Z</time></trkpt>
<trkpt lat="32.99631" lon="35.41697"><ele>1154.0</ele><time>2013-04-19T06:33:18Z</time></trkpt>
<trkpt lat="32.9964" lon="35.41697"><ele>1153.0</ele><time>2013-04-19T06:33:30Z</time></trkpt>
<trkpt lat="32.99648" lon="35.41701"><ele>1152.0</ele><time>2013-04-19T06:33:41Z</time></trkpt>
<trkpt lat="32.99656" lon="35.417"><ele>1152.0</ele><time>2013-04-19T06:33:52Z</time></trkpt>
<trkpt lat="32.99665" lon="35.41696"><ele>1151.0</ele><time>2013-04-19T06:34:05Z</time></trkpt>
<trkpt lat="32.99669" lon="35.41704"><ele>1151.0</ele><time>2013-04-19T06:35:23Z</time></trkpt>
<trkpt lat="32.99674" lon="35.41695"><ele>1151.0</ele><time>2013-04-19T06:37:30Z</time></trkpt>
<trkpt lat="32.99681" lon="35.41689"><ele>1149.0</ele><time>2013-04-19T06:37:43Z</time></trkpt>
<trkpt lat="32.99688" lon="35.41687"><ele>1147.0</ele><time>2013-04-19T06:37:52Z</time></trkpt>
<trkpt lat="32.99696" lon="35.41682"><ele>1146.0</ele><time>2013-04-19T06:38:01Z</time></trkpt>
<trkpt lat="32.997" lon="35.41672"><ele>1144.0</ele><time>2013-04-19T06:38:11Z</time></trkpt>
<trkpt lat="32.99707" lon="35.41667"><ele>1142.0</ele><time>2013-04-19T06:38:19Z</time></trkpt>
<trkpt lat="32.99715" lon="35.41662"><ele>1141.0</ele><time>2013-04-19T06:38:32Z</time></trkpt>
<trkpt lat="32.99721" lon="35.41656"><ele>1141.0</ele><time>2013-04-19T06:38:45Z</time></trkpt>
<trkpt lat="32.99729" lon="35.41655"><ele>1142.0</ele><time>2013-04-19T06:39:37Z</time></trkpt>
<trkpt lat="32.99736" lon="35.41649"><ele>1142.0</ele><time>2013-04-19T06:39:50Z</time></trkpt>
<trkpt lat="32.9974" lon="35.4164"><ele>1143.0</ele><time>2013-04-19T06:40:26Z</time></trkpt>
<trkpt lat="32.99748" lon="35.41636"><ele>1143.0</ele><time>2013-04-19T06:40:39Z</time></trkpt>
<trkpt lat="32.99755" lon="35.41624"><ele>1146.0</ele><time>2013-04-19T06:41:59Z</time></trkpt>
<trkpt lat="32.99763" lon="35.41621"><ele>1148.0</ele><time>2013-04-19T06:42:11Z</time></trkpt>
<trkpt lat="32.9977" lon="35.41615"><ele>1150.0</ele><time>2013-04-19T06:42:23Z</time></trkpt>
<trkpt lat="32.99778" lon="35.41611"><ele>1150.0</ele><time>2013-04-19T06:42:32Z</time></trkpt>
<trkpt lat="32.99786" lon="35.41604"><ele>1150.0</ele><time>2013-04-19T06:42:48Z</time></trkpt>
<trkpt lat="32.99793" lon="35.41599"><ele>1150.0</ele><time>2013-04-19T06:42:59Z</time></trkpt>
<trkpt lat="32.9979" lon="35.41589"><ele>1150.0</ele><time>2013-04-19T06:43:14Z</time></trkpt>
<trkpt lat="32.99791" lon="35.41579"><ele>1150.0</ele><time>2013-04-19T06:43:33Z</time></trkpt>
<trkpt lat="32.99795" lon="35.4157"><ele>1151.0</ele><time>2013-04-19T06:43:46Z</time></trkpt>
<trkpt lat="32.99797" lon="35.4156"><ele>1151.0</ele><time>2013-04-19T06:44:01Z</time></trkpt>
<trkpt lat="32.99796" lon="35.4155"><ele>1152.0</ele><time>2013-04-19T06:44:16Z</time></trkpt>
<trkpt lat="32.99799" lon="35.41541"><ele>1152.0</ele><time>2013-04-19T06:44:26Z</time></trkpt>
<trkpt lat="32.99804" lon="35.41533"><ele>1152.0</ele><time>2013-04-19T06:44:34Z</time></trkpt>
<trkpt lat="32.9981" lon="35.41526"><ele>1153.0</ele><time>2013-04-19T06:44:49Z</time></trkpt>
<trkpt lat="32.99818" lon="35.41521"><ele>1155.0</ele><time>2013-04-19T06:44:59Z</time></trkpt>
<trkpt lat="32.99825" lon="35.41517"><ele>1158.0</ele><time>2013-04-19T06:45:08Z</time></trkpt>
<trkpt lat="32.9983" lon="35.41509"><ele>1161.0</ele><time>2013-04-19T06:46:26Z</time></trkpt>
<trkpt lat="32.99836" lon="35.41502"><ele>1162.0</ele><time>2013-04-19T06:46:37Z</time></trkpt>
<trkpt lat="32.99844" lon="35.41496"><ele>1164.0</ele><time>2013-04-19T06:46:43Z</time></trkpt>
<trkpt lat="32.99848" lon="35.41488"><ele>1166.0</ele><time>2013-04-19T06:46:49Z</time></trkpt>
<trkpt lat="32.99852" lon="35.4148"><ele>1168.0</ele><time>2013-04-19T06:46:56Z</time></trkpt>
<trkpt lat="32.99859" lon="35.41472"><ele>1167.0</ele><time>2013-04-19T06:47:05Z</time></trkpt>
<trkpt lat="32.99859" lon="35.41462"><ele>1166.0</ele><time>2013-04-19T06:47:14Z</time></trkpt>
<trkpt lat="32.99863" lon="35.41453"><ele>1165.0</ele><time>2013-04-19T06:47:20Z</time></trkpt>
<trkpt lat="32.99865" lon="35.41443"><ele>1164.0</ele><time>2013-04-19T06:47:28Z</time></trkpt>
<trkpt lat="32.99871" lon="35.41436"><ele>1163.0</ele><time>2013-04-19T06:47:40Z</time></trkpt>
<trkpt lat="32.99878" lon="35.4143"><ele>1162.0</ele><time>2013-04-19T06:47:56Z</time></trkpt>
<trkpt lat="32.99885" lon="35.41423"><ele>1161.0</ele><time>2013-04-19T06:48:05Z</time></trkpt>
<trkpt lat="32.99891" lon="35.41416"><ele>1160.0</ele><time>2013-04-19T06:48:44Z</time></trkpt>
<trkpt lat="32.99898" lon="35.4141"><ele>1160.0</ele><time>2013-04-19T06:50:04Z</time></trkpt>
<trkpt lat="32.99903" lon="35.41401"><ele>1159.0</ele><time>2013-04-19T06:50:26Z</time></trkpt>
<trkpt lat="32.99909" lon="35.41394"><ele>1159.0</ele><time>2013-04-19T06:50:37Z</time></trkpt>
<trkpt lat="32.99912" lon="35.41385"><ele>1161.0</ele><time>2013-04-19T06:50:50Z</time></trkpt>
<trkpt lat="32.99917" lon="35.41376"><ele>1164.0</ele><time>2013-04-19T06:51:16Z</time></trkpt>
<trkpt lat="32.99922" lon="35.41368"><ele>1166.0</ele><time>2013-04-19T06:51:29Z</time></trkpt>
<trkpt lat="32.99928" lon="35.41361"><ele>1168.0</ele><time>2013-04-19T06:51:54Z</time></trkpt>
<trkpt lat="32.99932" lon="35.41352"><ele>1171.0</ele><time>2013-04-19T06:52:05Z</time></trkpt>
<trkpt lat="32.99931" lon="35.41342"><ele>1173.0</ele><time>2013-04-19T06:52:16Z</time></trkpt>
<trkpt lat="32.99934" lon="35.41332"><ele>1177.0</ele><time>2013-04-19T06:52:27Z</time></trkpt>
<trkpt lat="32.99941" lon="35.41325"><ele>1176.0</ele><time>2013-04-19T06:52:35Z</time></trkpt>
<trkpt lat="32.99947" lon="35.41318"><ele>1175.0</ele><time>2013-04-19T06:52:46Z</time></trkpt>
<trkpt lat="32.99953" lon="35.4131"><ele>1174.0</ele><time>2013-04-19T06:52:56Z</time></trkpt>
<trkpt lat="32.99959" lon="35.41302"><ele>1173.0</ele><time>2013-04-19T06:53:07Z</time></trkpt>
<trkpt lat="32.99962" lon="35.41293"><ele>1172.0</ele><time>2013-04-19T06:53:17Z</time></trkpt>
<trkpt lat="32.99967" lon="35.41285"><ele>1171.0</ele><time>2013-04-19T06:53:28Z</time></trkpt>
<trkpt lat="32.99972" lon="35.41274"><ele>1170.0</ele><time>2013-04-19T06:53:42Z</time></trkpt>
<trkpt lat="32.99977" lon="35.41265"><ele>1169.0</ele><time>2013-04-19T06:53:51Z</time></trkpt>
<trkpt lat="32.99981" lon="35.41257"><ele>1168.0</ele><time>2013-04-19T06:53:59Z</time></trkpt>
<trkpt lat="32.99987" lon="35.4125"><ele>1168.0</ele><time>2013-04-19T06:54:07Z</time></trkpt>
<trkpt lat="32.99992" lon="35.41242"><ele>1167.0</ele><time>2013-04-19T06:54:14Z</time></trkpt>
<trkpt lat="32.99999" lon="35.41236"><ele>1168.0</ele><time>2013-04-19T06:54:25Z</time></trkpt>
<trkpt lat="33.00004" lon="35.41228"><ele>1170.0</ele><time>2013-04-19T06:54:35Z</time></trkpt>
<trkpt lat="33.0001" lon="35.41221"><ele>1171.0</ele><time>2013-04-19T06:54:46Z</time></trkpt>
<trkpt lat="33.00012" lon="35.41212"><ele>1172.0</ele><time>2013-04-19T06:55:04Z</time></trkpt>
<trkpt lat="33.00013" lon="35.41201"><ele>1173.0</ele><time>2013-04-19T06:55:15Z</time></trkpt>
<trkpt lat="33.00017" lon="35.41193"><ele>1175.0</ele><time>2013-04-19T06:55:26Z</time></trkpt>
<trkpt lat="33.0002" lon="35.41183"><ele>1176.0</ele><time>2013-04-19T06:55:44Z</time></trkpt>
<trkpt lat="33.00012" lon="35.41179"><ele>1176.0</ele><time>2013-04-19T07:00:06Z</time></trkpt>
<trkpt lat="33.00017" lon="35.41171"><ele>1176.0</ele><time>2013-04-19T07:00:42Z</time></trkpt>
<trkpt lat="33.00018" lon="35.41161"><ele>1175.0</ele><time>2013-04-19T07:00:54Z</time></trkpt>
<trkpt lat="33.00015" lon="35.41152"><ele>1174.0</ele><time>2013-04-19T07:01:06Z</time></trkpt>
<trkpt lat="33.00013" lon="35.41143"><ele>1173.0</ele><time>2013-04-19T07:01:19Z</time></trkpt>
<trkpt lat="33.00009" lon="35.41134"><ele>1171.0</ele><time>2013-04-19T07:01:47Z</time></trkpt>
<trkpt lat="33.00006" lon="35.41125"><ele>1170.0</ele><time>2013-04-19T07:02:01Z</time></trkpt>
<trkpt lat="32.99996" lon="35.41123"><ele>1171.0</ele><time>2013-04-19T07:02:15Z</time></trkpt>
<trkpt lat="32.99987" lon="35.41121"><ele>1172.0</ele><time>2013-04-19T07:02:22Z</time></trkpt>
<trkpt lat="32.99978" lon="35.4112"><ele>1173.0</ele><time>2013-04-19T07:02:30Z</time></trkpt>
<trkpt lat="32.99971" lon="35.41114"><ele>1174.0</ele><time>2013-04-19T07:02:42Z</time></trkpt>
<trkpt lat="32.99968" lon="35.41104"><ele>1176.0</ele><time>2013-04-19T07:02:55Z</time></trkpt>
<trkpt lat="32.99963" lon="35.41096"><ele>1178.0</ele><time>2013-04-19T07:03:05Z</time></trkpt>
<trkpt lat="32.99963" lon="35.41086"><ele>1180.0</ele><time>2013-04-19T07:03:12Z</time></trkpt>
<trkpt lat="32.99962" lon="35.41076"><ele>1182.0</ele><time>2013-04-19T07:03:22Z</time></trkpt>
<trkpt lat="32.99958" lon="35.41067"><ele>1184.0</ele><time>2013-04-19T07:03:34Z</time></trkpt>
<trkpt lat="32.99955" lon="35.41058"><ele>1186.0</ele><time>2013-04-19T07:03:45Z</time></trkpt>
<trkpt lat="32.99956" lon="35.41048"><ele>1188.0</ele><time>2013-04-19T07:03:54Z</time></trkpt>
<trkpt lat="32.99955" lon="35.41037"><ele>1188.0</ele><time>2013-04-19T07:04:05Z</time></trkpt>
<trkpt lat="32.99956" lon="35.41027"><ele>1188.0</ele><time>2013-04-19T07:04:12Z</time></trkpt>
<trkpt lat="32.99958" lon="35.41016"><ele>1187.0</ele><time>2013-04-19T07:04:20Z</time></trkpt>
<trkpt lat="32.99956" lon="35.41006"><ele>1186.0</ele><time>2013-04-19T07:04:33Z</time></trkpt>
<trkpt lat="32.99955" lon="35.40996"><ele>1185.0</ele><time>2013-04-19T07:04:49Z</time></trkpt>
<trkpt lat="32.99952" lon="35.40987"><ele>1184.0</ele><time>2013-04-19T07:04:56Z</time></trkpt>
<trkpt lat="32.99949" lon="35.40978"><ele>1183.0</ele><time>2013-04-19T07:05:07Z</time></trkpt>
<trkpt lat="32.99948" lon="35.40967"><ele>1182.0</ele><time>2013-04-19T07:05:18Z</time></trkpt>
<trkpt lat="32.99944" lon="35.40959"><ele>1181.0</ele><time>2013-04-19T07:05:26Z</time></trkpt>
<trkpt lat="32.99935" lon="35.40954"><ele>1180.0</ele><time>2013-04-19T07:05:33Z</time></trkpt>
<trkpt lat="32.99929" lon="35.40947"><ele>1179.0</ele><time>2013-04-19T07:05:44Z</time></trkpt>
<trkpt lat="32.99926" lon="35.40937"><ele>1178.0</ele><time>2013-04-19T07:05:56Z</time></trkpt>
<trkpt lat="32.99921" lon="35.40929"><ele>1177.0</ele><time>2013-04-19T07:06:04Z</time></trkpt>
<trkpt lat="32.99914" lon="35.40922"><ele>1177.0</ele><time>2013-04-19T07:06:10Z</time></trkpt>
<trkpt lat="32.99907" lon="35.40917"><ele>1177.0</ele><time>2013-04-19T07:06:19Z</time></trkpt>
<trkpt lat="32.99902" lon="35.4091"><ele>1176.0</ele><time>2013-04-19T07:06:25Z</time></trkpt>
<trkpt lat="32.99897" lon="35.40901"><ele>1175.0</ele><time>2013-04-19T07:06:36Z</time></trkpt>
<trkpt lat="32.99891" lon="35.40894"><ele>1174.0</ele><time>2013-04-19T07:06:44Z</time></trkpt>
<trkpt lat="32.99887" lon="35.40886"><ele>1173.0</ele><time>2013-04-19T07:06:52Z</time></trkpt>
<trkpt lat="32.9988" lon="35.4088"><ele>1172.0</ele><time>2013-04-19T07:07:11Z</time></trkpt>
<trkpt lat="32.99873" lon="35.40874"><ele>1171.0</ele><time>2013-04-19T07:09:16Z</time></trkpt>
<trkpt lat="32.99866" lon="35.40866"><ele>1170.0</ele><time>2013-04-19T07:11:01Z</time></trkpt>
<trkpt lat="32.99858" lon="35.40862"><ele>1169.0</ele><time>2013-04-19T07:11:14Z</time></trkpt>
<trkpt lat="32.9985" lon="35.40865"><ele>1169.0</ele><time>2013-04-19T07:11:59Z</time></trkpt>
<trkpt lat="32.99841" lon="35.40864"><ele>1169.0</ele><time>2013-04-19T07:12:41Z</time></trkpt>
<trkpt lat="32.99833" lon="35.40865"><ele>1169.0</ele><time>2013-04-19T07:12:55Z</time></trkpt>
<trkpt lat="32.99825" lon="35.4087"><ele>1167.0</ele><time>2013-04-19T07:13:09Z</time></trkpt>
<trkpt lat="32.99817" lon="35.40874"><ele>1166.0</ele><time>2013-04-19T07:13:21Z</time></trkpt>
<trkpt lat="32.99809" lon="35.4088"><ele>1164.0</ele><time>2013-04-19T07:13:32Z</time></trkpt>
<trkpt lat="32.99801" lon="35.40883"><ele>1163.0</ele><time>2013-04-19T07:13:43Z</time></trkpt>
<trkpt lat="32.99793" lon="35.40888"><ele>1161.0</ele><time>2013-04-19T07:13:54Z</time></trkpt>
<trkpt lat="32.99787" lon="35.40894"><ele>1160.0</ele><time>2013-04-19T07:14:08Z</time></trkpt>
<trkpt lat="32.9978" lon="35.409"><ele>1158.0</ele><time>2013-04-19T07:14:24Z</time></trkpt>
<trkpt lat="32.99772" lon="35.40904"><ele>1157.0</ele><time>2013-04-19T07:14:45Z</time></trkpt>
<trkpt lat="32.99766" lon="35.40912"><ele>1154.0</ele><time>2013-04-19T07:14:57Z</time></trkpt>
<trkpt lat="32.99762" lon="35.4092"><ele>1152.0</ele><time>2013-04-19T07:15:28Z</time></trkpt>
<trkpt lat="32.99758" lon="35.40929"><ele>1150.0</ele><time>2013-04-19T07:15:44Z</time></trkpt>
<trkpt lat="32.99752" lon="35.40937"><ele>1151.0</ele><time>2013-04-19T07:15:54Z</time></trkpt>
<trkpt lat="32.99747" lon="35.40945"><ele>1152.0</ele><time>2013-04-19T07:16:04Z</time></trkpt>
<trkpt lat="32.99742" lon="35.40953"><ele>1153.0</ele><time>2013-04-19T07:16:14Z</time></trkpt>
<trkpt lat="32.99738" lon="35.40962"><ele>1154.0</ele><time>2013-04-19T07:16:28Z</time></trkpt>
<trkpt lat="32.99732" lon="35.40968"><ele>1153.0</ele><time>2013-04-19T07:16:53Z</time></trkpt>
<trkpt lat="32.99726" lon="35.40975"><ele>1151.0</ele><time>2013-04-19T07:17:22Z</time></trkpt>
<trkpt lat="32.99721" lon="35.40983"><ele>1149.0</ele><time>2013-04-19T07:17:44Z</time></trkpt>
<trkpt lat="32.99716" lon="35.40991"><ele>1148.0</ele><time>2013-04-19T07:17:54Z</time></trkpt>
<trkpt lat="32.99713" lon="35.41001"><ele>1146.0</ele><time>2013-04-19T07:18:03Z</time></trkpt>
<trkpt lat="32.9971" lon="35.4101"><ele>1145.0</ele><time>2013-04-19T07:18:10Z</time></trkpt>
<trkpt lat="32.99707" lon="35.41019"><ele>1144.0</ele><time>2013-04-19T07:18:16Z</time></trkpt>
<trkpt lat="32.99705" lon="35.41029"><ele>1141.0</ele><time>2013-04-19T07:18:26Z</time></trkpt>
<trkpt lat="32.99702" lon="35.41039"><ele>1139.0</ele><time>2013-04-19T07:18:37Z</time></trkpt>
<trkpt lat="32.99701" lon="35.41049"><ele>1136.0</ele><time>2013-04-19T07:18:48Z</time></trkpt>
<trkpt lat="32.99701" lon="35.4106"><ele>1134.0</ele><time>2013-04-19T07:18:58Z</time></trkpt>
<trkpt lat="32.997" lon="35.4107"><ele>1134.0</ele><time>2013-04-19T07:19:08Z</time></trkpt>
<trkpt lat="32.99701" lon="35.4108"><ele>1134.0</ele><time>2013-04-19T07:19:17Z</time></trkpt>
<trkpt lat="32.99701" lon="35.41091"><ele>1136.0</ele><time>2013-04-19T07:19:28Z</time></trkpt>
<trkpt lat="32.997" lon="35.41101"><ele>1137.0</ele><time>2013-04-19T07:19:38Z</time></trkpt>
<trkpt lat="32.99702" lon="35.41111"><ele>1138.0</ele><time>2013-04-19T07:19:50Z</time></trkpt>
<trkpt lat="32.99705" lon="35.4112"><ele>1139.0</ele><time>2013-04-19T07:20:03Z</time></trkpt>
<trkpt lat="32.99705" lon="35.4113"><ele>1140.0</ele><time>2013-04-19T07:20:12Z</time></trkpt>
<trkpt lat="32.99705" lon="35.41141"><ele>1140.0</ele><time>2013-04-19T07:20:33Z</time></trkpt>
<trkpt lat="32.99697" lon="35.41138"><ele>1141.0</ele><time>2013-04-19T07:21:16Z</time></trkpt>
<trkpt lat="32.99703" lon="35.41145"><ele>1142.0</ele><time>2013-04-19T07:22:21Z</time></trkpt>
<trkpt lat="32.99695" lon="35.41147"><ele>1143.0</ele><time>2013-04-19T07:23:02Z</time></trkpt>
<trkpt lat="32.99686" lon="35.41147"><ele>1144.0</ele><time>2013-04-19T07:23:33Z</time></trkpt>
<trkpt lat="32.99678" lon="35.41148"><ele>1145.0</ele><time>2013-04-19T07:23:43Z</time></trkpt>
<trkpt lat="32.99664" lon="35.4115"><ele>1143.0</ele><time>2013-04-19T07:24:11Z</time></trkpt>
<trkpt lat="32.99656" lon="35.41151"><ele>1142.0</ele><time>2013-04-19T07:24:20Z</time></trkpt>
<trkpt lat="32.99647" lon="35.41152"><ele>1140.0</ele><time>2013-04-19T07:24:36Z</time></trkpt>
<trkpt lat="32.99638" lon="35.41151"><ele>1139.0</ele><time>2013-04-19T07:24:45Z</time></trkpt>
<trkpt lat="32.99629" lon="35.41148"><ele>1138.0</ele><time>2013-04-19T07:24:53Z</time></trkpt>
<trkpt lat="32.99622" lon="35.41143"><ele>1136.0</ele><time>2013-04-19T07:25:03Z</time></trkpt>
<trkpt lat="32.99614" lon="35.41148"><ele>1135.0</ele><time>2013-04-19T07:25:12Z</time></trkpt>
<trkpt lat="32.99606" lon="35.41148"><ele>1134.0</ele><time>2013-04-19T07:25:22Z</time></trkpt>
<trkpt lat="32.99597" lon="35.4115"><ele>1132.0</ele><time>2013-04-19T07:25:31Z</time></trkpt>
<trkpt lat="32.99589" lon="35.41154"><ele>1131.0</ele><time>2013-04-19T07:25:40Z</time></trkpt>
<trkpt lat="32.99585" lon="35.41163"><ele>1130.0</ele><time>2013-04-19T07:25:47Z</time></trkpt>
<trkpt lat="32.99581" lon="35.41172"><ele>1130.0</ele><time>2013-04-19T07:25:55Z</time></trkpt>
<trkpt lat="32.99577" lon="35.41181"><ele>1131.0</ele><time>2013-04-19T07:26:04Z</time></trkpt>
<trkpt lat="32.99575" lon="35.41191"><ele>1131.0</ele><time>2013-04-19T07:26:11Z</time></trkpt>
<trkpt lat="32.99575" lon="35.41201"><ele>1132.0</ele><time>2013-04-19T07:26:20Z</time></trkpt>
<trkpt lat="32.99575" lon="35.41213"><ele>1133.0</ele><time>2013-04-19T07:26:30Z</time></trkpt>
<trkpt lat="32.99575" lon="35.41224"><ele>1133.0</ele><time>2013-04-19T07:26:39Z</time></trkpt>
<trkpt lat="32.99574" lon="35.41234"><ele>1134.0</ele><time>2013-04-19T07:26:48Z</time></trkpt>
<trkpt lat="32.99571" lon="35.41244"><ele>1135.0</ele><time>2013-04-19T07:26:57Z</time></trkpt>
<trkpt lat="32.99568" lon="35.41253"><ele>1135.0</ele><time>2013-04-19T07:27:09Z</time></trkpt>
<trkpt lat="32.99565" lon="35.41262"><ele>1134.0</ele><time>2013-04-19T07:28:16Z</time></trkpt>
<trkpt lat="32.99561" lon="35.4127"><ele>1134.0</ele><time>2013-04-19T07:28:26Z</time></trkpt>
<trkpt lat="32.99556" lon="35.41279"><ele>1132.0</ele><time>2013-04-19T07:28:36Z</time></trkpt>
<trkpt lat="32.99551" lon="35.41288"><ele>1131.0</ele><time>2013-04-19T07:28:47Z</time></trkpt>
<trkpt lat="32.99547" lon="35.41298"><ele>1129.0</ele><time>2013-04-19T07:28:56Z</time></trkpt>
<trkpt lat="32.99543" lon="35.41306"><ele>1128.0</ele><time>2013-04-19T07:29:05Z</time></trkpt>
<trkpt lat="32.9954" lon="35.41316"><ele>1126.0</ele><time>2013-04-19T07:29:13Z</time></trkpt>
<trkpt lat="32.99536" lon="35.41325"><ele>1125.0</ele><time>2013-04-19T07:29:23Z</time></trkpt>
<trkpt lat="32.99533" lon="35.41334"><ele>1123.0</ele><time>2013-04-19T07:29:33Z</time></trkpt>
<trkpt lat="32.9953" lon="35.41343"><ele>1123.0</ele><time>2013-04-19T07:29:43Z</time></trkpt>
<trkpt lat="32.99525" lon="35.41352"><ele>1123.0</ele><time>2013-04-19T07:29:53Z</time></trkpt>
<trkpt lat="32.99522" lon="35.41361"><ele>1124.0</ele><time>2013-04-19T07:30:03Z</time></trkpt>
<trkpt lat="32.99519" lon="35.41371"><ele>1125.0</ele><time>2013-04-19T07:30:14Z</time></trkpt>
<trkpt lat="32.99514" lon="35.4138"><ele>1126.0</ele><time>2013-04-19T07:30:24Z</time></trkpt>
<trkpt lat="32.99508" lon="35.41387"><ele>1127.0</ele><time>2013-04-19T07:30:33Z</time></trkpt>
<trkpt lat="32.99501" lon="35.41393"><ele>1128.0</ele><time>2013-04-19T07:30:42Z</time></trkpt>
<trkpt lat="32.99495" lon="35.414"><ele>1127.0</ele><time>2013-04-19T07:30:53Z</time></trkpt>
<trkpt lat="32.99489" lon="35.41407"><ele>1127.0</ele><time>2013-04-19T07:31:04Z</time></trkpt>
<trkpt lat="32.99482" lon="35.41413"><ele>1126.0</ele><time>2013-04-19T07:31:12Z</time></trkpt>
<trkpt lat="32.99473" lon="35.41418"><ele>1126.0</ele><time>2013-04-19T07:31:21Z</time></trkpt>
<trkpt lat="32.99466" lon="35.41423"><ele>1125.0</ele><time>2013-04-19T07:31:30Z</time></trkpt>
<trkpt lat="32.99459" lon="35.41428"><ele>1123.0</ele><time>2013-04-19T07:31:41Z</time></trkpt>
<trkpt lat="32.99451" lon="35.41432"><ele>1122.0</ele><time>2013-04-19T07:31:58Z</time></trkpt>
<trkpt lat="32.99442" lon="35.41433"><ele>1121.0</ele><time>2013-04-19T07:32:23Z</time></trkpt>
<trkpt lat="32.99434" lon="35.41431"><ele>1119.0</ele><time>2013-04-19T07:32:39Z</time></trkpt>
<trkpt lat="32.99426" lon="35.41429"><ele>1118.0</ele><time>2013-04-19T07:32:47Z</time></trkpt>
<trkpt lat="32.99418" lon="35.41434"><ele>1117.0</ele><time>2013-04-19T07:32:56Z</time></trkpt>
<trkpt lat="32.9941" lon="35.41439"><ele>1117.0</ele><time>2013-04-19T07:33:11Z</time></trkpt>
<trkpt lat="32.99403" lon="35.41443"><ele>1117.0</ele><time>2013-04-19T07:33:20Z</time></trkpt>
<trkpt lat="32.99395" lon="35.41448"><ele>1117.0</ele><time>2013-04-19T07:33:28Z</time></trkpt>
<trkpt lat="32.99387" lon="35.41451"><ele>1117.0</ele><time>2013-04-19T07:33:36Z</time></trkpt>
<trkpt lat="32.99379" lon="35.41454"><ele>1117.0</ele><time>2013-04-19T07:33:45Z</time></trkpt>
<trkpt lat="32.99372" lon="35.4146"><ele>1117.0</ele><time>2013-04-19T07:33:54Z</time></trkpt>
<trkpt lat="32.99364" lon="35.41459"><ele>1117.0</ele><time>2013-04-19T07:34:02Z</time></trkpt>
<trkpt lat="32.99355" lon="35.41458"><ele>1118.0</ele><time>2013-04-19T07:34:11Z</time></trkpt>
<trkpt lat="32.99348" lon="35.41454"><ele>1118.0</ele><time>2013-04-19T07:34:25Z</time></trkpt>
<trkpt lat="32.99354" lon="35.41459"><ele>1118.0</ele><time>2013-04-19T07:35:05Z</time></trkpt>
<trkpt lat="32.99347" lon="35.41456"><ele>1118.0</ele><time>2013-04-19T07:35:34Z</time></trkpt>
<trkpt lat="32.99339" lon="35.41459"><ele>1118.0</ele><time>2013-04-19T07:36:30Z</time></trkpt>
<trkpt lat="32.99335" lon="35.41467"><ele>1118.0</ele><time>2013-04-19T08:07:20Z</time></trkpt>
<trkpt lat="32.99327" lon="35.41463"><ele>1118.0</ele><time>2013-04-19T08:07:54Z</time></trkpt>
<trkpt lat="32.99336" lon="35.41461"><ele>1118.0</ele><time>2013-04-19T08:08:11Z</time></trkpt>
<trkpt lat="32.99344" lon="35.4146"><ele>1118.0</ele><time>2013-04-19T08:08:50Z</time></trkpt>
<trkpt lat="32.99338" lon="35.41452"><ele>1119.0</ele><time>2013-04-19T08:10:26Z</time></trkpt>
<trkpt lat="32.99346" lon="35.41457"><ele>1120.0</ele><time>2013-04-19T08:10:53Z</time></trkpt>
<trkpt lat="32.99354" lon="35.41462"><ele>1120.0</ele><time>2013-04-19T08:10:56Z</time></trkpt>
<trkpt lat="32.99361" lon="35.4147"><ele>1121.0</ele><time>2013-04-19T08:11:00Z</time></trkpt>
<trkpt lat="32.99368" lon="35.41478"><ele>1122.0</ele><time>2013-04-19T08:11:06Z</time></trkpt>
<trkpt lat="32.99377" lon="35.41481"><ele>1122.0</ele><time>2013-04-19T08:11:10Z</time></trkpt>
<trkpt lat="32.9939" lon="35.41479"><ele>1122.0</ele><time>2013-04-19T08:11:12Z</time></trkpt>
<trkpt lat="32.99405" lon="35.41473"><ele>1121.0</ele><time>2013-04-19T08:11:14Z</time></trkpt>
<trkpt lat="32.99415" lon="35.4147"><ele>1121.0</ele><time>2013-04-19T08:11:15Z</time></trkpt>
<trkpt lat="32.99424" lon="35.41465"><ele>1122.0</ele><time>2013-04-19T08:11:16Z</time></trkpt>
<trkpt lat="32.99433" lon="35.41459"><ele>1123.0</ele><time>2013-04-19T08:11:17Z</time></trkpt>
<trkpt lat="32.99442" lon="35.41452"><ele>1124.0</ele><time>2013-04-19T08:11:18Z</time></trkpt>
<trkpt lat="32.99451" lon="35.41445"><ele>1124.0</ele><time>2013-04-19T08:11:19Z</time></trkpt>
<trkpt lat="32.99459" lon="35.41438"><ele>1125.0</ele><time>2013-04-19T08:11:20Z</time></trkpt>
<trkpt lat="32.99467" lon="35.4143"><ele>1126.0</ele><time>2013-04-19T08:11:21Z</time></trkpt>
<trkpt lat="32.99475" lon="35.41422"><ele>1126.0</ele><time>2013-04-19T08:11:22Z</time></trkpt>
<trkpt lat="32.99482" lon="35.41415"><ele>1126.0</ele><time>2013-04-19T08:11:23Z</time></trkpt>
<trkpt lat="32.99489" lon="35.41408"><ele>1127.0</ele><time>2013-04-19T08:11:24Z</time></trkpt>
<trkpt lat="32.99496" lon="35.41402"><ele>1127.0</ele><time>2013-04-19T08:11:25Z</time></trkpt>
<trkpt lat="32.99502" lon="35.41395"><ele>1128.0</ele><time>2013-04-19T08:11:26Z</time></trkpt>
<trkpt lat="32.99506" lon="35.41386"><ele>1127.0</ele><time>2013-04-19T08:11:27Z</time></trkpt>
<trkpt lat="32.99511" lon="35.41378"><ele>1126.0</ele><time>2013-04-19T08:11:28Z</time></trkpt>
<trkpt lat="32.99515" lon="35.4137"><ele>1127.0</ele><time>2013-04-19T08:11:29Z</time></trkpt>
<trkpt lat="32.99524" lon="35.41353"><ele>1127.0</ele><time>2013-04-19T08:11:31Z</time></trkpt>
<trkpt lat="32.99531" lon="35.41338"><ele>1128.0</ele><time>2013-04-19T08:11:33Z</time></trkpt>
<trkpt lat="32.99538" lon="35.41323"><ele>1128.0</ele><time>2013-04-19T08:11:35Z</time></trkpt>
<trkpt lat="32.99544" lon="35.41312"><ele>1128.0</ele><time>2013-04-19T08:11:37Z</time></trkpt>
<trkpt lat="32.99549" lon="35.41301"><ele>1129.0</ele><time>2013-04-19T08:11:40Z</time></trkpt>
<trkpt lat="32.99553" lon="35.41289"><ele>1130.0</ele><time>2013-04-19T08:11:43Z</time></trkpt>
<trkpt lat="32.99558" lon="35.41278"><ele>1131.0</ele><time>2013-04-19T08:11:46Z</time></trkpt>
<trkpt lat="32.99564" lon="35.41271"><ele>1133.0</ele><time>2013-04-19T08:11:50Z</time></trkpt>
</trkseg></trk></gpx>