<?xml version="1.0" encoding="utf-8"?>
<gpx version="1.1"><trk><trkseg>
<trkpt lat="33.005" lon="35.21547"><ele>351.0</ele><time>2013-05-11T06:33:00Z</time></trkpt>
<trkpt lat="33.00503" lon="35.21547"><ele>350.0</ele><time>2013-05-11T06:33:06Z</time></trkpt>
<trkpt lat="33.00509" lon="35.21556"><ele>350.0</ele><time>2013-05-11T06:35:09Z</time></trkpt>
<trkpt lat="33.00517" lon="35.21558"><ele>350.0</ele><time>2013-05-11T06:35:14Z</time></trkpt>
<trkpt lat="33.00524" lon="35.2155"><ele>350.0</ele><time>2013-05-11T06:35:18Z</time></trkpt>
<trkpt lat="33.00531" lon="35.21545"><ele>350.0</ele><time>2013-05-11T06:35:21Z</time></trkpt>
<trkpt lat="33.00539" lon="35.21543"><ele>350.0</ele><time>2013-05-11T06:35:24Z</time></trkpt>
<trkpt lat="33.00548" lon="35.21544"><ele>350.0</ele><time>2013-05-11T06:35:28Z</time></trkpt>
<trkpt lat="33.00554" lon="35.21533"><ele>350.0</ele><time>2013-05-11T06:35:32Z</time></trkpt>
<trkpt lat="33.0056" lon="35.21524"><ele>349.0</ele><time>2013-05-11T06:35:35Z</time></trkpt>
<trkpt lat="33.00569" lon="35.21517"><ele>349.0</ele><time>2013-05-11T06:35:38Z</time></trkpt>
<trkpt lat="33.00578" lon="35.2151"><ele>349.0</ele><time>2013-05-11T06:35:41Z</time></trkpt>
<trkpt lat="33.00588" lon="35.21503"><ele>349.0</ele><time>2013-05-11T06:35:44Z</time></trkpt>
<trkpt lat="33.00596" lon="35.21496"><ele>348.0</ele><time>2013-05-11T06:35:47Z</time></trkpt>
<trkpt lat="33.00598" lon="35.21482"><ele>348.0</ele><time>2013-05-11T06:35:50Z</time></trkpt>
<trkpt lat="33.00596" lon="35.21472"><ele>348.0</ele><time>2013-05-11T06:35:52Z</time></trkpt>
<trkpt lat="33.00592" lon="35.21464"><ele>347.0</ele><time>2013-05-11T06:35:54Z</time></trkpt>
<trkpt lat="33.00586" lon="35.21455"><ele>347.0</ele><time>2013-05-11T06:35:56Z</time></trkpt>
<trkpt lat="33.0058" lon="35.21446"><ele>347.0</ele><time>2013-05-11T06:35:58Z</time></trkpt>
<trkpt lat="33.00575" lon="35.21438"><ele>346.0</ele><time>2013-05-11T06:36:01Z</time></trkpt>
<trkpt lat="33.00567" lon="35.21427"><ele>345.0</ele><time>2013-05-11T06:36:04Z</time></trkpt>
<trkpt lat="33.00561" lon="35.21418"><ele>345.0</ele><time>2013-05-11T06:36:06Z</time></trkpt>
<trkpt lat="33.00554" lon="35.21409"><ele>345.0</ele><time>2013-05-11T06:36:08Z</time></trkpt>
<trkpt lat="33.00548" lon="35.21399"><ele>344.0</ele><time>2013-05-11T06:36:10Z</time></trkpt>
<trkpt lat="33.00546" lon="35.21386"><ele>344.0</ele><time>2013-05-11T06:36:12Z</time></trkpt>
<trkpt lat="33.00547" lon="35.21372"><ele>344.0</ele><time>2013-05-11T06:36:14Z</time></trkpt>
<trkpt lat="33.00552" lon="35.21359"><ele>343.0</ele><time>2013-05-11T06:36:15Z</time></trkpt>
<trkpt lat="33.00558" lon="35.21345"><ele>343.0</ele><time>2013-05-11T06:36:17Z</time></trkpt>
<trkpt lat="33.00566" lon="35.21333"><ele>342.0</ele><time>2013-05-11T06:36:19Z</time></trkpt>
<trkpt lat="33.00574" lon="35.21321"><ele>341.0</ele><time>2013-05-11T06:36:21Z</time></trkpt>
<trkpt lat="33.00582" lon="35.21309"><ele>341.0</ele><time>2013-05-11T06:36:23Z</time></trkpt>
<trkpt lat="33.00589" lon="35.21296"><ele>340.0</ele><time>2013-05-11T06:36:25Z</time></trkpt>
<trkpt lat="33.00598" lon="35.21284"><ele>340.0</ele><time>2013-05-11T06:36:27Z</time></trkpt>
<trkpt lat="33.00606" lon="35.21273"><ele>339.0</ele><time>2013-05-11T06:36:29Z</time></trkpt>
<trkpt lat="33.00613" lon="35.21263"><ele>338.0</ele><time>2013-05-11T06:36:31Z</time></trkpt>
<trkpt lat="33.0062" lon="35.21253"><ele>337.0</ele><time>2013-05-11T06:36:33Z</time></trkpt>
<trkpt lat="33.00627" lon="35.21242"><ele>336.0</ele><time>2013-05-11T06:36:35Z</time></trkpt>
<trkpt lat="33.00632" lon="35.21232"><ele>336.0</ele><time>2013-05-11T06:36:37Z</time></trkpt>
<trkpt lat="33.00637" lon="35.21224"><ele>336.0</ele><time>2013-05-11T06:36:39Z</time></trkpt>
<trkpt lat="33.00639" lon="35.21215"><ele>335.0</ele><time>2013-05-11T06:36:41Z</time></trkpt>
<trkpt lat="33.00641" lon="35.21204"><ele>335.0</ele><time>2013-05-11T06:36:43Z</time></trkpt>
<trkpt lat="33.00643" lon="35.21195"><ele>334.0</ele><time>2013-05-11T06:36:45Z</time></trkpt>
<trkpt lat="33.00646" lon="35.21181"><ele>333.0</ele><time>2013-05-11T06:36:48Z</time></trkpt>
<trkpt lat="33.00648" lon="35.21169"><ele>332.0</ele><time>2013-05-11T06:36:51Z</time></trkpt>
<trkpt lat="33.00649" lon="35.21158"><ele>331.0</ele><time>2013-05-11T06:36:53Z</time></trkpt>
<trkpt lat="33.0065" lon="35.21146"><ele>331.0</ele><time>2013-05-11T06:36:55Z</time></trkpt>
<trkpt lat="33.00652" lon="35.21133"><ele>330.0</ele><time>2013-05-11T06:36:57Z</time></trkpt>
<trkpt lat="33.00654" lon="35.21119"><ele>329.0</ele><time>2013-05-11T06:37:00Z</time></trkpt>
<trkpt lat="33.00655" lon="35.21103"><ele>328.0</ele><time>2013-05-11T06:37:02Z</time></trkpt>
<trkpt lat="33.00656" lon="35.21087"><ele>327.0</ele><time>2013-05-11T06:37:04Z</time></trkpt>
<trkpt lat="33.00657" lon="35.21072"><ele>326.0</ele><time>2013-05-11T06:37:06Z</time></trkpt>
<trkpt lat="33.00657" lon="35.21059"><ele>325.0</ele><time>2013-05-11T06:37:08Z</time></trkpt>
<trkpt lat="33.00656" lon="35.21046"><ele>324.0</ele><time>2013-05-11T06:37:10Z</time></trkpt>
<trkpt lat="33.00656" lon="35.21033"><ele>324.0</ele><time>2013-05-11T06:37:12Z</time></trkpt>
<trkpt lat="33.00656" lon="35.21021"><ele>323.0</ele><time>2013-05-11T06:37:14Z</time></trkpt>
<trkpt lat="33.00655" lon="35.21011"><ele>322.0</ele><time>2013-05-11T06:37:15Z</time></trkpt>
<trkpt lat="33.00655" lon="35.20998"><ele>321.0</ele><time>2013-05-11T06:37:18Z</time></trkpt>
<trkpt lat="33.00654" lon="35.20987"><ele>320.0</ele><time>2013-05-11T06:37:21Z</time></trkpt>
<trkpt lat="33.00653" lon="35.20975"><ele>320.0</ele><time>2013-05-11T06:37:24Z</time></trkpt>
<trkpt lat="33.00653" lon="35.20963"><ele>320.0</ele><time>2013-05-11T06:37:27Z</time></trkpt>
<trkpt lat="33.0065" lon="35.20952"><ele>320.0</ele><time>2013-05-11T06:37:31Z</time></trkpt>
<trkpt lat="33.00652" lon="35.20941"><ele>319.0</ele><time>2013-05-11T06:37:53Z</time></trkpt>
<trkpt lat="33.0065" lon="35.2093"><ele>319.0</ele><time>2013-05-11T06:37:58Z</time></trkpt>
<trkpt lat="33.00649" lon="35.20918"><ele>318.0</ele><time>2013-05-11T06:38:02Z</time></trkpt>
<trkpt lat="33.00649" lon="35.20909"><ele>318.0</ele><time>2013-05-11T06:38:04Z</time></trkpt>
<trkpt lat="33.00649" lon="35.20897"><ele>317.0</ele><time>2013-05-11T06:38:06Z</time></trkpt>
<trkpt lat="33.00648" lon="35.20884"><ele>317.0</ele><time>2013-05-11T06:38:08Z</time></trkpt>
<trkpt lat="33.00646" lon="35.20869"><ele>316.0</ele><time>2013-05-11T06:38:10Z</time></trkpt>
<trkpt lat="33.00644" lon="35.20854"><ele>316.0</ele><time>2013-05-11T06:38:12Z</time></trkpt>
<trkpt lat="33.00641" lon="35.20838"><ele>315.0</ele><time>2013-05-11T06:38:14Z</time></trkpt>
<trkpt lat="33.00639" lon="35.20823"><ele>314.0</ele><time>2013-05-11T06:38:15Z</time></trkpt>
<trkpt lat="33.00637" lon="35.20808"><ele>314.0</ele><time>2013-05-11T06:38:17Z</time></trkpt>
<trkpt lat="33.00635" lon="35.20793"><ele>313.0</ele><time>2013-05-11T06:38:19Z</time></trkpt>
<trkpt lat="33.00633" lon="35.20778"><ele>312.0</ele><time>2013-05-11T06:38:21Z</time></trkpt>
<trkpt lat="33.00631" lon="35.20763"><ele>312.0</ele><time>2013-05-11T06:38:23Z</time></trkpt>
<trkpt lat="33.00629" lon="35.20747"><ele>311.0</ele><time>2013-05-11T06:38:25Z</time></trkpt>
<trkpt lat="33.00627" lon="35.2073"><ele>310.0</ele><time>2013-05-11T06:38:27Z</time></trkpt>
<trkpt lat="33.00626" lon="35.20714"><ele>310.0</ele><time>2013-05-11T06:38:29Z</time></trkpt>
<trkpt lat="33.00624" lon="35.20698"><ele>309.0</ele><time>2013-05-11T06:38:31Z</time></trkpt>
<trkpt lat="33.00622" lon="35.20683"><ele>308.0</ele><time>2013-05-11T06:38:33Z</time></trkpt>
<trkpt lat="33.00621" lon="35.20668"><ele>307.0</ele><time>2013-05-11T06:38:35Z</time></trkpt>
<trkpt lat="33.00619" lon="35.20654"><ele>307.0</ele><time>2013-05-11T06:38:37Z</time></trkpt>
<trkpt lat="33.00617" lon="35.2064"><ele>306.0</ele><time>2013-05-11T06:38:39Z</time></trkpt>
<trkpt lat="33.00615" lon="35.20625"><ele>305.0</ele><time>2013-05-11T06:38:41Z</time></trkpt>
<trkpt lat="33.00614" lon="35.2061"><ele>304.0</ele><time>2013-05-11T06:38:43Z</time></trkpt>
<trkpt lat="33.00613" lon="35.20595"><ele>303.0</ele><time>2013-05-11T06:38:45Z</time></trkpt>
<trkpt lat="33.00612" lon="35.20581"><ele>302.0</ele><time>2013-05-11T06:38:47Z</time></trkpt>
<trkpt lat="33.00612" lon="35.20566"><ele>302.0</ele><time>2013-05-11T06:38:49Z</time></trkpt>
<trkpt lat="33.00614" lon="35.20551"><ele>301.0</ele><time>2013-05-11T06:38:51Z</time></trkpt>
<trkpt lat="33.00615" lon="35.20535"><ele>300.0</ele><time>2013-05-11T06:38:53Z</time></trkpt>
<trkpt lat="33.00617" lon="35.20519"><ele>299.0</ele><time>2013-05-11T06:38:55Z</time></trkpt>
<trkpt lat="33.00619" lon="35.20503"><ele>298.0</ele><time>2013-05-11T06:38:57Z</time></trkpt>
<trkpt lat="33.0062" lon="35.20486"><ele>298.0</ele><time>2013-05-11T06:38:59Z</time></trkpt>
<trkpt lat="33.00623" lon="35.20469"><ele>297.0</ele><time>2013-05-11T06:39:02Z</time></trkpt>
<trkpt lat="33.00625" lon="35.20452"><ele>296.0</ele><time>2013-05-11T06:39:04Z</time></trkpt>
<trkpt lat="33.00628" lon="35.20436"><ele>295.0</ele><time>2013-05-11T06:39:06Z</time></trkpt>
<trkpt lat="33.0063" lon="35.20419"><ele>294.0</ele><time>2013-05-11T06:39:08Z</time></trkpt>
<trkpt lat="33.00632" lon="35.20403"><ele>293.0</ele><time>2013-05-11T06:39:10Z</time></trkpt>
<trkpt lat="33.00634" lon="35.20386"><ele>292.0</ele><time>2013-05-11T06:39:12Z</time></trkpt>
<trkpt lat="33.00637" lon="35.20369"><ele>291.0</ele><time>2013-05-11T06:39:14Z</time></trkpt>
<trkpt lat="33.00639" lon="35.20353"><ele>291.0</ele><time>2013-05-11T06:39:15Z</time></trkpt>
<trkpt lat="33.00642" lon="35.20337"><ele>290.0</ele><time>2013-05-11T06:39:17Z</time></trkpt>
<trkpt lat="33.00645" lon="35.2032"><ele>289.0</ele><time>2013-05-11T06:39:19Z</time></trkpt>
<trkpt lat="33.00648" lon="35.20304"><ele>289.0</ele><time>2013-05-11T06:39:21Z</time></trkpt>
<trkpt lat="33.00651" lon="35.20287"><ele>287.0</ele><time>2013-05-11T06:39:23Z</time></trkpt>
<trkpt lat="33.00655" lon="35.2027"><ele>287.0</ele><time>2013-05-11T06:39:25Z</time></trkpt>
<trkpt lat="33.0066" lon="35.20253"><ele>286.0</ele><time>2013-05-11T06:39:27Z</time></trkpt>
<trkpt lat="33.00666" lon="35.20237"><ele>285.0</ele><time>2013-05-11T06:39:29Z</time></trkpt>
<trkpt lat="33.00674" lon="35.20222"><ele>284.0</ele><time>2013-05-11T06:39:31Z</time></trkpt>
<trkpt lat="33.00682" lon="35.20206"><ele>284.0</ele><time>2013-05-11T06:39:33Z</time></trkpt>
<trkpt lat="33.00692" lon="35.20192"><ele>283.0</ele><time>2013-05-11T06:39:35Z</time></trkpt>
<trkpt lat="33.00702" lon="35.20179"><ele>282.0</ele><time>2013-05-11T06:39:37Z</time></trkpt>
<trkpt lat="33.00712" lon="35.20167"><ele>281.0</ele><time>2013-05-11T06:39:39Z</time></trkpt>
<trkpt lat="33.00723" lon="35.20156"><ele>281.0</ele><time>2013-05-11T06:39:41Z</time></trkpt>
<trkpt lat="33.00733" lon="35.20145"><ele>280.0</ele><time>2013-05-11T06:39:43Z</time></trkpt>
<trkpt lat="33.00743" lon="35.20134"><ele>279.0</ele><time>2013-05-11T06:39:45Z</time></trkpt>
<trkpt lat="33.00752" lon="35.20124"><ele>279.0</ele><time>2013-05-11T06:39:47Z</time></trkpt>
<trkpt lat="33.00761" lon="35.20115"><ele>279.0</ele><time>2013-05-11T06:39:49Z</time></trkpt>
<trkpt lat="33.0077" lon="35.20106"><ele>279.0</ele><time>2013-05-11T06:39:51Z</time></trkpt>
<trkpt lat="33.00778" lon="35.20098"><ele>279.0</ele><time>2013-05-11T06:39:53Z</time></trkpt>
<trkpt lat="33.00785" lon="35.20091"><ele>279.0</ele><time>2013-05-11T06:39:55Z</time></trkpt>
<trkpt lat="33.00792" lon="35.20083"><ele>279.0</ele><time>2013-05-11T06:39:57Z</time></trkpt>
<trkpt lat="33.00799" lon="35.20076"><ele>279.0</ele><time>2013-05-11T06:39:59Z</time></trkpt>
<trkpt lat="33.00806" lon="35.20069"><ele>280.0</ele><time>2013-05-11T06:40:02Z</time></trkpt>
<trkpt lat="33.00812" lon="35.20062"><ele>280.0</ele><time>2013-05-11T06:40:04Z</time></trkpt>
<trkpt lat="33.00819" lon="35.20056"><ele>280.0</ele><time>2013-05-11T06:40:06Z</time></trkpt>
<trkpt lat="33.00825" lon="35.20049"><ele>280.0</ele><time>2013-05-11T06:40:08Z</time></trkpt>
<trkpt lat="33.00832" lon="35.20042"><ele>280.0</ele><time>2013-05-11T06:40:10Z</time></trkpt>
<trkpt lat="33.00839" lon="35.20035"><ele>280.0</ele><time>2013-05-11T06:40:12Z</time></trkpt>
<trkpt lat="33.00846" lon="35.20027"><ele>280.0</ele><time>2013-05-11T06:40:14Z</time></trkpt>
<trkpt lat="33.00853" lon="35.2002"><ele>279.0</ele><time>2013-05-11T06:40:15Z</time></trkpt>
<trkpt lat="33.0086" lon="35.20013"><ele>278.0</ele><time>2013-05-11T06:40:17Z</time></trkpt>
<trkpt lat="33.00867" lon="35.20006"><ele>278.0</ele><time>2013-05-11T06:40:19Z</time></trkpt>
<trkpt lat="33.00874" lon="35.19998"><ele>278.0</ele><time>2013-05-11T06:40:21Z</time></trkpt>
<trkpt lat="33.00881" lon="35.1999"><ele>277.0</ele><time>2013-05-11T06:40:23Z</time></trkpt>
<trkpt lat="33.00889" lon="35.19982"><ele>277.0</ele><time>2013-05-11T06:40:25Z</time></trkpt>
<trkpt lat="33.00897" lon="35.19974"><ele>276.0</ele><time>2013-05-11T06:40:27Z</time></trkpt>
<trkpt lat="33.00905" lon="35.19965"><ele>276.0</ele><time>2013-05-11T06:40:29Z</time></trkpt>
<trkpt lat="33.00912" lon="35.19955"><ele>275.0</ele><time>2013-05-11T06:40:31Z</time></trkpt>
<trkpt lat="33.00919" lon="35.19944"><ele>275.0</ele><time>2013-05-11T06:40:33Z</time></trkpt>
<trkpt lat="33.00925" lon="35.19931"><ele>275.0</ele><time>2013-05-11T06:40:35Z</time></trkpt>
<trkpt lat="33.00929" lon="35.19918"><ele>274.0</ele><time>2013-05-11T06:40:37Z</time></trkpt>
<trkpt lat="33.00932" lon="35.19904"><ele>274.0</ele><time>2013-05-11T06:40:39Z</time></trkpt>
<trkpt lat="33.00936" lon="35.1989"><ele>273.0</ele><time>2013-05-11T06:40:41Z</time></trkpt>
<trkpt lat="33.00939" lon="35.19877"><ele>273.0</ele><time>2013-05-11T06:40:43Z</time></trkpt>
<trkpt lat="33.00943" lon="35.19864"><ele>272.0</ele><time>2013-05-11T06:40:45Z</time></trkpt>
<trkpt lat="33.00946" lon="35.19851"><ele>272.0</ele><time>2013-05-11T06:40:47Z</time></trkpt>
<trkpt lat="33.00949" lon="35.19838"><ele>271.0</ele><time>2013-05-11T06:40:49Z</time></trkpt>
<trkpt lat="33.00951" lon="35.19824"><ele>270.0</ele><time>2013-05-11T06:40:51Z</time></trkpt>
<trkpt lat="33.00953" lon="35.19809"><ele>269.0</ele><time>2013-05-11T06:40:53Z</time></trkpt>
<trkpt lat="33.00955" lon="35.19794"><ele>268.0</ele><time>2013-05-11T06:40:55Z</time></trkpt>
<trkpt lat="33.00956" lon="35.19779"><ele>267.0</ele><time>2013-05-11T06:40:57Z</time></trkpt>
<trkpt lat="33.00957" lon="35.19764"><ele>266.0</ele><time>2013-05-11T06:40:59Z</time></trkpt>
<trkpt lat="33.00959" lon="35.19748"><ele>265.0</ele><time>2013-05-11T06:41:02Z</time></trkpt>
<trkpt lat="33.0096" lon="35.19732"><ele>264.0</ele><time>2013-05-11T06:41:04Z</time></trkpt>
<trkpt lat="33.0096" lon="35.19715"><ele>262.0</ele><time>2013-05-11T06:41:06Z</time></trkpt>
<trkpt lat="33.00958" lon="35.19698"><ele>262.0</ele><time>2013-05-11T06:41:08Z</time></trkpt>
<trkpt lat="33.00954" lon="35.1968"><ele>261.0</ele><time>2013-05-11T06:41:10Z</time></trkpt>
<trkpt lat="33.0095" lon="35.19662"><ele>260.0</ele><time>2013-05-11T06:41:12Z</time></trkpt>
<trkpt lat="33.00945" lon="35.19646"><ele>259.0</ele><time>2013-05-11T06:41:14Z</time></trkpt>
<trkpt lat="33.0094" lon="35.1963"><ele>257.0</ele><time>2013-05-11T06:41:15Z</time></trkpt>
<trkpt lat="33.00935" lon="35.19613"><ele>256.0</ele><time>2013-05-11T06:41:17Z</time></trkpt>
<trkpt lat="33.0093" lon="35.19596"><ele>255.0</ele><time>2013-05-11T06:41:19Z</time></trkpt>
<trkpt lat="33.00924" lon="35.19579"><ele>254.0</ele><time>2013-05-11T06:41:21Z</time></trkpt>
<trkpt lat="33.00919" lon="35.19562"><ele>253.0</ele><time>2013-05-11T06:41:23Z</time></trkpt>
<trkpt lat="33.00914" lon="35.19545"><ele>252.0</ele><time>2013-05-11T06:41:25Z</time></trkpt>
<trkpt lat="33.00908" lon="35.19529"><ele>251.0</ele><time>2013-05-11T06:41:27Z</time></trkpt>
<trkpt lat="33.00902" lon="35.19514"><ele>250.0</ele><time>2013-05-11T06:41:29Z</time></trkpt>
<trkpt lat="33.00896" lon="35.19501"><ele>250.0</ele><time>2013-05-11T06:41:31Z</time></trkpt>
<trkpt lat="33.00889" lon="35.19487"><ele>249.0</ele><time>2013-05-11T06:41:33Z</time></trkpt>
<trkpt lat="33.00882" lon="35.19474"><ele>248.0</ele><time>2013-05-11T06:41:35Z</time></trkpt>
<trkpt lat="33.00875" lon="35.1946"><ele>247.0</ele><time>2013-05-11T06:41:37Z</time></trkpt>
<trkpt lat="33.00868" lon="35.19446"><ele>246.0</ele><time>2013-05-11T06:41:39Z</time></trkpt>
<trkpt lat="33.00862" lon="35.19432"><ele>246.0</ele><time>2013-05-11T06:41:41Z</time></trkpt>
<trkpt lat="33.00858" lon="35.19416"><ele>245.0</ele><time>2013-05-11T06:41:43Z</time></trkpt>
<trkpt lat="33.00854" lon="35.194"><ele>244.0</ele><time>2013-05-11T06:41:45Z</time></trkpt>
<trkpt lat="33.00851" lon="35.19382"><ele>243.0</ele><time>2013-05-11T06:41:47Z</time></trkpt>
<trkpt lat="33.00848" lon="35.19364"><ele>242.0</ele><time>2013-05-11T06:41:49Z</time></trkpt>
<trkpt lat="33.00846" lon="35.19348"><ele>242.0</ele><time>2013-05-11T06:41:51Z</time></trkpt>
<trkpt lat="33.00843" lon="35.1933"><ele>241.0</ele><time>2013-05-11T06:41:53Z</time></trkpt>
<trkpt lat="33.0084" lon="35.19312"><ele>240.0</ele><time>2013-05-11T06:41:55Z</time></trkpt>
<trkpt lat="33.00837" lon="35.19294"><ele>239.0</ele><time>2013-05-11T06:41:57Z</time></trkpt>
<trkpt lat="33.00834" lon="35.19277"><ele>238.0</ele><time>2013-05-11T06:41:59Z</time></trkpt>
<trkpt lat="33.00832" lon="35.19259"><ele>238.0</ele><time>2013-05-11T06:42:02Z</time></trkpt>
<trkpt lat="33.00831" lon="35.19242"><ele>237.0</ele><time>2013-05-11T06:42:04Z</time></trkpt>
<trkpt lat="33.00831" lon="35.19225"><ele>237.0</ele><time>2013-05-11T06:42:06Z</time></trkpt>
<trkpt lat="33.00833" lon="35.19208"><ele>235.0</ele><time>2013-05-11T06:42:08Z</time></trkpt>
<trkpt lat="33.00835" lon="35.19192"><ele>235.0</ele><time>2013-05-11T06:42:10Z</time></trkpt>
<trkpt lat="33.00838" lon="35.19175"><ele>234.0</ele><time>2013-05-11T06:42:12Z</time></trkpt>
<trkpt lat="33.00841" lon="35.19159"><ele>233.0</ele><time>2013-05-11T06:42:14Z</time></trkpt>
<trkpt lat="33.00843" lon="35.19142"><ele>232.0</ele><time>2013-05-11T06:42:15Z</time></trkpt>
<trkpt lat="33.00845" lon="35.19125"><ele>231.0</ele><time>2013-05-11T06:42:17Z</time></trkpt>
<trkpt lat="33.00848" lon="35.19108"><ele>231.0</ele><time>2013-05-11T06:42:19Z</time></trkpt>
<trkpt lat="33.00851" lon="35.19091"><ele>230.0</ele><time>2013-05-11T06:42:21Z</time></trkpt>
<trkpt lat="33.00853" lon="35.19074"><ele>229.0</ele><time>2013-05-11T06:42:23Z</time></trkpt>
<trkpt lat="33.00855" lon="35.19058"><ele>229.0</ele><time>2013-05-11T06:42:25Z</time></trkpt>
<trkpt lat="33.00858" lon="35.19042"><ele>228.0</ele><time>2013-05-11T06:42:27Z</time></trkpt>
<trkpt lat="33.00859" lon="35.19026"><ele>228.0</ele><time>2013-05-11T06:42:29Z</time></trkpt>
<trkpt lat="33.00861" lon="35.19011"><ele>228.0</ele><time>2013-05-11T06:42:31Z</time></trkpt>
<trkpt lat="33.00864" lon="35.18997"><ele>227.0</ele><time>2013-05-11T06:42:33Z</time></trkpt>
<trkpt lat="33.00866" lon="35.18982"><ele>226.0</ele><time>2013-05-11T06:42:35Z</time></trkpt>
<trkpt lat="33.00868" lon="35.18966"><ele>225.0</ele><time>2013-05-11T06:42:37Z</time></trkpt>
<trkpt lat="33.00871" lon="35.1895"><ele>223.0</ele><time>2013-05-11T06:42:39Z</time></trkpt>
<trkpt lat="33.00874" lon="35.18933"><ele>222.0</ele><time>2013-05-11T06:42:41Z</time></trkpt>
<trkpt lat="33.00877" lon="35.18917"><ele>221.0</ele><time>2013-05-11T06:42:43Z</time></trkpt>
<trkpt lat="33.0088" lon="35.189"><ele>219.0</ele><time>2013-05-11T06:42:45Z</time></trkpt>
<trkpt lat="33.00884" lon="35.18883"><ele>218.0</ele><time>2013-05-11T06:42:47Z</time></trkpt>
<trkpt lat="33.00887" lon="35.18867"><ele>216.0</ele><time>2013-05-11T06:42:49Z</time></trkpt>
<trkpt lat="33.00891" lon="35.18852"><ele>214.0</ele><time>2013-05-11T06:42:51Z</time></trkpt>
<trkpt lat="33.00893" lon="35.18837"><ele>212.0</ele><time>2013-05-11T06:42:53Z</time></trkpt>
<trkpt lat="33.00896" lon="35.18822"><ele>211.0</ele><time>2013-05-11T06:42:55Z</time></trkpt>
<trkpt lat="33.00899" lon="35.18807"><ele>210.0</ele><time>2013-05-11T06:42:57Z</time></trkpt>
<trkpt lat="33.00902" lon="35.18792"><ele>209.0</ele><time>2013-05-11T06:42:59Z</time></trkpt>
<trkpt lat="33.00905" lon="35.18774"><ele>208.0</ele><time>2013-05-11T06:43:02Z</time></trkpt>
<trkpt lat="33.00907" lon="35.18757"><ele>207.0</ele><time>2013-05-11T06:43:04Z</time></trkpt>
<trkpt lat="33.0091" lon="35.18739"><ele>206.0</ele><time>2013-05-11T06:43:06Z</time></trkpt>
<trkpt lat="33.00912" lon="35.18722"><ele>205.0</ele><time>2013-05-11T06:43:08Z</time></trkpt>
<trkpt lat="33.00914" lon="35.18706"><ele>204.0</ele><time>2013-05-11T06:43:10Z</time></trkpt>
<trkpt lat="33.00917" lon="35.18691"><ele>204.0</ele><time>2013-05-11T06:43:12Z</time></trkpt>
<trkpt lat="33.0092" lon="35.18676"><ele>204.0</ele><time>2013-05-11T06:43:14Z</time></trkpt>
<trkpt lat="33.00925" lon="35.18662"><ele>203.0</ele><time>2013-05-11T06:43:15Z</time></trkpt>
<trkpt lat="33.0093" lon="35.18648"><ele>203.0</ele><time>2013-05-11T06:43:17Z</time></trkpt>
<trkpt lat="33.00935" lon="35.18635"><ele>201.0</ele><time>2013-05-11T06:43:19Z</time></trkpt>
<trkpt lat="33.00941" lon="35.18623"><ele>200.0</ele><time>2013-05-11T06:43:21Z</time></trkpt>
<trkpt lat="33.00948" lon="35.18611"><ele>199.0</ele><time>2013-05-11T06:43:23Z</time></trkpt>
<trkpt lat="33.00956" lon="35.186"><ele>198.0</ele><time>2013-05-11T06:43:25Z</time></trkpt>
<trkpt lat="33.00964" lon="35.1859"><ele>197.0</ele><time>2013-05-11T06:43:27Z</time></trkpt>
<trkpt lat="33.00973" lon="35.18577"><ele>196.0</ele><time>2013-05-11T06:43:29Z</time></trkpt>
<trkpt lat="33.00983" lon="35.18563"><ele>195.0</ele><time>2013-05-11T06:43:31Z</time></trkpt>
<trkpt lat="33.00992" lon="35.18548"><ele>194.0</ele><time>2013-05-11T06:43:33Z</time></trkpt>
<trkpt lat="33.01" lon="35.18534"><ele>193.0</ele><time>2013-05-11T06:43:35Z</time></trkpt>
<trkpt lat="33.01007" lon="35.18521"><ele>192.0</ele><time>2013-05-11T06:43:37Z</time></trkpt>
<trkpt lat="33.01014" lon="35.18509"><ele>191.0</ele><time>2013-05-11T06:43:39Z</time></trkpt>
<trkpt lat="33.01021" lon="35.18496"><ele>190.0</ele><time>2013-05-11T06:43:41Z</time></trkpt>
<trkpt lat="33.01028" lon="35.18483"><ele>190.0</ele><time>2013-05-11T06:43:43Z</time></trkpt>
<trkpt lat="33.01036" lon="35.18472"><ele>190.0</ele><time>2013-05-11T06:43:45Z</time></trkpt>
<trkpt lat="33.01044" lon="35.18462"><ele>189.0</ele><time>2013-05-11T06:43:47Z</time></trkpt>
<trkpt lat="33.01051" lon="35.1845"><ele>188.0</ele><time>2013-05-11T06:43:49Z</time></trkpt>
<trkpt lat="33.01056" lon="35.18439"><ele>188.0</ele><time>2013-05-11T06:43:51Z</time></trkpt>
<trkpt lat="33.01061" lon="35.18428"><ele>188.0</ele><time>2013-05-11T06:43:53Z</time></trkpt>
<trkpt lat="33.01065" lon="35.18417"><ele>188.0</ele><time>2013-05-11T06:43:55Z</time></trkpt>
<trkpt lat="33.0107" lon="35.18406"><ele>188.0</ele><time>2013-05-11T06:43:57Z</time></trkpt>
<trkpt lat="33.01075" lon="35.18397"><ele>187.0</ele><time>2013-05-11T06:43:59Z</time></trkpt>
<trkpt lat="33.01079" lon="35.18387"><ele>188.0</ele><time>2013-05-11T06:44:02Z</time></trkpt>
<trkpt lat="33.01084" lon="35.18378"><ele>188.0</ele><time>2013-05-11T06:44:04Z</time></trkpt>
<trkpt lat="33.01088" lon="35.18369"><ele>189.0</ele><time>2013-05-11T06:44:06Z</time></trkpt>
<trkpt lat="33.01093" lon="35.1836"><ele>190.0</ele><time>2013-05-11T06:44:08Z</time></trkpt>
<trkpt lat="33.01098" lon="35.18351"><ele>190.0</ele><time>2013-05-11T06:44:10Z</time></trkpt>
<trkpt lat="33.01104" lon="35.18342"><ele>190.0</ele><time>2013-05-11T06:44:12Z</time></trkpt>
<trkpt lat="33.01109" lon="35.18333"><ele>190.0</ele><time>2013-05-11T06:44:14Z</time></trkpt>
<trkpt lat="33.01115" lon="35.18324"><ele>189.0</ele><time>2013-05-11T06:44:15Z</time></trkpt>
<trkpt lat="33.0112" lon="35.18315"><ele>189.0</ele><time>2013-05-11T06:44:17Z</time></trkpt>
<trkpt lat="33.01126" lon="35.18306"><ele>188.0</ele><time>2013-05-11T06:44:19Z</time></trkpt>
<trkpt lat="33.01131" lon="35.18297"><ele>187.0</ele><time>2013-05-11T06:44:21Z</time></trkpt>
<trkpt lat="33.01136" lon="35.18288"><ele>186.0</ele><time>2013-05-11T06:44:23Z</time></trkpt>
<trkpt lat="33.01141" lon="35.18279"><ele>186.0</ele><time>2013-05-11T06:44:25Z</time></trkpt>
<trkpt lat="33.01145" lon="35.1827"><ele>185.0</ele><time>2013-05-11T06:44:27Z</time></trkpt>
<trkpt lat="33.01149" lon="35.18261"><ele>184.0</ele><time>2013-05-11T06:44:29Z</time></trkpt>
<trkpt lat="33.01158" lon="35.18256"><ele>184.0</ele><time>2013-05-11T06:44:32Z</time></trkpt>
<trkpt lat="33.01169" lon="35.18265"><ele>183.0</ele><time>2013-05-11T06:44:35Z</time></trkpt>
<trkpt lat="33.01175" lon="35.18273"><ele>183.0</ele><time>2013-05-11T06:44:37Z</time></trkpt>
<trkpt lat="33.01183" lon="35.18281"><ele>182.0</ele><time>2013-05-11T06:44:39Z</time></trkpt>
<trkpt lat="33.0119" lon="35.1829"><ele>182.0</ele><time>2013-05-11T06:44:41Z</time></trkpt>
<trkpt lat="33.01196" lon="35.18299"><ele>181.0</ele><time>2013-05-11T06:44:43Z</time></trkpt>
<trkpt lat="33.01201" lon="35.18308"><ele>181.0</ele><time>2013-05-11T06:44:45Z</time></trkpt>
<trkpt lat="33.01207" lon="35.18315"><ele>181.0</ele><time>2013-05-11T06:44:47Z</time></trkpt>
<trkpt lat="33.01212" lon="35.18323"><ele>180.0</ele><time>2013-05-11T06:44:49Z</time></trkpt>
<trkpt lat="33.01217" lon="35.1833"><ele>180.0</ele><time>2013-05-11T06:44:51Z</time></trkpt>
<trkpt lat="33.01222" lon="35.18338"><ele>179.0</ele><time>2013-05-11T06:44:53Z</time></trkpt>
<trkpt lat="33.01228" lon="35.18346"><ele>179.0</ele><time>2013-05-11T06:44:55Z</time></trkpt>
<trkpt lat="33.01233" lon="35.18356"><ele>179.0</ele><time>2013-05-11T06:44:58Z</time></trkpt>
<trkpt lat="33.01239" lon="35.18365"><ele>179.0</ele><time>2013-05-11T06:45:02Z</time></trkpt>
<trkpt lat="33.01244" lon="35.18372"><ele>179.0</ele><time>2013-05-11T06:45:05Z</time></trkpt>
<trkpt lat="33.0125" lon="35.1838"><ele>179.0</ele><time>2013-05-11T06:45:08Z</time></trkpt>
<trkpt lat="33.01262" lon="35.18395"><ele>179.0</ele><time>2013-05-11T06:45:22Z</time></trkpt>
<trkpt lat="33.01271" lon="35.18403"><ele>179.0</ele><time>2013-05-11T06:45:31Z</time></trkpt>
<trkpt lat="33.01277" lon="35.18409"><ele>179.0</ele><time>2013-05-11T06:45:35Z</time></trkpt>
<trkpt lat="33.01266" lon="35.18403"><ele>179.0</ele><time>2013-05-11T06:47:25Z</time></trkpt>
<trkpt lat="33.01264" lon="35.18393"><ele>178.0</ele><time>2013-05-11T06:47:30Z</time></trkpt>
<trkpt lat="33.01271" lon="35.18404"><ele>178.0</ele><time>2013-05-11T06:47:42Z</time></trkpt>
<trkpt lat="33.01279" lon="35.18413"><ele>178.0</ele><time>2013-05-11T06:47:45Z</time></trkpt>
<trkpt lat="33.01286" lon="35.18422"><ele>178.0</ele><time>2013-05-11T06:47:48Z</time></trkpt>
<trkpt lat="33.01292" lon="35.1843"><ele>179.0</ele><time>2013-05-11T06:47:53Z</time></trkpt>
<trkpt lat="33.01297" lon="35.18441"><ele>179.0</ele><time>2013-05-11T06:47:57Z</time></trkpt>
<trkpt lat="33.01302" lon="35.18451"><ele>179.0</ele><time>2013-05-11T06:48:01Z</time></trkpt>
<trkpt lat="33.01307" lon="35.1846"><ele>180.0</ele><time>2013-05-11T06:48:04Z</time></trkpt>
<trkpt lat="33.01313" lon="35.18471"><ele>180.0</ele><time>2013-05-11T06:48:08Z</time></trkpt>
<trkpt lat="33.01317" lon="35.1848"><ele>181.0</ele><time>2013-05-11T06:48:11Z</time></trkpt>
<trkpt lat="33.01322" lon="35.18491"><ele>181.0</ele><time>2013-05-11T06:48:14Z</time></trkpt>
<trkpt lat="33.01325" lon="35.18502"><ele>182.0</ele><time>2013-05-11T06:48:18Z</time></trkpt>
<trkpt lat="33.01327" lon="35.18512"><ele>183.0</ele><time>2013-05-11T06:48:21Z</time></trkpt>
<trkpt lat="33.01329" lon="35.18522"><ele>184.0</ele><time>2013-05-11T06:48:24Z</time></trkpt>
<trkpt lat="33.01329" lon="35.18532"><ele>184.0</ele><time>2013-05-11T06:48:27Z</time></trkpt>
<trkpt lat="33.0133" lon="35.18542"><ele>185.0</ele><time>2013-05-11T06:48:30Z</time></trkpt>
<trkpt lat="33.0133" lon="35.18552"><ele>185.0</ele><time>2013-05-11T06:48:33Z</time></trkpt>
<trkpt lat="33.01329" lon="35.18563"><ele>186.0</ele><time>2013-05-11T06:48:36Z</time></trkpt>
<trkpt lat="33.01328" lon="35.18573"><ele>186.0</ele><time>2013-05-11T06:48:39Z</time></trkpt>
<trkpt lat="33.01326" lon="35.18585"><ele>187.0</ele><time>2013-05-11T06:48:43Z</time></trkpt>
<trkpt lat="33.01325" lon="35.18597"><ele>188.0</ele><time>2013-05-11T06:48:47Z</time></trkpt>
<trkpt lat="33.01324" lon="35.18609"><ele>188.0</ele><time>2013-05-11T06:48:51Z</time></trkpt>
<trkpt lat="33.01322" lon="35.18621"><ele>188.0</ele><time>2013-05-11T06:48:55Z</time></trkpt>
<trkpt lat="33.01321" lon="35.18633"><ele>189.0</ele><time>2013-05-11T06:48:59Z</time></trkpt>
<trkpt lat="33.0132" lon="35.18645"><ele>189.0</ele><time>2013-05-11T06:49:04Z</time></trkpt>
<trkpt lat="33.0132" lon="35.18657"><ele>189.0</ele><time>2013-05-11T06:49:08Z</time></trkpt>
<trkpt lat="33.0132" lon="35.18669"><ele>190.0</ele><time>2013-05-11T06:49:12Z</time></trkpt>
<trkpt lat="33.01321" lon="35.18681"><ele>190.0</ele><time>2013-05-11T06:49:15Z</time></trkpt>
<trkpt lat="33.01322" lon="35.18691"><ele>191.0</ele><time>2013-05-11T06:49:19Z</time></trkpt>
<trkpt lat="33.01323" lon="35.18702"><ele>191.0</ele><time>2013-05-11T06:49:23Z</time></trkpt>
<trkpt lat="33.01325" lon="35.18712"><ele>191.0</ele><time>2013-05-11T06:49:27Z</time></trkpt>
<trkpt lat="33.01326" lon="35.18723"><ele>191.0</ele><time>2013-05-11T06:49:31Z</time></trkpt>
<trkpt lat="33.01327" lon="35.18733"><ele>192.0</ele><time>2013-05-11T06:49:35Z</time></trkpt>
<trkpt lat="33.01328" lon="35.18744"><ele>192.0</ele><time>2013-05-11T06:49:39Z</time></trkpt>
<trkpt lat="33.01329" lon="35.18756"><ele>193.0</ele><time>2013-05-11T06:49:44Z</time></trkpt>
<trkpt lat="33.0133" lon="35.18766"><ele>193.0</ele><time>2013-05-11T06:49:48Z</time></trkpt>
<trkpt lat="33.0133" lon="35.18776"><ele>194.0</ele><time>2013-05-11T06:49:52Z</time></trkpt>
<trkpt lat="33.0133" lon="35.18787"><ele>194.0</ele><time>2013-05-11T06:49:56Z</time></trkpt>
<trkpt lat="33.0133" lon="35.18797"><ele>194.0</ele><time>2013-05-11T06:50:01Z</time></trkpt>
<trkpt lat="33.01329" lon="35.18808"><ele>194.0</ele><time>2013-05-11T06:50:05Z</time></trkpt>
<trkpt lat="33.01329" lon="35.18819"><ele>195.0</ele><time>2013-05-11T06:50:09Z</time></trkpt>
<trkpt lat="33.01331" lon="35.1883"><ele>195.0</ele><time>2013-05-11T06:50:13Z</time></trkpt>
<trkpt lat="33.01332" lon="35.18841"><ele>196.0</ele><time>2013-05-11T06:50:16Z</time></trkpt>
<trkpt lat="33.01334" lon="35.18853"><ele>196.0</ele><time>2013-05-11T06:50:20Z</time></trkpt>
<trkpt lat="33.01335" lon="35.18864"><ele>197.0</ele><time>2013-05-11T06:50:24Z</time></trkpt>
<trkpt lat="33.01336" lon="35.18876"><ele>197.0</ele><time>2013-05-11T06:50:28Z</time></trkpt>
<trkpt lat="33.01337" lon="35.18888"><ele>197.0</ele><time>2013-05-11T06:50:32Z</time></trkpt>
<trkpt lat="33.0134" lon="35.189"><ele>197.0</ele><time>2013-05-11T06:50:36Z</time></trkpt>
<trkpt lat="33.01342" lon="35.18912"><ele>197.0</ele><time>2013-05-11T06:50:40Z</time></trkpt>
<trkpt lat="33.01346" lon="35.18923"><ele>197.0</ele><time>2013-05-11T06:50:44Z</time></trkpt>
<trkpt lat="33.01351" lon="35.18935"><ele>198.0</ele><time>2013-05-11T06:50:48Z</time></trkpt>
<trkpt lat="33.01355" lon="35.18946"><ele>199.0</ele><time>2013-05-11T06:50:52Z</time></trkpt>
<trkpt lat="33.01361" lon="35.18956"><ele>200.0</ele><time>2013-05-11T06:50:56Z</time></trkpt>
<trkpt lat="33.01367" lon="35.18967"><ele>201.0</ele><time>2013-05-11T06:51:01Z</time></trkpt>
<trkpt lat="33.01372" lon="35.18976"><ele>201.0</ele><time>2013-05-11T06:51:04Z</time></trkpt>
<trkpt lat="33.01376" lon="35.18984"><ele>202.0</ele><time>2013-05-11T06:51:07Z</time></trkpt>
<trkpt lat="33.01381" lon="35.18993"><ele>203.0</ele><time>2013-05-11T06:51:10Z</time></trkpt>
<trkpt lat="33.01385" lon="35.19002"><ele>203.0</ele><time>2013-05-11T06:51:13Z</time></trkpt>
<trkpt lat="33.01388" lon="35.19011"><ele>204.0</ele><time>2013-05-11T06:51:15Z</time></trkpt>
<trkpt lat="33.01392" lon="35.1902"><ele>204.0</ele><time>2013-05-11T06:51:18Z</time></trkpt>
<trkpt lat="33.01395" lon="35.19029"><ele>205.0</ele><time>2013-05-11T06:51:21Z</time></trkpt>
<trkpt lat="33.01398" lon="35.19038"><ele>205.0</ele><time>2013-05-11T06:51:24Z</time></trkpt>
<trkpt lat="33.014" lon="35.19048"><ele>204.0</ele><time>2013-05-11T06:51:27Z</time></trkpt>
<trkpt lat="33.01403" lon="35.19058"><ele>204.0</ele><time>2013-05-11T06:51:30Z</time></trkpt>
<trkpt lat="33.01405" lon="35.19068"><ele>203.0</ele><time>2013-05-11T06:51:33Z</time></trkpt>
<trkpt lat="33.01408" lon="35.19078"><ele>203.0</ele><time>2013-05-11T06:51:36Z</time></trkpt>
<trkpt lat="33.0141" lon="35.19089"><ele>202.0</ele><time>2013-05-11T06:51:39Z</time></trkpt>
<trkpt lat="33.01412" lon="35.191"><ele>202.0</ele><time>2013-05-11T06:51:42Z</time></trkpt>
<trkpt lat="33.01414" lon="35.19111"><ele>202.0</ele><time>2013-05-11T06:51:45Z</time></trkpt>
<trkpt lat="33.01415" lon="35.19123"><ele>202.0</ele><time>2013-05-11T06:51:48Z</time></trkpt>
<trkpt lat="33.01416" lon="35.19135"><ele>202.0</ele><time>2013-05-11T06:51:51Z</time></trkpt>
<trkpt lat="33.01416" lon="35.19147"><ele>202.0</ele><time>2013-05-11T06:51:54Z</time></trkpt>
<trkpt lat="33.01416" lon="35.1916"><ele>201.0</ele><time>2013-05-11T06:51:57Z</time></trkpt>
<trkpt lat="33.01416" lon="35.19173"><ele>201.0</ele><time>2013-05-11T06:52:01Z</time></trkpt>
<trkpt lat="33.01417" lon="35.19185"><ele>201.0</ele><time>2013-05-11T06:52:04Z</time></trkpt>
<trkpt lat="33.01417" lon="35.19197"><ele>201.0</ele><time>2013-05-11T06:52:07Z</time></trkpt>
<trkpt lat="33.01418" lon="35.1921"><ele>201.0</ele><time>2013-05-11T06:52:10Z</time></trkpt>
<trkpt lat="33.0142" lon="35.19223"><ele>201.0</ele><time>2013-05-11T06:52:13Z</time></trkpt>
<trkpt lat="33.01422" lon="35.19235"><ele>201.0</ele><time>2013-05-11T06:52:15Z</time></trkpt>
<trkpt lat="33.01425" lon="35.19248"><ele>201.0</ele><time>2013-05-11T06:52:18Z</time></trkpt>
<trkpt lat="33.01427" lon="35.19259"><ele>201.0</ele><time>2013-05-11T06:52:21Z</time></trkpt>
<trkpt lat="33.01431" lon="35.19271"><ele>201.0</ele><time>2013-05-11T06:52:24Z</time></trkpt>
<trkpt lat="33.01433" lon="35.19283"><ele>201.0</ele><time>2013-05-11T06:52:27Z</time></trkpt>
<trkpt lat="33.01435" lon="35.19295"><ele>201.0</ele><time>2013-05-11T06:52:30Z</time></trkpt>
<trkpt lat="33.01436" lon="35.19308"><ele>201.0</ele><time>2013-05-11T06:52:33Z</time></trkpt>
<trkpt lat="33.01438" lon="35.1932"><ele>201.0</ele><time>2013-05-11T06:52:36Z</time></trkpt>
<trkpt lat="33.0144" lon="35.19332"><ele>202.0</ele><time>2013-05-11T06:52:39Z</time></trkpt>
<trkpt lat="33.01441" lon="35.19344"><ele>202.0</ele><time>2013-05-11T06:52:42Z</time></trkpt>
<trkpt lat="33.01442" lon="35.19357"><ele>202.0</ele><time>2013-05-11T06:52:45Z</time></trkpt>
<trkpt lat="33.01442" lon="35.1937"><ele>202.0</ele><time>2013-05-11T06:52:48Z</time></trkpt>
<trkpt lat="33.01442" lon="35.19383"><ele>203.0</ele><time>2013-05-11T06:52:51Z</time></trkpt>
<trkpt lat="33.01442" lon="35.19396"><ele>203.0</ele><time>2013-05-11T06:52:54Z</time></trkpt>
<trkpt lat="33.01442" lon="35.19408"><ele>203.0</ele><time>2013-05-11T06:52:57Z</time></trkpt>
<trkpt lat="33.01441" lon="35.1942"><ele>204.0</ele><time>2013-05-11T06:53:01Z</time></trkpt>
<trkpt lat="33.0144" lon="35.19432"><ele>204.0</ele><time>2013-05-11T06:53:04Z</time></trkpt>
<trkpt lat="33.01438" lon="35.19445"><ele>204.0</ele><time>2013-05-11T06:53:07Z</time></trkpt>
<trkpt lat="33.01436" lon="35.19457"><ele>204.0</ele><time>2013-05-11T06:53:10Z</time></trkpt>
<trkpt lat="33.01435" lon="35.1947"><ele>205.0</ele><time>2013-05-11T06:53:13Z</time></trkpt>
<trkpt lat="33.01434" lon="35.19482"><ele>205.0</ele><time>2013-05-11T06:53:15Z</time></trkpt>
<trkpt lat="33.01434" lon="35.19494"><ele>205.0</ele><time>2013-05-11T06:53:18Z</time></trkpt>
<trkpt lat="33.01433" lon="35.19507"><ele>206.0</ele><time>2013-05-11T06:53:21Z</time></trkpt>
<trkpt lat="33.01431" lon="35.19519"><ele>206.0</ele><time>2013-05-11T06:53:24Z</time></trkpt>
<trkpt lat="33.01429" lon="35.19532"><ele>206.0</ele><time>2013-05-11T06:53:27Z</time></trkpt>
<trkpt lat="33.01428" lon="35.19544"><ele>206.0</ele><time>2013-05-11T06:53:30Z</time></trkpt>
<trkpt lat="33.01427" lon="35.19556"><ele>207.0</ele><time>2013-05-11T06:53:33Z</time></trkpt>
<trkpt lat="33.01426" lon="35.19568"><ele>207.0</ele><time>2013-05-11T06:53:36Z</time></trkpt>
<trkpt lat="33.01426" lon="35.1958"><ele>207.0</ele><time>2013-05-11T06:53:39Z</time></trkpt>
<trkpt lat="33.01427" lon="35.19593"><ele>207.0</ele><time>2013-05-11T06:53:42Z</time></trkpt>
<trkpt lat="33.01429" lon="35.19604"><ele>207.0</ele><time>2013-05-11T06:53:45Z</time></trkpt>
<trkpt lat="33.01432" lon="35.19614"><ele>208.0</ele><time>2013-05-11T06:53:48Z</time></trkpt>
<trkpt lat="33.01434" lon="35.19624"><ele>209.0</ele><time>2013-05-11T06:53:51Z</time></trkpt>
<trkpt lat="33.01438" lon="35.19635"><ele>210.0</ele><time>2013-05-11T06:53:55Z</time></trkpt>
<trkpt lat="33.01444" lon="35.19644"><ele>211.0</ele><time>2013-05-11T06:53:59Z</time></trkpt>
<trkpt lat="33.01452" lon="35.19652"><ele>212.0</ele><time>2013-05-11T06:54:04Z</time></trkpt>
<trkpt lat="33.01459" lon="35.1966"><ele>213.0</ele><time>2013-05-11T06:54:08Z</time></trkpt>
<trkpt lat="33.01465" lon="35.19668"><ele>214.0</ele><time>2013-05-11T06:54:12Z</time></trkpt>
<trkpt lat="33.01471" lon="35.19676"><ele>214.0</ele><time>2013-05-11T06:54:15Z</time></trkpt>
<trkpt lat="33.01476" lon="35.19685"><ele>215.0</ele><time>2013-05-11T06:54:19Z</time></trkpt>
<trkpt lat="33.01481" lon="35.19694"><ele>215.0</ele><time>2013-05-11T06:54:23Z</time></trkpt>
<trkpt lat="33.01485" lon="35.19703"><ele>216.0</ele><time>2013-05-11T06:54:27Z</time></trkpt>
<trkpt lat="33.0149" lon="35.19712"><ele>216.0</ele><time>2013-05-11T06:54:31Z</time></trkpt>
<trkpt lat="33.01496" lon="35.1972"><ele>216.0</ele><time>2013-05-11T06:54:35Z</time></trkpt>
<trkpt lat="33.01502" lon="35.19728"><ele>215.0</ele><time>2013-05-11T06:54:39Z</time></trkpt>
<trkpt lat="33.01507" lon="35.19737"><ele>215.0</ele><time>2013-05-11T06:54:43Z</time></trkpt>
<trkpt lat="33.01512" lon="35.19745"><ele>214.0</ele><time>2013-05-11T06:54:47Z</time></trkpt>
<trkpt lat="33.01516" lon="35.19755"><ele>213.0</ele><time>2013-05-11T06:54:51Z</time></trkpt>
<trkpt lat="33.01519" lon="35.19765"><ele>212.0</ele><time>2013-05-11T06:54:55Z</time></trkpt>
<trkpt lat="33.01523" lon="35.19776"><ele>212.0</ele><time>2013-05-11T06:54:59Z</time></trkpt>
<trkpt lat="33.01525" lon="35.19787"><ele>212.0</ele><time>2013-05-11T06:55:04Z</time></trkpt>
<trkpt lat="33.01528" lon="35.19797"><ele>211.0</ele><time>2013-05-11T06:55:07Z</time></trkpt>
<trkpt lat="33.0153" lon="35.19806"><ele>211.0</ele><time>2013-05-11T06:55:10Z</time></trkpt>
<trkpt lat="33.01531" lon="35.19816"><ele>211.0</ele><time>2013-05-11T06:55:13Z</time></trkpt>
<trkpt lat="33.01534" lon="35.19826"><ele>210.0</ele><time>2013-05-11T06:55:15Z</time></trkpt>
<trkpt lat="33.01537" lon="35.19836"><ele>211.0</ele><time>2013-05-11T06:55:18Z</time></trkpt>
<trkpt lat="33.0154" lon="35.19844"><ele>212.0</ele><time>2013-05-11T06:55:21Z</time></trkpt>
<trkpt lat="33.01543" lon="35.19854"><ele>214.0</ele><time>2013-05-11T06:55:24Z</time></trkpt>
<trkpt lat="33.01545" lon="35.19863"><ele>215.0</ele><time>2013-05-11T06:55:27Z</time></trkpt>
<trkpt lat="33.01546" lon="35.19873"><ele>216.0</ele><time>2013-05-11T06:55:30Z</time></trkpt>
<trkpt lat="33.01547" lon="35.19884"><ele>218.0</ele><time>2013-05-11T06:55:33Z</time></trkpt>
<trkpt lat="33.01548" lon="35.19894"><ele>219.0</ele><time>2013-05-11T06:55:36Z</time></trkpt>
<trkpt lat="33.01548" lon="35.19904"><ele>220.0</ele><time>2013-05-11T06:55:39Z</time></trkpt>
<trkpt lat="33.01549" lon="35.19914"><ele>222.0</ele><time>2013-05-11T06:55:42Z</time></trkpt>
<trkpt lat="33.0155" lon="35.19924"><ele>223.0</ele><time>2013-05-11T06:55:45Z</time></trkpt>
<trkpt lat="33.01551" lon="35.19934"><ele>224.0</ele><time>2013-05-11T06:55:48Z</time></trkpt>
<trkpt lat="33.01552" lon="35.19944"><ele>223.0</ele><time>2013-05-11T06:55:51Z</time></trkpt>
<trkpt lat="33.01552" lon="35.19954"><ele>223.0</ele><time>2013-05-11T06:55:54Z</time></trkpt>
<trkpt lat="33.01552" lon="35.19964"><ele>223.0</ele><time>2013-05-11T06:55:57Z</time></trkpt>
<trkpt lat="33.01552" lon="35.19977"><ele>223.0</ele><time>2013-05-11T06:56:02Z</time></trkpt>
<trkpt lat="33.01554" lon="35.19988"><ele>222.0</ele><time>2013-05-11T06:56:06Z</time></trkpt>
<trkpt lat="33.01554" lon="35.2"><ele>222.0</ele><time>2013-05-11T06:56:10Z</time></trkpt>
<trkpt lat="33.01554" lon="35.20012"><ele>221.0</ele><time>2013-05-11T06:56:14Z</time></trkpt>
<trkpt lat="33.01554" lon="35.20022"><ele>221.0</ele><time>2013-05-11T06:56:16Z</time></trkpt>
<trkpt lat="33.01554" lon="35.20035"><ele>221.0</ele><time>2013-05-11T06:56:20Z</time></trkpt>
<trkpt lat="33.01553" lon="35.20047"><ele>221.0</ele><time>2013-05-11T06:56:24Z</time></trkpt>
<trkpt lat="33.01552" lon="35.20059"><ele>220.0</ele><time>2013-05-11T06:56:28Z</time></trkpt>
<trkpt lat="33.01553" lon="35.20071"><ele>220.0</ele><time>2013-05-11T06:56:32Z</time></trkpt>
<trkpt lat="33.01555" lon="35.20083"><ele>220.0</ele><time>2013-05-11T06:56:36Z</time></trkpt>
<trkpt lat="33.01558" lon="35.20095"><ele>220.0</ele><time>2013-05-11T06:56:40Z</time></trkpt>
<trkpt lat="33.0156" lon="35.20108"><ele>220.0</ele><time>2013-05-11T06:56:44Z</time></trkpt>
<trkpt lat="33.01562" lon="35.2012"><ele>220.0</ele><time>2013-05-11T06:56:48Z</time></trkpt>
<trkpt lat="33.01564" lon="35.2013"><ele>220.0</ele><time>2013-05-11T06:56:51Z</time></trkpt>
<trkpt lat="33.01567" lon="35.20142"><ele>220.0</ele><time>2013-05-11T06:56:55Z</time></trkpt>
<trkpt lat="33.01571" lon="35.20153"><ele>220.0</ele><time>2013-05-11T06:56:59Z</time></trkpt>
<trkpt lat="33.01577" lon="35.20163"><ele>220.0</ele><time>2013-05-11T06:57:04Z</time></trkpt>
<trkpt lat="33.01581" lon="35.20172"><ele>220.0</ele><time>2013-05-11T06:57:07Z</time></trkpt>
<trkpt lat="33.01585" lon="35.20181"><ele>220.0</ele><time>2013-05-11T06:57:10Z</time></trkpt>
<trkpt lat="33.01588" lon="35.20192"><ele>220.0</ele><time>2013-05-11T06:57:13Z</time></trkpt>
<trkpt lat="33.01592" lon="35.20203"><ele>220.0</ele><time>2013-05-11T06:57:15Z</time></trkpt>
<trkpt lat="33.01597" lon="35.20213"><ele>220.0</ele><time>2013-05-11T06:57:18Z</time></trkpt>
<trkpt lat="33.01599" lon="35.20223"><ele>220.0</ele><time>2013-05-11T06:57:21Z</time></trkpt>
<trkpt lat="33.01601" lon="35.20235"><ele>220.0</ele><time>2013-05-11T06:57:24Z</time></trkpt>
<trkpt lat="33.01603" lon="35.20246"><ele>220.0</ele><time>2013-05-11T06:57:27Z</time></trkpt>
<trkpt lat="33.01606" lon="35.20257"><ele>221.0</ele><time>2013-05-11T06:57:30Z</time></trkpt>
<trkpt lat="33.01606" lon="35.20268"><ele>221.0</ele><time>2013-05-11T06:57:33Z</time></trkpt>
<trkpt lat="33.01605" lon="35.20279"><ele>221.0</ele><time>2013-05-11T06:57:37Z</time></trkpt>
<trkpt lat="33.01602" lon="35.20291"><ele>222.0</ele><time>2013-05-11T06:57:41Z</time></trkpt>
<trkpt lat="33.016" lon="35.203"><ele>222.0</ele><time>2013-05-11T06:57:44Z</time></trkpt>
<trkpt lat="33.01597" lon="35.20313"><ele>222.0</ele><time>2013-05-11T06:57:48Z</time></trkpt>
<trkpt lat="33.01595" lon="35.20326"><ele>222.0</ele><time>2013-05-11T06:57:52Z</time></trkpt>
<trkpt lat="33.01594" lon="35.20335"><ele>223.0</ele><time>2013-05-11T06:57:55Z</time></trkpt>
<trkpt lat="33.01592" lon="35.20347"><ele>224.0</ele><time>2013-05-11T06:57:59Z</time></trkpt>
<trkpt lat="33.01591" lon="35.20358"><ele>225.0</ele><time>2013-05-11T06:58:04Z</time></trkpt>
<trkpt lat="33.0159" lon="35.20369"><ele>226.0</ele><time>2013-05-11T06:58:08Z</time></trkpt>
<trkpt lat="33.0159" lon="35.20381"><ele>227.0</ele><time>2013-05-11T06:58:12Z</time></trkpt>
<trkpt lat="33.01591" lon="35.20392"><ele>228.0</ele><time>2013-05-11T06:58:15Z</time></trkpt>
<trkpt lat="33.01591" lon="35.20403"><ele>229.0</ele><time>2013-05-11T06:58:19Z</time></trkpt>
<trkpt lat="33.01594" lon="35.20416"><ele>230.0</ele><time>2013-05-11T06:58:23Z</time></trkpt>
<trkpt lat="33.01597" lon="35.20427"><ele>232.0</ele><time>2013-05-11T06:58:27Z</time></trkpt>
<trkpt lat="33.01599" lon="35.20438"><ele>233.0</ele><time>2013-05-11T06:58:31Z</time></trkpt>
<trkpt lat="33.01602" lon="35.2045"><ele>234.0</ele><time>2013-05-11T06:58:35Z</time></trkpt>
<trkpt lat="33.01603" lon="35.20462"><ele>235.0</ele><time>2013-05-11T06:58:39Z</time></trkpt>
<trkpt lat="33.01606" lon="35.20474"><ele>236.0</ele><time>2013-05-11T06:58:43Z</time></trkpt>
<trkpt lat="33.01607" lon="35.20484"><ele>237.0</ele><time>2013-05-11T06:58:46Z</time></trkpt>
<trkpt lat="33.01609" lon="35.20496"><ele>238.0</ele><time>2013-05-11T06:58:50Z</time></trkpt>
<trkpt lat="33.01611" lon="35.20509"><ele>240.0</ele><time>2013-05-11T06:58:54Z</time></trkpt>
<trkpt lat="33.01612" lon="35.20521"><ele>241.0</ele><time>2013-05-11T06:58:58Z</time></trkpt>
<trkpt lat="33.01613" lon="35.20533"><ele>241.0</ele><time>2013-05-11T06:59:03Z</time></trkpt>
<trkpt lat="33.01615" lon="35.20544"><ele>240.0</ele><time>2013-05-11T06:59:07Z</time></trkpt>
<trkpt lat="33.01618" lon="35.20557"><ele>239.0</ele><time>2013-05-11T06:59:11Z</time></trkpt>
<trkpt lat="33.01621" lon="35.20566"><ele>238.0</ele><time>2013-05-11T06:59:14Z</time></trkpt>
<trkpt lat="33.01626" lon="35.20577"><ele>238.0</ele><time>2013-05-11T06:59:17Z</time></trkpt>
<trkpt lat="33.0163" lon="35.20585"><ele>237.0</ele><time>2013-05-11T06:59:20Z</time></trkpt>
<trkpt lat="33.01635" lon="35.20593"><ele>236.0</ele><time>2013-05-11T06:59:23Z</time></trkpt>
<trkpt lat="33.0164" lon="35.206"><ele>236.0</ele><time>2013-05-11T06:59:26Z</time></trkpt>
<trkpt lat="33.01644" lon="35.20609"><ele>235.0</ele><time>2013-05-11T06:59:29Z</time></trkpt>
<trkpt lat="33.01648" lon="35.20618"><ele>234.0</ele><time>2013-05-11T06:59:32Z</time></trkpt>
<trkpt lat="33.01652" lon="35.20627"><ele>232.0</ele><time>2013-05-11T06:59:35Z</time></trkpt>
<trkpt lat="33.01656" lon="35.20636"><ele>233.0</ele><time>2013-05-11T06:59:38Z</time></trkpt>
<trkpt lat="33.01661" lon="35.20646"><ele>233.0</ele><time>2013-05-11T06:59:42Z</time></trkpt>
<trkpt lat="33.01667" lon="35.20657"><ele>233.0</ele><time>2013-05-11T06:59:46Z</time></trkpt>
<trkpt lat="33.01672" lon="35.20668"><ele>235.0</ele><time>2013-05-11T06:59:50Z</time></trkpt>
<trkpt lat="33.01677" lon="35.20678"><ele>237.0</ele><time>2013-05-11T06:59:54Z</time></trkpt>
<trkpt lat="33.01682" lon="35.2069"><ele>237.0</ele><time>2013-05-11T06:59:58Z</time></trkpt>
<trkpt lat="33.01688" lon="35.207"><ele>237.0</ele><time>2013-05-11T07:00:03Z</time></trkpt>
<trkpt lat="33.01694" lon="35.2071"><ele>237.0</ele><time>2013-05-11T07:00:07Z</time></trkpt>
<trkpt lat="33.017" lon="35.2072"><ele>237.0</ele><time>2013-05-11T07:00:11Z</time></trkpt>
<trkpt lat="33.01707" lon="35.2073"><ele>237.0</ele><time>2013-05-11T07:00:14Z</time></trkpt>
<trkpt lat="33.01712" lon="35.20738"><ele>237.0</ele><time>2013-05-11T07:00:17Z</time></trkpt>
<trkpt lat="33.01718" lon="35.20748"><ele>237.0</ele><time>2013-05-11T07:00:21Z</time></trkpt>
<trkpt lat="33.01726" lon="35.2076"><ele>237.0</ele><time>2013-05-11T07:00:37Z</time></trkpt>
<trkpt lat="33.01729" lon="35.20769"><ele>238.0</ele><time>2013-05-11T07:00:41Z</time></trkpt>
<trkpt lat="33.01732" lon="35.2078"><ele>237.0</ele><time>2013-05-11T07:00:45Z</time></trkpt>
<trkpt lat="33.01735" lon="35.2079"><ele>235.0</ele><time>2013-05-11T07:00:49Z</time></trkpt>
<trkpt lat="33.01737" lon="35.208"><ele>236.0</ele><time>2013-05-11T07:00:53Z</time></trkpt>
<trkpt lat="33.01738" lon="35.20811"><ele>236.0</ele><time>2013-05-11T07:00:57Z</time></trkpt>
<trkpt lat="33.0174" lon="35.20822"><ele>236.0</ele><time>2013-05-11T07:01:02Z</time></trkpt>
<trkpt lat="33.01742" lon="35.20833"><ele>237.0</ele><time>2013-05-11T07:01:06Z</time></trkpt>
<trkpt lat="33.01743" lon="35.20844"><ele>238.0</ele><time>2013-05-11T07:01:10Z</time></trkpt>
<trkpt lat="33.01743" lon="35.20854"><ele>239.0</ele><time>2013-05-11T07:01:14Z</time></trkpt>
<trkpt lat="33.01743" lon="35.20864"><ele>240.0</ele><time>2013-05-11T07:01:17Z</time></trkpt>
<trkpt lat="33.01744" lon="35.20875"><ele>241.0</ele><time>2013-05-11T07:01:21Z</time></trkpt>
<trkpt lat="33.01745" lon="35.20886"><ele>241.0</ele><time>2013-05-11T07:01:26Z</time></trkpt>
<trkpt lat="33.0175" lon="35.20895"><ele>242.0</ele><time>2013-05-11T07:01:30Z</time></trkpt>
<trkpt lat="33.01756" lon="35.20904"><ele>243.0</ele><time>2013-05-11T07:01:34Z</time></trkpt>
<trkpt lat="33.01763" lon="35.20914"><ele>243.0</ele><time>2013-05-11T07:01:38Z</time></trkpt>
<trkpt lat="33.01768" lon="35.20922"><ele>244.0</ele><time>2013-05-11T07:01:41Z</time></trkpt>
<trkpt lat="33.01772" lon="35.20933"><ele>244.0</ele><time>2013-05-11T07:01:45Z</time></trkpt>
<trkpt lat="33.01776" lon="35.20943"><ele>244.0</ele><time>2013-05-11T07:01:49Z</time></trkpt>
<trkpt lat="33.01783" lon="35.20953"><ele>244.0</ele><time>2013-05-11T07:01:53Z</time></trkpt>
<trkpt lat="33.01788" lon="35.20962"><ele>243.0</ele><time>2013-05-11T07:01:57Z</time></trkpt>
<trkpt lat="33.01792" lon="35.20972"><ele>243.0</ele><time>2013-05-11T07:02:02Z</time></trkpt>
<trkpt lat="33.01799" lon="35.20982"><ele>243.0</ele><time>2013-05-11T07:02:06Z</time></trkpt>
<trkpt lat="33.01803" lon="35.20992"><ele>243.0</ele><time>2013-05-11T07:02:10Z</time></trkpt>
<trkpt lat="33.01806" lon="35.21003"><ele>242.0</ele><time>2013-05-11T07:02:14Z</time></trkpt>
<trkpt lat="33.01807" lon="35.21014"><ele>242.0</ele><time>2013-05-11T07:02:17Z</time></trkpt>
<trkpt lat="33.01809" lon="35.21025"><ele>242.0</ele><time>2013-05-11T07:02:21Z</time></trkpt>
<trkpt lat="33.01812" lon="35.21037"><ele>242.0</ele><time>2013-05-11T07:02:25Z</time></trkpt>
<trkpt lat="33.01812" lon="35.21049"><ele>242.0</ele><time>2013-05-11T07:02:29Z</time></trkpt>
<trkpt lat="33.01811" lon="35.2106"><ele>242.0</ele><time>2013-05-11T07:02:33Z</time></trkpt>
<trkpt lat="33.0181" lon="35.21072"><ele>242.0</ele><time>2013-05-11T07:02:37Z</time></trkpt>
<trkpt lat="33.01808" lon="35.21085"><ele>242.0</ele><time>2013-05-11T07:02:41Z</time></trkpt>
<trkpt lat="33.01804" lon="35.21097"><ele>246.0</ele><time>2013-05-11T07:02:45Z</time></trkpt>
<trkpt lat="33.018" lon="35.21107"><ele>249.0</ele><time>2013-05-11T07:02:49Z</time></trkpt>
<trkpt lat="33.01796" lon="35.21118"><ele>252.0</ele><time>2013-05-11T07:02:54Z</time></trkpt>
<trkpt lat="33.01796" lon="35.21129"><ele>255.0</ele><time>2013-05-11T07:02:59Z</time></trkpt>
<trkpt lat="33.01794" lon="35.2114"><ele>258.0</ele><time>2013-05-11T07:03:04Z</time></trkpt>
<trkpt lat="33.01791" lon="35.2115"><ele>258.0</ele><time>2013-05-11T07:03:08Z</time></trkpt>
<trkpt lat="33.0179" lon="35.2116"><ele>259.0</ele><time>2013-05-11T07:03:12Z</time></trkpt>
<trkpt lat="33.01789" lon="35.21173"><ele>259.0</ele><time>2013-05-11T07:03:15Z</time></trkpt>
<trkpt lat="33.0179" lon="35.21183"><ele>260.0</ele><time>2013-05-11T07:03:18Z</time></trkpt>
<trkpt lat="33.01792" lon="35.21195"><ele>261.0</ele><time>2013-05-11T07:03:22Z</time></trkpt>
<trkpt lat="33.01794" lon="35.21207"><ele>261.0</ele><time>2013-05-11T07:03:26Z</time></trkpt>
<trkpt lat="33.01796" lon="35.21219"><ele>258.0</ele><time>2013-05-11T07:03:30Z</time></trkpt>
<trkpt lat="33.01798" lon="35.21229"><ele>256.0</ele><time>2013-05-11T07:03:33Z</time></trkpt>
<trkpt lat="33.01801" lon="35.21241"><ele>253.0</ele><time>2013-05-11T07:03:37Z</time></trkpt>
<trkpt lat="33.01802" lon="35.21251"><ele>251.0</ele><time>2013-05-11T07:03:40Z</time></trkpt>
<trkpt lat="33.01804" lon="35.21263"><ele>248.0</ele><time>2013-05-11T07:03:44Z</time></trkpt>
<trkpt lat="33.01805" lon="35.21275"><ele>249.0</ele><time>2013-05-11T07:03:48Z</time></trkpt>
<trkpt lat="33.01805" lon="35.21287"><ele>249.0</ele><time>2013-05-11T07:03:52Z</time></trkpt>
<trkpt lat="33.01808" lon="35.21297"><ele>249.0</ele><time>2013-05-11T07:03:55Z</time></trkpt>
<trkpt lat="33.01811" lon="35.21309"><ele>249.0</ele><time>2013-05-11T07:03:59Z</time></trkpt>
<trkpt lat="33.01814" lon="35.21319"><ele>249.0</ele><time>2013-05-11T07:04:03Z</time></trkpt>
<trkpt lat="33.01816" lon="35.21328"><ele>249.0</ele><time>2013-05-11T07:04:06Z</time></trkpt>
<trkpt lat="33.01818" lon="35.21338"><ele>250.0</ele><time>2013-05-11T07:04:09Z</time></trkpt>
<trkpt lat="33.01821" lon="35.21348"><ele>251.0</ele><time>2013-05-11T07:04:12Z</time></trkpt>
<trkpt lat="33.01823" lon="35.21357"><ele>252.0</ele><time>2013-05-11T07:04:14Z</time></trkpt>
<trkpt lat="33.01826" lon="35.21368"><ele>253.0</ele><time>2013-05-11T07:04:18Z</time></trkpt>
<trkpt lat="33.01829" lon="35.21378"><ele>254.0</ele><time>2013-05-11T07:04:22Z</time></trkpt>
<trkpt lat="33.01831" lon="35.21388"><ele>255.0</ele><time>2013-05-11T07:04:26Z</time></trkpt>
<trkpt lat="33.01834" lon="35.21399"><ele>256.0</ele><time>2013-05-11T07:04:30Z</time></trkpt>
<trkpt lat="33.01837" lon="35.2141"><ele>257.0</ele><time>2013-05-11T07:04:34Z</time></trkpt>
<trkpt lat="33.0184" lon="35.21419"><ele>258.0</ele><time>2013-05-11T07:04:37Z</time></trkpt>
<trkpt lat="33.01841" lon="35.21432"><ele>259.0</ele><time>2013-05-11T07:04:41Z</time></trkpt>
<trkpt lat="33.01842" lon="35.21444"><ele>260.0</ele><time>2013-05-11T07:04:45Z</time></trkpt>
<trkpt lat="33.01842" lon="35.21454"><ele>261.0</ele><time>2013-05-11T07:04:48Z</time></trkpt>
<trkpt lat="33.01843" lon="35.21464"><ele>261.0</ele><time>2013-05-11T07:04:51Z</time></trkpt>
<trkpt lat="33.01844" lon="35.21476"><ele>261.0</ele><time>2013-05-11T07:04:55Z</time></trkpt>
<trkpt lat="33.01843" lon="35.21486"><ele>261.0</ele><time>2013-05-11T07:04:58Z</time></trkpt>
<trkpt lat="33.01841" lon="35.21498"><ele>261.0</ele><time>2013-05-11T07:05:03Z</time></trkpt>
<trkpt lat="33.01838" lon="35.21509"><ele>261.0</ele><time>2013-05-11T07:05:07Z</time></trkpt>
<trkpt lat="33.01837" lon="35.2152"><ele>261.0</ele><time>2013-05-11T07:05:11Z</time></trkpt>
<trkpt lat="33.01834" lon="35.21531"><ele>261.0</ele><time>2013-05-11T07:05:14Z</time></trkpt>
<trkpt lat="33.01831" lon="35.21542"><ele>261.0</ele><time>2013-05-11T07:05:18Z</time></trkpt>
<trkpt lat="33.01829" lon="35.21552"><ele>260.0</ele><time>2013-05-11T07:05:22Z</time></trkpt>
<trkpt lat="33.01829" lon="35.21562"><ele>260.0</ele><time>2013-05-11T07:05:26Z</time></trkpt>
<trkpt lat="33.01826" lon="35.21573"><ele>260.0</ele><time>2013-05-11T07:05:31Z</time></trkpt>
<trkpt lat="33.01822" lon="35.21584"><ele>259.0</ele><time>2013-05-11T07:05:36Z</time></trkpt>
<trkpt lat="33.01819" lon="35.21595"><ele>259.0</ele><time>2013-05-11T07:05:41Z</time></trkpt>
<trkpt lat="33.01817" lon="35.21605"><ele>259.0</ele><time>2013-05-11T07:05:46Z</time></trkpt>
<trkpt lat="33.01814" lon="35.21615"><ele>259.0</ele><time>2013-05-11T07:05:51Z</time></trkpt>
<trkpt lat="33.01813" lon="35.21625"><ele>259.0</ele><time>2013-05-11T07:05:56Z</time></trkpt>
<trkpt lat="33.01813" lon="35.21637"><ele>259.0</ele><time>2013-05-11T07:06:03Z</time></trkpt>
<trkpt lat="33.01812" lon="35.21649"><ele>259.0</ele><time>2013-05-11T07:06:08Z</time></trkpt>
<trkpt lat="33.0181" lon="35.21659"><ele>259.0</ele><time>2013-05-11T07:06:12Z</time></trkpt>
<trkpt lat="33.01808" lon="35.21668"><ele>259.0</ele><time>2013-05-11T07:06:16Z</time></trkpt>
<trkpt lat="33.01807" lon="35.21678"><ele>259.0</ele><time>2013-05-11T07:06:20Z</time></trkpt>
<trkpt lat="33.01808" lon="35.2169"><ele>259.0</ele><time>2013-05-11T07:06:25Z</time></trkpt>
<trkpt lat="33.0181" lon="35.21701"><ele>259.0</ele><time>2013-05-11T07:06:30Z</time></trkpt>
<trkpt lat="33.0181" lon="35.21712"><ele>259.0</ele><time>2013-05-11T07:06:34Z</time></trkpt>
<trkpt lat="33.01811" lon="35.21722"><ele>259.0</ele><time>2013-05-11T07:06:39Z</time></trkpt>
<trkpt lat="33.01812" lon="35.21732"><ele>259.0</ele><time>2013-05-11T07:06:43Z</time></trkpt>
<trkpt lat="33.01813" lon="35.21743"><ele>259.0</ele><time>2013-05-11T07:06:47Z</time></trkpt>
<trkpt lat="33.01816" lon="35.21754"><ele>260.0</ele><time>2013-05-11T07:06:51Z</time></trkpt>
<trkpt lat="33.0182" lon="35.21765"><ele>261.0</ele><time>2013-05-11T07:06:55Z</time></trkpt>
<trkpt lat="33.01822" lon="35.21777"><ele>261.0</ele><time>2013-05-11T07:06:59Z</time></trkpt>
<trkpt lat="33.01827" lon="35.21788"><ele>262.0</ele><time>2013-05-11T07:07:04Z</time></trkpt>
<trkpt lat="33.01832" lon="35.21799"><ele>263.0</ele><time>2013-05-11T07:07:08Z</time></trkpt>
<trkpt lat="33.01835" lon="35.21811"><ele>264.0</ele><time>2013-05-11T07:07:12Z</time></trkpt>
<trkpt lat="33.01838" lon="35.21822"><ele>264.0</ele><time>2013-05-11T07:07:15Z</time></trkpt>
<trkpt lat="33.01843" lon="35.21833"><ele>266.0</ele><time>2013-05-11T07:07:19Z</time></trkpt>
<trkpt lat="33.01847" lon="35.21843"><ele>269.0</ele><time>2013-05-11T07:07:23Z</time></trkpt>
<trkpt lat="33.01851" lon="35.21853"><ele>269.0</ele><time>2013-05-11T07:07:27Z</time></trkpt>
<trkpt lat="33.01856" lon="35.21863"><ele>269.0</ele><time>2013-05-11T07:07:31Z</time></trkpt>
<trkpt lat="33.01859" lon="35.21872"><ele>269.0</ele><time>2013-05-11T07:07:35Z</time></trkpt>
<trkpt lat="33.01866" lon="35.21881"><ele>269.0</ele><time>2013-05-11T07:07:39Z</time></trkpt>
<trkpt lat="33.01873" lon="35.21889"><ele>268.0</ele><time>2013-05-11T07:07:43Z</time></trkpt>
<trkpt lat="33.01877" lon="35.21898"><ele>268.0</ele><time>2013-05-11T07:07:47Z</time></trkpt>
<trkpt lat="33.01879" lon="35.21907"><ele>268.0</ele><time>2013-05-11T07:07:51Z</time></trkpt>
<trkpt lat="33.01879" lon="35.21917"><ele>268.0</ele><time>2013-05-11T07:07:55Z</time></trkpt>
<trkpt lat="33.01881" lon="35.21928"><ele>268.0</ele><time>2013-05-11T07:08:01Z</time></trkpt>
<trkpt lat="33.01886" lon="35.21936"><ele>266.0</ele><time>2013-05-11T07:08:05Z</time></trkpt>
<trkpt lat="33.01892" lon="35.21945"><ele>265.0</ele><time>2013-05-11T07:08:09Z</time></trkpt>
<trkpt lat="33.01899" lon="35.21953"><ele>266.0</ele><time>2013-05-11T07:08:12Z</time></trkpt>
<trkpt lat="33.01904" lon="35.21961"><ele>266.0</ele><time>2013-05-11T07:08:14Z</time></trkpt>
<trkpt lat="33.0191" lon="35.21969"><ele>266.0</ele><time>2013-05-11T07:08:18Z</time></trkpt>
<trkpt lat="33.01918" lon="35.21977"><ele>267.0</ele><time>2013-05-11T07:08:22Z</time></trkpt>
<trkpt lat="33.01926" lon="35.21984"><ele>267.0</ele><time>2013-05-11T07:08:26Z</time></trkpt>
<trkpt lat="33.01934" lon="35.2199"><ele>267.0</ele><time>2013-05-11T07:08:30Z</time></trkpt>
<trkpt lat="33.01939" lon="35.21998"><ele>268.0</ele><time>2013-05-11T07:08:34Z</time></trkpt>
<trkpt lat="33.01942" lon="35.22008"><ele>268.0</ele><time>2013-05-11T07:08:38Z</time></trkpt>
<trkpt lat="33.01944" lon="35.22017"><ele>269.0</ele><time>2013-05-11T07:08:42Z</time></trkpt>
<trkpt lat="33.01944" lon="35.22028"><ele>269.0</ele><time>2013-05-11T07:08:46Z</time></trkpt>
<trkpt lat="33.01945" lon="35.22038"><ele>270.0</ele><time>2013-05-11T07:08:50Z</time></trkpt>
<trkpt lat="33.01947" lon="35.22048"><ele>270.0</ele><time>2013-05-11T07:08:54Z</time></trkpt>
<trkpt lat="33.01944" lon="35.22059"><ele>270.0</ele><time>2013-05-11T07:09:01Z</time></trkpt>
<trkpt lat="33.01942" lon="35.22069"><ele>271.0</ele><time>2013-05-11T07:09:06Z</time></trkpt>
<trkpt lat="33.01941" lon="35.22079"><ele>271.0</ele><time>2013-05-11T07:09:12Z</time></trkpt>
<trkpt lat="33.01933" lon="35.22084"><ele>272.0</ele><time>2013-05-11T07:09:17Z</time></trkpt>
<trkpt lat="33.0193" lon="35.22093"><ele>272.0</ele><time>2013-05-11T07:09:24Z</time></trkpt>
<trkpt lat="33.01929" lon="35.22103"><ele>274.0</ele><time>2013-05-11T07:09:29Z</time></trkpt>
<trkpt lat="33.01917" lon="35.22147"><ele>276.0</ele><time>2013-05-11T07:10:49Z</time></trkpt>
<trkpt lat="33.01906" lon="35.22191"><ele>277.0</ele><time>2013-05-11T07:11:35Z</time></trkpt>
<trkpt lat="33.01912" lon="35.22235"><ele>279.0</ele><time>2013-05-11T07:12:25Z</time></trkpt>
<trkpt lat="33.01927" lon="35.22276"><ele>280.0</ele><time>2013-05-11T07:13:09Z</time></trkpt>
<trkpt lat="33.01934" lon="35.22322"><ele>282.0</ele><time>2013-05-11T07:13:51Z</time></trkpt>
<trkpt lat="33.01959" lon="35.22359"><ele>283.0</ele><time>2013-05-11T07:14:28Z</time></trkpt>
<trkpt lat="33.01979" lon="35.22402"><ele>285.0</ele><time>2013-05-11T07:15:06Z</time></trkpt>
<trkpt lat="33.01987" lon="35.22448"><ele>286.0</ele><time>2013-05-11T07:15:44Z</time></trkpt>
<trkpt lat="33.01995" lon="35.22492"><ele>288.0</ele><time>2013-05-11T07:16:56Z</time></trkpt>
<trkpt lat="33.02009" lon="35.22534"><ele>291.0</ele><time>2013-05-11T07:17:49Z</time></trkpt>
<trkpt lat="33.02028" lon="35.22574"><ele>292.0</ele><time>2013-05-11T07:18:30Z</time></trkpt>
<trkpt lat="33.02034" lon="35.22619"><ele>293.0</ele><time>2013-05-11T07:19:14Z</time></trkpt>
<trkpt lat="33.02017" lon="35.22654"><ele>294.0</ele><time>2013-05-11T07:20:06Z</time></trkpt>
<trkpt lat="33.01989" lon="35.22685"><ele>295.0</ele><time>2013-05-11T07:20:48Z</time></trkpt>
<trkpt lat="33.01961" lon="35.22709"><ele>297.0</ele><time>2013-05-11T07:21:55Z</time></trkpt>
<trkpt lat="33.01955" lon="35.22718"><ele>298.0</ele><time>2013-05-11T07:22:01Z</time></trkpt>
<trkpt lat="33.01951" lon="35.22728"><ele>299.0</ele><time>2013-05-11T07:22:06Z</time></trkpt>
<trkpt lat="33.01948" lon="35.22738"><ele>300.0</ele><time>2013-05-11T07:22:10Z</time></trkpt>
<trkpt lat="33.01947" lon="35.22749"><ele>301.0</ele><time>2013-05-11T07:22:14Z</time></trkpt>
<trkpt lat="33.01943" lon="35.22759"><ele>302.0</ele><time>2013-05-11T07:22:20Z</time></trkpt>
<trkpt lat="33.01934" lon="35.22805"><ele>301.0</ele><time>2013-05-11T07:23:14Z</time></trkpt>
<trkpt lat="33.01933" lon="35.22815"><ele>301.0</ele><time>2013-05-11T07:23:18Z</time></trkpt>
<trkpt lat="33.01929" lon="35.22825"><ele>300.0</ele><time>2013-05-11T07:23:24Z</time></trkpt>
<trkpt lat="33.01927" lon="35.22836"><ele>300.0</ele><time>2013-05-11T07:23:30Z</time></trkpt>
<trkpt lat="33.01925" lon="35.22847"><ele>300.0</ele><time>2013-05-11T07:23:36Z</time></trkpt>
<trkpt lat="33.01922" lon="35.22856"><ele>300.0</ele><time>2013-05-11T07:23:41Z</time></trkpt>
<trkpt lat="33.01919" lon="35.22865"><ele>300.0</ele><time>2013-05-11T07:23:46Z</time></trkpt>
<trkpt lat="33.01917" lon="35.22877"><ele>300.0</ele><time>2013-05-11T07:23:52Z</time></trkpt>
<trkpt lat="33.01916" lon="35.22887"><ele>303.0</ele><time>2013-05-11T07:23:58Z</time></trkpt>
<trkpt lat="33.01916" lon="35.22897"><ele>305.0</ele><time>2013-05-11T07:24:05Z</time></trkpt>
<trkpt lat="33.01916" lon="35.22908"><ele>307.0</ele><time>2013-05-11T07:24:11Z</time></trkpt>
<trkpt lat="33.01919" lon="35.22957"><ele>310.0</ele><time>2013-05-11T07:24:44Z</time></trkpt>
<trkpt lat="33.01897" lon="35.2299"><ele>313.0</ele><time>2013-05-11T07:26:12Z</time></trkpt>
<trkpt lat="33.01871" lon="35.23022"><ele>317.0</ele><time>2013-05-11T07:27:08Z</time></trkpt>
<trkpt lat="33.01852" lon="35.23059"><ele>321.0</ele><time>2013-05-11T07:33:50Z</time></trkpt>
<trkpt lat="33.01823" lon="35.2309"><ele>327.0</ele><time>2013-05-11T07:34:42Z</time></trkpt>
<trkpt lat="33.01804" lon="35.23131"><ele>332.0</ele><time>2013-05-11T07:35:54Z</time></trkpt>
<trkpt lat="33.01773" lon="35.23158"><ele>337.0</ele><time>2013-05-11T07:36:56Z</time></trkpt>
<trkpt lat="33.01749" lon="35.23194"><ele>341.0</ele><time>2013-05-11T07:37:51Z</time></trkpt>
<trkpt lat="33.01732" lon="35.23236"><ele>345.0</ele><time>2013-05-11T07:38:40Z</time></trkpt>
<trkpt lat="33.01708" lon="35.23272"><ele>349.0</ele><time>2013-05-11T07:39:22Z</time></trkpt>
<trkpt lat="33.01678" lon="35.23301"><ele>353.0</ele><time>2013-05-11T07:40:13Z</time></trkpt>
<trkpt lat="33.01667" lon="35.23317"><ele>357.0</ele><time>2013-05-11T07:44:03Z</time></trkpt>
<trkpt lat="33.01644" lon="35.23353"><ele>360.0</ele><time>2013-05-11T07:50:39Z</time></trkpt>
<trkpt lat="33.01627" lon="35.23393"><ele>364.0</ele><time>2013-05-11T07:51:31Z</time></trkpt>
<trkpt lat="33.01608" lon="35.23433"><ele>367.0</ele><time>2013-05-11T07:52:25Z</time></trkpt>
<trkpt lat="33.01594" lon="35.23475"><ele>369.0</ele><time>2013-05-11T07:53:20Z</time></trkpt>
<trkpt lat="33.01573" lon="35.23512"><ele>372.0</ele><time>2013-05-11T07:54:28Z</time></trkpt>
<trkpt lat="33.01552" lon="35.2355"><ele>374.0</ele><time>2013-05-11T07:59:58Z</time></trkpt>
<trkpt lat="33.01552" lon="35.23561"><ele>377.0</ele><time>2013-05-11T08:00:07Z</time></trkpt>
<trkpt lat="33.01552" lon="35.23572"><ele>379.0</ele><time>2013-05-11T08:00:13Z</time></trkpt>
<trkpt lat="33.01551" lon="35.23582"><ele>382.0</ele><time>2013-05-11T08:00:16Z</time></trkpt>
<trkpt lat="33.01549" lon="35.23591"><ele>385.0</ele><time>2013-05-11T08:00:20Z</time></trkpt>
<trkpt lat="33.0154" lon="35.23636"><ele>388.0</ele><time>2013-05-11T08:01:18Z</time></trkpt>
<trkpt lat="33.01507" lon="35.23657"><ele>390.0</ele><time>2013-05-11T08:03:19Z</time></trkpt>
<trkpt lat="33.0147" lon="35.23658"><ele>393.0</ele><time>2013-05-11T08:09:47Z</time></trkpt>
<trkpt lat="33.01438" lon="35.23682"><ele>395.0</ele><time>2013-05-11T08:22:20Z</time></trkpt>
<trkpt lat="33.014" lon="35.23678"><ele>397.0</ele><time>2013-05-11T08:23:15Z</time></trkpt>
<trkpt lat="33.01409" lon="35.23719"><ele>399.0</ele><time>2013-05-11T08:24:17Z</time></trkpt>
<trkpt lat="33.01414" lon="35.23742"><ele>401.0</ele><time>2013-05-11T08:24:42Z</time></trkpt>
<trkpt lat="33.01413" lon="35.23757"><ele>403.0</ele><time>2013-05-11T08:24:51Z</time></trkpt>
<trkpt lat="33.01414" lon="35.23768"><ele>405.0</ele><time>2013-05-11T08:24:57Z</time></trkpt>
<trkpt lat="33.01414" lon="35.23778"><ele>405.0</ele><time>2013-05-11T08:25:04Z</time></trkpt>
<trkpt lat="33.01413" lon="35.23788"><ele>405.0</ele><time>2013-05-11T08:25:10Z</time></trkpt>
<trkpt lat="33.01412" lon="35.23799"><ele>405.0</ele><time>2013-05-11T08:25:15Z</time></trkpt>
<trkpt lat="33.01408" lon="35.23815"><ele>405.0</ele><time>2013-05-11T08:25:56Z</time></trkpt>
<trkpt lat="33.0141" lon="35.23805"><ele>405.0</ele><time>2013-05-11T08:26:03Z</time></trkpt>
<trkpt lat="33.01411" lon="35.23795"><ele>405.0</ele><time>2013-05-11T08:26:08Z</time></trkpt>
<trkpt lat="33.01413" lon="35.23783"><ele>405.0</ele><time>2013-05-11T08:26:13Z</time></trkpt>
<trkpt lat="33.01414" lon="35.23773"><ele>405.0</ele><time>2013-05-11T08:26:17Z</time></trkpt>
<trkpt lat="33.01414" lon="35.23762"><ele>405.0</ele><time>2013-05-11T08:26:23Z</time></trkpt>
<trkpt lat="33.01414" lon="35.23751"><ele>405.0</ele><time>2013-05-11T08:26:29Z</time></trkpt>
<trkpt lat="33.01414" lon="35.2374"><ele>404.0</ele><time>2013-05-11T08:26:34Z</time></trkpt>
<trkpt lat="33.01412" lon="35.23729"><ele>404.0</ele><time>2013-05-11T08:26:39Z</time></trkpt>
<trkpt lat="33.01408" lon="35.23718"><ele>404.0</ele><time>2013-05-11T08:26:44Z</time></trkpt>
<trkpt lat="33.01405" lon="35.23707"><ele>404.0</ele><time>2013-05-11T08:26:49Z</time></trkpt>
<trkpt lat="33.01401" lon="35.23698"><ele>404.0</ele><time>2013-05-11T08:26:54Z</time></trkpt>
<trkpt lat="33.01398" lon="35.23688"><ele>404.0</ele><time>2013-05-11T08:26:59Z</time></trkpt>
<trkpt lat="33.01395" lon="35.23678"><ele>404.0</ele><time>2013-05-11T08:27:06Z</time></trkpt>
<trkpt lat="33.01393" lon="35.23668"><ele>404.0</ele><time>2013-05-11T08:27:11Z</time></trkpt>
<trkpt lat="33.01392" lon="35.23657"><ele>404.0</ele><time>2013-05-11T08:27:15Z</time></trkpt>
<trkpt lat="33.01396" lon="35.23648"><ele>404.0</ele><time>2013-05-11T08:27:20Z</time></trkpt>
<trkpt lat="33.01398" lon="35.23639"><ele>404.0</ele><time>2013-05-11T08:27:24Z</time></trkpt>
<trkpt lat="33.01402" lon="35.2363"><ele>404.0</ele><time>2013-05-11T08:27:29Z</time></trkpt>
<trkpt lat="33.01406" lon="35.2362"><ele>404.0</ele><time>2013-05-11T08:27:34Z</time></trkpt>
<trkpt lat="33.01409" lon="35.2361"><ele>404.0</ele><time>2013-05-11T08:27:38Z</time></trkpt>
<trkpt lat="33.01413" lon="35.236"><ele>404.0</ele><time>2013-05-11T08:27:43Z</time></trkpt>
<trkpt lat="33.01417" lon="35.2359"><ele>405.0</ele><time>2013-05-11T08:27:49Z</time></trkpt>
<trkpt lat="33.01421" lon="35.23581"><ele>406.0</ele><time>2013-05-11T08:27:54Z</time></trkpt>
<trkpt lat="33.01424" lon="35.23572"><ele>406.0</ele><time>2013-05-11T08:27:58Z</time></trkpt>
<trkpt lat="33.01428" lon="35.23562"><ele>407.0</ele><time>2013-05-11T08:28:03Z</time></trkpt>
<trkpt lat="33.01433" lon="35.23552"><ele>408.0</ele><time>2013-05-11T08:28:08Z</time></trkpt>
<trkpt lat="33.01438" lon="35.23541"><ele>408.0</ele><time>2013-05-11T08:28:13Z</time></trkpt>
<trkpt lat="33.01443" lon="35.23531"><ele>409.0</ele><time>2013-05-11T08:28:16Z</time></trkpt>
<trkpt lat="33.01447" lon="35.23522"><ele>410.0</ele><time>2013-05-11T08:28:20Z</time></trkpt>
<trkpt lat="33.01452" lon="35.23512"><ele>411.0</ele><time>2013-05-11T08:28:24Z</time></trkpt>
<trkpt lat="33.01453" lon="35.23502"><ele>412.0</ele><time>2013-05-11T08:28:28Z</time></trkpt>
<trkpt lat="33.01454" lon="35.23491"><ele>413.0</ele><time>2013-05-11T08:28:32Z</time></trkpt>
<trkpt lat="33.01455" lon="35.23481"><ele>414.0</ele><time>2013-05-11T08:28:36Z</time></trkpt>
<trkpt lat="33.01457" lon="35.2347"><ele>413.0</ele><time>2013-05-11T08:28:40Z</time></trkpt>
<trkpt lat="33.01459" lon="35.2346"><ele>411.0</ele><time>2013-05-11T08:28:43Z</time></trkpt>
<trkpt lat="33.01461" lon="35.2345"><ele>409.0</ele><time>2013-05-11T08:28:46Z</time></trkpt>
<trkpt lat="33.01463" lon="35.23439"><ele>408.0</ele><time>2013-05-11T08:28:49Z</time></trkpt>
<trkpt lat="33.01464" lon="35.23429"><ele>407.0</ele><time>2013-05-11T08:28:52Z</time></trkpt>
<trkpt lat="33.01466" lon="35.23417"><ele>405.0</ele><time>2013-05-11T08:28:56Z</time></trkpt>
<trkpt lat="33.01467" lon="35.23405"><ele>404.0</ele><time>2013-05-11T08:29:01Z</time></trkpt>
<trkpt lat="33.01469" lon="35.23393"><ele>402.0</ele><time>2013-05-11T08:29:05Z</time></trkpt>
<trkpt lat="33.0147" lon="35.23382"><ele>400.0</ele><time>2013-05-11T08:29:09Z</time></trkpt>
<trkpt lat="33.0147" lon="35.23371"><ele>398.0</ele><time>2013-05-11T08:29:13Z</time></trkpt>
<trkpt lat="33.0147" lon="35.23359"><ele>396.0</ele><time>2013-05-11T08:29:16Z</time></trkpt>
<trkpt lat="33.01471" lon="35.23347"><ele>396.0</ele><time>2013-05-11T08:29:20Z</time></trkpt>
<trkpt lat="33.01472" lon="35.23336"><ele>397.0</ele><time>2013-05-11T08:29:23Z</time></trkpt>
<trkpt lat="33.01474" lon="35.23326"><ele>397.0</ele><time>2013-05-11T08:29:26Z</time></trkpt>
<trkpt lat="33.01475" lon="35.23315"><ele>398.0</ele><time>2013-05-11T08:29:30Z</time></trkpt>
<trkpt lat="33.01476" lon="35.23304"><ele>398.0</ele><time>2013-05-11T08:29:34Z</time></trkpt>
<trkpt lat="33.01477" lon="35.23292"><ele>398.0</ele><time>2013-05-11T08:29:38Z</time></trkpt>
<trkpt lat="33.01478" lon="35.2328"><ele>398.0</ele><time>2013-05-11T08:29:42Z</time></trkpt>
<trkpt lat="33.0148" lon="35.23267"><ele>399.0</ele><time>2013-05-11T08:29:46Z</time></trkpt>
<trkpt lat="33.01481" lon="35.23257"><ele>399.0</ele><time>2013-05-11T08:29:49Z</time></trkpt>
<trkpt lat="33.01482" lon="35.23245"><ele>399.0</ele><time>2013-05-11T08:29:53Z</time></trkpt>
<trkpt lat="33.01482" lon="35.23234"><ele>399.0</ele><time>2013-05-11T08:29:57Z</time></trkpt>
<trkpt lat="33.01479" lon="35.23221"><ele>399.0</ele><time>2013-05-11T08:30:02Z</time></trkpt>
<trkpt lat="33.01477" lon="35.23209"><ele>399.0</ele><time>2013-05-11T08:30:06Z</time></trkpt>
<trkpt lat="33.01475" lon="35.23199"><ele>399.0</ele><time>2013-05-11T08:30:09Z</time></trkpt>
<trkpt lat="33.01474" lon="35.2319"><ele>399.0</ele><time>2013-05-11T08:30:12Z</time></trkpt>
<trkpt lat="33.01473" lon="35.2318"><ele>399.0</ele><time>2013-05-11T08:30:14Z</time></trkpt>
<trkpt lat="33.01472" lon="35.23168"><ele>400.0</ele><time>2013-05-11T08:30:17Z</time></trkpt>
<trkpt lat="33.0147" lon="35.23158"><ele>400.0</ele><time>2013-05-11T08:30:20Z</time></trkpt>
<trkpt lat="33.01467" lon="35.23145"><ele>401.0</ele><time>2013-05-11T08:30:24Z</time></trkpt>
<trkpt lat="33.01465" lon="35.23135"><ele>401.0</ele><time>2013-05-11T08:30:27Z</time></trkpt>
<trkpt lat="33.01463" lon="35.23125"><ele>402.0</ele><time>2013-05-11T08:30:30Z</time></trkpt>
<trkpt lat="33.01461" lon="35.23114"><ele>403.0</ele><time>2013-05-11T08:30:33Z</time></trkpt>
<trkpt lat="33.0146" lon="35.23104"><ele>403.0</ele><time>2013-05-11T08:30:36Z</time></trkpt>
<trkpt lat="33.01458" lon="35.23093"><ele>404.0</ele><time>2013-05-11T08:30:39Z</time></trkpt>
<trkpt lat="33.01457" lon="35.23082"><ele>404.0</ele><time>2013-05-11T08:30:42Z</time></trkpt>
<trkpt lat="33.01456" lon="35.23073"><ele>405.0</ele><time>2013-05-11T08:30:45Z</time></trkpt>
<trkpt lat="33.01454" lon="35.23063"><ele>405.0</ele><time>2013-05-11T08:30:48Z</time></trkpt>
<trkpt lat="33.01451" lon="35.23053"><ele>405.0</ele><time>2013-05-11T08:30:52Z</time></trkpt>
<trkpt lat="33.0145" lon="35.23039"><ele>405.0</ele><time>2013-05-11T08:31:14Z</time></trkpt>
<trkpt lat="33.01449" lon="35.23029"><ele>405.0</ele><time>2013-05-11T08:31:17Z</time></trkpt>
<trkpt lat="33.01447" lon="35.2302"><ele>404.0</ele><time>2013-05-11T08:31:20Z</time></trkpt>
<trkpt lat="33.01445" lon="35.2301"><ele>404.0</ele><time>2013-05-11T08:31:23Z</time></trkpt>
<trkpt lat="33.01443" lon="35.23"><ele>403.0</ele><time>2013-05-11T08:31:26Z</time></trkpt>
<trkpt lat="33.01441" lon="35.22989"><ele>403.0</ele><time>2013-05-11T08:31:30Z</time></trkpt>
<trkpt lat="33.01438" lon="35.22978"><ele>402.0</ele><time>2013-05-11T08:31:34Z</time></trkpt>
<trkpt lat="33.01436" lon="35.22966"><ele>402.0</ele><time>2013-05-11T08:31:38Z</time></trkpt>
<trkpt lat="33.01433" lon="35.22954"><ele>401.0</ele><time>2013-05-11T08:31:42Z</time></trkpt>
<trkpt lat="33.0143" lon="35.22944"><ele>401.0</ele><time>2013-05-11T08:31:45Z</time></trkpt>
<trkpt lat="33.01428" lon="35.22933"><ele>400.0</ele><time>2013-05-11T08:31:49Z</time></trkpt>
<trkpt lat="33.01425" lon="35.22922"><ele>400.0</ele><time>2013-05-11T08:31:53Z</time></trkpt>
<trkpt lat="33.0142" lon="35.22911"><ele>399.0</ele><time>2013-05-11T08:31:57Z</time></trkpt>
<trkpt lat="33.01413" lon="35.22901"><ele>398.0</ele><time>2013-05-11T08:32:02Z</time></trkpt>
<trkpt lat="33.01406" lon="35.22892"><ele>398.0</ele><time>2013-05-11T08:32:06Z</time></trkpt>
<trkpt lat="33.01401" lon="35.22883"><ele>397.0</ele><time>2013-05-11T08:32:09Z</time></trkpt>
<trkpt lat="33.01397" lon="35.22874"><ele>397.0</ele><time>2013-05-11T08:32:12Z</time></trkpt>
<trkpt lat="33.01393" lon="35.22866"><ele>397.0</ele><time>2013-05-11T08:32:14Z</time></trkpt>
<trkpt lat="33.01389" lon="35.22856"><ele>397.0</ele><time>2013-05-11T08:32:18Z</time></trkpt>
<trkpt lat="33.01384" lon="35.22848"><ele>397.0</ele><time>2013-05-11T08:32:21Z</time></trkpt>
<trkpt lat="33.01381" lon="35.22838"><ele>398.0</ele><time>2013-05-11T08:32:24Z</time></trkpt>
<trkpt lat="33.01376" lon="35.22829"><ele>398.0</ele><time>2013-05-11T08:32:27Z</time></trkpt>
<trkpt lat="33.01373" lon="35.2282"><ele>398.0</ele><time>2013-05-11T08:32:30Z</time></trkpt>
<trkpt lat="33.01369" lon="35.22812"><ele>399.0</ele><time>2013-05-11T08:32:35Z</time></trkpt>
<trkpt lat="33.01362" lon="35.22804"><ele>400.0</ele><time>2013-05-11T08:32:41Z</time></trkpt>
<trkpt lat="33.01355" lon="35.22799"><ele>400.0</ele><time>2013-05-11T08:32:46Z</time></trkpt>
<trkpt lat="33.01345" lon="35.228"><ele>401.0</ele><time>2013-05-11T08:32:51Z</time></trkpt>
<trkpt lat="33.01336" lon="35.22801"><ele>402.0</ele><time>2013-05-11T08:32:56Z</time></trkpt>
<trkpt lat="33.01328" lon="35.22806"><ele>402.0</ele><time>2013-05-11T08:33:03Z</time></trkpt>
<trkpt lat="33.01321" lon="35.22812"><ele>403.0</ele><time>2013-05-11T08:33:09Z</time></trkpt>
<trkpt lat="33.01314" lon="35.22818"><ele>403.0</ele><time>2013-05-11T08:33:14Z</time></trkpt>
<trkpt lat="33.01307" lon="35.22824"><ele>404.0</ele><time>2013-05-11T08:33:20Z</time></trkpt>
<trkpt lat="33.01272" lon="35.22837"><ele>404.0</ele><time>2013-05-11T08:34:27Z</time></trkpt>
<trkpt lat="33.01263" lon="35.22831"><ele>405.0</ele><time>2013-05-11T08:34:34Z</time></trkpt>
<trkpt lat="33.01256" lon="35.22827"><ele>405.0</ele><time>2013-05-11T08:34:39Z</time></trkpt>
<trkpt lat="33.01248" lon="35.22821"><ele>406.0</ele><time>2013-05-11T08:34:45Z</time></trkpt>
<trkpt lat="33.01239" lon="35.22819"><ele>407.0</ele><time>2013-05-11T08:34:51Z</time></trkpt>
<trkpt lat="33.0123" lon="35.22817"><ele>408.0</ele><time>2013-05-11T08:34:57Z</time></trkpt>
<trkpt lat="33.01221" lon="35.22816"><ele>409.0</ele><time>2013-05-11T08:35:03Z</time></trkpt>
<trkpt lat="33.01212" lon="35.22815"><ele>409.0</ele><time>2013-05-11T08:35:09Z</time></trkpt>
<trkpt lat="33.01203" lon="35.22815"><ele>410.0</ele><time>2013-05-11T08:35:14Z</time></trkpt>
<trkpt lat="33.01194" lon="35.22813"><ele>410.0</ele><time>2013-05-11T08:35:20Z</time></trkpt>
<trkpt lat="33.01186" lon="35.22812"><ele>411.0</ele><time>2013-05-11T08:35:25Z</time></trkpt>
<trkpt lat="33.01177" lon="35.22812"><ele>411.0</ele><time>2013-05-11T08:35:31Z</time></trkpt>
<trkpt lat="33.01168" lon="35.22813"><ele>412.0</ele><time>2013-05-11T08:35:37Z</time></trkpt>
<trkpt lat="33.01159" lon="35.22812"><ele>413.0</ele><time>2013-05-11T08:35:42Z</time></trkpt>
<trkpt lat="33.01151" lon="35.22812"><ele>414.0</ele><time>2013-05-11T08:35:47Z</time></trkpt>
<trkpt lat="33.01143" lon="35.22813"><ele>414.0</ele><time>2013-05-11T08:35:52Z</time></trkpt>
<trkpt lat="33.01134" lon="35.22814"><ele>414.0</ele><time>2013-05-11T08:35:58Z</time></trkpt>
<trkpt lat="33.01125" lon="35.22813"><ele>415.0</ele><time>2013-05-11T08:36:04Z</time></trkpt>
<trkpt lat="33.01116" lon="35.22814"><ele>415.0</ele><time>2013-05-11T08:36:09Z</time></trkpt>
<trkpt lat="33.01108" lon="35.22813"><ele>415.0</ele><time>2013-05-11T08:36:14Z</time></trkpt>
<trkpt lat="33.01099" lon="35.22814"><ele>416.0</ele><time>2013-05-11T08:36:18Z</time></trkpt>
<trkpt lat="33.0109" lon="35.22815"><ele>416.0</ele><time>2013-05-11T08:36:23Z</time></trkpt>
<trkpt lat="33.01081" lon="35.22814"><ele>417.0</ele><time>2013-05-11T08:36:27Z</time></trkpt>
<trkpt lat="33.01072" lon="35.22814"><ele>417.0</ele><time>2013-05-11T08:36:33Z</time></trkpt>
<trkpt lat="33.01063" lon="35.22814"><ele>417.0</ele><time>2013-05-11T08:36:38Z</time></trkpt>
<trkpt lat="33.01054" lon="35.22814"><ele>417.0</ele><time>2013-05-11T08:36:43Z</time></trkpt>
<trkpt lat="33.01044" lon="35.22812"><ele>417.0</ele><time>2013-05-11T08:36:48Z</time></trkpt>
<trkpt lat="33.01034" lon="35.22807"><ele>416.0</ele><time>2013-05-11T08:36:52Z</time></trkpt>
<trkpt lat="33.01025" lon="35.22803"><ele>415.0</ele><time>2013-05-11T08:36:55Z</time></trkpt>
<trkpt lat="33.01016" lon="35.22799"><ele>414.0</ele><time>2013-05-11T08:36:58Z</time></trkpt>
<trkpt lat="33.01008" lon="35.22796"><ele>413.0</ele><time>2013-05-11T08:37:03Z</time></trkpt>
<trkpt lat="33.00999" lon="35.22795"><ele>413.0</ele><time>2013-05-11T08:37:09Z</time></trkpt>
<trkpt lat="33.00992" lon="35.2279"><ele>413.0</ele><time>2013-05-11T08:37:14Z</time></trkpt>
<trkpt lat="33.00984" lon="35.22781"><ele>412.0</ele><time>2013-05-11T08:37:16Z</time></trkpt>
<trkpt lat="33.00977" lon="35.22774"><ele>412.0</ele><time>2013-05-11T08:37:18Z</time></trkpt>
<trkpt lat="33.0097" lon="35.22767"><ele>411.0</ele><time>2013-05-11T08:37:20Z</time></trkpt>
<trkpt lat="33.00963" lon="35.22759"><ele>411.0</ele><time>2013-05-11T08:37:22Z</time></trkpt>
<trkpt lat="33.00957" lon="35.22751"><ele>410.0</ele><time>2013-05-11T08:37:24Z</time></trkpt>
<trkpt lat="33.00951" lon="35.22743"><ele>410.0</ele><time>2013-05-11T08:37:26Z</time></trkpt>
<trkpt lat="33.00945" lon="35.22735"><ele>410.0</ele><time>2013-05-11T08:37:28Z</time></trkpt>
<trkpt lat="33.00939" lon="35.22726"><ele>410.0</ele><time>2013-05-11T08:37:30Z</time></trkpt>
<trkpt lat="33.00934" lon="35.22717"><ele>410.0</ele><time>2013-05-11T08:37:32Z</time></trkpt>
<trkpt lat="33.0093" lon="35.22708"><ele>410.0</ele><time>2013-05-11T08:37:34Z</time></trkpt>
<trkpt lat="33.00926" lon="35.22699"><ele>409.0</ele><time>2013-05-11T08:37:36Z</time></trkpt>
<trkpt lat="33.00921" lon="35.22687"><ele>409.0</ele><time>2013-05-11T08:37:39Z</time></trkpt>
<trkpt lat="33.00917" lon="35.22677"><ele>408.0</ele><time>2013-05-11T08:37:42Z</time></trkpt>
<trkpt lat="33.00913" lon="35.22667"><ele>407.0</ele><time>2013-05-11T08:37:45Z</time></trkpt>
<trkpt lat="33.0091" lon="35.22657"><ele>406.0</ele><time>2013-05-11T08:37:48Z</time></trkpt>
<trkpt lat="33.00908" lon="35.22645"><ele>405.0</ele><time>2013-05-11T08:37:51Z</time></trkpt>
<trkpt lat="33.00906" lon="35.22631"><ele>404.0</ele><time>2013-05-11T08:37:54Z</time></trkpt>
<trkpt lat="33.00904" lon="35.2262"><ele>404.0</ele><time>2013-05-11T08:37:56Z</time></trkpt>
<trkpt lat="33.00901" lon="35.2261"><ele>404.0</ele><time>2013-05-11T08:37:58Z</time></trkpt>
<trkpt lat="33.00896" lon="35.226"><ele>404.0</ele><time>2013-05-11T08:38:01Z</time></trkpt>
<trkpt lat="33.0089" lon="35.22592"><ele>404.0</ele><time>2013-05-11T08:38:03Z</time></trkpt>
<trkpt lat="33.00883" lon="35.22586"><ele>404.0</ele><time>2013-05-11T08:38:05Z</time></trkpt>
<trkpt lat="33.00872" lon="35.2258"><ele>403.0</ele><time>2013-05-11T08:38:08Z</time></trkpt>
<trkpt lat="33.00862" lon="35.22574"><ele>403.0</ele><time>2013-05-11T08:38:11Z</time></trkpt>
<trkpt lat="33.00852" lon="35.2257"><ele>403.0</ele><time>2013-05-11T08:38:14Z</time></trkpt>
<trkpt lat="33.00844" lon="35.22565"><ele>403.0</ele><time>2013-05-11T08:38:16Z</time></trkpt>
<trkpt lat="33.0084" lon="35.22555"><ele>403.0</ele><time>2013-05-11T08:38:20Z</time></trkpt>
<trkpt lat="33.00841" lon="35.22542"><ele>403.0</ele><time>2013-05-11T08:38:23Z</time></trkpt>
<trkpt lat="33.00842" lon="35.22532"><ele>403.0</ele><time>2013-05-11T08:38:25Z</time></trkpt>
<trkpt lat="33.00844" lon="35.22519"><ele>402.0</ele><time>2013-05-11T08:38:28Z</time></trkpt>
<trkpt lat="33.00842" lon="35.22505"><ele>401.0</ele><time>2013-05-11T08:38:31Z</time></trkpt>
<trkpt lat="33.0084" lon="35.22494"><ele>399.0</ele><time>2013-05-11T08:38:34Z</time></trkpt>
<trkpt lat="33.0084" lon="35.22483"><ele>398.0</ele><time>2013-05-11T08:38:37Z</time></trkpt>
<trkpt lat="33.00843" lon="35.22471"><ele>398.0</ele><time>2013-05-11T08:38:40Z</time></trkpt>
<trkpt lat="33.00847" lon="35.22458"><ele>397.0</ele><time>2013-05-11T08:38:43Z</time></trkpt>
<trkpt lat="33.0085" lon="35.22446"><ele>397.0</ele><time>2013-05-11T08:38:46Z</time></trkpt>
<trkpt lat="33.00852" lon="35.22433"><ele>396.0</ele><time>2013-05-11T08:38:49Z</time></trkpt>
<trkpt lat="33.00854" lon="35.2242"><ele>395.0</ele><time>2013-05-11T08:38:52Z</time></trkpt>
<trkpt lat="33.00855" lon="35.22407"><ele>394.0</ele><time>2013-05-11T08:38:55Z</time></trkpt>
<trkpt lat="33.00858" lon="35.22395"><ele>393.0</ele><time>2013-05-11T08:38:58Z</time></trkpt>
<trkpt lat="33.00858" lon="35.22383"><ele>393.0</ele><time>2013-05-11T08:39:02Z</time></trkpt>
<trkpt lat="33.00859" lon="35.2237"><ele>392.0</ele><time>2013-05-11T08:39:05Z</time></trkpt>
<trkpt lat="33.0086" lon="35.22355"><ele>391.0</ele><time>2013-05-11T08:39:08Z</time></trkpt>
<trkpt lat="33.00861" lon="35.22343"><ele>391.0</ele><time>2013-05-11T08:39:11Z</time></trkpt>
<trkpt lat="33.00861" lon="35.22331"><ele>390.0</ele><time>2013-05-11T08:39:14Z</time></trkpt>
<trkpt lat="33.00861" lon="35.22319"><ele>389.0</ele><time>2013-05-11T08:39:16Z</time></trkpt>
<trkpt lat="33.00863" lon="35.22308"><ele>388.0</ele><time>2013-05-11T08:39:19Z</time></trkpt>
<trkpt lat="33.00863" lon="35.22297"><ele>387.0</ele><time>2013-05-11T08:39:22Z</time></trkpt>
<trkpt lat="33.00864" lon="35.22286"><ele>387.0</ele><time>2013-05-11T08:39:25Z</time></trkpt>
<trkpt lat="33.00865" lon="35.22274"><ele>386.0</ele><time>2013-05-11T08:39:28Z</time></trkpt>
<trkpt lat="33.00867" lon="35.2226"><ele>385.0</ele><time>2013-05-11T08:39:31Z</time></trkpt>
<trkpt lat="33.00868" lon="35.2225"><ele>383.0</ele><time>2013-05-11T08:39:33Z</time></trkpt>
<trkpt lat="33.00869" lon="35.22236"><ele>382.0</ele><time>2013-05-11T08:39:36Z</time></trkpt>
<trkpt lat="33.0087" lon="35.22224"><ele>381.0</ele><time>2013-05-11T08:39:39Z</time></trkpt>
<trkpt lat="33.00872" lon="35.22212"><ele>380.0</ele><time>2013-05-11T08:39:42Z</time></trkpt>
<trkpt lat="33.00873" lon="35.222"><ele>379.0</ele><time>2013-05-11T08:39:45Z</time></trkpt>
<trkpt lat="33.00874" lon="35.2219"><ele>377.0</ele><time>2013-05-11T08:39:47Z</time></trkpt>
<trkpt lat="33.00875" lon="35.2218"><ele>376.0</ele><time>2013-05-11T08:39:49Z</time></trkpt>
<trkpt lat="33.00876" lon="35.22166"><ele>375.0</ele><time>2013-05-11T08:39:52Z</time></trkpt>
<trkpt lat="33.00877" lon="35.22153"><ele>374.0</ele><time>2013-05-11T08:39:55Z</time></trkpt>
<trkpt lat="33.00878" lon="35.22141"><ele>373.0</ele><time>2013-05-11T08:39:58Z</time></trkpt>
<trkpt lat="33.00878" lon="35.22131"><ele>373.0</ele><time>2013-05-11T08:40:02Z</time></trkpt>
<trkpt lat="33.00878" lon="35.22121"><ele>372.0</ele><time>2013-05-11T08:40:06Z</time></trkpt>
<trkpt lat="33.00871" lon="35.22115"><ele>372.0</ele><time>2013-05-11T08:40:12Z</time></trkpt>
<trkpt lat="33.00862" lon="35.2211"><ele>372.0</ele><time>2013-05-11T08:40:16Z</time></trkpt>
<trkpt lat="33.00856" lon="35.22102"><ele>372.0</ele><time>2013-05-11T08:40:20Z</time></trkpt>
<trkpt lat="33.00851" lon="35.22095"><ele>372.0</ele><time>2013-05-11T08:40:23Z</time></trkpt>
<trkpt lat="33.00842" lon="35.22091"><ele>373.0</ele><time>2013-05-11T08:40:28Z</time></trkpt>
<trkpt lat="33.00832" lon="35.22091"><ele>374.0</ele><time>2013-05-11T08:40:33Z</time></trkpt>
<trkpt lat="33.00823" lon="35.22092"><ele>374.0</ele><time>2013-05-11T08:40:38Z</time></trkpt>
<trkpt lat="33.00814" lon="35.22092"><ele>374.0</ele><time>2013-05-11T08:40:43Z</time></trkpt>
<trkpt lat="33.00806" lon="35.22094"><ele>375.0</ele><time>2013-05-11T08:40:48Z</time></trkpt>
<trkpt lat="33.00796" lon="35.22094"><ele>375.0</ele><time>2013-05-11T08:40:53Z</time></trkpt>
<trkpt lat="33.00787" lon="35.22094"><ele>375.0</ele><time>2013-05-11T08:41:00Z</time></trkpt>
<trkpt lat="33.00779" lon="35.22097"><ele>375.0</ele><time>2013-05-11T08:41:05Z</time></trkpt>
<trkpt lat="33.00769" lon="35.22098"><ele>376.0</ele><time>2013-05-11T08:41:10Z</time></trkpt>
<trkpt lat="33.00759" lon="35.22098"><ele>376.0</ele><time>2013-05-11T08:41:14Z</time></trkpt>
<trkpt lat="33.00749" lon="35.221"><ele>376.0</ele><time>2013-05-11T08:41:19Z</time></trkpt>
<trkpt lat="33.00741" lon="35.221"><ele>377.0</ele><time>2013-05-11T08:41:23Z</time></trkpt>
<trkpt lat="33.00732" lon="35.221"><ele>377.0</ele><time>2013-05-11T08:41:27Z</time></trkpt>
<trkpt lat="33.00722" lon="35.22099"><ele>377.0</ele><time>2013-05-11T08:41:32Z</time></trkpt>
<trkpt lat="33.00713" lon="35.22098"><ele>377.0</ele><time>2013-05-11T08:41:37Z</time></trkpt>
<trkpt lat="33.00703" lon="35.22098"><ele>377.0</ele><time>2013-05-11T08:41:42Z</time></trkpt>
<trkpt lat="33.00693" lon="35.22096"><ele>377.0</ele><time>2013-05-11T08:41:47Z</time></trkpt>
<trkpt lat="33.00683" lon="35.22095"><ele>377.0</ele><time>2013-05-11T08:41:52Z</time></trkpt>
<trkpt lat="33.00675" lon="35.22093"><ele>376.0</ele><time>2013-05-11T08:41:56Z</time></trkpt>
<trkpt lat="33.00665" lon="35.22092"><ele>376.0</ele><time>2013-05-11T08:42:01Z</time></trkpt>
<trkpt lat="33.00656" lon="35.22091"><ele>376.0</ele><time>2013-05-11T08:42:05Z</time></trkpt>
<trkpt lat="33.00646" lon="35.2209"><ele>375.0</ele><time>2013-05-11T08:42:10Z</time></trkpt>
<trkpt lat="33.00636" lon="35.2209"><ele>375.0</ele><time>2013-05-11T08:42:14Z</time></trkpt>
<trkpt lat="33.00628" lon="35.22089"><ele>375.0</ele><time>2013-05-11T08:42:19Z</time></trkpt>
<trkpt lat="33.00628" lon="35.22069"><ele>375.0</ele><time>2013-05-11T08:43:03Z</time></trkpt>
<trkpt lat="33.00631" lon="35.2206"><ele>374.0</ele><time>2013-05-11T08:43:09Z</time></trkpt>
<trkpt lat="33.00634" lon="35.22048"><ele>374.0</ele><time>2013-05-11T08:43:15Z</time></trkpt>
<trkpt lat="33.00635" lon="35.22037"><ele>373.0</ele><time>2013-05-11T08:43:20Z</time></trkpt>
<trkpt lat="33.00634" lon="35.22026"><ele>373.0</ele><time>2013-05-11T08:43:24Z</time></trkpt>
<trkpt lat="33.0063" lon="35.22016"><ele>373.0</ele><time>2013-05-11T08:43:28Z</time></trkpt>
<trkpt lat="33.00627" lon="35.22007"><ele>372.0</ele><time>2013-05-11T08:43:33Z</time></trkpt>
<trkpt lat="33.00624" lon="35.21997"><ele>372.0</ele><time>2013-05-11T08:43:38Z</time></trkpt>
<trkpt lat="33.00622" lon="35.21987"><ele>371.0</ele><time>2013-05-11T08:43:42Z</time></trkpt>
<trkpt lat="33.00622" lon="35.21976"><ele>371.0</ele><time>2013-05-11T08:43:48Z</time></trkpt>
<trkpt lat="33.00626" lon="35.21968"><ele>371.0</ele><time>2013-05-11T08:43:54Z</time></trkpt>
<trkpt lat="33.00633" lon="35.2196"><ele>370.0</ele><time>2013-05-11T08:44:01Z</time></trkpt>
<trkpt lat="33.0064" lon="35.21952"><ele>370.0</ele><time>2013-05-11T08:44:06Z</time></trkpt>
<trkpt lat="33.00649" lon="35.21946"><ele>370.0</ele><time>2013-05-11T08:44:10Z</time></trkpt>
<trkpt lat="33.00658" lon="35.21943"><ele>370.0</ele><time>2013-05-11T08:44:14Z</time></trkpt>
<trkpt lat="33.00668" lon="35.21939"><ele>369.0</ele><time>2013-05-11T08:44:17Z</time></trkpt>
<trkpt lat="33.00677" lon="35.21934"><ele>369.0</ele><time>2013-05-11T08:44:21Z</time></trkpt>
<trkpt lat="33.00685" lon="35.2193"><ele>369.0</ele><time>2013-05-11T08:44:24Z</time></trkpt>
<trkpt lat="33.00694" lon="35.21927"><ele>369.0</ele><time>2013-05-11T08:44:28Z</time></trkpt>
<trkpt lat="33.00703" lon="35.21926"><ele>369.0</ele><time>2013-05-11T08:44:33Z</time></trkpt>
<trkpt lat="33.00713" lon="35.21925"><ele>368.0</ele><time>2013-05-11T08:44:38Z</time></trkpt>
<trkpt lat="33.00722" lon="35.21927"><ele>368.0</ele><time>2013-05-11T08:44:43Z</time></trkpt>
<trkpt lat="33.00732" lon="35.2193"><ele>368.0</ele><time>2013-05-11T08:44:49Z</time></trkpt>
<trkpt lat="33.00742" lon="35.21929"><ele>368.0</ele><time>2013-05-11T08:44:54Z</time></trkpt>
<trkpt lat="33.00749" lon="35.21923"><ele>368.0</ele><time>2013-05-11T08:44:57Z</time></trkpt>
<trkpt lat="33.00756" lon="35.21917"><ele>368.0</ele><time>2013-05-11T08:45:01Z</time></trkpt>
<trkpt lat="33.00763" lon="35.21909"><ele>368.0</ele><time>2013-05-11T08:45:06Z</time></trkpt>
<trkpt lat="33.00742" lon="35.21899"><ele>368.0</ele><time>2013-05-11T08:48:01Z</time></trkpt>
<trkpt lat="33.00734" lon="35.21896"><ele>368.0</ele><time>2013-05-11T08:48:06Z</time></trkpt>
<trkpt lat="33.00724" lon="35.21895"><ele>368.0</ele><time>2013-05-11T08:48:11Z</time></trkpt>
<trkpt lat="33.00715" lon="35.21895"><ele>368.0</ele><time>2013-05-11T08:48:25Z</time></trkpt>
<trkpt lat="33.00706" lon="35.21894"><ele>369.0</ele><time>2013-05-11T08:48:30Z</time></trkpt>
<trkpt lat="33.00696" lon="35.21893"><ele>369.0</ele><time>2013-05-11T08:48:36Z</time></trkpt>
<trkpt lat="33.00687" lon="35.2189"><ele>369.0</ele><time>2013-05-11T08:48:40Z</time></trkpt>
<trkpt lat="33.00679" lon="35.2189"><ele>369.0</ele><time>2013-05-11T08:48:44Z</time></trkpt>
<trkpt lat="33.0067" lon="35.2189"><ele>369.0</ele><time>2013-05-11T08:48:48Z</time></trkpt>
<trkpt lat="33.00661" lon="35.21889"><ele>370.0</ele><time>2013-05-11T08:48:52Z</time></trkpt>
<trkpt lat="33.00652" lon="35.21889"><ele>370.0</ele><time>2013-05-11T08:48:56Z</time></trkpt>
<trkpt lat="33.00643" lon="35.21887"><ele>370.0</ele><time>2013-05-11T08:49:01Z</time></trkpt>
<trkpt lat="33.00634" lon="35.21885"><ele>370.0</ele><time>2013-05-11T08:49:05Z</time></trkpt>
<trkpt lat="33.00625" lon="35.21884"><ele>370.0</ele><time>2013-05-11T08:49:09Z</time></trkpt>
<trkpt lat="33.00615" lon="35.21883"><ele>370.0</ele><time>2013-05-11T08:49:13Z</time></trkpt>
<trkpt lat="33.00606" lon="35.21881"><ele>369.0</ele><time>2013-05-11T08:49:17Z</time></trkpt>
<trkpt lat="33.00597" lon="35.21879"><ele>369.0</ele><time>2013-05-11T08:49:21Z</time></trkpt>
<trkpt lat="33.00586" lon="35.21877"><ele>369.0</ele><time>2013-05-11T08:49:25Z</time></trkpt>
<trkpt lat="33.00576" lon="35.21873"><ele>369.0</ele><time>2013-05-11T08:49:28Z</time></trkpt>
<trkpt lat="33.00569" lon="35.21869"><ele>368.0</ele><time>2013-05-11T08:49:30Z</time></trkpt>
<trkpt lat="33.00561" lon="35.21865"><ele>368.0</ele><time>2013-05-11T08:49:32Z</time></trkpt>
<trkpt lat="33.00553" lon="35.21862"><ele>367.0</ele><time>2013-05-11T08:49:34Z</time></trkpt>
<trkpt lat="33.00544" lon="35.21859"><ele>367.0</ele><time>2013-05-11T08:49:36Z</time></trkpt>
<trkpt lat="33.00536" lon="35.21855"><ele>366.0</ele><time>2013-05-11T08:49:38Z</time></trkpt>
<trkpt lat="33.00528" lon="35.21851"><ele>366.0</ele><time>2013-05-11T08:49:40Z</time></trkpt>
<trkpt lat="33.00518" lon="35.21845"><ele>366.0</ele><time>2013-05-11T08:49:43Z</time></trkpt>
<trkpt lat="33.00508" lon="35.21841"><ele>366.0</ele><time>2013-05-11T08:49:46Z</time></trkpt>
<trkpt lat="33.00501" lon="35.21835"><ele>365.0</ele><time>2013-05-11T08:49:49Z</time></trkpt>
<trkpt lat="33.005" lon="35.21824"><ele>365.0</ele><time>2013-05-11T08:49:52Z</time></trkpt>
<trkpt lat="33.00506" lon="35.21815"><ele>364.0</ele><time>2013-05-11T08:49:56Z</time></trkpt>
<trkpt lat="33.0051" lon="35.21806"><ele>364.0</ele><time>2013-05-11T08:50:02Z</time></trkpt>
<trkpt lat="33.00515" lon="35.21795"><ele>363.0</ele><time>2013-05-11T08:50:05Z</time></trkpt>
<trkpt lat="33.0052" lon="35.21784"><ele>363.0</ele><time>2013-05-11T08:50:08Z</time></trkpt>
<trkpt lat="33.00525" lon="35.21775"><ele>362.0</ele><time>2013-05-11T08:50:11Z</time></trkpt>
<trkpt lat="33.00527" lon="35.21764"><ele>362.0</ele><time>2013-05-11T08:50:14Z</time></trkpt>
<trkpt lat="33.00531" lon="35.21754"><ele>361.0</ele><time>2013-05-11T08:50:18Z</time></trkpt>
<trkpt lat="33.00536" lon="35.21743"><ele>360.0</ele><time>2013-05-11T08:50:22Z</time></trkpt>
<trkpt lat="33.00538" lon="35.21731"><ele>359.0</ele><time>2013-05-11T08:50:25Z</time></trkpt>
<trkpt lat="33.0054" lon="35.21719"><ele>359.0</ele><time>2013-05-11T08:50:28Z</time></trkpt>
<trkpt lat="33.0054" lon="35.21708"><ele>359.0</ele><time>2013-05-11T08:50:31Z</time></trkpt>
<trkpt lat="33.00543" lon="35.21696"><ele>359.0</ele><time>2013-05-11T08:50:34Z</time></trkpt>
<trkpt lat="33.00544" lon="35.21686"><ele>358.0</ele><time>2013-05-11T08:50:36Z</time></trkpt>
<trkpt lat="33.00544" lon="35.21675"><ele>357.0</ele><time>2013-05-11T08:50:38Z</time></trkpt>
<trkpt lat="33.00544" lon="35.21662"><ele>356.0</ele><time>2013-05-11T08:50:41Z</time></trkpt>
<trkpt lat="33.00544" lon="35.21649"><ele>356.0</ele><time>2013-05-11T08:50:44Z</time></trkpt>
<trkpt lat="33.00544" lon="35.21639"><ele>355.0</ele><time>2013-05-11T08:50:46Z</time></trkpt>
<trkpt lat="33.00543" lon="35.21628"><ele>355.0</ele><time>2013-05-11T08:50:48Z</time></trkpt>
<trkpt lat="33.00542" lon="35.21618"><ele>354.0</ele><time>2013-05-11T08:50:50Z</time></trkpt>
<trkpt lat="33.0054" lon="35.21607"><ele>354.0</ele><time>2013-05-11T08:50:52Z</time></trkpt>
<trkpt lat="33.0054" lon="35.21596"><ele>353.0</ele><time>2013-05-11T08:50:54Z</time></trkpt>
<trkpt lat="33.0054" lon="35.21585"><ele>352.0</ele><time>2013-05-11T08:50:56Z</time></trkpt>
<trkpt lat="33.00542" lon="35.21573"><ele>352.0</ele><time>2013-05-11T08:51:00Z</time></trkpt>
<trkpt lat="33.00544" lon="35.21563"><ele>352.0</ele><time>2013-05-11T08:51:03Z</time></trkpt>
<trkpt lat="33.00547" lon="35.21553"><ele>352.0</ele><time>2013-05-11T08:51:06Z</time></trkpt>
<trkpt lat="33.00541" lon="35.21544"><ele>352.0</ele><time>2013-05-11T08:51:11Z</time></trkpt>
<trkpt lat="33.00531" lon="35.21546"><ele>352.0</ele><time>2013-05-11T08:51:14Z</time></trkpt>
<trkpt lat="33.00523" lon="35.21552"><ele>352.0</ele><time>2013-05-11T08:51:16Z</time></trkpt>
<trkpt lat="33.00516" lon="35.21559"><ele>352.0</ele><time>2013-05-11T08:51:20Z</time></trkpt>
<trkpt lat="33.00507" lon="35.21555"><ele>352.0</ele><time>2013-05-11T08:51:24Z</time></trkpt>
<trkpt lat="33.00502" lon="35.21547"><ele>351.0</ele><time>2013-05-11T08:51:30Z</time></trkpt>
</trkseg></trk></gpx>