<?xml version="1.0" encoding="UTF-8" standalone="no" ?>
<gpx xmlns="http://www.topografix.com/GPX/1/1" xmlns:gpxtpx="http://www.garmin.com/xmlschemas/TrackPointExtension/v1" creator="OruxMaps v.6.0.9" version="1.1" xmlns:xsi="http://www.w3.org/2001/XMLSchema-instance" xsi:schemaLocation="http://www.topografix.com/GPX/1/1 http://www.topografix.com/GPX/1/1/gpx.xsd">
<metadata>
<name><![CDATA[2015-07-06 06:35]]></name>
<desc><![CDATA[]]></desc>
<link href="http://www.oruxmaps.com">
<text>OruxMaps</text>
</link>
<time>2015-07-06T03:35:11Z</time><bounds maxlat="33.0188056" maxlon="35.2266173" minlat="33.0031393" minlon="35.1913126"/>
</metadata>
<trk>
<name><![CDATA[2015-07-06 06:35]]></name>
<desc><![CDATA[<h1>OruxMaps</h1><br /><hr align="center" width="480" style="height: 2px; width: 517px"/><h2>Name: 2015-07-06 06:35</h2><br /><p>Start time: 07/06/2015 06:36</p><p>Finish time: 07/06/2015 07:50</p><p>Distance: 14km (01:14)</p><p>Moving time: 01:11</p><p>Average speed: 11.3km/h</p><p>Avg. Speed Mov.: 11.9km/h</p><p>Max. Speed: 47.1km/h</p><p>Minimum altitude: 287m</p><p>Maximum altitude: 460m</p><p>Ascent speed: 392.8m/h</p><p>Descent speed: -895.5m/h</p><p>Elevation gain: 292m</p><p>Elevation loss: -294m</p><p>Ascent time: 00:44</p><p>Descent time: 00:19</p><hr align="center" width="480" style="height: 2px; width: 517px"/>]]></desc>
<type>Mountain biking</type>
<extensions>
<om:oruxmapsextensions xmlns:om="http://www.oruxmaps.com/oruxmapsextensions/1/0">
<om:ext type="TYPE" subtype="0">6</om:ext>
</om:oruxmapsextensions>
</extensions>
<trkseg>
<trkpt lat="33.0058877" lon="35.2150471">
<ele>421.62</ele>
<time>2015-07-06T03:36:01Z</time>
</trkpt>
<trkpt lat="33.0060016" lon="35.2148809">
<ele>420.92</ele>
<time>2015-07-06T03:36:09Z</time>
</trkpt>
<trkpt lat="33.0057688" lon="35.2144459">
<ele>419.22</ele>
<time>2015-07-06T03:36:17Z</time>
</trkpt>
<trkpt lat="33.0056036" lon="35.2142178">
<ele>418.06</ele>
<time>2015-07-06T03:36:21Z</time>
</trkpt>
<trkpt lat="33.0054758" lon="35.2139326">
<ele>416.50</ele>
<time>2015-07-06T03:36:25Z</time>
</trkpt>
<trkpt lat="33.0055178" lon="35.2135576">
<ele>414.73</ele>
<time>2015-07-06T03:36:29Z</time>
</trkpt>
<trkpt lat="33.0057353" lon="35.2132296">
<ele>413.24</ele>
<time>2015-07-06T03:36:33Z</time>
</trkpt>
<trkpt lat="33.0059658" lon="35.2128881">
<ele>412.07</ele>
<time>2015-07-06T03:36:37Z</time>
</trkpt>
<trkpt lat="33.0061732" lon="35.2126148">
<ele>410.93</ele>
<time>2015-07-06T03:36:41Z</time>
</trkpt>
<trkpt lat="33.0063516" lon="35.2123314">
<ele>409.76</ele>
<time>2015-07-06T03:36:45Z</time>
</trkpt>
<trkpt lat="33.0064303" lon="35.2119502">
<ele>408.14</ele>
<time>2015-07-06T03:36:49Z</time>
</trkpt>
<trkpt lat="33.0065064" lon="35.2115365">
<ele>406.14</ele>
<time>2015-07-06T03:36:53Z</time>
</trkpt>
<trkpt lat="33.0065623" lon="35.2110741">
<ele>403.97</ele>
<time>2015-07-06T03:36:57Z</time>
</trkpt>
<trkpt lat="33.0065654" lon="35.2106019">
<ele>401.78</ele>
<time>2015-07-06T03:37:01Z</time>
</trkpt>
<trkpt lat="33.0065574" lon="35.2101213">
<ele>399.74</ele>
<time>2015-07-06T03:37:05Z</time>
</trkpt>
<trkpt lat="33.0065388" lon="35.2096554">
<ele>397.87</ele>
<time>2015-07-06T03:37:09Z</time>
</trkpt>
<trkpt lat="33.0065506" lon="35.2092784">
<ele>395.99</ele>
<time>2015-07-06T03:37:13Z</time>
</trkpt>
<trkpt lat="33.0065658" lon="35.2089491">
<ele>394.02</ele>
<time>2015-07-06T03:37:17Z</time>
</trkpt>
<trkpt lat="33.0066384" lon="35.2087232">
<ele>392.18</ele>
<time>2015-07-06T03:37:21Z</time>
</trkpt>
<trkpt lat="33.0065472" lon="35.2084653">
<ele>390.70</ele>
<time>2015-07-06T03:37:25Z</time>
</trkpt>
<trkpt lat="33.0064792" lon="35.2081422">
<ele>389.37</ele>
<time>2015-07-06T03:37:29Z</time>
</trkpt>
<trkpt lat="33.0064346" lon="35.2077496">
<ele>387.63</ele>
<time>2015-07-06T03:37:33Z</time>
</trkpt>
<trkpt lat="33.0063575" lon="35.2072986">
<ele>385.48</ele>
<time>2015-07-06T03:37:37Z</time>
</trkpt>
<trkpt lat="33.0063229" lon="35.2068225">
<ele>383.07</ele>
<time>2015-07-06T03:37:41Z</time>
</trkpt>
<trkpt lat="33.0062770" lon="35.2063046">
<ele>380.46</ele>
<time>2015-07-06T03:37:45Z</time>
</trkpt>
<trkpt lat="33.0063342" lon="35.2057783">
<ele>377.83</ele>
<time>2015-07-06T03:37:49Z</time>
</trkpt>
<trkpt lat="33.0062963" lon="35.2052342">
<ele>375.41</ele>
<time>2015-07-06T03:37:53Z</time>
</trkpt>
<trkpt lat="33.0063410" lon="35.2047138">
<ele>373.04</ele>
<time>2015-07-06T03:37:57Z</time>
</trkpt>
<trkpt lat="33.0064021" lon="35.2041984">
<ele>370.53</ele>
<time>2015-07-06T03:38:01Z</time>
</trkpt>
<trkpt lat="33.0064599" lon="35.2036846">
<ele>368.00</ele>
<time>2015-07-06T03:38:05Z</time>
</trkpt>
<trkpt lat="33.0065464" lon="35.2031582">
<ele>365.41</ele>
<time>2015-07-06T03:38:09Z</time>
</trkpt>
<trkpt lat="33.0066552" lon="35.2026154">
<ele>362.66</ele>
<time>2015-07-06T03:38:13Z</time>
</trkpt>
<trkpt lat="33.0069323" lon="35.2021485">
<ele>360.18</ele>
<time>2015-07-06T03:38:17Z</time>
</trkpt>
<trkpt lat="33.0072177" lon="35.2017760">
<ele>358.30</ele>
<time>2015-07-06T03:38:21Z</time>
</trkpt>
<trkpt lat="33.0075112" lon="35.2014706">
<ele>357.02</ele>
<time>2015-07-06T03:38:25Z</time>
</trkpt>
<trkpt lat="33.0077804" lon="35.2012016">
<ele>356.12</ele>
<time>2015-07-06T03:38:29Z</time>
</trkpt>
<trkpt lat="33.0080308" lon="35.2009223">
<ele>355.41</ele>
<time>2015-07-06T03:38:33Z</time>
</trkpt>
<trkpt lat="33.0082908" lon="35.2006507">
<ele>354.93</ele>
<time>2015-07-06T03:38:37Z</time>
</trkpt>
<trkpt lat="33.0085443" lon="35.2003947">
<ele>354.27</ele>
<time>2015-07-06T03:38:41Z</time>
</trkpt>
<trkpt lat="33.0087899" lon="35.2001455">
<ele>353.76</ele>
<time>2015-07-06T03:38:45Z</time>
</trkpt>
<trkpt lat="33.0090240" lon="35.1998777">
<ele>352.83</ele>
<time>2015-07-06T03:38:49Z</time>
</trkpt>
<trkpt lat="33.0092466" lon="35.1995923">
<ele>351.81</ele>
<time>2015-07-06T03:38:53Z</time>
</trkpt>
<trkpt lat="33.0093929" lon="35.1992033">
<ele>350.66</ele>
<time>2015-07-06T03:38:57Z</time>
</trkpt>
<trkpt lat="33.0094814" lon="35.1987903">
<ele>349.10</ele>
<time>2015-07-06T03:39:01Z</time>
</trkpt>
<trkpt lat="33.0096094" lon="35.1983610">
<ele>347.22</ele>
<time>2015-07-06T03:39:05Z</time>
</trkpt>
<trkpt lat="33.0096547" lon="35.1979050">
<ele>344.91</ele>
<time>2015-07-06T03:39:09Z</time>
</trkpt>
<trkpt lat="33.0096825" lon="35.1974564">
<ele>342.40</ele>
<time>2015-07-06T03:39:13Z</time>
</trkpt>
<trkpt lat="33.0096654" lon="35.1970015">
<ele>340.03</ele>
<time>2015-07-06T03:39:17Z</time>
</trkpt>
<trkpt lat="33.0095723" lon="35.1965540">
<ele>337.78</ele>
<time>2015-07-06T03:39:21Z</time>
</trkpt>
<trkpt lat="33.0094273" lon="35.1960936">
<ele>335.38</ele>
<time>2015-07-06T03:39:25Z</time>
</trkpt>
<trkpt lat="33.0092644" lon="35.1956347">
<ele>333.03</ele>
<time>2015-07-06T03:39:29Z</time>
</trkpt>
<trkpt lat="33.0090675" lon="35.1951662">
<ele>330.58</ele>
<time>2015-07-06T03:39:33Z</time>
</trkpt>
<trkpt lat="33.0088675" lon="35.1947596">
<ele>327.83</ele>
<time>2015-07-06T03:39:37Z</time>
</trkpt>
<trkpt lat="33.0086677" lon="35.1942738">
<ele>324.79</ele>
<time>2015-07-06T03:39:41Z</time>
</trkpt>
<trkpt lat="33.0085722" lon="35.1937077">
<ele>321.79</ele>
<time>2015-07-06T03:39:45Z</time>
</trkpt>
<trkpt lat="33.0084887" lon="35.1931808">
<ele>318.92</ele>
<time>2015-07-06T03:39:49Z</time>
</trkpt>
<trkpt lat="33.0084008" lon="35.1926211">
<ele>316.26</ele>
<time>2015-07-06T03:39:53Z</time>
</trkpt>
<trkpt lat="33.0084316" lon="35.1920728">
<ele>313.74</ele>
<time>2015-07-06T03:39:57Z</time>
</trkpt>
<trkpt lat="33.0085191" lon="35.1916019">
<ele>311.12</ele>
<time>2015-07-06T03:40:01Z</time>
</trkpt>
<trkpt lat="33.0085645" lon="35.1913126">
<ele>309.00</ele>
<time>2015-07-06T03:40:05Z</time>
</trkpt>
<trkpt lat="33.0087444" lon="35.1914839">
<ele>305.69</ele>
<time>2015-07-06T03:40:17Z</time>
</trkpt>
<trkpt lat="33.0089571" lon="35.1918439">
<ele>304.49</ele>
<time>2015-07-06T03:40:25Z</time>
</trkpt>
<trkpt lat="33.0090822" lon="35.1920268">
<ele>303.95</ele>
<time>2015-07-06T03:40:29Z</time>
</trkpt>
<trkpt lat="33.0092269" lon="35.1921994">
<ele>303.63</ele>
<time>2015-07-06T03:40:33Z</time>
</trkpt>
<trkpt lat="33.0094258" lon="35.1924975">
<ele>304.31</ele>
<time>2015-07-06T03:40:41Z</time>
</trkpt>
<trkpt lat="33.0096010" lon="35.1927085">
<ele>305.92</ele>
<time>2015-07-06T03:40:49Z</time>
</trkpt>
<trkpt lat="33.0097394" lon="35.1929140">
<ele>307.94</ele>
<time>2015-07-06T03:40:57Z</time>
</trkpt>
<trkpt lat="33.0098910" lon="35.1930359">
<ele>309.61</ele>
<time>2015-07-06T03:41:05Z</time>
</trkpt>
<trkpt lat="33.0101031" lon="35.1931874">
<ele>310.07</ele>
<time>2015-07-06T03:41:13Z</time>
</trkpt>
<trkpt lat="33.0101712" lon="35.1934984">
<ele>310.80</ele>
<time>2015-07-06T03:41:21Z</time>
</trkpt>
<trkpt lat="33.0101200" lon="35.1937557">
<ele>312.32</ele>
<time>2015-07-06T03:41:29Z</time>
</trkpt>
<trkpt lat="33.0101000" lon="35.1940232">
<ele>313.96</ele>
<time>2015-07-06T03:41:37Z</time>
</trkpt>
<trkpt lat="33.0101356" lon="35.1942822">
<ele>315.28</ele>
<time>2015-07-06T03:41:45Z</time>
</trkpt>
<trkpt lat="33.0102579" lon="35.1945996">
<ele>315.29</ele>
<time>2015-07-06T03:41:53Z</time>
</trkpt>
<trkpt lat="33.0103061" lon="35.1948458">
<ele>314.87</ele>
<time>2015-07-06T03:41:57Z</time>
</trkpt>
<trkpt lat="33.0104055" lon="35.1950956">
<ele>314.23</ele>
<time>2015-07-06T03:42:01Z</time>
</trkpt>
<trkpt lat="33.0104577" lon="35.1953555">
<ele>313.62</ele>
<time>2015-07-06T03:42:05Z</time>
</trkpt>
<trkpt lat="33.0105279" lon="35.1956383">
<ele>313.27</ele>
<time>2015-07-06T03:42:09Z</time>
</trkpt>
<trkpt lat="33.0106365" lon="35.1960308">
<ele>313.43</ele>
<time>2015-07-06T03:42:17Z</time>
</trkpt>
<trkpt lat="33.0107792" lon="35.1963306">
<ele>314.04</ele>
<time>2015-07-06T03:42:25Z</time>
</trkpt>
<trkpt lat="33.0108545" lon="35.1967086">
<ele>314.54</ele>
<time>2015-07-06T03:42:33Z</time>
</trkpt>
<trkpt lat="33.0109278" lon="35.1970279">
<ele>314.62</ele>
<time>2015-07-06T03:42:41Z</time>
</trkpt>
<trkpt lat="33.0110233" lon="35.1972521">
<ele>314.40</ele>
<time>2015-07-06T03:42:45Z</time>
</trkpt>
<trkpt lat="33.0111356" lon="35.1975821">
<ele>314.20</ele>
<time>2015-07-06T03:42:53Z</time>
</trkpt>
<trkpt lat="33.0111978" lon="35.1977951">
<ele>314.03</ele>
<time>2015-07-06T03:42:57Z</time>
</trkpt>
<trkpt lat="33.0112404" lon="35.1980103">
<ele>313.39</ele>
<time>2015-07-06T03:43:01Z</time>
</trkpt>
<trkpt lat="33.0112726" lon="35.1982263">
<ele>312.60</ele>
<time>2015-07-06T03:43:05Z</time>
</trkpt>
<trkpt lat="33.0113812" lon="35.1984516">
<ele>311.48</ele>
<time>2015-07-06T03:43:09Z</time>
</trkpt>
<trkpt lat="33.0114755" lon="35.1988379">
<ele>308.44</ele>
<time>2015-07-06T03:43:17Z</time>
</trkpt>
<trkpt lat="33.0115503" lon="35.1990471">
<ele>306.69</ele>
<time>2015-07-06T03:43:21Z</time>
</trkpt>
<trkpt lat="33.0115175" lon="35.1994791">
<ele>302.66</ele>
<time>2015-07-06T03:43:29Z</time>
</trkpt>
<trkpt lat="33.0114536" lon="35.1997078">
<ele>301.67</ele>
<time>2015-07-06T03:43:33Z</time>
</trkpt>
<trkpt lat="33.0112827" lon="35.2000308">
<ele>301.17</ele>
<time>2015-07-06T03:43:41Z</time>
</trkpt>
<trkpt lat="33.0112854" lon="35.2004449">
<ele>298.94</ele>
<time>2015-07-06T03:43:49Z</time>
</trkpt>
<trkpt lat="33.0115305" lon="35.2004561">
<ele>297.45</ele>
<time>2015-07-06T03:43:57Z</time>
</trkpt>
<trkpt lat="33.0116871" lon="35.2001102">
<ele>296.43</ele>
<time>2015-07-06T03:44:05Z</time>
</trkpt>
<trkpt lat="33.0118786" lon="35.1997655">
<ele>295.43</ele>
<time>2015-07-06T03:44:13Z</time>
</trkpt>
<trkpt lat="33.0119529" lon="35.1995582">
<ele>294.88</ele>
<time>2015-07-06T03:44:17Z</time>
</trkpt>
<trkpt lat="33.0120322" lon="35.1993573">
<ele>294.18</ele>
<time>2015-07-06T03:44:21Z</time>
</trkpt>
<trkpt lat="33.0121117" lon="35.1991595">
<ele>293.36</ele>
<time>2015-07-06T03:44:25Z</time>
</trkpt>
<trkpt lat="33.0121969" lon="35.1989466">
<ele>292.45</ele>
<time>2015-07-06T03:44:29Z</time>
</trkpt>
<trkpt lat="33.0122224" lon="35.1985874">
<ele>290.93</ele>
<time>2015-07-06T03:44:37Z</time>
</trkpt>
<trkpt lat="33.0122213" lon="35.1982459">
<ele>289.86</ele>
<time>2015-07-06T03:44:45Z</time>
</trkpt>
<trkpt lat="33.0123523" lon="35.1978746">
<ele>289.08</ele>
<time>2015-07-06T03:44:53Z</time>
</trkpt>
<trkpt lat="33.0124736" lon="35.1975508">
<ele>288.16</ele>
<time>2015-07-06T03:45:01Z</time>
</trkpt>
<trkpt lat="33.0126991" lon="35.1973930">
<ele>287.85</ele>
<time>2015-07-06T03:45:09Z</time>
</trkpt>
<trkpt lat="33.0129299" lon="35.1974897">
<ele>288.43</ele>
<time>2015-07-06T03:45:17Z</time>
</trkpt>
<trkpt lat="33.0130836" lon="35.1977248">
<ele>289.52</ele>
<time>2015-07-06T03:45:29Z</time>
</trkpt>
<trkpt lat="33.0132229" lon="35.1980296">
<ele>288.70</ele>
<time>2015-07-06T03:45:41Z</time>
</trkpt>
<trkpt lat="33.0133240" lon="35.1982695">
<ele>289.38</ele>
<time>2015-07-06T03:45:49Z</time>
</trkpt>
<trkpt lat="33.0134773" lon="35.1984145">
<ele>290.15</ele>
<time>2015-07-06T03:45:57Z</time>
</trkpt>
<trkpt lat="33.0136967" lon="35.1985068">
<ele>291.12</ele>
<time>2015-07-06T03:46:05Z</time>
</trkpt>
<trkpt lat="33.0138917" lon="35.1985464">
<ele>291.73</ele>
<time>2015-07-06T03:46:17Z</time>
</trkpt>
<trkpt lat="33.0141107" lon="35.1986377">
<ele>292.54</ele>
<time>2015-07-06T03:46:25Z</time>
</trkpt>
<trkpt lat="33.0143163" lon="35.1987834">
<ele>292.55</ele>
<time>2015-07-06T03:46:33Z</time>
</trkpt>
<trkpt lat="33.0144583" lon="35.1989532">
<ele>292.42</ele>
<time>2015-07-06T03:46:41Z</time>
</trkpt>
<trkpt lat="33.0145082" lon="35.1991726">
<ele>293.09</ele>
<time>2015-07-06T03:46:49Z</time>
</trkpt>
<trkpt lat="33.0144937" lon="35.1994738">
<ele>292.22</ele>
<time>2015-07-06T03:47:01Z</time>
</trkpt>
<trkpt lat="33.0145291" lon="35.1996947">
<ele>292.53</ele>
<time>2015-07-06T03:47:09Z</time>
</trkpt>
<trkpt lat="33.0145534" lon="35.1999142">
<ele>294.01</ele>
<time>2015-07-06T03:47:21Z</time>
</trkpt>
<trkpt lat="33.0145742" lon="35.2001749">
<ele>295.94</ele>
<time>2015-07-06T03:47:33Z</time>
</trkpt>
<trkpt lat="33.0146469" lon="35.2004197">
<ele>295.15</ele>
<time>2015-07-06T03:47:45Z</time>
</trkpt>
<trkpt lat="33.0148157" lon="35.2005771">
<ele>293.30</ele>
<time>2015-07-06T03:47:53Z</time>
</trkpt>
<trkpt lat="33.0148704" lon="35.2008882">
<ele>292.95</ele>
<time>2015-07-06T03:48:05Z</time>
</trkpt>
<trkpt lat="33.0149568" lon="35.2011265">
<ele>293.69</ele>
<time>2015-07-06T03:48:13Z</time>
</trkpt>
<trkpt lat="33.0150394" lon="35.2013295">
<ele>293.96</ele>
<time>2015-07-06T03:48:21Z</time>
</trkpt>
<trkpt lat="33.0150171" lon="35.2016070">
<ele>294.40</ele>
<time>2015-07-06T03:48:33Z</time>
</trkpt>
<trkpt lat="33.0150125" lon="35.2019425">
<ele>294.23</ele>
<time>2015-07-06T03:48:45Z</time>
</trkpt>
<trkpt lat="33.0150620" lon="35.2022183">
<ele>294.52</ele>
<time>2015-07-06T03:48:53Z</time>
</trkpt>
<trkpt lat="33.0151131" lon="35.2025430">
<ele>295.52</ele>
<time>2015-07-06T03:49:05Z</time>
</trkpt>
<trkpt lat="33.0151855" lon="35.2027843">
<ele>296.13</ele>
<time>2015-07-06T03:49:13Z</time>
</trkpt>
<trkpt lat="33.0152639" lon="35.2030087">
<ele>296.92</ele>
<time>2015-07-06T03:49:21Z</time>
</trkpt>
<trkpt lat="33.0153300" lon="35.2032212">
<ele>297.32</ele>
<time>2015-07-06T03:49:33Z</time>
</trkpt>
<trkpt lat="33.0155003" lon="35.2033674">
<ele>297.06</ele>
<time>2015-07-06T03:50:13Z</time>
</trkpt>
<trkpt lat="33.0157148" lon="35.2035540">
<ele>296.81</ele>
<time>2015-07-06T03:50:21Z</time>
</trkpt>
<trkpt lat="33.0158927" lon="35.2038098">
<ele>296.73</ele>
<time>2015-07-06T03:50:29Z</time>
</trkpt>
<trkpt lat="33.0160236" lon="35.2041010">
<ele>296.75</ele>
<time>2015-07-06T03:50:37Z</time>
</trkpt>
<trkpt lat="33.0160849" lon="35.2044722">
<ele>297.31</ele>
<time>2015-07-06T03:50:45Z</time>
</trkpt>
<trkpt lat="33.0160945" lon="35.2047963">
<ele>297.98</ele>
<time>2015-07-06T03:50:53Z</time>
</trkpt>
<trkpt lat="33.0161600" lon="35.2051325">
<ele>298.68</ele>
<time>2015-07-06T03:51:01Z</time>
</trkpt>
<trkpt lat="33.0161787" lon="35.2054715">
<ele>299.28</ele>
<time>2015-07-06T03:51:09Z</time>
</trkpt>
<trkpt lat="33.0162157" lon="35.2057774">
<ele>299.81</ele>
<time>2015-07-06T03:51:17Z</time>
</trkpt>
<trkpt lat="33.0164405" lon="35.2060231">
<ele>300.49</ele>
<time>2015-07-06T03:51:25Z</time>
</trkpt>
<trkpt lat="33.0165919" lon="35.2063292">
<ele>301.07</ele>
<time>2015-07-06T03:51:33Z</time>
</trkpt>
<trkpt lat="33.0167511" lon="35.2066052">
<ele>301.78</ele>
<time>2015-07-06T03:51:41Z</time>
</trkpt>
<trkpt lat="33.0168883" lon="35.2068885">
<ele>302.53</ele>
<time>2015-07-06T03:51:49Z</time>
</trkpt>
<trkpt lat="33.0170220" lon="35.2071928">
<ele>303.29</ele>
<time>2015-07-06T03:51:57Z</time>
</trkpt>
<trkpt lat="33.0171918" lon="35.2074527">
<ele>303.93</ele>
<time>2015-07-06T03:52:05Z</time>
</trkpt>
<trkpt lat="33.0173598" lon="35.2076604">
<ele>304.79</ele>
<time>2015-07-06T03:52:13Z</time>
</trkpt>
<trkpt lat="33.0174522" lon="35.2079048">
<ele>305.53</ele>
<time>2015-07-06T03:52:21Z</time>
</trkpt>
<trkpt lat="33.0174424" lon="35.2081657">
<ele>306.40</ele>
<time>2015-07-06T03:52:29Z</time>
</trkpt>
<trkpt lat="33.0174530" lon="35.2084733">
<ele>307.10</ele>
<time>2015-07-06T03:52:37Z</time>
</trkpt>
<trkpt lat="33.0174236" lon="35.2087589">
<ele>308.02</ele>
<time>2015-07-06T03:52:45Z</time>
</trkpt>
<trkpt lat="33.0174986" lon="35.2089998">
<ele>308.59</ele>
<time>2015-07-06T03:52:53Z</time>
</trkpt>
<trkpt lat="33.0177072" lon="35.2092273">
<ele>308.95</ele>
<time>2015-07-06T03:53:01Z</time>
</trkpt>
<trkpt lat="33.0178672" lon="35.2094750">
<ele>309.52</ele>
<time>2015-07-06T03:53:09Z</time>
</trkpt>
<trkpt lat="33.0179863" lon="35.2097311">
<ele>310.35</ele>
<time>2015-07-06T03:53:17Z</time>
</trkpt>
<trkpt lat="33.0180900" lon="35.2099931">
<ele>311.11</ele>
<time>2015-07-06T03:53:25Z</time>
</trkpt>
<trkpt lat="33.0181564" lon="35.2102637">
<ele>311.98</ele>
<time>2015-07-06T03:53:33Z</time>
</trkpt>
<trkpt lat="33.0181537" lon="35.2105576">
<ele>312.89</ele>
<time>2015-07-06T03:53:41Z</time>
</trkpt>
<trkpt lat="33.0181489" lon="35.2108088">
<ele>313.53</ele>
<time>2015-07-06T03:53:49Z</time>
</trkpt>
<trkpt lat="33.0180670" lon="35.2110619">
<ele>314.26</ele>
<time>2015-07-06T03:53:57Z</time>
</trkpt>
<trkpt lat="33.0180022" lon="35.2112857">
<ele>315.33</ele>
<time>2015-07-06T03:54:05Z</time>
</trkpt>
<trkpt lat="33.0179527" lon="35.2115771">
<ele>315.96</ele>
<time>2015-07-06T03:54:13Z</time>
</trkpt>
<trkpt lat="33.0179540" lon="35.2118896">
<ele>315.84</ele>
<time>2015-07-06T03:54:21Z</time>
</trkpt>
<trkpt lat="33.0179212" lon="35.2121996">
<ele>315.96</ele>
<time>2015-07-06T03:54:29Z</time>
</trkpt>
<trkpt lat="33.0179742" lon="35.2124977">
<ele>316.18</ele>
<time>2015-07-06T03:54:37Z</time>
</trkpt>
<trkpt lat="33.0180317" lon="35.2127901">
<ele>316.92</ele>
<time>2015-07-06T03:54:45Z</time>
</trkpt>
<trkpt lat="33.0180762" lon="35.2130724">
<ele>317.74</ele>
<time>2015-07-06T03:54:53Z</time>
</trkpt>
<trkpt lat="33.0181486" lon="35.2133552">
<ele>318.07</ele>
<time>2015-07-06T03:55:01Z</time>
</trkpt>
<trkpt lat="33.0182403" lon="35.2136672">
<ele>318.33</ele>
<time>2015-07-06T03:55:09Z</time>
</trkpt>
<trkpt lat="33.0183261" lon="35.2139545">
<ele>319.39</ele>
<time>2015-07-06T03:55:17Z</time>
</trkpt>
<trkpt lat="33.0184116" lon="35.2142125">
<ele>319.93</ele>
<time>2015-07-06T03:55:25Z</time>
</trkpt>
<trkpt lat="33.0184746" lon="35.2144829">
<ele>320.47</ele>
<time>2015-07-06T03:55:33Z</time>
</trkpt>
<trkpt lat="33.0184939" lon="35.2147811">
<ele>320.82</ele>
<time>2015-07-06T03:55:41Z</time>
</trkpt>
<trkpt lat="33.0183797" lon="35.2150682">
<ele>321.37</ele>
<time>2015-07-06T03:55:49Z</time>
</trkpt>
<trkpt lat="33.0182934" lon="35.2153583">
<ele>321.98</ele>
<time>2015-07-06T03:55:57Z</time>
</trkpt>
<trkpt lat="33.0182431" lon="35.2156257">
<ele>323.28</ele>
<time>2015-07-06T03:56:05Z</time>
</trkpt>
<trkpt lat="33.0181962" lon="35.2159549">
<ele>325.91</ele>
<time>2015-07-06T03:56:17Z</time>
</trkpt>
<trkpt lat="33.0181751" lon="35.2161957">
<ele>327.17</ele>
<time>2015-07-06T03:56:25Z</time>
</trkpt>
<trkpt lat="33.0181766" lon="35.2164928">
<ele>328.06</ele>
<time>2015-07-06T03:56:33Z</time>
</trkpt>
<trkpt lat="33.0181035" lon="35.2167214">
<ele>329.20</ele>
<time>2015-07-06T03:56:41Z</time>
</trkpt>
<trkpt lat="33.0180818" lon="35.2169666">
<ele>329.95</ele>
<time>2015-07-06T03:56:49Z</time>
</trkpt>
<trkpt lat="33.0180952" lon="35.2172173">
<ele>330.67</ele>
<time>2015-07-06T03:56:57Z</time>
</trkpt>
<trkpt lat="33.0181564" lon="35.2174715">
<ele>331.00</ele>
<time>2015-07-06T03:57:05Z</time>
</trkpt>
<trkpt lat="33.0183276" lon="35.2177767">
<ele>330.72</ele>
<time>2015-07-06T03:57:13Z</time>
</trkpt>
<trkpt lat="33.0184878" lon="35.2180528">
<ele>330.76</ele>
<time>2015-07-06T03:57:21Z</time>
</trkpt>
<trkpt lat="33.0185629" lon="35.2183498">
<ele>331.26</ele>
<time>2015-07-06T03:57:29Z</time>
</trkpt>
<trkpt lat="33.0186154" lon="35.2185986">
<ele>332.30</ele>
<time>2015-07-06T03:57:37Z</time>
</trkpt>
<trkpt lat="33.0187053" lon="35.2188080">
<ele>333.17</ele>
<time>2015-07-06T03:57:45Z</time>
</trkpt>
<trkpt lat="33.0188056" lon="35.2190314">
<ele>333.95</ele>
<time>2015-07-06T03:57:53Z</time>
</trkpt>
<trkpt lat="33.0185796" lon="35.2189381">
<ele>335.59</ele>
<time>2015-07-06T03:58:05Z</time>
</trkpt>
<trkpt lat="33.0184899" lon="35.2187349">
<ele>335.89</ele>
<time>2015-07-06T03:58:13Z</time>
</trkpt>
<trkpt lat="33.0183928" lon="35.2185316">
<ele>336.41</ele>
<time>2015-07-06T03:58:21Z</time>
</trkpt>
<trkpt lat="33.0182575" lon="35.2183105">
<ele>336.74</ele>
<time>2015-07-06T03:58:29Z</time>
</trkpt>
<trkpt lat="33.0181371" lon="35.2180439">
<ele>337.03</ele>
<time>2015-07-06T03:58:37Z</time>
</trkpt>
<trkpt lat="33.0180412" lon="35.2178045">
<ele>337.51</ele>
<time>2015-07-06T03:58:45Z</time>
</trkpt>
<trkpt lat="33.0179443" lon="35.2174920">
<ele>338.95</ele>
<time>2015-07-06T03:58:53Z</time>
</trkpt>
<trkpt lat="33.0178960" lon="35.2172249">
<ele>340.26</ele>
<time>2015-07-06T03:59:01Z</time>
</trkpt>
<trkpt lat="33.0178970" lon="35.2169897">
<ele>341.55</ele>
<time>2015-07-06T03:59:09Z</time>
</trkpt>
<trkpt lat="33.0178727" lon="35.2167618">
<ele>343.49</ele>
<time>2015-07-06T03:59:17Z</time>
</trkpt>
<trkpt lat="33.0178437" lon="35.2165341">
<ele>345.58</ele>
<time>2015-07-06T03:59:25Z</time>
</trkpt>
<trkpt lat="33.0178446" lon="35.2162429">
<ele>347.37</ele>
<time>2015-07-06T03:59:35Z</time>
</trkpt>
<trkpt lat="33.0178166" lon="35.2159957">
<ele>349.06</ele>
<time>2015-07-06T03:59:43Z</time>
</trkpt>
<trkpt lat="33.0178501" lon="35.2157839">
<ele>350.42</ele>
<time>2015-07-06T03:59:51Z</time>
</trkpt>
<trkpt lat="33.0178980" lon="35.2154830">
<ele>352.61</ele>
<time>2015-07-06T04:00:03Z</time>
</trkpt>
<trkpt lat="33.0178941" lon="35.2152269">
<ele>354.22</ele>
<time>2015-07-06T04:00:15Z</time>
</trkpt>
<trkpt lat="33.0179306" lon="35.2149859">
<ele>356.26</ele>
<time>2015-07-06T04:00:27Z</time>
</trkpt>
<trkpt lat="33.0178923" lon="35.2147101">
<ele>357.88</ele>
<time>2015-07-06T04:00:39Z</time>
</trkpt>
<trkpt lat="33.0178217" lon="35.2144661">
<ele>358.67</ele>
<time>2015-07-06T04:00:51Z</time>
</trkpt>
<trkpt lat="33.0177718" lon="35.2142588">
<ele>359.37</ele>
<time>2015-07-06T04:00:59Z</time>
</trkpt>
<trkpt lat="33.0177076" lon="35.2139564">
<ele>360.67</ele>
<time>2015-07-06T04:01:11Z</time>
</trkpt>
<trkpt lat="33.0176282" lon="35.2137568">
<ele>361.70</ele>
<time>2015-07-06T04:01:19Z</time>
</trkpt>
<trkpt lat="33.0175225" lon="35.2135232">
<ele>363.27</ele>
<time>2015-07-06T04:01:31Z</time>
</trkpt>
<trkpt lat="33.0174060" lon="35.2133417">
<ele>364.97</ele>
<time>2015-07-06T04:01:43Z</time>
</trkpt>
<trkpt lat="33.0172945" lon="35.2131424">
<ele>366.92</ele>
<time>2015-07-06T04:01:55Z</time>
</trkpt>
<trkpt lat="33.0171600" lon="35.2129674">
<ele>368.94</ele>
<time>2015-07-06T04:02:07Z</time>
</trkpt>
<trkpt lat="33.0170506" lon="35.2127636">
<ele>371.21</ele>
<time>2015-07-06T04:02:19Z</time>
</trkpt>
<trkpt lat="33.0169860" lon="35.2124941">
<ele>373.17</ele>
<time>2015-07-06T04:02:35Z</time>
</trkpt>
<trkpt lat="33.0169372" lon="35.2122526">
<ele>374.38</ele>
<time>2015-07-06T04:02:47Z</time>
</trkpt>
<trkpt lat="33.0169103" lon="35.2119952">
<ele>375.66</ele>
<time>2015-07-06T04:02:59Z</time>
</trkpt>
<trkpt lat="33.0168892" lon="35.2117338">
<ele>377.66</ele>
<time>2015-07-06T04:03:11Z</time>
</trkpt>
<trkpt lat="33.0168942" lon="35.2115072">
<ele>379.75</ele>
<time>2015-07-06T04:03:23Z</time>
</trkpt>
<trkpt lat="33.0168444" lon="35.2112221">
<ele>381.80</ele>
<time>2015-07-06T04:03:39Z</time>
</trkpt>
<trkpt lat="33.0167490" lon="35.2109984">
<ele>382.89</ele>
<time>2015-07-06T04:03:51Z</time>
</trkpt>
<trkpt lat="33.0166630" lon="35.2107818">
<ele>384.03</ele>
<time>2015-07-06T04:04:03Z</time>
</trkpt>
<trkpt lat="33.0165057" lon="35.2106661">
<ele>385.39</ele>
<time>2015-07-06T04:04:15Z</time>
</trkpt>
<trkpt lat="33.0163218" lon="35.2106678">
<ele>386.61</ele>
<time>2015-07-06T04:04:27Z</time>
</trkpt>
<trkpt lat="33.0161254" lon="35.2107343">
<ele>386.94</ele>
<time>2015-07-06T04:04:39Z</time>
</trkpt>
<trkpt lat="33.0159750" lon="35.2109516">
<ele>386.66</ele>
<time>2015-07-06T04:04:51Z</time>
</trkpt>
<trkpt lat="33.0159081" lon="35.2112417">
<ele>385.81</ele>
<time>2015-07-06T04:05:03Z</time>
</trkpt>
<trkpt lat="33.0158693" lon="35.2114738">
<ele>386.02</ele>
<time>2015-07-06T04:05:11Z</time>
</trkpt>
<trkpt lat="33.0158190" lon="35.2117804">
<ele>386.63</ele>
<time>2015-07-06T04:05:23Z</time>
</trkpt>
<trkpt lat="33.0157692" lon="35.2119989">
<ele>387.25</ele>
<time>2015-07-06T04:05:31Z</time>
</trkpt>
<trkpt lat="33.0157364" lon="35.2122449">
<ele>387.62</ele>
<time>2015-07-06T04:05:39Z</time>
</trkpt>
<trkpt lat="33.0157038" lon="35.2124736">
<ele>388.33</ele>
<time>2015-07-06T04:05:47Z</time>
</trkpt>
<trkpt lat="33.0156667" lon="35.2127537">
<ele>389.45</ele>
<time>2015-07-06T04:05:59Z</time>
</trkpt>
<trkpt lat="33.0156059" lon="35.2130307">
<ele>390.37</ele>
<time>2015-07-06T04:06:11Z</time>
</trkpt>
<trkpt lat="33.0155369" lon="35.2132875">
<ele>391.73</ele>
<time>2015-07-06T04:06:23Z</time>
</trkpt>
<trkpt lat="33.0154533" lon="35.2135000">
<ele>392.87</ele>
<time>2015-07-06T04:06:35Z</time>
</trkpt>
<trkpt lat="33.0153407" lon="35.2137365">
<ele>393.43</ele>
<time>2015-07-06T04:06:47Z</time>
</trkpt>
<trkpt lat="33.0152446" lon="35.2140203">
<ele>394.12</ele>
<time>2015-07-06T04:06:59Z</time>
</trkpt>
<trkpt lat="33.0151374" lon="35.2143127">
<ele>394.11</ele>
<time>2015-07-06T04:07:11Z</time>
</trkpt>
<trkpt lat="33.0150640" lon="35.2145886">
<ele>394.34</ele>
<time>2015-07-06T04:07:23Z</time>
</trkpt>
<trkpt lat="33.0150186" lon="35.2148342">
<ele>394.98</ele>
<time>2015-07-06T04:07:35Z</time>
</trkpt>
<trkpt lat="33.0150074" lon="35.2151032">
<ele>396.29</ele>
<time>2015-07-06T04:07:47Z</time>
</trkpt>
<trkpt lat="33.0150111" lon="35.2153949">
<ele>397.45</ele>
<time>2015-07-06T04:07:59Z</time>
</trkpt>
<trkpt lat="33.0149965" lon="35.2156682">
<ele>399.20</ele>
<time>2015-07-06T04:08:35Z</time>
</trkpt>
<trkpt lat="33.0150126" lon="35.2159695">
<ele>400.27</ele>
<time>2015-07-06T04:08:47Z</time>
</trkpt>
<trkpt lat="33.0149701" lon="35.2161967">
<ele>401.25</ele>
<time>2015-07-06T04:08:59Z</time>
</trkpt>
<trkpt lat="33.0149969" lon="35.2164940">
<ele>402.42</ele>
<time>2015-07-06T04:09:11Z</time>
</trkpt>
<trkpt lat="33.0149853" lon="35.2167506">
<ele>403.27</ele>
<time>2015-07-06T04:09:23Z</time>
</trkpt>
<trkpt lat="33.0149995" lon="35.2169952">
<ele>404.17</ele>
<time>2015-07-06T04:09:35Z</time>
</trkpt>
<trkpt lat="33.0149836" lon="35.2172374">
<ele>404.89</ele>
<time>2015-07-06T04:09:47Z</time>
</trkpt>
<trkpt lat="33.0149788" lon="35.2174814">
<ele>405.38</ele>
<time>2015-07-06T04:09:59Z</time>
</trkpt>
<trkpt lat="33.0149900" lon="35.2177106">
<ele>406.14</ele>
<time>2015-07-06T04:10:11Z</time>
</trkpt>
<trkpt lat="33.0149723" lon="35.2179618">
<ele>407.24</ele>
<time>2015-07-06T04:10:27Z</time>
</trkpt>
<trkpt lat="33.0149762" lon="35.2181983">
<ele>408.05</ele>
<time>2015-07-06T04:10:39Z</time>
</trkpt>
<trkpt lat="33.0147145" lon="35.2180756">
<ele>406.29</ele>
<time>2015-07-06T04:10:51Z</time>
</trkpt>
<trkpt lat="33.0144778" lon="35.2179998">
<ele>403.92</ele>
<time>2015-07-06T04:10:59Z</time>
</trkpt>
<trkpt lat="33.0143088" lon="35.2178588">
<ele>400.73</ele>
<time>2015-07-06T04:11:07Z</time>
</trkpt>
<trkpt lat="33.0141508" lon="35.2175909">
<ele>397.09</ele>
<time>2015-07-06T04:11:15Z</time>
</trkpt>
<trkpt lat="33.0141053" lon="35.2173147">
<ele>395.51</ele>
<time>2015-07-06T04:11:19Z</time>
</trkpt>
<trkpt lat="33.0141762" lon="35.2171160">
<ele>394.68</ele>
<time>2015-07-06T04:11:23Z</time>
</trkpt>
<trkpt lat="33.0141496" lon="35.2167706">
<ele>393.41</ele>
<time>2015-07-06T04:11:31Z</time>
</trkpt>
<trkpt lat="33.0139607" lon="35.2168053">
<ele>390.89</ele>
<time>2015-07-06T04:11:43Z</time>
</trkpt>
<trkpt lat="33.0137661" lon="35.2168209">
<ele>388.53</ele>
<time>2015-07-06T04:11:51Z</time>
</trkpt>
<trkpt lat="33.0136670" lon="35.2171316">
<ele>386.76</ele>
<time>2015-07-06T04:11:59Z</time>
</trkpt>
<trkpt lat="33.0136132" lon="35.2174095">
<ele>385.59</ele>
<time>2015-07-06T04:12:07Z</time>
</trkpt>
<trkpt lat="33.0135268" lon="35.2176770">
<ele>384.21</ele>
<time>2015-07-06T04:12:15Z</time>
</trkpt>
<trkpt lat="33.0135154" lon="35.2178984">
<ele>383.99</ele>
<time>2015-07-06T04:12:23Z</time>
</trkpt>
<trkpt lat="33.0135171" lon="35.2181520">
<ele>385.25</ele>
<time>2015-07-06T04:12:35Z</time>
</trkpt>
<trkpt lat="33.0134034" lon="35.2179835">
<ele>384.47</ele>
<time>2015-07-06T04:12:47Z</time>
</trkpt>
<trkpt lat="33.0133598" lon="35.2176886">
<ele>382.33</ele>
<time>2015-07-06T04:12:55Z</time>
</trkpt>
<trkpt lat="33.0132675" lon="35.2174994">
<ele>381.54</ele>
<time>2015-07-06T04:12:59Z</time>
</trkpt>
<trkpt lat="33.0132558" lon="35.2171413">
<ele>378.73</ele>
<time>2015-07-06T04:13:07Z</time>
</trkpt>
<trkpt lat="33.0131969" lon="35.2168069">
<ele>375.34</ele>
<time>2015-07-06T04:13:15Z</time>
</trkpt>
<trkpt lat="33.0131140" lon="35.2165501">
<ele>372.84</ele>
<time>2015-07-06T04:13:23Z</time>
</trkpt>
<trkpt lat="33.0130271" lon="35.2162816">
<ele>370.64</ele>
<time>2015-07-06T04:13:31Z</time>
</trkpt>
<trkpt lat="33.0128471" lon="35.2161642">
<ele>370.00</ele>
<time>2015-07-06T04:13:39Z</time>
</trkpt>
<trkpt lat="33.0126198" lon="35.2160172">
<ele>369.29</ele>
<time>2015-07-06T04:13:47Z</time>
</trkpt>
<trkpt lat="33.0124122" lon="35.2160987">
<ele>370.34</ele>
<time>2015-07-06T04:13:59Z</time>
</trkpt>
<trkpt lat="33.0122785" lon="35.2163333">
<ele>371.65</ele>
<time>2015-07-06T04:14:11Z</time>
</trkpt>
<trkpt lat="33.0122144" lon="35.2165551">
<ele>373.12</ele>
<time>2015-07-06T04:14:23Z</time>
</trkpt>
<trkpt lat="33.0120903" lon="35.2167530">
<ele>374.98</ele>
<time>2015-07-06T04:14:35Z</time>
</trkpt>
<trkpt lat="33.0120230" lon="35.2170174">
<ele>375.37</ele>
<time>2015-07-06T04:14:47Z</time>
</trkpt>
<trkpt lat="33.0120056" lon="35.2173306">
<ele>375.93</ele>
<time>2015-07-06T04:14:55Z</time>
</trkpt>
<trkpt lat="33.0119749" lon="35.2175488">
<ele>376.60</ele>
<time>2015-07-06T04:15:03Z</time>
</trkpt>
<trkpt lat="33.0118650" lon="35.2177223">
<ele>378.43</ele>
<time>2015-07-06T04:15:15Z</time>
</trkpt>
<trkpt lat="33.0118806" lon="35.2179801">
<ele>377.78</ele>
<time>2015-07-06T04:15:23Z</time>
</trkpt>
<trkpt lat="33.0117787" lon="35.2181608">
<ele>377.88</ele>
<time>2015-07-06T04:15:31Z</time>
</trkpt>
<trkpt lat="33.0116676" lon="35.2183502">
<ele>378.64</ele>
<time>2015-07-06T04:15:43Z</time>
</trkpt>
<trkpt lat="33.0115545" lon="35.2185265">
<ele>379.17</ele>
<time>2015-07-06T04:15:55Z</time>
</trkpt>
<trkpt lat="33.0114607" lon="35.2187356">
<ele>380.12</ele>
<time>2015-07-06T04:16:07Z</time>
</trkpt>
<trkpt lat="33.0113904" lon="35.2189363">
<ele>381.17</ele>
<time>2015-07-06T04:16:19Z</time>
</trkpt>
<trkpt lat="33.0112803" lon="35.2191326">
<ele>382.31</ele>
<time>2015-07-06T04:16:31Z</time>
</trkpt>
<trkpt lat="33.0112215" lon="35.2188736">
<ele>385.98</ele>
<time>2015-07-06T04:16:51Z</time>
</trkpt>
<trkpt lat="33.0112270" lon="35.2186242">
<ele>388.44</ele>
<time>2015-07-06T04:17:07Z</time>
</trkpt>
<trkpt lat="33.0112444" lon="35.2184077">
<ele>390.59</ele>
<time>2015-07-06T04:17:19Z</time>
</trkpt>
<trkpt lat="33.0112921" lon="35.2181260">
<ele>393.64</ele>
<time>2015-07-06T04:17:35Z</time>
</trkpt>
<trkpt lat="33.0112940" lon="35.2178899">
<ele>396.01</ele>
<time>2015-07-06T04:17:55Z</time>
</trkpt>
<trkpt lat="33.0111862" lon="35.2176553">
<ele>399.42</ele>
<time>2015-07-06T04:18:35Z</time>
</trkpt>
<trkpt lat="33.0111169" lon="35.2174513">
<ele>400.83</ele>
<time>2015-07-06T04:18:43Z</time>
</trkpt>
<trkpt lat="33.0110044" lon="35.2172034">
<ele>402.55</ele>
<time>2015-07-06T04:18:55Z</time>
</trkpt>
<trkpt lat="33.0108520" lon="35.2170710">
<ele>405.79</ele>
<time>2015-07-06T04:19:23Z</time>
</trkpt>
<trkpt lat="33.0106208" lon="35.2170528">
<ele>407.90</ele>
<time>2015-07-06T04:20:15Z</time>
</trkpt>
<trkpt lat="33.0104206" lon="35.2170576">
<ele>410.14</ele>
<time>2015-07-06T04:20:27Z</time>
</trkpt>
<trkpt lat="33.0102244" lon="35.2171002">
<ele>412.58</ele>
<time>2015-07-06T04:20:39Z</time>
</trkpt>
<trkpt lat="33.0100432" lon="35.2171559">
<ele>414.87</ele>
<time>2015-07-06T04:20:51Z</time>
</trkpt>
<trkpt lat="33.0098177" lon="35.2171491">
<ele>416.74</ele>
<time>2015-07-06T04:21:07Z</time>
</trkpt>
<trkpt lat="33.0096213" lon="35.2171072">
<ele>417.74</ele>
<time>2015-07-06T04:21:19Z</time>
</trkpt>
<trkpt lat="33.0094143" lon="35.2170119">
<ele>418.45</ele>
<time>2015-07-06T04:21:31Z</time>
</trkpt>
<trkpt lat="33.0092088" lon="35.2167720">
<ele>418.05</ele>
<time>2015-07-06T04:21:43Z</time>
</trkpt>
<trkpt lat="33.0090872" lon="35.2164296">
<ele>416.76</ele>
<time>2015-07-06T04:21:51Z</time>
</trkpt>
<trkpt lat="33.0088902" lon="35.2161882">
<ele>415.26</ele>
<time>2015-07-06T04:21:59Z</time>
</trkpt>
<trkpt lat="33.0086893" lon="35.2158484">
<ele>414.10</ele>
<time>2015-07-06T04:23:19Z</time>
</trkpt>
<trkpt lat="33.0086526" lon="35.2155034">
<ele>412.50</ele>
<time>2015-07-06T04:23:23Z</time>
</trkpt>
<trkpt lat="33.0086181" lon="35.2150949">
<ele>410.28</ele>
<time>2015-07-06T04:23:27Z</time>
</trkpt>
<trkpt lat="33.0084579" lon="35.2145905">
<ele>407.25</ele>
<time>2015-07-06T04:23:31Z</time>
</trkpt>
<trkpt lat="33.0083447" lon="35.2140265">
<ele>404.27</ele>
<time>2015-07-06T04:23:35Z</time>
</trkpt>
<trkpt lat="33.0083107" lon="35.2134562">
<ele>401.84</ele>
<time>2015-07-06T04:23:39Z</time>
</trkpt>
<trkpt lat="33.0082836" lon="35.2129369">
<ele>399.73</ele>
<time>2015-07-06T04:23:43Z</time>
</trkpt>
<trkpt lat="33.0082302" lon="35.2124705">
<ele>397.82</ele>
<time>2015-07-06T04:23:47Z</time>
</trkpt>
<trkpt lat="33.0081127" lon="35.2120386">
<ele>395.96</ele>
<time>2015-07-06T04:23:51Z</time>
</trkpt>
<trkpt lat="33.0079561" lon="35.2116045">
<ele>394.26</ele>
<time>2015-07-06T04:23:55Z</time>
</trkpt>
<trkpt lat="33.0078558" lon="35.2111997">
<ele>392.64</ele>
<time>2015-07-06T04:23:59Z</time>
</trkpt>
<trkpt lat="33.0077197" lon="35.2108080">
<ele>391.23</ele>
<time>2015-07-06T04:24:03Z</time>
</trkpt>
<trkpt lat="33.0076308" lon="35.2103933">
<ele>390.10</ele>
<time>2015-07-06T04:24:07Z</time>
</trkpt>
<trkpt lat="33.0075061" lon="35.2100205">
<ele>389.41</ele>
<time>2015-07-06T04:24:11Z</time>
</trkpt>
<trkpt lat="33.0074182" lon="35.2096998">
<ele>389.02</ele>
<time>2015-07-06T04:24:15Z</time>
</trkpt>
<trkpt lat="33.0072390" lon="35.2094348">
<ele>388.82</ele>
<time>2015-07-06T04:24:19Z</time>
</trkpt>
<trkpt lat="33.0070927" lon="35.2092403">
<ele>388.85</ele>
<time>2015-07-06T04:24:23Z</time>
</trkpt>
<trkpt lat="33.0069643" lon="35.2090868">
<ele>389.04</ele>
<time>2015-07-06T04:24:27Z</time>
</trkpt>
<trkpt lat="33.0068225" lon="35.2089370">
<ele>389.18</ele>
<time>2015-07-06T04:24:31Z</time>
</trkpt>
<trkpt lat="33.0065906" lon="35.2086284">
<ele>388.79</ele>
<time>2015-07-06T04:24:39Z</time>
</trkpt>
<trkpt lat="33.0064988" lon="35.2083758">
<ele>388.24</ele>
<time>2015-07-06T04:24:43Z</time>
</trkpt>
<trkpt lat="33.0064206" lon="35.2080941">
<ele>387.32</ele>
<time>2015-07-06T04:24:47Z</time>
</trkpt>
<trkpt lat="33.0063832" lon="35.2077706">
<ele>386.09</ele>
<time>2015-07-06T04:24:51Z</time>
</trkpt>
<trkpt lat="33.0063290" lon="35.2073713">
<ele>384.45</ele>
<time>2015-07-06T04:24:55Z</time>
</trkpt>
<trkpt lat="33.0062816" lon="35.2069254">
<ele>382.43</ele>
<time>2015-07-06T04:24:59Z</time>
</trkpt>
<trkpt lat="33.0062465" lon="35.2065341">
<ele>380.14</ele>
<time>2015-07-06T04:25:03Z</time>
</trkpt>
<trkpt lat="33.0062007" lon="35.2061848">
<ele>377.84</ele>
<time>2015-07-06T04:25:07Z</time>
</trkpt>
<trkpt lat="33.0061739" lon="35.2059710">
<ele>376.01</ele>
<time>2015-07-06T04:25:11Z</time>
</trkpt>
<trkpt lat="33.0059991" lon="35.2058978">
<ele>374.75</ele>
<time>2015-07-06T04:25:15Z</time>
</trkpt>
<trkpt lat="33.0058059" lon="35.2059374">
<ele>373.99</ele>
<time>2015-07-06T04:25:19Z</time>
</trkpt>
<trkpt lat="33.0054996" lon="35.2061190">
<ele>373.60</ele>
<time>2015-07-06T04:25:27Z</time>
</trkpt>
<trkpt lat="33.0052743" lon="35.2064156">
<ele>373.84</ele>
<time>2015-07-06T04:25:35Z</time>
</trkpt>
<trkpt lat="33.0050892" lon="35.2066786">
<ele>374.39</ele>
<time>2015-07-06T04:25:43Z</time>
</trkpt>
<trkpt lat="33.0049154" lon="35.2069156">
<ele>374.93</ele>
<time>2015-07-06T04:25:51Z</time>
</trkpt>
<trkpt lat="33.0047595" lon="35.2071183">
<ele>375.45</ele>
<time>2015-07-06T04:25:59Z</time>
</trkpt>
<trkpt lat="33.0046159" lon="35.2072533">
<ele>375.93</ele>
<time>2015-07-06T04:26:07Z</time>
</trkpt>
<trkpt lat="33.0044523" lon="35.2074088">
<ele>376.37</ele>
<time>2015-07-06T04:26:15Z</time>
</trkpt>
<trkpt lat="33.0042937" lon="35.2076338">
<ele>376.80</ele>
<time>2015-07-06T04:26:23Z</time>
</trkpt>
<trkpt lat="33.0041473" lon="35.2078517">
<ele>376.97</ele>
<time>2015-07-06T04:26:31Z</time>
</trkpt>
<trkpt lat="33.0041675" lon="35.2081634">
<ele>378.12</ele>
<time>2015-07-06T04:26:43Z</time>
</trkpt>
<trkpt lat="33.0041120" lon="35.2083871">
<ele>378.86</ele>
<time>2015-07-06T04:26:51Z</time>
</trkpt>
<trkpt lat="33.0040327" lon="35.2086005">
<ele>379.47</ele>
<time>2015-07-06T04:26:59Z</time>
</trkpt>
<trkpt lat="33.0039710" lon="35.2088172">
<ele>379.82</ele>
<time>2015-07-06T04:27:07Z</time>
</trkpt>
<trkpt lat="33.0039270" lon="35.2090646">
<ele>380.33</ele>
<time>2015-07-06T04:27:15Z</time>
</trkpt>
<trkpt lat="33.0038961" lon="35.2093012">
<ele>380.91</ele>
<time>2015-07-06T04:27:23Z</time>
</trkpt>
<trkpt lat="33.0038514" lon="35.2095600">
<ele>381.24</ele>
<time>2015-07-06T04:27:31Z</time>
</trkpt>
<trkpt lat="33.0037520" lon="35.2098076">
<ele>380.86</ele>
<time>2015-07-06T04:27:39Z</time>
</trkpt>
<trkpt lat="33.0036677" lon="35.2101149">
<ele>380.33</ele>
<time>2015-07-06T04:27:47Z</time>
</trkpt>
<trkpt lat="33.0035668" lon="35.2103558">
<ele>379.99</ele>
<time>2015-07-06T04:27:55Z</time>
</trkpt>
<trkpt lat="33.0034888" lon="35.2106175">
<ele>379.30</ele>
<time>2015-07-06T04:28:03Z</time>
</trkpt>
<trkpt lat="33.0034964" lon="35.2108815">
<ele>379.11</ele>
<time>2015-07-06T04:28:11Z</time>
</trkpt>
<trkpt lat="33.0035676" lon="35.2111122">
<ele>379.00</ele>
<time>2015-07-06T04:28:19Z</time>
</trkpt>
<trkpt lat="33.0035353" lon="35.2113811">
<ele>378.61</ele>
<time>2015-07-06T04:28:27Z</time>
</trkpt>
<trkpt lat="33.0035206" lon="35.2116567">
<ele>377.74</ele>
<time>2015-07-06T04:28:35Z</time>
</trkpt>
<trkpt lat="33.0034139" lon="35.2118917">
<ele>375.14</ele>
<time>2015-07-06T04:28:47Z</time>
</trkpt>
<trkpt lat="33.0033450" lon="35.2121060">
<ele>373.88</ele>
<time>2015-07-06T04:28:55Z</time>
</trkpt>
<trkpt lat="33.0032940" lon="35.2124620">
<ele>372.80</ele>
<time>2015-07-06T04:29:03Z</time>
</trkpt>
<trkpt lat="33.0032305" lon="35.2128256">
<ele>372.17</ele>
<time>2015-07-06T04:29:11Z</time>
</trkpt>
<trkpt lat="33.0032151" lon="35.2130895">
<ele>372.37</ele>
<time>2015-07-06T04:29:19Z</time>
</trkpt>
<trkpt lat="33.0031720" lon="35.2133439">
<ele>372.98</ele>
<time>2015-07-06T04:29:27Z</time>
</trkpt>
<trkpt lat="33.0031393" lon="35.2136525">
<ele>373.95</ele>
<time>2015-07-06T04:29:39Z</time>
</trkpt>
<trkpt lat="33.0031982" lon="35.2138722">
<ele>375.83</ele>
<time>2015-07-06T04:29:47Z</time>
</trkpt>
<trkpt lat="33.0031980" lon="35.2141489">
<ele>377.96</ele>
<time>2015-07-06T04:29:59Z</time>
</trkpt>
<trkpt lat="33.0031783" lon="35.2144477">
<ele>378.53</ele>
<time>2015-07-06T04:30:11Z</time>
</trkpt>
<trkpt lat="33.0033119" lon="35.2146665">
<ele>382.10</ele>
<time>2015-07-06T04:30:23Z</time>
</trkpt>
<trkpt lat="33.0033022" lon="35.2148942">
<ele>384.58</ele>
<time>2015-07-06T04:30:35Z</time>
</trkpt>
<trkpt lat="33.0033756" lon="35.2152025">
<ele>386.25</ele>
<time>2015-07-06T04:30:47Z</time>
</trkpt>
<trkpt lat="33.0034188" lon="35.2154569">
<ele>389.06</ele>
<time>2015-07-06T04:31:03Z</time>
</trkpt>
<trkpt lat="33.0034700" lon="35.2157290">
<ele>391.64</ele>
<time>2015-07-06T04:31:19Z</time>
</trkpt>
<trkpt lat="33.0035017" lon="35.2159942">
<ele>395.86</ele>
<time>2015-07-06T04:32:03Z</time>
</trkpt>
<trkpt lat="33.0035212" lon="35.2162077">
<ele>397.81</ele>
<time>2015-07-06T04:32:19Z</time>
</trkpt>
<trkpt lat="33.0035225" lon="35.2164462">
<ele>399.92</ele>
<time>2015-07-06T04:32:35Z</time>
</trkpt>
<trkpt lat="33.0035214" lon="35.2168035">
<ele>400.61</ele>
<time>2015-07-06T04:33:11Z</time>
</trkpt>
<trkpt lat="33.0035155" lon="35.2170588">
<ele>400.31</ele>
<time>2015-07-06T04:33:19Z</time>
</trkpt>
<trkpt lat="33.0035250" lon="35.2172930">
<ele>401.17</ele>
<time>2015-07-06T04:33:31Z</time>
</trkpt>
<trkpt lat="33.0035723" lon="35.2175465">
<ele>402.81</ele>
<time>2015-07-06T04:33:43Z</time>
</trkpt>
<trkpt lat="33.0035754" lon="35.2178488">
<ele>404.05</ele>
<time>2015-07-06T04:33:55Z</time>
</trkpt>
<trkpt lat="33.0036140" lon="35.2181063">
<ele>405.80</ele>
<time>2015-07-06T04:34:07Z</time>
</trkpt>
<trkpt lat="33.0036902" lon="35.2183192">
<ele>407.97</ele>
<time>2015-07-06T04:34:19Z</time>
</trkpt>
<trkpt lat="33.0037014" lon="35.2185900">
<ele>409.00</ele>
<time>2015-07-06T04:34:35Z</time>
</trkpt>
<trkpt lat="33.0036924" lon="35.2188842">
<ele>408.24</ele>
<time>2015-07-06T04:34:43Z</time>
</trkpt>
<trkpt lat="33.0037120" lon="35.2191824">
<ele>406.85</ele>
<time>2015-07-06T04:34:51Z</time>
</trkpt>
<trkpt lat="33.0036333" lon="35.2194151">
<ele>404.25</ele>
<time>2015-07-06T04:35:03Z</time>
</trkpt>
<trkpt lat="33.0035228" lon="35.2197270">
<ele>399.88</ele>
<time>2015-07-06T04:35:15Z</time>
</trkpt>
<trkpt lat="33.0035423" lon="35.2201587">
<ele>398.46</ele>
<time>2015-07-06T04:35:23Z</time>
</trkpt>
<trkpt lat="33.0035473" lon="35.2204374">
<ele>398.62</ele>
<time>2015-07-06T04:35:31Z</time>
</trkpt>
<trkpt lat="33.0036130" lon="35.2207961">
<ele>398.62</ele>
<time>2015-07-06T04:35:43Z</time>
</trkpt>
<trkpt lat="33.0036298" lon="35.2210412">
<ele>398.32</ele>
<time>2015-07-06T04:35:51Z</time>
</trkpt>
<trkpt lat="33.0036674" lon="35.2212789">
<ele>398.48</ele>
<time>2015-07-06T04:35:59Z</time>
</trkpt>
<trkpt lat="33.0037892" lon="35.2214682">
<ele>399.14</ele>
<time>2015-07-06T04:36:07Z</time>
</trkpt>
<trkpt lat="33.0037606" lon="35.2216974">
<ele>401.90</ele>
<time>2015-07-06T04:36:23Z</time>
</trkpt>
<trkpt lat="33.0037754" lon="35.2219421">
<ele>404.16</ele>
<time>2015-07-06T04:36:35Z</time>
</trkpt>
<trkpt lat="33.0038355" lon="35.2221799">
<ele>407.70</ele>
<time>2015-07-06T04:36:51Z</time>
</trkpt>
<trkpt lat="33.0038136" lon="35.2225258">
<ele>410.71</ele>
<time>2015-07-06T04:37:07Z</time>
</trkpt>
<trkpt lat="33.0037684" lon="35.2228586">
<ele>411.01</ele>
<time>2015-07-06T04:37:23Z</time>
</trkpt>
<trkpt lat="33.0037056" lon="35.2231301">
<ele>411.06</ele>
<time>2015-07-06T04:37:31Z</time>
</trkpt>
<trkpt lat="33.0037533" lon="35.2233725">
<ele>413.71</ele>
<time>2015-07-06T04:37:47Z</time>
</trkpt>
<trkpt lat="33.0039033" lon="35.2235812">
<ele>417.21</ele>
<time>2015-07-06T04:38:03Z</time>
</trkpt>
<trkpt lat="33.0040063" lon="35.2237816">
<ele>420.16</ele>
<time>2015-07-06T04:38:15Z</time>
</trkpt>
<trkpt lat="33.0041300" lon="35.2239512">
<ele>423.24</ele>
<time>2015-07-06T04:38:31Z</time>
</trkpt>
<trkpt lat="33.0041808" lon="35.2241626">
<ele>425.52</ele>
<time>2015-07-06T04:38:43Z</time>
</trkpt>
<trkpt lat="33.0043216" lon="35.2243758">
<ele>428.47</ele>
<time>2015-07-06T04:38:59Z</time>
</trkpt>
<trkpt lat="33.0042605" lon="35.2246124">
<ele>429.51</ele>
<time>2015-07-06T04:39:15Z</time>
</trkpt>
<trkpt lat="33.0042437" lon="35.2248485">
<ele>429.58</ele>
<time>2015-07-06T04:39:27Z</time>
</trkpt>
<trkpt lat="33.0043131" lon="35.2251413">
<ele>430.80</ele>
<time>2015-07-06T04:39:43Z</time>
</trkpt>
<trkpt lat="33.0044298" lon="35.2253325">
<ele>432.44</ele>
<time>2015-07-06T04:39:55Z</time>
</trkpt>
<trkpt lat="33.0045215" lon="35.2251246">
<ele>434.76</ele>
<time>2015-07-06T04:40:19Z</time>
</trkpt>
<trkpt lat="33.0045774" lon="35.2249097">
<ele>436.43</ele>
<time>2015-07-06T04:40:31Z</time>
</trkpt>
<trkpt lat="33.0045849" lon="35.2246630">
<ele>437.65</ele>
<time>2015-07-06T04:40:43Z</time>
</trkpt>
<trkpt lat="33.0047647" lon="35.2247900">
<ele>440.43</ele>
<time>2015-07-06T04:41:07Z</time>
</trkpt>
<trkpt lat="33.0048576" lon="35.2250410">
<ele>441.21</ele>
<time>2015-07-06T04:41:23Z</time>
</trkpt>
<trkpt lat="33.0049208" lon="35.2252673">
<ele>443.43</ele>
<time>2015-07-06T04:41:35Z</time>
</trkpt>
<trkpt lat="33.0049812" lon="35.2255247">
<ele>443.90</ele>
<time>2015-07-06T04:41:47Z</time>
</trkpt>
<trkpt lat="33.0049911" lon="35.2257842">
<ele>443.57</ele>
<time>2015-07-06T04:41:59Z</time>
</trkpt>
<trkpt lat="33.0050006" lon="35.2260792">
<ele>442.58</ele>
<time>2015-07-06T04:42:07Z</time>
</trkpt>
<trkpt lat="33.0051035" lon="35.2263441">
<ele>443.09</ele>
<time>2015-07-06T04:42:19Z</time>
</trkpt>
<trkpt lat="33.0051787" lon="35.2266173">
<ele>443.96</ele>
<time>2015-07-06T04:42:35Z</time>
</trkpt>
<trkpt lat="33.0052288" lon="35.2263465">
<ele>446.31</ele>
<time>2015-07-06T04:42:55Z</time>
</trkpt>
<trkpt lat="33.0052680" lon="35.2260979">
<ele>447.97</ele>
<time>2015-07-06T04:43:07Z</time>
</trkpt>
<trkpt lat="33.0052296" lon="35.2258522">
<ele>449.57</ele>
<time>2015-07-06T04:43:19Z</time>
</trkpt>
<trkpt lat="33.0052027" lon="35.2256056">
<ele>451.53</ele>
<time>2015-07-06T04:43:31Z</time>
</trkpt>
<trkpt lat="33.0052777" lon="35.2253722">
<ele>453.58</ele>
<time>2015-07-06T04:43:43Z</time>
</trkpt>
<trkpt lat="33.0053262" lon="35.2251049">
<ele>456.20</ele>
<time>2015-07-06T04:43:59Z</time>
</trkpt>
<trkpt lat="33.0053882" lon="35.2248645">
<ele>457.31</ele>
<time>2015-07-06T04:44:11Z</time>
</trkpt>
<trkpt lat="33.0054972" lon="35.2246334">
<ele>458.88</ele>
<time>2015-07-06T04:44:27Z</time>
</trkpt>
<trkpt lat="33.0056092" lon="35.2244095">
<ele>460.08</ele>
<time>2015-07-06T04:44:39Z</time>
</trkpt>
<trkpt lat="33.0057587" lon="35.2242068">
<ele>460.57</ele>
<time>2015-07-06T04:44:47Z</time>
</trkpt>
<trkpt lat="33.0059022" lon="35.2240122">
<ele>460.35</ele>
<time>2015-07-06T04:44:55Z</time>
</trkpt>
<trkpt lat="33.0060538" lon="35.2237690">
<ele>459.39</ele>
<time>2015-07-06T04:45:03Z</time>
</trkpt>
<trkpt lat="33.0060934" lon="35.2234407">
<ele>456.58</ele>
<time>2015-07-06T04:45:11Z</time>
</trkpt>
<trkpt lat="33.0062366" lon="35.2230730">
<ele>453.08</ele>
<time>2015-07-06T04:45:19Z</time>
</trkpt>
<trkpt lat="33.0064360" lon="35.2228094">
<ele>450.98</ele>
<time>2015-07-06T04:45:27Z</time>
</trkpt>
<trkpt lat="33.0066308" lon="35.2226668">
<ele>450.54</ele>
<time>2015-07-06T04:45:35Z</time>
</trkpt>
<trkpt lat="33.0068186" lon="35.2225796">
<ele>451.96</ele>
<time>2015-07-06T04:45:43Z</time>
</trkpt>
<trkpt lat="33.0070224" lon="35.2226908">
<ele>454.62</ele>
<time>2015-07-06T04:45:55Z</time>
</trkpt>
<trkpt lat="33.0072537" lon="35.2226978">
<ele>456.14</ele>
<time>2015-07-06T04:46:07Z</time>
</trkpt>
<trkpt lat="33.0074497" lon="35.2226861">
<ele>456.40</ele>
<time>2015-07-06T04:46:15Z</time>
</trkpt>
<trkpt lat="33.0076765" lon="35.2226821">
<ele>456.37</ele>
<time>2015-07-06T04:46:23Z</time>
</trkpt>
<trkpt lat="33.0078851" lon="35.2227562">
<ele>456.35</ele>
<time>2015-07-06T04:46:31Z</time>
</trkpt>
<trkpt lat="33.0080707" lon="35.2228785">
<ele>456.49</ele>
<time>2015-07-06T04:46:39Z</time>
</trkpt>
<trkpt lat="33.0083320" lon="35.2229117">
<ele>456.57</ele>
<time>2015-07-06T04:46:47Z</time>
</trkpt>
<trkpt lat="33.0085746" lon="35.2229499">
<ele>456.31</ele>
<time>2015-07-06T04:46:55Z</time>
</trkpt>
<trkpt lat="33.0086458" lon="35.2226072">
<ele>454.70</ele>
<time>2015-07-06T04:47:07Z</time>
</trkpt>
<trkpt lat="33.0086724" lon="35.2222678">
<ele>453.21</ele>
<time>2015-07-06T04:47:11Z</time>
</trkpt>
<trkpt lat="33.0087173" lon="35.2219548">
<ele>451.34</ele>
<time>2015-07-06T04:47:15Z</time>
</trkpt>
<trkpt lat="33.0087415" lon="35.2216961">
<ele>449.51</ele>
<time>2015-07-06T04:47:19Z</time>
</trkpt>
<trkpt lat="33.0087758" lon="35.2214284">
<ele>447.60</ele>
<time>2015-07-06T04:47:23Z</time>
</trkpt>
<trkpt lat="33.0086432" lon="35.2210938">
<ele>444.73</ele>
<time>2015-07-06T04:47:31Z</time>
</trkpt>
<trkpt lat="33.0085487" lon="35.2208575">
<ele>443.04</ele>
<time>2015-07-06T04:47:39Z</time>
</trkpt>
<trkpt lat="33.0086101" lon="35.2204176">
<ele>441.09</ele>
<time>2015-07-06T04:47:47Z</time>
</trkpt>
<trkpt lat="33.0086094" lon="35.2201418">
<ele>439.74</ele>
<time>2015-07-06T04:47:51Z</time>
</trkpt>
<trkpt lat="33.0085995" lon="35.2198584">
<ele>438.28</ele>
<time>2015-07-06T04:47:55Z</time>
</trkpt>
<trkpt lat="33.0086011" lon="35.2195588">
<ele>436.66</ele>
<time>2015-07-06T04:47:59Z</time>
</trkpt>
<trkpt lat="33.0086248" lon="35.2192813">
<ele>435.11</ele>
<time>2015-07-06T04:48:03Z</time>
</trkpt>
<trkpt lat="33.0086408" lon="35.2189926">
<ele>433.61</ele>
<time>2015-07-06T04:48:07Z</time>
</trkpt>
<trkpt lat="33.0086290" lon="35.2187011">
<ele>432.13</ele>
<time>2015-07-06T04:48:11Z</time>
</trkpt>
<trkpt lat="33.0086492" lon="35.2184173">
<ele>430.74</ele>
<time>2015-07-06T04:48:15Z</time>
</trkpt>
<trkpt lat="33.0086070" lon="35.2181252">
<ele>429.53</ele>
<time>2015-07-06T04:48:19Z</time>
</trkpt>
<trkpt lat="33.0084584" lon="35.2179106">
<ele>428.63</ele>
<time>2015-07-06T04:48:23Z</time>
</trkpt>
<trkpt lat="33.0082831" lon="35.2178349">
<ele>428.05</ele>
<time>2015-07-06T04:48:27Z</time>
</trkpt>
<trkpt lat="33.0080172" lon="35.2177090">
<ele>427.59</ele>
<time>2015-07-06T04:48:35Z</time>
</trkpt>
<trkpt lat="33.0077955" lon="35.2176059">
<ele>427.58</ele>
<time>2015-07-06T04:48:43Z</time>
</trkpt>
<trkpt lat="33.0075813" lon="35.2174840">
<ele>427.79</ele>
<time>2015-07-06T04:48:51Z</time>
</trkpt>
<trkpt lat="33.0073802" lon="35.2172223">
<ele>427.55</ele>
<time>2015-07-06T04:48:59Z</time>
</trkpt>
<trkpt lat="33.0072409" lon="35.2170085">
<ele>427.16</ele>
<time>2015-07-06T04:49:03Z</time>
</trkpt>
<trkpt lat="33.0071065" lon="35.2168397">
<ele>426.54</ele>
<time>2015-07-06T04:49:07Z</time>
</trkpt>
<trkpt lat="33.0069257" lon="35.2167047">
<ele>426.10</ele>
<time>2015-07-06T04:49:11Z</time>
</trkpt>
<trkpt lat="33.0066907" lon="35.2164140">
<ele>425.47</ele>
<time>2015-07-06T04:49:19Z</time>
</trkpt>
<trkpt lat="33.0064064" lon="35.2160653">
<ele>424.67</ele>
<time>2015-07-06T04:49:27Z</time>
</trkpt>
<trkpt lat="33.0062759" lon="35.2158544">
<ele>424.05</ele>
<time>2015-07-06T04:49:31Z</time>
</trkpt>
<trkpt lat="33.0061693" lon="35.2155992">
<ele>423.40</ele>
<time>2015-07-06T04:49:35Z</time>
</trkpt>
<trkpt lat="33.0060883" lon="35.2153145">
<ele>422.34</ele>
<time>2015-07-06T04:49:39Z</time>
</trkpt>
<trkpt lat="33.0060805" lon="35.2150640">
<ele>420.41</ele>
<time>2015-07-06T04:49:47Z</time>
</trkpt>
<trkpt lat="33.0058117" lon="35.2150695">
<ele>419.97</ele>
<time>2015-07-06T04:49:55Z</time>
</trkpt>
<trkpt lat="33.0056084" lon="35.2151967">
<ele>420.31</ele>
<time>2015-07-06T04:50:03Z</time>
</trkpt>
<trkpt lat="33.0054895" lon="35.2154349">
<ele>420.93</ele>
<time>2015-07-06T04:50:11Z</time>
</trkpt>
<trkpt lat="33.0052296" lon="35.2155182">
<ele>420.57</ele>
<time>2015-07-06T04:50:19Z</time>
</trkpt>
<trkpt lat="33.0050292" lon="35.2154886">
<ele>420.23</ele>
<time>2015-07-06T04:50:31Z</time>
</trkpt>
</trkseg>
</trk>
</gpx>
