<?xml version="1.0" encoding="utf-8"?>
<gpx version="1.1"><trk><trkseg>
<trkpt lat="33.00507" lon="35.21549"><ele>347.0</ele><time>2021-08-03T04:14:18Z</time></trkpt>
<trkpt lat="33.00512" lon="35.21558"><ele>349.0</ele><time>2021-08-03T04:15:57Z</time></trkpt>
<trkpt lat="33.00518" lon="35.21553"><ele>350.0</ele><time>2021-08-03T04:16:03Z</time></trkpt>
<trkpt lat="33.00526" lon="35.21546"><ele>350.0</ele><time>2021-08-03T04:16:07Z</time></trkpt>
<trkpt lat="33.00533" lon="35.21543"><ele>350.0</ele><time>2021-08-03T04:16:10Z</time></trkpt>
<trkpt lat="33.00542" lon="35.21542"><ele>350.0</ele><time>2021-08-03T04:16:13Z</time></trkpt>
<trkpt lat="33.0055" lon="35.21543"><ele>350.0</ele><time>2021-08-03T04:16:17Z</time></trkpt>
<trkpt lat="33.00558" lon="35.21538"><ele>351.0</ele><time>2021-08-03T04:16:21Z</time></trkpt>
<trkpt lat="33.0056" lon="35.2153"><ele>351.0</ele><time>2021-08-03T04:16:23Z</time></trkpt>
<trkpt lat="33.00564" lon="35.21522"><ele>350.0</ele><time>2021-08-03T04:16:25Z</time></trkpt>
<trkpt lat="33.00569" lon="35.21514"><ele>350.0</ele><time>2021-08-03T04:16:27Z</time></trkpt>
<trkpt lat="33.00577" lon="35.21508"><ele>350.0</ele><time>2021-08-03T04:16:29Z</time></trkpt>
<trkpt lat="33.00585" lon="35.21504"><ele>350.0</ele><time>2021-08-03T04:16:31Z</time></trkpt>
<trkpt lat="33.00594" lon="35.215"><ele>349.0</ele><time>2021-08-03T04:16:34Z</time></trkpt>
<trkpt lat="33.006" lon="35.21492"><ele>349.0</ele><time>2021-08-03T04:16:38Z</time></trkpt>
<trkpt lat="33.006" lon="35.21482"><ele>349.0</ele><time>2021-08-03T04:16:41Z</time></trkpt>
<trkpt lat="33.00595" lon="35.21474"><ele>348.0</ele><time>2021-08-03T04:16:43Z</time></trkpt>
<trkpt lat="33.00589" lon="35.21463"><ele>348.0</ele><time>2021-08-03T04:16:45Z</time></trkpt>
<trkpt lat="33.00583" lon="35.21453"><ele>347.0</ele><time>2021-08-03T04:16:47Z</time></trkpt>
<trkpt lat="33.00577" lon="35.21442"><ele>347.0</ele><time>2021-08-03T04:16:49Z</time></trkpt>
<trkpt lat="33.00568" lon="35.21433"><ele>346.0</ele><time>2021-08-03T04:16:51Z</time></trkpt>
<trkpt lat="33.0056" lon="35.21422"><ele>345.0</ele><time>2021-08-03T04:16:53Z</time></trkpt>
<trkpt lat="33.00552" lon="35.21408"><ele>345.0</ele><time>2021-08-03T04:16:55Z</time></trkpt>
<trkpt lat="33.00547" lon="35.21401"><ele>344.0</ele><time>2021-08-03T04:16:56Z</time></trkpt>
<trkpt lat="33.00544" lon="35.21386"><ele>343.0</ele><time>2021-08-03T04:16:58Z</time></trkpt>
<trkpt lat="33.00546" lon="35.21376"><ele>342.0</ele><time>2021-08-03T04:16:59Z</time></trkpt>
<trkpt lat="33.00549" lon="35.21367"><ele>342.0</ele><time>2021-08-03T04:17:00Z</time></trkpt>
<trkpt lat="33.00552" lon="35.21359"><ele>341.0</ele><time>2021-08-03T04:17:01Z</time></trkpt>
<trkpt lat="33.00556" lon="35.2135"><ele>341.0</ele><time>2021-08-03T04:17:02Z</time></trkpt>
<trkpt lat="33.0056" lon="35.21342"><ele>340.0</ele><time>2021-08-03T04:17:03Z</time></trkpt>
<trkpt lat="33.00565" lon="35.21334"><ele>340.0</ele><time>2021-08-03T04:17:04Z</time></trkpt>
<trkpt lat="33.0057" lon="35.21327"><ele>340.0</ele><time>2021-08-03T04:17:05Z</time></trkpt>
<trkpt lat="33.00578" lon="35.21312"><ele>339.0</ele><time>2021-08-03T04:17:07Z</time></trkpt>
<trkpt lat="33.00583" lon="35.21305"><ele>339.0</ele><time>2021-08-03T04:17:08Z</time></trkpt>
<trkpt lat="33.00589" lon="35.21298"><ele>339.0</ele><time>2021-08-03T04:17:09Z</time></trkpt>
<trkpt lat="33.00594" lon="35.21291"><ele>338.0</ele><time>2021-08-03T04:17:10Z</time></trkpt>
<trkpt lat="33.00598" lon="35.21284"><ele>338.0</ele><time>2021-08-03T04:17:11Z</time></trkpt>
<trkpt lat="33.00603" lon="35.21277"><ele>338.0</ele><time>2021-08-03T04:17:12Z</time></trkpt>
<trkpt lat="33.00608" lon="35.21271"><ele>338.0</ele><time>2021-08-03T04:17:13Z</time></trkpt>
<trkpt lat="33.00612" lon="35.21264"><ele>337.0</ele><time>2021-08-03T04:17:14Z</time></trkpt>
<trkpt lat="33.00617" lon="35.21256"><ele>337.0</ele><time>2021-08-03T04:17:15Z</time></trkpt>
<trkpt lat="33.00622" lon="35.21249"><ele>337.0</ele><time>2021-08-03T04:17:16Z</time></trkpt>
<trkpt lat="33.00627" lon="35.21242"><ele>336.0</ele><time>2021-08-03T04:17:17Z</time></trkpt>
<trkpt lat="33.00632" lon="35.21234"><ele>336.0</ele><time>2021-08-03T04:17:18Z</time></trkpt>
<trkpt lat="33.00635" lon="35.21225"><ele>336.0</ele><time>2021-08-03T04:17:19Z</time></trkpt>
<trkpt lat="33.00638" lon="35.21216"><ele>335.0</ele><time>2021-08-03T04:17:20Z</time></trkpt>
<trkpt lat="33.0064" lon="35.21207"><ele>335.0</ele><time>2021-08-03T04:17:21Z</time></trkpt>
<trkpt lat="33.00643" lon="35.21197"><ele>335.0</ele><time>2021-08-03T04:17:22Z</time></trkpt>
<trkpt lat="33.00644" lon="35.21188"><ele>334.0</ele><time>2021-08-03T04:17:23Z</time></trkpt>
<trkpt lat="33.00646" lon="35.21177"><ele>334.0</ele><time>2021-08-03T04:17:24Z</time></trkpt>
<trkpt lat="33.00647" lon="35.21166"><ele>333.0</ele><time>2021-08-03T04:17:25Z</time></trkpt>
<trkpt lat="33.00649" lon="35.21155"><ele>333.0</ele><time>2021-08-03T04:17:26Z</time></trkpt>
<trkpt lat="33.00651" lon="35.21144"><ele>332.0</ele><time>2021-08-03T04:17:27Z</time></trkpt>
<trkpt lat="33.00652" lon="35.21132"><ele>332.0</ele><time>2021-08-03T04:17:28Z</time></trkpt>
<trkpt lat="33.00654" lon="35.2112"><ele>331.0</ele><time>2021-08-03T04:17:29Z</time></trkpt>
<trkpt lat="33.00655" lon="35.21108"><ele>330.0</ele><time>2021-08-03T04:17:30Z</time></trkpt>
<trkpt lat="33.00657" lon="35.21096"><ele>330.0</ele><time>2021-08-03T04:17:31Z</time></trkpt>
<trkpt lat="33.00657" lon="35.21083"><ele>329.0</ele><time>2021-08-03T04:17:32Z</time></trkpt>
<trkpt lat="33.00661" lon="35.21071"><ele>328.0</ele><time>2021-08-03T04:17:33Z</time></trkpt>
<trkpt lat="33.00661" lon="35.21059"><ele>327.0</ele><time>2021-08-03T04:17:34Z</time></trkpt>
<trkpt lat="33.00661" lon="35.21047"><ele>326.0</ele><time>2021-08-03T04:17:35Z</time></trkpt>
<trkpt lat="33.00661" lon="35.21035"><ele>326.0</ele><time>2021-08-03T04:17:36Z</time></trkpt>
<trkpt lat="33.00661" lon="35.21024"><ele>325.0</ele><time>2021-08-03T04:17:37Z</time></trkpt>
<trkpt lat="33.00659" lon="35.21013"><ele>325.0</ele><time>2021-08-03T04:17:38Z</time></trkpt>
<trkpt lat="33.00658" lon="35.21001"><ele>324.0</ele><time>2021-08-03T04:17:39Z</time></trkpt>
<trkpt lat="33.00658" lon="35.20989"><ele>324.0</ele><time>2021-08-03T04:17:40Z</time></trkpt>
<trkpt lat="33.00657" lon="35.20978"><ele>324.0</ele><time>2021-08-03T04:17:41Z</time></trkpt>
<trkpt lat="33.00656" lon="35.20966"><ele>323.0</ele><time>2021-08-03T04:17:42Z</time></trkpt>
<trkpt lat="33.00656" lon="35.20954"><ele>323.0</ele><time>2021-08-03T04:17:43Z</time></trkpt>
<trkpt lat="33.00656" lon="35.20943"><ele>322.0</ele><time>2021-08-03T04:17:44Z</time></trkpt>
<trkpt lat="33.00654" lon="35.20931"><ele>322.0</ele><time>2021-08-03T04:17:45Z</time></trkpt>
<trkpt lat="33.00654" lon="35.20919"><ele>322.0</ele><time>2021-08-03T04:17:46Z</time></trkpt>
<trkpt lat="33.00654" lon="35.2091"><ele>321.0</ele><time>2021-08-03T04:17:47Z</time></trkpt>
<trkpt lat="33.00654" lon="35.20895"><ele>320.0</ele><time>2021-08-03T04:17:49Z</time></trkpt>
<trkpt lat="33.00654" lon="35.20885"><ele>319.0</ele><time>2021-08-03T04:17:51Z</time></trkpt>
<trkpt lat="33.00659" lon="35.20878"><ele>318.0</ele><time>2021-08-03T04:17:54Z</time></trkpt>
<trkpt lat="33.00661" lon="35.2087"><ele>317.0</ele><time>2021-08-03T04:17:56Z</time></trkpt>
<trkpt lat="33.00661" lon="35.2086"><ele>317.0</ele><time>2021-08-03T04:17:58Z</time></trkpt>
<trkpt lat="33.00654" lon="35.20848"><ele>317.0</ele><time>2021-08-03T04:18:00Z</time></trkpt>
<trkpt lat="33.0065" lon="35.20836"><ele>316.0</ele><time>2021-08-03T04:18:02Z</time></trkpt>
<trkpt lat="33.00646" lon="35.20822"><ele>315.0</ele><time>2021-08-03T04:18:04Z</time></trkpt>
<trkpt lat="33.00644" lon="35.20807"><ele>315.0</ele><time>2021-08-03T04:18:06Z</time></trkpt>
<trkpt lat="33.00645" lon="35.2079"><ele>314.0</ele><time>2021-08-03T04:18:08Z</time></trkpt>
<trkpt lat="33.00645" lon="35.20781"><ele>313.0</ele><time>2021-08-03T04:18:09Z</time></trkpt>
<trkpt lat="33.00644" lon="35.20771"><ele>313.0</ele><time>2021-08-03T04:18:10Z</time></trkpt>
<trkpt lat="33.00643" lon="35.20761"><ele>312.0</ele><time>2021-08-03T04:18:11Z</time></trkpt>
<trkpt lat="33.00642" lon="35.20751"><ele>312.0</ele><time>2021-08-03T04:18:12Z</time></trkpt>
<trkpt lat="33.0064" lon="35.20741"><ele>311.0</ele><time>2021-08-03T04:18:13Z</time></trkpt>
<trkpt lat="33.00639" lon="35.20731"><ele>311.0</ele><time>2021-08-03T04:18:14Z</time></trkpt>
<trkpt lat="33.00638" lon="35.20722"><ele>310.0</ele><time>2021-08-03T04:18:15Z</time></trkpt>
<trkpt lat="33.00636" lon="35.20714"><ele>310.0</ele><time>2021-08-03T04:18:16Z</time></trkpt>
<trkpt lat="33.00634" lon="35.20698"><ele>308.0</ele><time>2021-08-03T04:18:18Z</time></trkpt>
<trkpt lat="33.00632" lon="35.20685"><ele>307.0</ele><time>2021-08-03T04:18:20Z</time></trkpt>
<trkpt lat="33.0063" lon="35.20672"><ele>307.0</ele><time>2021-08-03T04:18:22Z</time></trkpt>
<trkpt lat="33.00627" lon="35.20657"><ele>306.0</ele><time>2021-08-03T04:18:24Z</time></trkpt>
<trkpt lat="33.00622" lon="35.20641"><ele>305.0</ele><time>2021-08-03T04:18:26Z</time></trkpt>
<trkpt lat="33.00621" lon="35.20632"><ele>305.0</ele><time>2021-08-03T04:18:27Z</time></trkpt>
<trkpt lat="33.00621" lon="35.20623"><ele>304.0</ele><time>2021-08-03T04:18:28Z</time></trkpt>
<trkpt lat="33.00621" lon="35.20614"><ele>303.0</ele><time>2021-08-03T04:18:29Z</time></trkpt>
<trkpt lat="33.0062" lon="35.20598"><ele>303.0</ele><time>2021-08-03T04:18:31Z</time></trkpt>
<trkpt lat="33.00616" lon="35.20584"><ele>302.0</ele><time>2021-08-03T04:18:33Z</time></trkpt>
<trkpt lat="33.00605" lon="35.20578"><ele>301.0</ele><time>2021-08-03T04:18:35Z</time></trkpt>
<trkpt lat="33.00598" lon="35.20579"><ele>301.0</ele><time>2021-08-03T04:18:36Z</time></trkpt>
<trkpt lat="33.00586" lon="35.20584"><ele>301.0</ele><time>2021-08-03T04:18:38Z</time></trkpt>
<trkpt lat="33.00576" lon="35.20587"><ele>301.0</ele><time>2021-08-03T04:18:40Z</time></trkpt>
<trkpt lat="33.00566" lon="35.20592"><ele>301.0</ele><time>2021-08-03T04:18:42Z</time></trkpt>
<trkpt lat="33.00556" lon="35.20599"><ele>301.0</ele><time>2021-08-03T04:18:44Z</time></trkpt>
<trkpt lat="33.00548" lon="35.20609"><ele>300.0</ele><time>2021-08-03T04:18:46Z</time></trkpt>
<trkpt lat="33.00541" lon="35.20619"><ele>301.0</ele><time>2021-08-03T04:18:48Z</time></trkpt>
<trkpt lat="33.00534" lon="35.2063"><ele>301.0</ele><time>2021-08-03T04:18:50Z</time></trkpt>
<trkpt lat="33.00528" lon="35.2064"><ele>301.0</ele><time>2021-08-03T04:18:52Z</time></trkpt>
<trkpt lat="33.00522" lon="35.20651"><ele>301.0</ele><time>2021-08-03T04:18:54Z</time></trkpt>
<trkpt lat="33.00515" lon="35.2066"><ele>301.0</ele><time>2021-08-03T04:18:56Z</time></trkpt>
<trkpt lat="33.00509" lon="35.20669"><ele>302.0</ele><time>2021-08-03T04:18:58Z</time></trkpt>
<trkpt lat="33.00504" lon="35.20679"><ele>302.0</ele><time>2021-08-03T04:19:00Z</time></trkpt>
<trkpt lat="33.00497" lon="35.20688"><ele>302.0</ele><time>2021-08-03T04:19:02Z</time></trkpt>
<trkpt lat="33.00491" lon="35.20696"><ele>302.0</ele><time>2021-08-03T04:19:04Z</time></trkpt>
<trkpt lat="33.00486" lon="35.20705"><ele>302.0</ele><time>2021-08-03T04:19:06Z</time></trkpt>
<trkpt lat="33.0048" lon="35.20714"><ele>303.0</ele><time>2021-08-03T04:19:08Z</time></trkpt>
<trkpt lat="33.00473" lon="35.20721"><ele>303.0</ele><time>2021-08-03T04:19:10Z</time></trkpt>
<trkpt lat="33.00463" lon="35.20724"><ele>303.0</ele><time>2021-08-03T04:19:12Z</time></trkpt>
<trkpt lat="33.00455" lon="35.2073"><ele>303.0</ele><time>2021-08-03T04:19:14Z</time></trkpt>
<trkpt lat="33.00447" lon="35.20737"><ele>303.0</ele><time>2021-08-03T04:19:16Z</time></trkpt>
<trkpt lat="33.0044" lon="35.20745"><ele>304.0</ele><time>2021-08-03T04:19:18Z</time></trkpt>
<trkpt lat="33.00433" lon="35.20751"><ele>304.0</ele><time>2021-08-03T04:19:20Z</time></trkpt>
<trkpt lat="33.00424" lon="35.20758"><ele>304.0</ele><time>2021-08-03T04:19:22Z</time></trkpt>
<trkpt lat="33.00415" lon="35.20762"><ele>304.0</ele><time>2021-08-03T04:19:24Z</time></trkpt>
<trkpt lat="33.00407" lon="35.20769"><ele>304.0</ele><time>2021-08-03T04:19:26Z</time></trkpt>
<trkpt lat="33.00398" lon="35.20775"><ele>304.0</ele><time>2021-08-03T04:19:28Z</time></trkpt>
<trkpt lat="33.0039" lon="35.20782"><ele>304.0</ele><time>2021-08-03T04:19:30Z</time></trkpt>
<trkpt lat="33.00382" lon="35.2079"><ele>304.0</ele><time>2021-08-03T04:19:32Z</time></trkpt>
<trkpt lat="33.00373" lon="35.20798"><ele>303.0</ele><time>2021-08-03T04:19:34Z</time></trkpt>
<trkpt lat="33.00364" lon="35.20806"><ele>303.0</ele><time>2021-08-03T04:19:36Z</time></trkpt>
<trkpt lat="33.00354" lon="35.20814"><ele>303.0</ele><time>2021-08-03T04:19:38Z</time></trkpt>
<trkpt lat="33.00347" lon="35.20816"><ele>303.0</ele><time>2021-08-03T04:19:39Z</time></trkpt>
<trkpt lat="33.00335" lon="35.20824"><ele>302.0</ele><time>2021-08-03T04:19:41Z</time></trkpt>
<trkpt lat="33.00322" lon="35.20832"><ele>301.0</ele><time>2021-08-03T04:19:43Z</time></trkpt>
<trkpt lat="33.00315" lon="35.20836"><ele>301.0</ele><time>2021-08-03T04:19:44Z</time></trkpt>
<trkpt lat="33.00307" lon="35.2084"><ele>300.0</ele><time>2021-08-03T04:19:45Z</time></trkpt>
<trkpt lat="33.003" lon="35.20843"><ele>299.0</ele><time>2021-08-03T04:19:46Z</time></trkpt>
<trkpt lat="33.00291" lon="35.20846"><ele>299.0</ele><time>2021-08-03T04:19:47Z</time></trkpt>
<trkpt lat="33.00283" lon="35.2085"><ele>298.0</ele><time>2021-08-03T04:19:48Z</time></trkpt>
<trkpt lat="33.00275" lon="35.20854"><ele>297.0</ele><time>2021-08-03T04:19:49Z</time></trkpt>
<trkpt lat="33.00266" lon="35.20858"><ele>297.0</ele><time>2021-08-03T04:19:50Z</time></trkpt>
<trkpt lat="33.00257" lon="35.20862"><ele>296.0</ele><time>2021-08-03T04:19:51Z</time></trkpt>
<trkpt lat="33.00247" lon="35.20866"><ele>295.0</ele><time>2021-08-03T04:19:52Z</time></trkpt>
<trkpt lat="33.00238" lon="35.20871"><ele>294.0</ele><time>2021-08-03T04:19:53Z</time></trkpt>
<trkpt lat="33.00228" lon="35.20876"><ele>293.0</ele><time>2021-08-03T04:19:54Z</time></trkpt>
<trkpt lat="33.00218" lon="35.2088"><ele>292.0</ele><time>2021-08-03T04:19:55Z</time></trkpt>
<trkpt lat="33.00208" lon="35.20886"><ele>291.0</ele><time>2021-08-03T04:19:56Z</time></trkpt>
<trkpt lat="33.00197" lon="35.20891"><ele>290.0</ele><time>2021-08-03T04:19:57Z</time></trkpt>
<trkpt lat="33.00186" lon="35.20896"><ele>288.0</ele><time>2021-08-03T04:19:58Z</time></trkpt>
<trkpt lat="33.00174" lon="35.20901"><ele>287.0</ele><time>2021-08-03T04:19:59Z</time></trkpt>
<trkpt lat="33.00163" lon="35.20907"><ele>285.0</ele><time>2021-08-03T04:20:00Z</time></trkpt>
<trkpt lat="33.00151" lon="35.20912"><ele>284.0</ele><time>2021-08-03T04:20:01Z</time></trkpt>
<trkpt lat="33.00139" lon="35.20918"><ele>283.0</ele><time>2021-08-03T04:20:02Z</time></trkpt>
<trkpt lat="33.00128" lon="35.20923"><ele>282.0</ele><time>2021-08-03T04:20:03Z</time></trkpt>
<trkpt lat="33.00116" lon="35.20929"><ele>281.0</ele><time>2021-08-03T04:20:04Z</time></trkpt>
<trkpt lat="33.00105" lon="35.20935"><ele>280.0</ele><time>2021-08-03T04:20:05Z</time></trkpt>
<trkpt lat="33.00093" lon="35.20941"><ele>279.0</ele><time>2021-08-03T04:20:06Z</time></trkpt>
<trkpt lat="33.00082" lon="35.20947"><ele>278.0</ele><time>2021-08-03T04:20:07Z</time></trkpt>
<trkpt lat="33.00072" lon="35.20954"><ele>277.0</ele><time>2021-08-03T04:20:08Z</time></trkpt>
<trkpt lat="33.00065" lon="35.20963"><ele>277.0</ele><time>2021-08-03T04:20:09Z</time></trkpt>
<trkpt lat="33.00058" lon="35.20971"><ele>277.0</ele><time>2021-08-03T04:20:10Z</time></trkpt>
<trkpt lat="33.00053" lon="35.20979"><ele>277.0</ele><time>2021-08-03T04:20:11Z</time></trkpt>
<trkpt lat="33.00049" lon="35.20987"><ele>278.0</ele><time>2021-08-03T04:20:12Z</time></trkpt>
<trkpt lat="33.00042" lon="35.21"><ele>279.0</ele><time>2021-08-03T04:20:14Z</time></trkpt>
<trkpt lat="33.00037" lon="35.2101"><ele>280.0</ele><time>2021-08-03T04:20:16Z</time></trkpt>
<trkpt lat="33.00033" lon="35.2102"><ele>282.0</ele><time>2021-08-03T04:20:18Z</time></trkpt>
<trkpt lat="33.0003" lon="35.21028"><ele>283.0</ele><time>2021-08-03T04:20:20Z</time></trkpt>
<trkpt lat="33.00025" lon="35.21039"><ele>284.0</ele><time>2021-08-03T04:20:23Z</time></trkpt>
<trkpt lat="33.00021" lon="35.21047"><ele>285.0</ele><time>2021-08-03T04:20:26Z</time></trkpt>
<trkpt lat="33.00017" lon="35.21057"><ele>285.0</ele><time>2021-08-03T04:20:29Z</time></trkpt>
<trkpt lat="33.00012" lon="35.21064"><ele>286.0</ele><time>2021-08-03T04:20:32Z</time></trkpt>
<trkpt lat="33.00005" lon="35.21071"><ele>287.0</ele><time>2021-08-03T04:20:35Z</time></trkpt>
<trkpt lat="33.00001" lon="35.21079"><ele>287.0</ele><time>2021-08-03T04:20:38Z</time></trkpt>
<trkpt lat="32.99997" lon="35.21087"><ele>288.0</ele><time>2021-08-03T04:20:41Z</time></trkpt>
<trkpt lat="32.99993" lon="35.21097"><ele>288.0</ele><time>2021-08-03T04:20:45Z</time></trkpt>
<trkpt lat="32.99987" lon="35.21104"><ele>289.0</ele><time>2021-08-03T04:20:49Z</time></trkpt>
<trkpt lat="32.99983" lon="35.21112"><ele>290.0</ele><time>2021-08-03T04:20:52Z</time></trkpt>
<trkpt lat="32.99979" lon="35.21119"><ele>290.0</ele><time>2021-08-03T04:20:55Z</time></trkpt>
<trkpt lat="32.99975" lon="35.21126"><ele>291.0</ele><time>2021-08-03T04:20:58Z</time></trkpt>
<trkpt lat="32.99972" lon="35.21134"><ele>292.0</ele><time>2021-08-03T04:21:01Z</time></trkpt>
<trkpt lat="32.99967" lon="35.21141"><ele>292.0</ele><time>2021-08-03T04:21:04Z</time></trkpt>
<trkpt lat="32.99962" lon="35.2115"><ele>293.0</ele><time>2021-08-03T04:21:08Z</time></trkpt>
<trkpt lat="32.99957" lon="35.21158"><ele>294.0</ele><time>2021-08-03T04:21:12Z</time></trkpt>
<trkpt lat="32.99952" lon="35.21166"><ele>295.0</ele><time>2021-08-03T04:21:16Z</time></trkpt>
<trkpt lat="32.99947" lon="35.21175"><ele>295.0</ele><time>2021-08-03T04:21:20Z</time></trkpt>
<trkpt lat="32.99943" lon="35.21183"><ele>296.0</ele><time>2021-08-03T04:21:24Z</time></trkpt>
<trkpt lat="32.99938" lon="35.21191"><ele>297.0</ele><time>2021-08-03T04:21:28Z</time></trkpt>
<trkpt lat="32.99934" lon="35.21198"><ele>298.0</ele><time>2021-08-03T04:21:32Z</time></trkpt>
<trkpt lat="32.9993" lon="35.21206"><ele>298.0</ele><time>2021-08-03T04:21:36Z</time></trkpt>
<trkpt lat="32.99926" lon="35.21213"><ele>299.0</ele><time>2021-08-03T04:21:40Z</time></trkpt>
<trkpt lat="32.99922" lon="35.21221"><ele>300.0</ele><time>2021-08-03T04:21:45Z</time></trkpt>
<trkpt lat="32.99917" lon="35.21229"><ele>301.0</ele><time>2021-08-03T04:21:50Z</time></trkpt>
<trkpt lat="32.99912" lon="35.21237"><ele>301.0</ele><time>2021-08-03T04:21:55Z</time></trkpt>
<trkpt lat="32.99908" lon="35.21245"><ele>302.0</ele><time>2021-08-03T04:22:00Z</time></trkpt>
<trkpt lat="32.99904" lon="35.21253"><ele>303.0</ele><time>2021-08-03T04:22:05Z</time></trkpt>
<trkpt lat="32.999" lon="35.2126"><ele>304.0</ele><time>2021-08-03T04:22:09Z</time></trkpt>
<trkpt lat="32.99895" lon="35.21268"><ele>304.0</ele><time>2021-08-03T04:22:14Z</time></trkpt>
<trkpt lat="32.99891" lon="35.21276"><ele>305.0</ele><time>2021-08-03T04:22:19Z</time></trkpt>
<trkpt lat="32.99887" lon="35.21284"><ele>306.0</ele><time>2021-08-03T04:22:24Z</time></trkpt>
<trkpt lat="32.99883" lon="35.21292"><ele>307.0</ele><time>2021-08-03T04:22:29Z</time></trkpt>
<trkpt lat="32.99879" lon="35.213"><ele>307.0</ele><time>2021-08-03T04:22:34Z</time></trkpt>
<trkpt lat="32.99874" lon="35.21308"><ele>308.0</ele><time>2021-08-03T04:22:40Z</time></trkpt>
<trkpt lat="32.9987" lon="35.21317"><ele>309.0</ele><time>2021-08-03T04:22:46Z</time></trkpt>
<trkpt lat="32.99865" lon="35.21325"><ele>310.0</ele><time>2021-08-03T04:22:52Z</time></trkpt>
<trkpt lat="32.99861" lon="35.21332"><ele>311.0</ele><time>2021-08-03T04:22:57Z</time></trkpt>
<trkpt lat="32.99857" lon="35.21341"><ele>312.0</ele><time>2021-08-03T04:23:03Z</time></trkpt>
<trkpt lat="32.99854" lon="35.21349"><ele>313.0</ele><time>2021-08-03T04:23:08Z</time></trkpt>
<trkpt lat="32.9985" lon="35.21358"><ele>314.0</ele><time>2021-08-03T04:23:14Z</time></trkpt>
<trkpt lat="32.99846" lon="35.21367"><ele>315.0</ele><time>2021-08-03T04:23:20Z</time></trkpt>
<trkpt lat="32.99843" lon="35.21375"><ele>316.0</ele><time>2021-08-03T04:23:26Z</time></trkpt>
<trkpt lat="32.99839" lon="35.21382"><ele>316.0</ele><time>2021-08-03T04:23:31Z</time></trkpt>
<trkpt lat="32.99834" lon="35.2139"><ele>317.0</ele><time>2021-08-03T04:23:37Z</time></trkpt>
<trkpt lat="32.99829" lon="35.21398"><ele>318.0</ele><time>2021-08-03T04:23:43Z</time></trkpt>
<trkpt lat="32.99826" lon="35.21407"><ele>319.0</ele><time>2021-08-03T04:23:49Z</time></trkpt>
<trkpt lat="32.99821" lon="35.21414"><ele>320.0</ele><time>2021-08-03T04:23:54Z</time></trkpt>
<trkpt lat="32.99815" lon="35.21419"><ele>320.0</ele><time>2021-08-03T04:23:58Z</time></trkpt>
<trkpt lat="32.9981" lon="35.21427"><ele>321.0</ele><time>2021-08-03T04:24:03Z</time></trkpt>
<trkpt lat="32.99807" lon="35.21437"><ele>322.0</ele><time>2021-08-03T04:24:08Z</time></trkpt>
<trkpt lat="32.99802" lon="35.21446"><ele>323.0</ele><time>2021-08-03T04:24:14Z</time></trkpt>
<trkpt lat="32.99798" lon="35.21454"><ele>324.0</ele><time>2021-08-03T04:24:19Z</time></trkpt>
<trkpt lat="32.99796" lon="35.21463"><ele>324.0</ele><time>2021-08-03T04:24:25Z</time></trkpt>
<trkpt lat="32.99793" lon="35.21472"><ele>325.0</ele><time>2021-08-03T04:24:30Z</time></trkpt>
<trkpt lat="32.9979" lon="35.21482"><ele>326.0</ele><time>2021-08-03T04:24:35Z</time></trkpt>
<trkpt lat="32.99788" lon="35.21492"><ele>327.0</ele><time>2021-08-03T04:24:40Z</time></trkpt>
<trkpt lat="32.99786" lon="35.21501"><ele>328.0</ele><time>2021-08-03T04:24:45Z</time></trkpt>
<trkpt lat="32.99784" lon="35.21511"><ele>328.0</ele><time>2021-08-03T04:24:51Z</time></trkpt>
<trkpt lat="32.99782" lon="35.2152"><ele>329.0</ele><time>2021-08-03T04:24:56Z</time></trkpt>
<trkpt lat="32.99781" lon="35.21529"><ele>329.0</ele><time>2021-08-03T04:25:01Z</time></trkpt>
<trkpt lat="32.99779" lon="35.21539"><ele>330.0</ele><time>2021-08-03T04:25:06Z</time></trkpt>
<trkpt lat="32.99777" lon="35.21549"><ele>331.0</ele><time>2021-08-03T04:25:11Z</time></trkpt>
<trkpt lat="32.99776" lon="35.21559"><ele>331.0</ele><time>2021-08-03T04:25:16Z</time></trkpt>
<trkpt lat="32.99774" lon="35.21569"><ele>332.0</ele><time>2021-08-03T04:25:21Z</time></trkpt>
<trkpt lat="32.99773" lon="35.21579"><ele>332.0</ele><time>2021-08-03T04:25:26Z</time></trkpt>
<trkpt lat="32.99771" lon="35.21589"><ele>333.0</ele><time>2021-08-03T04:25:31Z</time></trkpt>
<trkpt lat="32.99769" lon="35.21599"><ele>333.0</ele><time>2021-08-03T04:25:36Z</time></trkpt>
<trkpt lat="32.99768" lon="35.21609"><ele>334.0</ele><time>2021-08-03T04:25:41Z</time></trkpt>
<trkpt lat="32.99767" lon="35.21618"><ele>334.0</ele><time>2021-08-03T04:25:45Z</time></trkpt>
<trkpt lat="32.99765" lon="35.21626"><ele>335.0</ele><time>2021-08-03T04:25:49Z</time></trkpt>
<trkpt lat="32.99762" lon="35.21636"><ele>335.0</ele><time>2021-08-03T04:25:54Z</time></trkpt>
<trkpt lat="32.99761" lon="35.21645"><ele>336.0</ele><time>2021-08-03T04:25:59Z</time></trkpt>
<trkpt lat="32.99758" lon="35.21653"><ele>336.0</ele><time>2021-08-03T04:26:03Z</time></trkpt>
<trkpt lat="32.99756" lon="35.21662"><ele>337.0</ele><time>2021-08-03T04:26:07Z</time></trkpt>
<trkpt lat="32.99754" lon="35.2167"><ele>338.0</ele><time>2021-08-03T04:26:12Z</time></trkpt>
<trkpt lat="32.99751" lon="35.21678"><ele>338.0</ele><time>2021-08-03T04:26:16Z</time></trkpt>
<trkpt lat="32.99747" lon="35.21686"><ele>339.0</ele><time>2021-08-03T04:26:20Z</time></trkpt>
<trkpt lat="32.9974" lon="35.21692"><ele>339.0</ele><time>2021-08-03T04:26:25Z</time></trkpt>
<trkpt lat="32.99733" lon="35.21697"><ele>340.0</ele><time>2021-08-03T04:26:31Z</time></trkpt>
<trkpt lat="32.99736" lon="35.21707"><ele>341.0</ele><time>2021-08-03T04:26:36Z</time></trkpt>
<trkpt lat="32.99742" lon="35.21714"><ele>341.0</ele><time>2021-08-03T04:26:41Z</time></trkpt>
<trkpt lat="32.99749" lon="35.21712"><ele>341.0</ele><time>2021-08-03T04:26:45Z</time></trkpt>
<trkpt lat="32.99753" lon="35.21702"><ele>340.0</ele><time>2021-08-03T04:26:48Z</time></trkpt>
<trkpt lat="32.99753" lon="35.2169"><ele>340.0</ele><time>2021-08-03T04:26:50Z</time></trkpt>
<trkpt lat="32.99756" lon="35.21677"><ele>339.0</ele><time>2021-08-03T04:26:52Z</time></trkpt>
<trkpt lat="32.9976" lon="35.21663"><ele>339.0</ele><time>2021-08-03T04:26:54Z</time></trkpt>
<trkpt lat="32.99764" lon="35.21648"><ele>338.0</ele><time>2021-08-03T04:26:56Z</time></trkpt>
<trkpt lat="32.9977" lon="35.21634"><ele>337.0</ele><time>2021-08-03T04:26:58Z</time></trkpt>
<trkpt lat="32.99775" lon="35.21618"><ele>336.0</ele><time>2021-08-03T04:27:00Z</time></trkpt>
<trkpt lat="32.99776" lon="35.2161"><ele>336.0</ele><time>2021-08-03T04:27:01Z</time></trkpt>
<trkpt lat="32.99778" lon="35.216"><ele>335.0</ele><time>2021-08-03T04:27:02Z</time></trkpt>
<trkpt lat="32.99779" lon="35.21591"><ele>335.0</ele><time>2021-08-03T04:27:03Z</time></trkpt>
<trkpt lat="32.99781" lon="35.2158"><ele>334.0</ele><time>2021-08-03T04:27:04Z</time></trkpt>
<trkpt lat="32.99783" lon="35.21569"><ele>334.0</ele><time>2021-08-03T04:27:05Z</time></trkpt>
<trkpt lat="32.99786" lon="35.21548"><ele>332.0</ele><time>2021-08-03T04:27:06Z</time></trkpt>
<trkpt lat="32.99788" lon="35.21536"><ele>332.0</ele><time>2021-08-03T04:27:07Z</time></trkpt>
<trkpt lat="32.9979" lon="35.21525"><ele>331.0</ele><time>2021-08-03T04:27:08Z</time></trkpt>
<trkpt lat="32.99792" lon="35.21513"><ele>330.0</ele><time>2021-08-03T04:27:09Z</time></trkpt>
<trkpt lat="32.99795" lon="35.215"><ele>330.0</ele><time>2021-08-03T04:27:10Z</time></trkpt>
<trkpt lat="32.99797" lon="35.21488"><ele>329.0</ele><time>2021-08-03T04:27:11Z</time></trkpt>
<trkpt lat="32.99801" lon="35.21476"><ele>328.0</ele><time>2021-08-03T04:27:12Z</time></trkpt>
<trkpt lat="32.99804" lon="35.21463"><ele>327.0</ele><time>2021-08-03T04:27:13Z</time></trkpt>
<trkpt lat="32.99809" lon="35.2145"><ele>326.0</ele><time>2021-08-03T04:27:14Z</time></trkpt>
<trkpt lat="32.99814" lon="35.21438"><ele>325.0</ele><time>2021-08-03T04:27:15Z</time></trkpt>
<trkpt lat="32.99821" lon="35.21425"><ele>324.0</ele><time>2021-08-03T04:27:16Z</time></trkpt>
<trkpt lat="32.99827" lon="35.21413"><ele>323.0</ele><time>2021-08-03T04:27:17Z</time></trkpt>
<trkpt lat="32.99834" lon="35.214"><ele>322.0</ele><time>2021-08-03T04:27:18Z</time></trkpt>
<trkpt lat="32.99841" lon="35.21387"><ele>321.0</ele><time>2021-08-03T04:27:19Z</time></trkpt>
<trkpt lat="32.99848" lon="35.21374"><ele>320.0</ele><time>2021-08-03T04:27:20Z</time></trkpt>
<trkpt lat="32.99855" lon="35.21361"><ele>318.0</ele><time>2021-08-03T04:27:21Z</time></trkpt>
<trkpt lat="32.99863" lon="35.21347"><ele>317.0</ele><time>2021-08-03T04:27:22Z</time></trkpt>
<trkpt lat="32.9987" lon="35.21333"><ele>315.0</ele><time>2021-08-03T04:27:23Z</time></trkpt>
<trkpt lat="32.99878" lon="35.21319"><ele>313.0</ele><time>2021-08-03T04:27:24Z</time></trkpt>
<trkpt lat="32.99886" lon="35.21305"><ele>312.0</ele><time>2021-08-03T04:27:25Z</time></trkpt>
<trkpt lat="32.99894" lon="35.2129"><ele>310.0</ele><time>2021-08-03T04:27:26Z</time></trkpt>
<trkpt lat="32.99901" lon="35.21276"><ele>309.0</ele><time>2021-08-03T04:27:27Z</time></trkpt>
<trkpt lat="32.99909" lon="35.21261"><ele>307.0</ele><time>2021-08-03T04:27:28Z</time></trkpt>
<trkpt lat="32.99917" lon="35.21246"><ele>306.0</ele><time>2021-08-03T04:27:29Z</time></trkpt>
<trkpt lat="32.99926" lon="35.21231"><ele>304.0</ele><time>2021-08-03T04:27:30Z</time></trkpt>
<trkpt lat="32.99934" lon="35.21217"><ele>303.0</ele><time>2021-08-03T04:27:31Z</time></trkpt>
<trkpt lat="32.99943" lon="35.21202"><ele>301.0</ele><time>2021-08-03T04:27:32Z</time></trkpt>
<trkpt lat="32.99951" lon="35.21188"><ele>300.0</ele><time>2021-08-03T04:27:33Z</time></trkpt>
<trkpt lat="32.99959" lon="35.21173"><ele>298.0</ele><time>2021-08-03T04:27:34Z</time></trkpt>
<trkpt lat="32.99967" lon="35.21158"><ele>297.0</ele><time>2021-08-03T04:27:35Z</time></trkpt>
<trkpt lat="32.99975" lon="35.21142"><ele>296.0</ele><time>2021-08-03T04:27:36Z</time></trkpt>
<trkpt lat="32.99983" lon="35.21127"><ele>294.0</ele><time>2021-08-03T04:27:37Z</time></trkpt>
<trkpt lat="32.99991" lon="35.21112"><ele>293.0</ele><time>2021-08-03T04:27:38Z</time></trkpt>
<trkpt lat="32.99999" lon="35.21097"><ele>292.0</ele><time>2021-08-03T04:27:39Z</time></trkpt>
<trkpt lat="33.00007" lon="35.21082"><ele>290.0</ele><time>2021-08-03T04:27:40Z</time></trkpt>
<trkpt lat="33.00015" lon="35.21067"><ele>289.0</ele><time>2021-08-03T04:27:41Z</time></trkpt>
<trkpt lat="33.00023" lon="35.21051"><ele>287.0</ele><time>2021-08-03T04:27:42Z</time></trkpt>
<trkpt lat="33.0003" lon="35.21037"><ele>286.0</ele><time>2021-08-03T04:27:43Z</time></trkpt>
<trkpt lat="33.00038" lon="35.21022"><ele>285.0</ele><time>2021-08-03T04:27:44Z</time></trkpt>
<trkpt lat="33.00046" lon="35.21007"><ele>284.0</ele><time>2021-08-03T04:27:45Z</time></trkpt>
<trkpt lat="33.00054" lon="35.20992"><ele>283.0</ele><time>2021-08-03T04:27:46Z</time></trkpt>
<trkpt lat="33.00063" lon="35.20978"><ele>281.0</ele><time>2021-08-03T04:27:47Z</time></trkpt>
<trkpt lat="33.00073" lon="35.20965"><ele>280.0</ele><time>2021-08-03T04:27:48Z</time></trkpt>
<trkpt lat="33.00085" lon="35.20955"><ele>279.0</ele><time>2021-08-03T04:27:49Z</time></trkpt>
<trkpt lat="33.00097" lon="35.20947"><ele>278.0</ele><time>2021-08-03T04:27:50Z</time></trkpt>
<trkpt lat="33.00109" lon="35.2094"><ele>277.0</ele><time>2021-08-03T04:27:51Z</time></trkpt>
<trkpt lat="33.00121" lon="35.20934"><ele>276.0</ele><time>2021-08-03T04:27:52Z</time></trkpt>
<trkpt lat="33.00132" lon="35.20932"><ele>275.0</ele><time>2021-08-03T04:27:53Z</time></trkpt>
<trkpt lat="33.00142" lon="35.20928"><ele>275.0</ele><time>2021-08-03T04:27:54Z</time></trkpt>
<trkpt lat="33.00152" lon="35.20924"><ele>276.0</ele><time>2021-08-03T04:27:55Z</time></trkpt>
<trkpt lat="33.00159" lon="35.2092"><ele>276.0</ele><time>2021-08-03T04:27:56Z</time></trkpt>
<trkpt lat="33.00166" lon="35.20917"><ele>277.0</ele><time>2021-08-03T04:27:57Z</time></trkpt>
<trkpt lat="33.00177" lon="35.20911"><ele>279.0</ele><time>2021-08-03T04:27:59Z</time></trkpt>
<trkpt lat="33.00185" lon="35.20907"><ele>281.0</ele><time>2021-08-03T04:28:01Z</time></trkpt>
<trkpt lat="33.00192" lon="35.20904"><ele>283.0</ele><time>2021-08-03T04:28:05Z</time></trkpt>
<trkpt lat="33.002" lon="35.209"><ele>284.0</ele><time>2021-08-03T04:28:09Z</time></trkpt>
<trkpt lat="33.00209" lon="35.20896"><ele>285.0</ele><time>2021-08-03T04:28:13Z</time></trkpt>
<trkpt lat="33.00217" lon="35.20892"><ele>286.0</ele><time>2021-08-03T04:28:17Z</time></trkpt>
<trkpt lat="33.00226" lon="35.20888"><ele>287.0</ele><time>2021-08-03T04:28:21Z</time></trkpt>
<trkpt lat="33.00235" lon="35.20884"><ele>288.0</ele><time>2021-08-03T04:28:25Z</time></trkpt>
<trkpt lat="33.00243" lon="35.2088"><ele>288.0</ele><time>2021-08-03T04:28:29Z</time></trkpt>
<trkpt lat="33.0025" lon="35.20877"><ele>289.0</ele><time>2021-08-03T04:28:33Z</time></trkpt>
<trkpt lat="33.00256" lon="35.20874"><ele>290.0</ele><time>2021-08-03T04:28:37Z</time></trkpt>
<trkpt lat="33.00264" lon="35.2087"><ele>291.0</ele><time>2021-08-03T04:28:41Z</time></trkpt>
<trkpt lat="33.00271" lon="35.20867"><ele>292.0</ele><time>2021-08-03T04:28:45Z</time></trkpt>
<trkpt lat="33.00278" lon="35.20863"><ele>293.0</ele><time>2021-08-03T04:28:49Z</time></trkpt>
<trkpt lat="33.00285" lon="35.20859"><ele>294.0</ele><time>2021-08-03T04:28:54Z</time></trkpt>
<trkpt lat="33.00293" lon="35.20855"><ele>295.0</ele><time>2021-08-03T04:28:59Z</time></trkpt>
<trkpt lat="33.00301" lon="35.20851"><ele>295.0</ele><time>2021-08-03T04:29:04Z</time></trkpt>
<trkpt lat="33.00308" lon="35.20846"><ele>296.0</ele><time>2021-08-03T04:29:09Z</time></trkpt>
<trkpt lat="33.00316" lon="35.20843"><ele>297.0</ele><time>2021-08-03T04:29:14Z</time></trkpt>
<trkpt lat="33.00322" lon="35.20839"><ele>298.0</ele><time>2021-08-03T04:29:18Z</time></trkpt>
<trkpt lat="33.0033" lon="35.20835"><ele>298.0</ele><time>2021-08-03T04:29:23Z</time></trkpt>
<trkpt lat="33.00337" lon="35.20832"><ele>299.0</ele><time>2021-08-03T04:29:28Z</time></trkpt>
<trkpt lat="33.00345" lon="35.20828"><ele>300.0</ele><time>2021-08-03T04:29:33Z</time></trkpt>
<trkpt lat="33.00352" lon="35.20822"><ele>300.0</ele><time>2021-08-03T04:29:38Z</time></trkpt>
<trkpt lat="33.00359" lon="35.20818"><ele>301.0</ele><time>2021-08-03T04:29:42Z</time></trkpt>
<trkpt lat="33.00367" lon="35.20813"><ele>301.0</ele><time>2021-08-03T04:29:47Z</time></trkpt>
<trkpt lat="33.00374" lon="35.20808"><ele>302.0</ele><time>2021-08-03T04:29:52Z</time></trkpt>
<trkpt lat="33.00381" lon="35.20802"><ele>302.0</ele><time>2021-08-03T04:29:56Z</time></trkpt>
<trkpt lat="33.00388" lon="35.20796"><ele>302.0</ele><time>2021-08-03T04:30:00Z</time></trkpt>
<trkpt lat="33.00395" lon="35.2079"><ele>302.0</ele><time>2021-08-03T04:30:04Z</time></trkpt>
<trkpt lat="33.00401" lon="35.20785"><ele>303.0</ele><time>2021-08-03T04:30:07Z</time></trkpt>
<trkpt lat="33.00408" lon="35.20779"><ele>303.0</ele><time>2021-08-03T04:30:10Z</time></trkpt>
<trkpt lat="33.00415" lon="35.20773"><ele>303.0</ele><time>2021-08-03T04:30:13Z</time></trkpt>
<trkpt lat="33.00423" lon="35.20768"><ele>303.0</ele><time>2021-08-03T04:30:16Z</time></trkpt>
<trkpt lat="33.00431" lon="35.20761"><ele>303.0</ele><time>2021-08-03T04:30:19Z</time></trkpt>
<trkpt lat="33.00439" lon="35.20755"><ele>303.0</ele><time>2021-08-03T04:30:22Z</time></trkpt>
<trkpt lat="33.00445" lon="35.20749"><ele>303.0</ele><time>2021-08-03T04:30:24Z</time></trkpt>
<trkpt lat="33.00454" lon="35.20742"><ele>303.0</ele><time>2021-08-03T04:30:27Z</time></trkpt>
<trkpt lat="33.00461" lon="35.20737"><ele>303.0</ele><time>2021-08-03T04:30:29Z</time></trkpt>
<trkpt lat="33.00467" lon="35.20731"><ele>303.0</ele><time>2021-08-03T04:30:31Z</time></trkpt>
<trkpt lat="33.00473" lon="35.20725"><ele>302.0</ele><time>2021-08-03T04:30:33Z</time></trkpt>
<trkpt lat="33.00479" lon="35.20718"><ele>302.0</ele><time>2021-08-03T04:30:35Z</time></trkpt>
<trkpt lat="33.00486" lon="35.2071"><ele>302.0</ele><time>2021-08-03T04:30:37Z</time></trkpt>
<trkpt lat="33.00493" lon="35.20702"><ele>302.0</ele><time>2021-08-03T04:30:39Z</time></trkpt>
<trkpt lat="33.00499" lon="35.20692"><ele>302.0</ele><time>2021-08-03T04:30:41Z</time></trkpt>
<trkpt lat="33.00505" lon="35.20682"><ele>302.0</ele><time>2021-08-03T04:30:43Z</time></trkpt>
<trkpt lat="33.00512" lon="35.20672"><ele>301.0</ele><time>2021-08-03T04:30:45Z</time></trkpt>
<trkpt lat="33.00519" lon="35.20662"><ele>301.0</ele><time>2021-08-03T04:30:47Z</time></trkpt>
<trkpt lat="33.00526" lon="35.20653"><ele>301.0</ele><time>2021-08-03T04:30:49Z</time></trkpt>
<trkpt lat="33.00533" lon="35.20643"><ele>300.0</ele><time>2021-08-03T04:30:51Z</time></trkpt>
<trkpt lat="33.0054" lon="35.20633"><ele>300.0</ele><time>2021-08-03T04:30:53Z</time></trkpt>
<trkpt lat="33.00548" lon="35.20622"><ele>300.0</ele><time>2021-08-03T04:30:55Z</time></trkpt>
<trkpt lat="33.00555" lon="35.20611"><ele>299.0</ele><time>2021-08-03T04:30:57Z</time></trkpt>
<trkpt lat="33.00565" lon="35.20603"><ele>299.0</ele><time>2021-08-03T04:30:59Z</time></trkpt>
<trkpt lat="33.00576" lon="35.20596"><ele>299.0</ele><time>2021-08-03T04:31:01Z</time></trkpt>
<trkpt lat="33.00586" lon="35.20593"><ele>299.0</ele><time>2021-08-03T04:31:03Z</time></trkpt>
<trkpt lat="33.00597" lon="35.20592"><ele>299.0</ele><time>2021-08-03T04:31:05Z</time></trkpt>
<trkpt lat="33.00607" lon="35.20593"><ele>299.0</ele><time>2021-08-03T04:31:07Z</time></trkpt>
<trkpt lat="33.00614" lon="35.20596"><ele>299.0</ele><time>2021-08-03T04:31:09Z</time></trkpt>
<trkpt lat="33.00618" lon="35.20608"><ele>300.0</ele><time>2021-08-03T04:31:12Z</time></trkpt>
<trkpt lat="33.00618" lon="35.20617"><ele>300.0</ele><time>2021-08-03T04:31:15Z</time></trkpt>
<trkpt lat="33.00619" lon="35.20627"><ele>301.0</ele><time>2021-08-03T04:31:19Z</time></trkpt>
<trkpt lat="33.00621" lon="35.20636"><ele>301.0</ele><time>2021-08-03T04:31:22Z</time></trkpt>
<trkpt lat="33.00623" lon="35.20646"><ele>302.0</ele><time>2021-08-03T04:31:25Z</time></trkpt>
<trkpt lat="33.00625" lon="35.20656"><ele>302.0</ele><time>2021-08-03T04:31:28Z</time></trkpt>
<trkpt lat="33.00627" lon="35.20666"><ele>303.0</ele><time>2021-08-03T04:31:31Z</time></trkpt>
<trkpt lat="33.00628" lon="35.20676"><ele>303.0</ele><time>2021-08-03T04:31:34Z</time></trkpt>
<trkpt lat="33.0063" lon="35.20685"><ele>304.0</ele><time>2021-08-03T04:31:37Z</time></trkpt>
<trkpt lat="33.0063" lon="35.20695"><ele>304.0</ele><time>2021-08-03T04:31:40Z</time></trkpt>
<trkpt lat="33.00631" lon="35.20705"><ele>305.0</ele><time>2021-08-03T04:31:43Z</time></trkpt>
<trkpt lat="33.00632" lon="35.20713"><ele>306.0</ele><time>2021-08-03T04:31:46Z</time></trkpt>
<trkpt lat="33.00633" lon="35.20723"><ele>306.0</ele><time>2021-08-03T04:31:49Z</time></trkpt>
<trkpt lat="33.00633" lon="35.20732"><ele>307.0</ele><time>2021-08-03T04:31:52Z</time></trkpt>
<trkpt lat="33.00634" lon="35.20743"><ele>307.0</ele><time>2021-08-03T04:31:56Z</time></trkpt>
<trkpt lat="33.00635" lon="35.20753"><ele>308.0</ele><time>2021-08-03T04:32:00Z</time></trkpt>
<trkpt lat="33.00637" lon="35.20763"><ele>309.0</ele><time>2021-08-03T04:32:04Z</time></trkpt>
<trkpt lat="33.00638" lon="35.20774"><ele>309.0</ele><time>2021-08-03T04:32:08Z</time></trkpt>
<trkpt lat="33.0064" lon="35.20784"><ele>310.0</ele><time>2021-08-03T04:32:12Z</time></trkpt>
<trkpt lat="33.0064" lon="35.20795"><ele>311.0</ele><time>2021-08-03T04:32:16Z</time></trkpt>
<trkpt lat="33.00641" lon="35.20805"><ele>311.0</ele><time>2021-08-03T04:32:20Z</time></trkpt>
<trkpt lat="33.00641" lon="35.20815"><ele>312.0</ele><time>2021-08-03T04:32:25Z</time></trkpt>
<trkpt lat="33.00642" lon="35.20825"><ele>313.0</ele><time>2021-08-03T04:32:30Z</time></trkpt>
<trkpt lat="33.00644" lon="35.20834"><ele>313.0</ele><time>2021-08-03T04:32:34Z</time></trkpt>
<trkpt lat="33.00644" lon="35.20844"><ele>314.0</ele><time>2021-08-03T04:32:39Z</time></trkpt>
<trkpt lat="33.00645" lon="35.20853"><ele>314.0</ele><time>2021-08-03T04:32:43Z</time></trkpt>
<trkpt lat="33.00648" lon="35.20863"><ele>314.0</ele><time>2021-08-03T04:32:47Z</time></trkpt>
<trkpt lat="33.0065" lon="35.20874"><ele>315.0</ele><time>2021-08-03T04:32:51Z</time></trkpt>
<trkpt lat="33.00651" lon="35.20884"><ele>315.0</ele><time>2021-08-03T04:32:55Z</time></trkpt>
<trkpt lat="33.00651" lon="35.20893"><ele>316.0</ele><time>2021-08-03T04:32:59Z</time></trkpt>
<trkpt lat="33.00653" lon="35.20901"><ele>317.0</ele><time>2021-08-03T04:33:03Z</time></trkpt>
<trkpt lat="33.00653" lon="35.2091"><ele>317.0</ele><time>2021-08-03T04:33:07Z</time></trkpt>
<trkpt lat="33.00652" lon="35.2092"><ele>317.0</ele><time>2021-08-03T04:33:11Z</time></trkpt>
<trkpt lat="33.00652" lon="35.20929"><ele>318.0</ele><time>2021-08-03T04:33:15Z</time></trkpt>
<trkpt lat="33.00652" lon="35.20938"><ele>318.0</ele><time>2021-08-03T04:33:19Z</time></trkpt>
<trkpt lat="33.00653" lon="35.20947"><ele>319.0</ele><time>2021-08-03T04:33:23Z</time></trkpt>
<trkpt lat="33.00652" lon="35.20957"><ele>319.0</ele><time>2021-08-03T04:33:27Z</time></trkpt>
<trkpt lat="33.00653" lon="35.20966"><ele>320.0</ele><time>2021-08-03T04:33:31Z</time></trkpt>
<trkpt lat="33.00653" lon="35.20975"><ele>320.0</ele><time>2021-08-03T04:33:35Z</time></trkpt>
<trkpt lat="33.00652" lon="35.20985"><ele>321.0</ele><time>2021-08-03T04:33:39Z</time></trkpt>
<trkpt lat="33.00653" lon="35.20995"><ele>321.0</ele><time>2021-08-03T04:33:43Z</time></trkpt>
<trkpt lat="33.00654" lon="35.21005"><ele>321.0</ele><time>2021-08-03T04:33:47Z</time></trkpt>
<trkpt lat="33.00655" lon="35.21015"><ele>322.0</ele><time>2021-08-03T04:33:51Z</time></trkpt>
<trkpt lat="33.00655" lon="35.21024"><ele>322.0</ele><time>2021-08-03T04:33:54Z</time></trkpt>
<trkpt lat="33.00655" lon="35.21035"><ele>322.0</ele><time>2021-08-03T04:33:58Z</time></trkpt>
<trkpt lat="33.00655" lon="35.21045"><ele>323.0</ele><time>2021-08-03T04:34:02Z</time></trkpt>
<trkpt lat="33.00655" lon="35.21055"><ele>323.0</ele><time>2021-08-03T04:34:06Z</time></trkpt>
<trkpt lat="33.00656" lon="35.21066"><ele>324.0</ele><time>2021-08-03T04:34:10Z</time></trkpt>
<trkpt lat="33.00655" lon="35.21077"><ele>324.0</ele><time>2021-08-03T04:34:14Z</time></trkpt>
<trkpt lat="33.00655" lon="35.21086"><ele>324.0</ele><time>2021-08-03T04:34:17Z</time></trkpt>
<trkpt lat="33.00656" lon="35.21095"><ele>325.0</ele><time>2021-08-03T04:34:20Z</time></trkpt>
<trkpt lat="33.00654" lon="35.21105"><ele>325.0</ele><time>2021-08-03T04:34:24Z</time></trkpt>
<trkpt lat="33.00654" lon="35.21116"><ele>326.0</ele><time>2021-08-03T04:34:28Z</time></trkpt>
<trkpt lat="33.00653" lon="35.21128"><ele>327.0</ele><time>2021-08-03T04:34:32Z</time></trkpt>
<trkpt lat="33.00651" lon="35.21138"><ele>327.0</ele><time>2021-08-03T04:34:36Z</time></trkpt>
<trkpt lat="33.0065" lon="35.21148"><ele>328.0</ele><time>2021-08-03T04:34:40Z</time></trkpt>
<trkpt lat="33.00649" lon="35.21159"><ele>328.0</ele><time>2021-08-03T04:34:44Z</time></trkpt>
<trkpt lat="33.00647" lon="35.21167"><ele>329.0</ele><time>2021-08-03T04:34:47Z</time></trkpt>
<trkpt lat="33.00646" lon="35.21178"><ele>330.0</ele><time>2021-08-03T04:34:51Z</time></trkpt>
<trkpt lat="33.00645" lon="35.21187"><ele>330.0</ele><time>2021-08-03T04:34:54Z</time></trkpt>
<trkpt lat="33.00643" lon="35.21198"><ele>331.0</ele><time>2021-08-03T04:34:58Z</time></trkpt>
<trkpt lat="33.00641" lon="35.21209"><ele>331.0</ele><time>2021-08-03T04:35:02Z</time></trkpt>
<trkpt lat="33.00638" lon="35.21219"><ele>332.0</ele><time>2021-08-03T04:35:06Z</time></trkpt>
<trkpt lat="33.00637" lon="35.21228"><ele>333.0</ele><time>2021-08-03T04:35:09Z</time></trkpt>
<trkpt lat="33.00631" lon="35.21236"><ele>333.0</ele><time>2021-08-03T04:35:13Z</time></trkpt>
<trkpt lat="33.00626" lon="35.21245"><ele>334.0</ele><time>2021-08-03T04:35:18Z</time></trkpt>
<trkpt lat="33.00621" lon="35.21253"><ele>334.0</ele><time>2021-08-03T04:35:22Z</time></trkpt>
<trkpt lat="33.00617" lon="35.21261"><ele>334.0</ele><time>2021-08-03T04:35:26Z</time></trkpt>
<trkpt lat="33.00612" lon="35.2127"><ele>334.0</ele><time>2021-08-03T04:35:30Z</time></trkpt>
<trkpt lat="33.00606" lon="35.21277"><ele>335.0</ele><time>2021-08-03T04:35:34Z</time></trkpt>
<trkpt lat="33.00601" lon="35.21286"><ele>335.0</ele><time>2021-08-03T04:35:38Z</time></trkpt>
<trkpt lat="33.00597" lon="35.21293"><ele>336.0</ele><time>2021-08-03T04:35:41Z</time></trkpt>
<trkpt lat="33.00591" lon="35.21303"><ele>336.0</ele><time>2021-08-03T04:35:45Z</time></trkpt>
<trkpt lat="33.00587" lon="35.2131"><ele>336.0</ele><time>2021-08-03T04:35:48Z</time></trkpt>
<trkpt lat="33.00581" lon="35.21318"><ele>336.0</ele><time>2021-08-03T04:35:52Z</time></trkpt>
<trkpt lat="33.00577" lon="35.21326"><ele>336.0</ele><time>2021-08-03T04:35:55Z</time></trkpt>
<trkpt lat="33.0057" lon="35.21333"><ele>336.0</ele><time>2021-08-03T04:35:59Z</time></trkpt>
<trkpt lat="33.00564" lon="35.21339"><ele>337.0</ele><time>2021-08-03T04:36:02Z</time></trkpt>
<trkpt lat="33.00558" lon="35.21343"><ele>337.0</ele><time>2021-08-03T04:36:05Z</time></trkpt>
<trkpt lat="33.00551" lon="35.2135"><ele>338.0</ele><time>2021-08-03T04:36:08Z</time></trkpt>
<trkpt lat="33.00542" lon="35.21355"><ele>338.0</ele><time>2021-08-03T04:36:12Z</time></trkpt>
<trkpt lat="33.00536" lon="35.2136"><ele>338.0</ele><time>2021-08-03T04:36:15Z</time></trkpt>
<trkpt lat="33.00529" lon="35.21369"><ele>338.0</ele><time>2021-08-03T04:36:19Z</time></trkpt>
<trkpt lat="33.00529" lon="35.21379"><ele>338.0</ele><time>2021-08-03T04:36:23Z</time></trkpt>
<trkpt lat="33.00535" lon="35.21387"><ele>338.0</ele><time>2021-08-03T04:36:27Z</time></trkpt>
<trkpt lat="33.0054" lon="35.21393"><ele>339.0</ele><time>2021-08-03T04:36:31Z</time></trkpt>
<trkpt lat="33.00546" lon="35.214"><ele>339.0</ele><time>2021-08-03T04:36:35Z</time></trkpt>
<trkpt lat="33.00552" lon="35.21407"><ele>340.0</ele><time>2021-08-03T04:36:39Z</time></trkpt>
<trkpt lat="33.00557" lon="35.21415"><ele>341.0</ele><time>2021-08-03T04:36:43Z</time></trkpt>
<trkpt lat="33.00561" lon="35.21423"><ele>342.0</ele><time>2021-08-03T04:36:47Z</time></trkpt>
<trkpt lat="33.00566" lon="35.21431"><ele>342.0</ele><time>2021-08-03T04:36:51Z</time></trkpt>
<trkpt lat="33.00572" lon="35.21436"><ele>342.0</ele><time>2021-08-03T04:36:54Z</time></trkpt>
<trkpt lat="33.00577" lon="35.21444"><ele>343.0</ele><time>2021-08-03T04:36:57Z</time></trkpt>
<trkpt lat="33.00583" lon="35.21452"><ele>343.0</ele><time>2021-08-03T04:37:01Z</time></trkpt>
<trkpt lat="33.00589" lon="35.21461"><ele>344.0</ele><time>2021-08-03T04:37:05Z</time></trkpt>
<trkpt lat="33.00593" lon="35.21469"><ele>344.0</ele><time>2021-08-03T04:37:08Z</time></trkpt>
<trkpt lat="33.00596" lon="35.21477"><ele>345.0</ele><time>2021-08-03T04:37:11Z</time></trkpt>
<trkpt lat="33.00599" lon="35.21487"><ele>345.0</ele><time>2021-08-03T04:37:15Z</time></trkpt>
<trkpt lat="33.00597" lon="35.21497"><ele>346.0</ele><time>2021-08-03T04:37:19Z</time></trkpt>
<trkpt lat="33.00589" lon="35.21502"><ele>347.0</ele><time>2021-08-03T04:37:23Z</time></trkpt>
<trkpt lat="33.00581" lon="35.21507"><ele>347.0</ele><time>2021-08-03T04:37:26Z</time></trkpt>
<trkpt lat="33.00575" lon="35.21513"><ele>347.0</ele><time>2021-08-03T04:37:29Z</time></trkpt>
<trkpt lat="33.00569" lon="35.21519"><ele>347.0</ele><time>2021-08-03T04:37:32Z</time></trkpt>
<trkpt lat="33.00564" lon="35.21526"><ele>347.0</ele><time>2021-08-03T04:37:35Z</time></trkpt>
<trkpt lat="33.00561" lon="35.21535"><ele>348.0</ele><time>2021-08-03T04:37:39Z</time></trkpt>
<trkpt lat="33.00558" lon="35.21544"><ele>348.0</ele><time>2021-08-03T04:37:43Z</time></trkpt>
<trkpt lat="33.00549" lon="35.21545"><ele>349.0</ele><time>2021-08-03T04:37:48Z</time></trkpt>
<trkpt lat="33.00541" lon="35.21542"><ele>348.0</ele><time>2021-08-03T04:37:51Z</time></trkpt>
<trkpt lat="33.00533" lon="35.21545"><ele>348.0</ele><time>2021-08-03T04:37:54Z</time></trkpt>
<trkpt lat="33.00527" lon="35.21552"><ele>348.0</ele><time>2021-08-03T04:37:57Z</time></trkpt>
<trkpt lat="33.00523" lon="35.2156"><ele>348.0</ele><time>2021-08-03T04:38:00Z</time></trkpt>
<trkpt lat="33.00513" lon="35.2156"><ele>348.0</ele><time>2021-08-03T04:38:06Z</time></trkpt>
<trkpt lat="33.00506" lon="35.21555"><ele>347.0</ele><time>2021-08-03T04:38:09Z</time></trkpt>
</trkseg></trk></gpx>