<?xml version="1.0" encoding="utf-8"?>
<gpx version="1.1"><trk><trkseg>
<trkpt lat="33.00506" lon="35.21529"><ele>345.0</ele><time>2021-07-26T03:28:58Z</time></trkpt>
<trkpt lat="33.00504" lon="35.21547"><ele>345.0</ele><time>2021-07-26T03:29:01Z</time></trkpt>
<trkpt lat="33.00508" lon="35.21554"><ele>347.0</ele><time>2021-07-26T03:30:26Z</time></trkpt>
<trkpt lat="33.00513" lon="35.21561"><ele>348.0</ele><time>2021-07-26T03:30:31Z</time></trkpt>
<trkpt lat="33.0052" lon="35.21553"><ele>349.0</ele><time>2021-07-26T03:30:37Z</time></trkpt>
<trkpt lat="33.00527" lon="35.21547"><ele>350.0</ele><time>2021-07-26T03:30:40Z</time></trkpt>
<trkpt lat="33.00534" lon="35.21542"><ele>350.0</ele><time>2021-07-26T03:30:44Z</time></trkpt>
<trkpt lat="33.00542" lon="35.21543"><ele>351.0</ele><time>2021-07-26T03:30:47Z</time></trkpt>
<trkpt lat="33.00549" lon="35.21545"><ele>353.0</ele><time>2021-07-26T03:30:51Z</time></trkpt>
<trkpt lat="33.00556" lon="35.21538"><ele>354.0</ele><time>2021-07-26T03:30:55Z</time></trkpt>
<trkpt lat="33.00561" lon="35.21527"><ele>353.0</ele><time>2021-07-26T03:30:58Z</time></trkpt>
<trkpt lat="33.00566" lon="35.21519"><ele>352.0</ele><time>2021-07-26T03:31:00Z</time></trkpt>
<trkpt lat="33.00573" lon="35.21511"><ele>353.0</ele><time>2021-07-26T03:31:02Z</time></trkpt>
<trkpt lat="33.00581" lon="35.21506"><ele>353.0</ele><time>2021-07-26T03:31:04Z</time></trkpt>
<trkpt lat="33.00589" lon="35.21502"><ele>353.0</ele><time>2021-07-26T03:31:06Z</time></trkpt>
<trkpt lat="33.00596" lon="35.21496"><ele>353.0</ele><time>2021-07-26T03:31:09Z</time></trkpt>
<trkpt lat="33.00597" lon="35.21485"><ele>353.0</ele><time>2021-07-26T03:31:12Z</time></trkpt>
<trkpt lat="33.00594" lon="35.21475"><ele>352.0</ele><time>2021-07-26T03:31:14Z</time></trkpt>
<trkpt lat="33.00589" lon="35.21464"><ele>351.0</ele><time>2021-07-26T03:31:16Z</time></trkpt>
<trkpt lat="33.00583" lon="35.21453"><ele>351.0</ele><time>2021-07-26T03:31:18Z</time></trkpt>
<trkpt lat="33.00575" lon="35.21442"><ele>349.0</ele><time>2021-07-26T03:31:20Z</time></trkpt>
<trkpt lat="33.00567" lon="35.21431"><ele>348.0</ele><time>2021-07-26T03:31:22Z</time></trkpt>
<trkpt lat="33.00559" lon="35.21419"><ele>347.0</ele><time>2021-07-26T03:31:24Z</time></trkpt>
<trkpt lat="33.00551" lon="35.21406"><ele>344.0</ele><time>2021-07-26T03:31:26Z</time></trkpt>
<trkpt lat="33.00545" lon="35.21392"><ele>342.0</ele><time>2021-07-26T03:31:28Z</time></trkpt>
<trkpt lat="33.00546" lon="35.21376"><ele>340.0</ele><time>2021-07-26T03:31:30Z</time></trkpt>
<trkpt lat="33.00553" lon="35.21359"><ele>338.0</ele><time>2021-07-26T03:31:32Z</time></trkpt>
<trkpt lat="33.00556" lon="35.21351"><ele>338.0</ele><time>2021-07-26T03:31:33Z</time></trkpt>
<trkpt lat="33.0056" lon="35.21343"><ele>337.0</ele><time>2021-07-26T03:31:34Z</time></trkpt>
<trkpt lat="33.00565" lon="35.21335"><ele>338.0</ele><time>2021-07-26T03:31:35Z</time></trkpt>
<trkpt lat="33.0057" lon="35.21328"><ele>338.0</ele><time>2021-07-26T03:31:36Z</time></trkpt>
<trkpt lat="33.00578" lon="35.21314"><ele>339.0</ele><time>2021-07-26T03:31:38Z</time></trkpt>
<trkpt lat="33.00582" lon="35.21307"><ele>338.0</ele><time>2021-07-26T03:31:39Z</time></trkpt>
<trkpt lat="33.00587" lon="35.21301"><ele>338.0</ele><time>2021-07-26T03:31:40Z</time></trkpt>
<trkpt lat="33.00592" lon="35.21294"><ele>338.0</ele><time>2021-07-26T03:31:41Z</time></trkpt>
<trkpt lat="33.00602" lon="35.21281"><ele>338.0</ele><time>2021-07-26T03:31:43Z</time></trkpt>
<trkpt lat="33.0061" lon="35.21269"><ele>339.0</ele><time>2021-07-26T03:31:45Z</time></trkpt>
<trkpt lat="33.0062" lon="35.21258"><ele>339.0</ele><time>2021-07-26T03:31:47Z</time></trkpt>
<trkpt lat="33.00628" lon="35.21245"><ele>340.0</ele><time>2021-07-26T03:31:49Z</time></trkpt>
<trkpt lat="33.00637" lon="35.21232"><ele>340.0</ele><time>2021-07-26T03:31:51Z</time></trkpt>
<trkpt lat="33.00641" lon="35.21217"><ele>338.0</ele><time>2021-07-26T03:31:53Z</time></trkpt>
<trkpt lat="33.00643" lon="35.21208"><ele>338.0</ele><time>2021-07-26T03:31:54Z</time></trkpt>
<trkpt lat="33.00644" lon="35.21198"><ele>337.0</ele><time>2021-07-26T03:31:55Z</time></trkpt>
<trkpt lat="33.00645" lon="35.21189"><ele>336.0</ele><time>2021-07-26T03:31:56Z</time></trkpt>
<trkpt lat="33.00646" lon="35.21181"><ele>336.0</ele><time>2021-07-26T03:31:57Z</time></trkpt>
<trkpt lat="33.00647" lon="35.21172"><ele>335.0</ele><time>2021-07-26T03:31:58Z</time></trkpt>
<trkpt lat="33.00648" lon="35.21163"><ele>334.0</ele><time>2021-07-26T03:31:59Z</time></trkpt>
<trkpt lat="33.00649" lon="35.21153"><ele>333.0</ele><time>2021-07-26T03:32:00Z</time></trkpt>
<trkpt lat="33.0065" lon="35.21144"><ele>333.0</ele><time>2021-07-26T03:32:01Z</time></trkpt>
<trkpt lat="33.0065" lon="35.21134"><ele>332.0</ele><time>2021-07-26T03:32:02Z</time></trkpt>
<trkpt lat="33.00651" lon="35.21124"><ele>332.0</ele><time>2021-07-26T03:32:03Z</time></trkpt>
<trkpt lat="33.00653" lon="35.21114"><ele>331.0</ele><time>2021-07-26T03:32:04Z</time></trkpt>
<trkpt lat="33.00654" lon="35.21104"><ele>330.0</ele><time>2021-07-26T03:32:05Z</time></trkpt>
<trkpt lat="33.00655" lon="35.21093"><ele>329.0</ele><time>2021-07-26T03:32:06Z</time></trkpt>
<trkpt lat="33.00656" lon="35.21083"><ele>329.0</ele><time>2021-07-26T03:32:07Z</time></trkpt>
<trkpt lat="33.00656" lon="35.21072"><ele>328.0</ele><time>2021-07-26T03:32:08Z</time></trkpt>
<trkpt lat="33.00659" lon="35.21062"><ele>328.0</ele><time>2021-07-26T03:32:09Z</time></trkpt>
<trkpt lat="33.0066" lon="35.21052"><ele>328.0</ele><time>2021-07-26T03:32:10Z</time></trkpt>
<trkpt lat="33.00661" lon="35.21043"><ele>328.0</ele><time>2021-07-26T03:32:11Z</time></trkpt>
<trkpt lat="33.00661" lon="35.21034"><ele>327.0</ele><time>2021-07-26T03:32:12Z</time></trkpt>
<trkpt lat="33.0066" lon="35.21024"><ele>326.0</ele><time>2021-07-26T03:32:13Z</time></trkpt>
<trkpt lat="33.0066" lon="35.21015"><ele>326.0</ele><time>2021-07-26T03:32:14Z</time></trkpt>
<trkpt lat="33.0066" lon="35.21005"><ele>325.0</ele><time>2021-07-26T03:32:15Z</time></trkpt>
<trkpt lat="33.00659" lon="35.20996"><ele>325.0</ele><time>2021-07-26T03:32:16Z</time></trkpt>
<trkpt lat="33.00659" lon="35.20987"><ele>325.0</ele><time>2021-07-26T03:32:17Z</time></trkpt>
<trkpt lat="33.00658" lon="35.20978"><ele>324.0</ele><time>2021-07-26T03:32:18Z</time></trkpt>
<trkpt lat="33.00657" lon="35.2097"><ele>323.0</ele><time>2021-07-26T03:32:19Z</time></trkpt>
<trkpt lat="33.00657" lon="35.20953"><ele>322.0</ele><time>2021-07-26T03:32:21Z</time></trkpt>
<trkpt lat="33.00656" lon="35.20944"><ele>322.0</ele><time>2021-07-26T03:32:22Z</time></trkpt>
<trkpt lat="33.00656" lon="35.20936"><ele>322.0</ele><time>2021-07-26T03:32:23Z</time></trkpt>
<trkpt lat="33.00655" lon="35.20919"><ele>321.0</ele><time>2021-07-26T03:32:25Z</time></trkpt>
<trkpt lat="33.00654" lon="35.20902"><ele>320.0</ele><time>2021-07-26T03:32:27Z</time></trkpt>
<trkpt lat="33.00655" lon="35.20891"><ele>319.0</ele><time>2021-07-26T03:32:29Z</time></trkpt>
<trkpt lat="33.00661" lon="35.20883"><ele>319.0</ele><time>2021-07-26T03:32:33Z</time></trkpt>
<trkpt lat="33.00664" lon="35.2087"><ele>318.0</ele><time>2021-07-26T03:32:36Z</time></trkpt>
<trkpt lat="33.00659" lon="35.20858"><ele>317.0</ele><time>2021-07-26T03:32:38Z</time></trkpt>
<trkpt lat="33.00654" lon="35.20846"><ele>317.0</ele><time>2021-07-26T03:32:40Z</time></trkpt>
<trkpt lat="33.0065" lon="35.20832"><ele>317.0</ele><time>2021-07-26T03:32:42Z</time></trkpt>
<trkpt lat="33.00647" lon="35.20818"><ele>316.0</ele><time>2021-07-26T03:32:44Z</time></trkpt>
<trkpt lat="33.00644" lon="35.20802"><ele>315.0</ele><time>2021-07-26T03:32:46Z</time></trkpt>
<trkpt lat="33.00645" lon="35.20793"><ele>314.0</ele><time>2021-07-26T03:32:47Z</time></trkpt>
<trkpt lat="33.00645" lon="35.20783"><ele>313.0</ele><time>2021-07-26T03:32:48Z</time></trkpt>
<trkpt lat="33.00644" lon="35.20773"><ele>313.0</ele><time>2021-07-26T03:32:49Z</time></trkpt>
<trkpt lat="33.00643" lon="35.20763"><ele>312.0</ele><time>2021-07-26T03:32:50Z</time></trkpt>
<trkpt lat="33.00641" lon="35.20752"><ele>313.0</ele><time>2021-07-26T03:32:51Z</time></trkpt>
<trkpt lat="33.0064" lon="35.20741"><ele>312.0</ele><time>2021-07-26T03:32:52Z</time></trkpt>
<trkpt lat="33.00639" lon="35.2073"><ele>310.0</ele><time>2021-07-26T03:32:53Z</time></trkpt>
<trkpt lat="33.00638" lon="35.20719"><ele>310.0</ele><time>2021-07-26T03:32:54Z</time></trkpt>
<trkpt lat="33.00637" lon="35.20709"><ele>309.0</ele><time>2021-07-26T03:32:55Z</time></trkpt>
<trkpt lat="33.00636" lon="35.20699"><ele>308.0</ele><time>2021-07-26T03:32:56Z</time></trkpt>
<trkpt lat="33.00635" lon="35.20689"><ele>308.0</ele><time>2021-07-26T03:32:57Z</time></trkpt>
<trkpt lat="33.00633" lon="35.20679"><ele>308.0</ele><time>2021-07-26T03:32:58Z</time></trkpt>
<trkpt lat="33.00632" lon="35.20669"><ele>307.0</ele><time>2021-07-26T03:32:59Z</time></trkpt>
<trkpt lat="33.00632" lon="35.20659"><ele>307.0</ele><time>2021-07-26T03:33:00Z</time></trkpt>
<trkpt lat="33.0063" lon="35.20648"><ele>307.0</ele><time>2021-07-26T03:33:01Z</time></trkpt>
<trkpt lat="33.00629" lon="35.20637"><ele>305.0</ele><time>2021-07-26T03:33:02Z</time></trkpt>
<trkpt lat="33.00629" lon="35.20626"><ele>304.0</ele><time>2021-07-26T03:33:03Z</time></trkpt>
<trkpt lat="33.00628" lon="35.20616"><ele>305.0</ele><time>2021-07-26T03:33:04Z</time></trkpt>
<trkpt lat="33.00628" lon="35.20607"><ele>304.0</ele><time>2021-07-26T03:33:05Z</time></trkpt>
<trkpt lat="33.00627" lon="35.20598"><ele>303.0</ele><time>2021-07-26T03:33:06Z</time></trkpt>
<trkpt lat="33.00624" lon="35.20584"><ele>301.0</ele><time>2021-07-26T03:33:08Z</time></trkpt>
<trkpt lat="33.00614" lon="35.20576"><ele>300.0</ele><time>2021-07-26T03:33:10Z</time></trkpt>
<trkpt lat="33.00601" lon="35.20575"><ele>300.0</ele><time>2021-07-26T03:33:12Z</time></trkpt>
<trkpt lat="33.0059" lon="35.20578"><ele>300.0</ele><time>2021-07-26T03:33:14Z</time></trkpt>
<trkpt lat="33.0058" lon="35.20583"><ele>300.0</ele><time>2021-07-26T03:33:16Z</time></trkpt>
<trkpt lat="33.00571" lon="35.20588"><ele>300.0</ele><time>2021-07-26T03:33:18Z</time></trkpt>
<trkpt lat="33.00562" lon="35.20595"><ele>301.0</ele><time>2021-07-26T03:33:20Z</time></trkpt>
<trkpt lat="33.00553" lon="35.20604"><ele>300.0</ele><time>2021-07-26T03:33:22Z</time></trkpt>
<trkpt lat="33.00546" lon="35.20614"><ele>300.0</ele><time>2021-07-26T03:33:24Z</time></trkpt>
<trkpt lat="33.00538" lon="35.20625"><ele>300.0</ele><time>2021-07-26T03:33:26Z</time></trkpt>
<trkpt lat="33.00532" lon="35.20635"><ele>301.0</ele><time>2021-07-26T03:33:28Z</time></trkpt>
<trkpt lat="33.00526" lon="35.20644"><ele>301.0</ele><time>2021-07-26T03:33:30Z</time></trkpt>
<trkpt lat="33.00518" lon="35.20652"><ele>302.0</ele><time>2021-07-26T03:33:32Z</time></trkpt>
<trkpt lat="33.00513" lon="35.20661"><ele>302.0</ele><time>2021-07-26T03:33:34Z</time></trkpt>
<trkpt lat="33.00507" lon="35.20669"><ele>302.0</ele><time>2021-07-26T03:33:36Z</time></trkpt>
<trkpt lat="33.00502" lon="35.20678"><ele>303.0</ele><time>2021-07-26T03:33:38Z</time></trkpt>
<trkpt lat="33.00496" lon="35.20686"><ele>303.0</ele><time>2021-07-26T03:33:40Z</time></trkpt>
<trkpt lat="33.00491" lon="35.20694"><ele>303.0</ele><time>2021-07-26T03:33:42Z</time></trkpt>
<trkpt lat="33.00486" lon="35.20703"><ele>304.0</ele><time>2021-07-26T03:33:44Z</time></trkpt>
<trkpt lat="33.0048" lon="35.20711"><ele>304.0</ele><time>2021-07-26T03:33:46Z</time></trkpt>
<trkpt lat="33.00474" lon="35.20718"><ele>305.0</ele><time>2021-07-26T03:33:48Z</time></trkpt>
<trkpt lat="33.00467" lon="35.20725"><ele>305.0</ele><time>2021-07-26T03:33:50Z</time></trkpt>
<trkpt lat="33.0046" lon="35.20731"><ele>305.0</ele><time>2021-07-26T03:33:52Z</time></trkpt>
<trkpt lat="33.00451" lon="35.20735"><ele>305.0</ele><time>2021-07-26T03:33:54Z</time></trkpt>
<trkpt lat="33.00443" lon="35.20741"><ele>306.0</ele><time>2021-07-26T03:33:56Z</time></trkpt>
<trkpt lat="33.00435" lon="35.20748"><ele>305.0</ele><time>2021-07-26T03:33:58Z</time></trkpt>
<trkpt lat="33.00428" lon="35.20754"><ele>305.0</ele><time>2021-07-26T03:34:00Z</time></trkpt>
<trkpt lat="33.00421" lon="35.20761"><ele>305.0</ele><time>2021-07-26T03:34:02Z</time></trkpt>
<trkpt lat="33.00414" lon="35.20766"><ele>305.0</ele><time>2021-07-26T03:34:04Z</time></trkpt>
<trkpt lat="33.00406" lon="35.20773"><ele>305.0</ele><time>2021-07-26T03:34:06Z</time></trkpt>
<trkpt lat="33.00397" lon="35.20777"><ele>305.0</ele><time>2021-07-26T03:34:08Z</time></trkpt>
<trkpt lat="33.00389" lon="35.20784"><ele>305.0</ele><time>2021-07-26T03:34:10Z</time></trkpt>
<trkpt lat="33.00381" lon="35.20791"><ele>304.0</ele><time>2021-07-26T03:34:12Z</time></trkpt>
<trkpt lat="33.00372" lon="35.20798"><ele>305.0</ele><time>2021-07-26T03:34:14Z</time></trkpt>
<trkpt lat="33.00362" lon="35.20805"><ele>304.0</ele><time>2021-07-26T03:34:16Z</time></trkpt>
<trkpt lat="33.00351" lon="35.20813"><ele>304.0</ele><time>2021-07-26T03:34:18Z</time></trkpt>
<trkpt lat="33.00341" lon="35.20821"><ele>304.0</ele><time>2021-07-26T03:34:20Z</time></trkpt>
<trkpt lat="33.00334" lon="35.20825"><ele>303.0</ele><time>2021-07-26T03:34:21Z</time></trkpt>
<trkpt lat="33.00327" lon="35.20829"><ele>303.0</ele><time>2021-07-26T03:34:22Z</time></trkpt>
<trkpt lat="33.0032" lon="35.20834"><ele>302.0</ele><time>2021-07-26T03:34:23Z</time></trkpt>
<trkpt lat="33.00312" lon="35.20837"><ele>302.0</ele><time>2021-07-26T03:34:24Z</time></trkpt>
<trkpt lat="33.00304" lon="35.20841"><ele>301.0</ele><time>2021-07-26T03:34:25Z</time></trkpt>
<trkpt lat="33.00295" lon="35.20844"><ele>300.0</ele><time>2021-07-26T03:34:26Z</time></trkpt>
<trkpt lat="33.00286" lon="35.20849"><ele>300.0</ele><time>2021-07-26T03:34:27Z</time></trkpt>
<trkpt lat="33.00276" lon="35.20853"><ele>299.0</ele><time>2021-07-26T03:34:28Z</time></trkpt>
<trkpt lat="33.00266" lon="35.20858"><ele>298.0</ele><time>2021-07-26T03:34:29Z</time></trkpt>
<trkpt lat="33.00256" lon="35.20863"><ele>297.0</ele><time>2021-07-26T03:34:30Z</time></trkpt>
<trkpt lat="33.00246" lon="35.20867"><ele>294.0</ele><time>2021-07-26T03:34:31Z</time></trkpt>
<trkpt lat="33.00236" lon="35.20873"><ele>294.0</ele><time>2021-07-26T03:34:32Z</time></trkpt>
<trkpt lat="33.00225" lon="35.20877"><ele>292.0</ele><time>2021-07-26T03:34:33Z</time></trkpt>
<trkpt lat="33.00214" lon="35.20882"><ele>291.0</ele><time>2021-07-26T03:34:34Z</time></trkpt>
<trkpt lat="33.00203" lon="35.20888"><ele>290.0</ele><time>2021-07-26T03:34:35Z</time></trkpt>
<trkpt lat="33.00191" lon="35.20893"><ele>289.0</ele><time>2021-07-26T03:34:36Z</time></trkpt>
<trkpt lat="33.0018" lon="35.20898"><ele>287.0</ele><time>2021-07-26T03:34:37Z</time></trkpt>
<trkpt lat="33.00169" lon="35.20904"><ele>286.0</ele><time>2021-07-26T03:34:38Z</time></trkpt>
<trkpt lat="33.00157" lon="35.20909"><ele>284.0</ele><time>2021-07-26T03:34:39Z</time></trkpt>
<trkpt lat="33.00146" lon="35.20915"><ele>283.0</ele><time>2021-07-26T03:34:40Z</time></trkpt>
<trkpt lat="33.00134" lon="35.2092"><ele>281.0</ele><time>2021-07-26T03:34:41Z</time></trkpt>
<trkpt lat="33.00122" lon="35.20926"><ele>280.0</ele><time>2021-07-26T03:34:42Z</time></trkpt>
<trkpt lat="33.00111" lon="35.20932"><ele>279.0</ele><time>2021-07-26T03:34:43Z</time></trkpt>
<trkpt lat="33.00099" lon="35.20937"><ele>278.0</ele><time>2021-07-26T03:34:44Z</time></trkpt>
<trkpt lat="33.00088" lon="35.20943"><ele>278.0</ele><time>2021-07-26T03:34:45Z</time></trkpt>
<trkpt lat="33.00077" lon="35.20949"><ele>279.0</ele><time>2021-07-26T03:34:46Z</time></trkpt>
<trkpt lat="33.00069" lon="35.20957"><ele>280.0</ele><time>2021-07-26T03:34:47Z</time></trkpt>
<trkpt lat="33.00062" lon="35.20965"><ele>281.0</ele><time>2021-07-26T03:34:48Z</time></trkpt>
<trkpt lat="33.00056" lon="35.20973"><ele>281.0</ele><time>2021-07-26T03:34:49Z</time></trkpt>
<trkpt lat="33.00051" lon="35.20981"><ele>282.0</ele><time>2021-07-26T03:34:50Z</time></trkpt>
<trkpt lat="33.00045" lon="35.20995"><ele>282.0</ele><time>2021-07-26T03:34:52Z</time></trkpt>
<trkpt lat="33.00039" lon="35.21005"><ele>284.0</ele><time>2021-07-26T03:34:54Z</time></trkpt>
<trkpt lat="33.00035" lon="35.21013"><ele>285.0</ele><time>2021-07-26T03:34:56Z</time></trkpt>
<trkpt lat="33.0003" lon="35.21022"><ele>286.0</ele><time>2021-07-26T03:34:59Z</time></trkpt>
<trkpt lat="33.00026" lon="35.2103"><ele>287.0</ele><time>2021-07-26T03:35:02Z</time></trkpt>
<trkpt lat="33.00023" lon="35.21038"><ele>288.0</ele><time>2021-07-26T03:35:05Z</time></trkpt>
<trkpt lat="33.00018" lon="35.21047"><ele>288.0</ele><time>2021-07-26T03:35:09Z</time></trkpt>
<trkpt lat="33.00014" lon="35.21056"><ele>289.0</ele><time>2021-07-26T03:35:13Z</time></trkpt>
<trkpt lat="33.00009" lon="35.21064"><ele>290.0</ele><time>2021-07-26T03:35:17Z</time></trkpt>
<trkpt lat="33.00004" lon="35.21073"><ele>290.0</ele><time>2021-07-26T03:35:21Z</time></trkpt>
<trkpt lat="33.00001" lon="35.21082"><ele>292.0</ele><time>2021-07-26T03:35:25Z</time></trkpt>
<trkpt lat="32.99996" lon="35.2109"><ele>293.0</ele><time>2021-07-26T03:35:29Z</time></trkpt>
<trkpt lat="32.99992" lon="35.21097"><ele>294.0</ele><time>2021-07-26T03:35:33Z</time></trkpt>
<trkpt lat="32.99989" lon="35.21106"><ele>294.0</ele><time>2021-07-26T03:35:37Z</time></trkpt>
<trkpt lat="32.99984" lon="35.21114"><ele>296.0</ele><time>2021-07-26T03:35:41Z</time></trkpt>
<trkpt lat="32.9998" lon="35.21123"><ele>296.0</ele><time>2021-07-26T03:35:45Z</time></trkpt>
<trkpt lat="32.99974" lon="35.21129"><ele>297.0</ele><time>2021-07-26T03:35:49Z</time></trkpt>
<trkpt lat="32.99969" lon="35.21137"><ele>298.0</ele><time>2021-07-26T03:35:53Z</time></trkpt>
<trkpt lat="32.99965" lon="35.21144"><ele>299.0</ele><time>2021-07-26T03:35:57Z</time></trkpt>
<trkpt lat="32.99961" lon="35.21152"><ele>300.0</ele><time>2021-07-26T03:36:01Z</time></trkpt>
<trkpt lat="32.99957" lon="35.21159"><ele>302.0</ele><time>2021-07-26T03:36:05Z</time></trkpt>
<trkpt lat="32.99952" lon="35.21166"><ele>303.0</ele><time>2021-07-26T03:36:09Z</time></trkpt>
<trkpt lat="32.99948" lon="35.21173"><ele>304.0</ele><time>2021-07-26T03:36:13Z</time></trkpt>
<trkpt lat="32.99944" lon="35.21181"><ele>305.0</ele><time>2021-07-26T03:36:17Z</time></trkpt>
<trkpt lat="32.99939" lon="35.21189"><ele>306.0</ele><time>2021-07-26T03:36:21Z</time></trkpt>
<trkpt lat="32.99935" lon="35.21198"><ele>306.0</ele><time>2021-07-26T03:36:26Z</time></trkpt>
<trkpt lat="32.9993" lon="35.21206"><ele>306.0</ele><time>2021-07-26T03:36:31Z</time></trkpt>
<trkpt lat="32.99926" lon="35.21214"><ele>306.0</ele><time>2021-07-26T03:36:36Z</time></trkpt>
<trkpt lat="32.99922" lon="35.21222"><ele>306.0</ele><time>2021-07-26T03:36:41Z</time></trkpt>
<trkpt lat="32.99918" lon="35.2123"><ele>306.0</ele><time>2021-07-26T03:36:46Z</time></trkpt>
<trkpt lat="32.99914" lon="35.21237"><ele>306.0</ele><time>2021-07-26T03:36:50Z</time></trkpt>
<trkpt lat="32.99909" lon="35.21244"><ele>306.0</ele><time>2021-07-26T03:36:54Z</time></trkpt>
<trkpt lat="32.99904" lon="35.21253"><ele>307.0</ele><time>2021-07-26T03:36:59Z</time></trkpt>
<trkpt lat="32.999" lon="35.21261"><ele>308.0</ele><time>2021-07-26T03:37:04Z</time></trkpt>
<trkpt lat="32.99896" lon="35.21268"><ele>310.0</ele><time>2021-07-26T03:37:08Z</time></trkpt>
<trkpt lat="32.99892" lon="35.21276"><ele>311.0</ele><time>2021-07-26T03:37:13Z</time></trkpt>
<trkpt lat="32.99887" lon="35.21284"><ele>312.0</ele><time>2021-07-26T03:37:18Z</time></trkpt>
<trkpt lat="32.99882" lon="35.21292"><ele>312.0</ele><time>2021-07-26T03:37:23Z</time></trkpt>
<trkpt lat="32.99878" lon="35.21299"><ele>313.0</ele><time>2021-07-26T03:37:29Z</time></trkpt>
<trkpt lat="32.99874" lon="35.21308"><ele>313.0</ele><time>2021-07-26T03:37:34Z</time></trkpt>
<trkpt lat="32.99869" lon="35.21317"><ele>313.0</ele><time>2021-07-26T03:37:40Z</time></trkpt>
<trkpt lat="32.99864" lon="35.21325"><ele>314.0</ele><time>2021-07-26T03:37:45Z</time></trkpt>
<trkpt lat="32.9986" lon="35.21332"><ele>315.0</ele><time>2021-07-26T03:37:50Z</time></trkpt>
<trkpt lat="32.99856" lon="35.21341"><ele>316.0</ele><time>2021-07-26T03:37:56Z</time></trkpt>
<trkpt lat="32.99852" lon="35.21348"><ele>317.0</ele><time>2021-07-26T03:38:01Z</time></trkpt>
<trkpt lat="32.99848" lon="35.21357"><ele>317.0</ele><time>2021-07-26T03:38:06Z</time></trkpt>
<trkpt lat="32.99844" lon="35.21365"><ele>318.0</ele><time>2021-07-26T03:38:12Z</time></trkpt>
<trkpt lat="32.99839" lon="35.21374"><ele>318.0</ele><time>2021-07-26T03:38:18Z</time></trkpt>
<trkpt lat="32.99834" lon="35.2138"><ele>319.0</ele><time>2021-07-26T03:38:22Z</time></trkpt>
<trkpt lat="32.99829" lon="35.21388"><ele>321.0</ele><time>2021-07-26T03:38:28Z</time></trkpt>
<trkpt lat="32.99825" lon="35.21396"><ele>321.0</ele><time>2021-07-26T03:38:33Z</time></trkpt>
<trkpt lat="32.99821" lon="35.21405"><ele>322.0</ele><time>2021-07-26T03:38:39Z</time></trkpt>
<trkpt lat="32.99818" lon="35.21412"><ele>322.0</ele><time>2021-07-26T03:38:44Z</time></trkpt>
<trkpt lat="32.99814" lon="35.21421"><ele>323.0</ele><time>2021-07-26T03:38:49Z</time></trkpt>
<trkpt lat="32.9981" lon="35.2143"><ele>323.0</ele><time>2021-07-26T03:38:55Z</time></trkpt>
<trkpt lat="32.99807" lon="35.21437"><ele>324.0</ele><time>2021-07-26T03:39:00Z</time></trkpt>
<trkpt lat="32.99803" lon="35.21445"><ele>324.0</ele><time>2021-07-26T03:39:04Z</time></trkpt>
<trkpt lat="32.99799" lon="35.21453"><ele>325.0</ele><time>2021-07-26T03:39:09Z</time></trkpt>
<trkpt lat="32.99795" lon="35.21461"><ele>326.0</ele><time>2021-07-26T03:39:14Z</time></trkpt>
<trkpt lat="32.99793" lon="35.21469"><ele>327.0</ele><time>2021-07-26T03:39:19Z</time></trkpt>
<trkpt lat="32.99791" lon="35.21478"><ele>328.0</ele><time>2021-07-26T03:39:25Z</time></trkpt>
<trkpt lat="32.99789" lon="35.21487"><ele>329.0</ele><time>2021-07-26T03:39:30Z</time></trkpt>
<trkpt lat="32.99787" lon="35.21496"><ele>329.0</ele><time>2021-07-26T03:39:35Z</time></trkpt>
<trkpt lat="32.99785" lon="35.21505"><ele>330.0</ele><time>2021-07-26T03:39:40Z</time></trkpt>
<trkpt lat="32.99783" lon="35.21514"><ele>331.0</ele><time>2021-07-26T03:39:45Z</time></trkpt>
<trkpt lat="32.99782" lon="35.21523"><ele>331.0</ele><time>2021-07-26T03:39:50Z</time></trkpt>
<trkpt lat="32.9978" lon="35.21532"><ele>332.0</ele><time>2021-07-26T03:39:55Z</time></trkpt>
<trkpt lat="32.99779" lon="35.21541"><ele>332.0</ele><time>2021-07-26T03:40:00Z</time></trkpt>
<trkpt lat="32.99777" lon="35.2155"><ele>333.0</ele><time>2021-07-26T03:40:05Z</time></trkpt>
<trkpt lat="32.99776" lon="35.21559"><ele>333.0</ele><time>2021-07-26T03:40:10Z</time></trkpt>
<trkpt lat="32.99774" lon="35.21569"><ele>333.0</ele><time>2021-07-26T03:40:15Z</time></trkpt>
<trkpt lat="32.99773" lon="35.21578"><ele>334.0</ele><time>2021-07-26T03:40:20Z</time></trkpt>
<trkpt lat="32.99771" lon="35.21589"><ele>335.0</ele><time>2021-07-26T03:40:25Z</time></trkpt>
<trkpt lat="32.9977" lon="35.21598"><ele>336.0</ele><time>2021-07-26T03:40:30Z</time></trkpt>
<trkpt lat="32.99768" lon="35.21608"><ele>338.0</ele><time>2021-07-26T03:40:35Z</time></trkpt>
<trkpt lat="32.99766" lon="35.21617"><ele>339.0</ele><time>2021-07-26T03:40:40Z</time></trkpt>
<trkpt lat="32.99765" lon="35.21627"><ele>340.0</ele><time>2021-07-26T03:40:45Z</time></trkpt>
<trkpt lat="32.99762" lon="35.21636"><ele>341.0</ele><time>2021-07-26T03:40:51Z</time></trkpt>
<trkpt lat="32.9976" lon="35.21644"><ele>342.0</ele><time>2021-07-26T03:40:55Z</time></trkpt>
<trkpt lat="32.99757" lon="35.21652"><ele>342.0</ele><time>2021-07-26T03:41:00Z</time></trkpt>
<trkpt lat="32.99755" lon="35.21661"><ele>343.0</ele><time>2021-07-26T03:41:04Z</time></trkpt>
<trkpt lat="32.99753" lon="35.2167"><ele>343.0</ele><time>2021-07-26T03:41:09Z</time></trkpt>
<trkpt lat="32.9975" lon="35.21678"><ele>344.0</ele><time>2021-07-26T03:41:14Z</time></trkpt>
<trkpt lat="32.99744" lon="35.21686"><ele>344.0</ele><time>2021-07-26T03:41:19Z</time></trkpt>
<trkpt lat="32.99738" lon="35.21692"><ele>345.0</ele><time>2021-07-26T03:41:23Z</time></trkpt>
<trkpt lat="32.99735" lon="35.21701"><ele>345.0</ele><time>2021-07-26T03:41:27Z</time></trkpt>
<trkpt lat="32.99739" lon="35.21709"><ele>344.0</ele><time>2021-07-26T03:41:31Z</time></trkpt>
<trkpt lat="32.99747" lon="35.21713"><ele>345.0</ele><time>2021-07-26T03:41:35Z</time></trkpt>
<trkpt lat="32.99754" lon="35.21704"><ele>344.0</ele><time>2021-07-26T03:41:39Z</time></trkpt>
<trkpt lat="32.99754" lon="35.21695"><ele>344.0</ele><time>2021-07-26T03:41:41Z</time></trkpt>
<trkpt lat="32.99754" lon="35.21686"><ele>343.0</ele><time>2021-07-26T03:41:43Z</time></trkpt>
<trkpt lat="32.99755" lon="35.21675"><ele>342.0</ele><time>2021-07-26T03:41:45Z</time></trkpt>
<trkpt lat="32.99759" lon="35.21665"><ele>342.0</ele><time>2021-07-26T03:41:47Z</time></trkpt>
<trkpt lat="32.99762" lon="35.21655"><ele>341.0</ele><time>2021-07-26T03:41:49Z</time></trkpt>
<trkpt lat="32.99768" lon="35.21646"><ele>341.0</ele><time>2021-07-26T03:41:52Z</time></trkpt>
<trkpt lat="32.99771" lon="35.21636"><ele>342.0</ele><time>2021-07-26T03:41:55Z</time></trkpt>
<trkpt lat="32.99774" lon="35.21625"><ele>342.0</ele><time>2021-07-26T03:41:57Z</time></trkpt>
<trkpt lat="32.99776" lon="35.21612"><ele>341.0</ele><time>2021-07-26T03:41:59Z</time></trkpt>
<trkpt lat="32.99779" lon="35.21598"><ele>340.0</ele><time>2021-07-26T03:42:01Z</time></trkpt>
<trkpt lat="32.99781" lon="35.21582"><ele>338.0</ele><time>2021-07-26T03:42:03Z</time></trkpt>
<trkpt lat="32.99784" lon="35.21565"><ele>336.0</ele><time>2021-07-26T03:42:05Z</time></trkpt>
<trkpt lat="32.99785" lon="35.21556"><ele>335.0</ele><time>2021-07-26T03:42:06Z</time></trkpt>
<trkpt lat="32.99787" lon="35.21546"><ele>334.0</ele><time>2021-07-26T03:42:07Z</time></trkpt>
<trkpt lat="32.99788" lon="35.21536"><ele>333.0</ele><time>2021-07-26T03:42:08Z</time></trkpt>
<trkpt lat="32.9979" lon="35.21526"><ele>332.0</ele><time>2021-07-26T03:42:09Z</time></trkpt>
<trkpt lat="32.99792" lon="35.21516"><ele>331.0</ele><time>2021-07-26T03:42:10Z</time></trkpt>
<trkpt lat="32.99794" lon="35.21505"><ele>330.0</ele><time>2021-07-26T03:42:11Z</time></trkpt>
<trkpt lat="32.99797" lon="35.21493"><ele>329.0</ele><time>2021-07-26T03:42:12Z</time></trkpt>
<trkpt lat="32.998" lon="35.21482"><ele>329.0</ele><time>2021-07-26T03:42:13Z</time></trkpt>
<trkpt lat="32.99803" lon="35.2147"><ele>328.0</ele><time>2021-07-26T03:42:14Z</time></trkpt>
<trkpt lat="32.99807" lon="35.21458"><ele>326.0</ele><time>2021-07-26T03:42:15Z</time></trkpt>
<trkpt lat="32.99812" lon="35.21446"><ele>325.0</ele><time>2021-07-26T03:42:16Z</time></trkpt>
<trkpt lat="32.99818" lon="35.21434"><ele>324.0</ele><time>2021-07-26T03:42:17Z</time></trkpt>
<trkpt lat="32.99824" lon="35.21421"><ele>323.0</ele><time>2021-07-26T03:42:18Z</time></trkpt>
<trkpt lat="32.9983" lon="35.21409"><ele>321.0</ele><time>2021-07-26T03:42:19Z</time></trkpt>
<trkpt lat="32.99837" lon="35.21396"><ele>320.0</ele><time>2021-07-26T03:42:20Z</time></trkpt>
<trkpt lat="32.99844" lon="35.21383"><ele>319.0</ele><time>2021-07-26T03:42:21Z</time></trkpt>
<trkpt lat="32.99851" lon="35.2137"><ele>318.0</ele><time>2021-07-26T03:42:22Z</time></trkpt>
<trkpt lat="32.99858" lon="35.21357"><ele>316.0</ele><time>2021-07-26T03:42:23Z</time></trkpt>
<trkpt lat="32.99866" lon="35.21343"><ele>315.0</ele><time>2021-07-26T03:42:24Z</time></trkpt>
<trkpt lat="32.99873" lon="35.2133"><ele>313.0</ele><time>2021-07-26T03:42:25Z</time></trkpt>
<trkpt lat="32.9988" lon="35.21316"><ele>312.0</ele><time>2021-07-26T03:42:26Z</time></trkpt>
<trkpt lat="32.99887" lon="35.21302"><ele>310.0</ele><time>2021-07-26T03:42:27Z</time></trkpt>
<trkpt lat="32.99895" lon="35.21288"><ele>309.0</ele><time>2021-07-26T03:42:28Z</time></trkpt>
<trkpt lat="32.99903" lon="35.21274"><ele>307.0</ele><time>2021-07-26T03:42:29Z</time></trkpt>
<trkpt lat="32.99911" lon="35.21259"><ele>306.0</ele><time>2021-07-26T03:42:30Z</time></trkpt>
<trkpt lat="32.99919" lon="35.21245"><ele>305.0</ele><time>2021-07-26T03:42:31Z</time></trkpt>
<trkpt lat="32.99927" lon="35.21231"><ele>303.0</ele><time>2021-07-26T03:42:32Z</time></trkpt>
<trkpt lat="32.99935" lon="35.21216"><ele>302.0</ele><time>2021-07-26T03:42:33Z</time></trkpt>
<trkpt lat="32.99943" lon="35.21202"><ele>301.0</ele><time>2021-07-26T03:42:34Z</time></trkpt>
<trkpt lat="32.99951" lon="35.21188"><ele>300.0</ele><time>2021-07-26T03:42:35Z</time></trkpt>
<trkpt lat="32.99959" lon="35.21175"><ele>299.0</ele><time>2021-07-26T03:42:36Z</time></trkpt>
<trkpt lat="32.99967" lon="35.2116"><ele>298.0</ele><time>2021-07-26T03:42:37Z</time></trkpt>
<trkpt lat="32.99976" lon="35.21146"><ele>298.0</ele><time>2021-07-26T03:42:38Z</time></trkpt>
<trkpt lat="32.99983" lon="35.21131"><ele>297.0</ele><time>2021-07-26T03:42:39Z</time></trkpt>
<trkpt lat="32.99991" lon="35.21116"><ele>296.0</ele><time>2021-07-26T03:42:40Z</time></trkpt>
<trkpt lat="32.99999" lon="35.21102"><ele>295.0</ele><time>2021-07-26T03:42:41Z</time></trkpt>
<trkpt lat="33.00006" lon="35.21088"><ele>294.0</ele><time>2021-07-26T03:42:42Z</time></trkpt>
<trkpt lat="33.00013" lon="35.21075"><ele>293.0</ele><time>2021-07-26T03:42:43Z</time></trkpt>
<trkpt lat="33.0002" lon="35.21061"><ele>292.0</ele><time>2021-07-26T03:42:44Z</time></trkpt>
<trkpt lat="33.00027" lon="35.21048"><ele>291.0</ele><time>2021-07-26T03:42:45Z</time></trkpt>
<trkpt lat="33.00035" lon="35.21034"><ele>289.0</ele><time>2021-07-26T03:42:46Z</time></trkpt>
<trkpt lat="33.00041" lon="35.21021"><ele>288.0</ele><time>2021-07-26T03:42:47Z</time></trkpt>
<trkpt lat="33.00049" lon="35.21007"><ele>286.0</ele><time>2021-07-26T03:42:48Z</time></trkpt>
<trkpt lat="33.00056" lon="35.20994"><ele>285.0</ele><time>2021-07-26T03:42:49Z</time></trkpt>
<trkpt lat="33.00064" lon="35.20981"><ele>284.0</ele><time>2021-07-26T03:42:50Z</time></trkpt>
<trkpt lat="33.00074" lon="35.20969"><ele>282.0</ele><time>2021-07-26T03:42:51Z</time></trkpt>
<trkpt lat="33.00084" lon="35.20958"><ele>280.0</ele><time>2021-07-26T03:42:52Z</time></trkpt>
<trkpt lat="33.00096" lon="35.2095"><ele>280.0</ele><time>2021-07-26T03:42:53Z</time></trkpt>
<trkpt lat="33.00108" lon="35.20945"><ele>279.0</ele><time>2021-07-26T03:42:54Z</time></trkpt>
<trkpt lat="33.00119" lon="35.2094"><ele>279.0</ele><time>2021-07-26T03:42:55Z</time></trkpt>
<trkpt lat="33.0013" lon="35.20934"><ele>280.0</ele><time>2021-07-26T03:42:56Z</time></trkpt>
<trkpt lat="33.00139" lon="35.2093"><ele>280.0</ele><time>2021-07-26T03:42:57Z</time></trkpt>
<trkpt lat="33.00148" lon="35.20926"><ele>281.0</ele><time>2021-07-26T03:42:58Z</time></trkpt>
<trkpt lat="33.00155" lon="35.20922"><ele>282.0</ele><time>2021-07-26T03:42:59Z</time></trkpt>
<trkpt lat="33.00167" lon="35.20916"><ele>283.0</ele><time>2021-07-26T03:43:01Z</time></trkpt>
<trkpt lat="33.00176" lon="35.20912"><ele>283.0</ele><time>2021-07-26T03:43:03Z</time></trkpt>
<trkpt lat="33.00183" lon="35.20908"><ele>285.0</ele><time>2021-07-26T03:43:06Z</time></trkpt>
<trkpt lat="33.00191" lon="35.20905"><ele>286.0</ele><time>2021-07-26T03:43:10Z</time></trkpt>
<trkpt lat="33.00198" lon="35.20901"><ele>287.0</ele><time>2021-07-26T03:43:14Z</time></trkpt>
<trkpt lat="33.00206" lon="35.20898"><ele>288.0</ele><time>2021-07-26T03:43:18Z</time></trkpt>
<trkpt lat="33.00214" lon="35.20894"><ele>289.0</ele><time>2021-07-26T03:43:22Z</time></trkpt>
<trkpt lat="33.00221" lon="35.20891"><ele>290.0</ele><time>2021-07-26T03:43:26Z</time></trkpt>
<trkpt lat="33.00228" lon="35.20888"><ele>290.0</ele><time>2021-07-26T03:43:30Z</time></trkpt>
<trkpt lat="33.00235" lon="35.20884"><ele>291.0</ele><time>2021-07-26T03:43:34Z</time></trkpt>
<trkpt lat="33.00242" lon="35.20881"><ele>292.0</ele><time>2021-07-26T03:43:38Z</time></trkpt>
<trkpt lat="33.0025" lon="35.20877"><ele>293.0</ele><time>2021-07-26T03:43:42Z</time></trkpt>
<trkpt lat="33.00257" lon="35.20874"><ele>294.0</ele><time>2021-07-26T03:43:46Z</time></trkpt>
<trkpt lat="33.00264" lon="35.20871"><ele>295.0</ele><time>2021-07-26T03:43:50Z</time></trkpt>
<trkpt lat="33.00271" lon="35.20867"><ele>296.0</ele><time>2021-07-26T03:43:54Z</time></trkpt>
<trkpt lat="33.00278" lon="35.20864"><ele>297.0</ele><time>2021-07-26T03:43:58Z</time></trkpt>
<trkpt lat="33.00285" lon="35.2086"><ele>297.0</ele><time>2021-07-26T03:44:03Z</time></trkpt>
<trkpt lat="33.00292" lon="35.20857"><ele>298.0</ele><time>2021-07-26T03:44:08Z</time></trkpt>
<trkpt lat="33.003" lon="35.20853"><ele>299.0</ele><time>2021-07-26T03:44:13Z</time></trkpt>
<trkpt lat="33.00307" lon="35.20851"><ele>300.0</ele><time>2021-07-26T03:44:17Z</time></trkpt>
<trkpt lat="33.00315" lon="35.20846"><ele>302.0</ele><time>2021-07-26T03:44:22Z</time></trkpt>
<trkpt lat="33.00323" lon="35.20843"><ele>303.0</ele><time>2021-07-26T03:44:27Z</time></trkpt>
<trkpt lat="33.0033" lon="35.20839"><ele>303.0</ele><time>2021-07-26T03:44:32Z</time></trkpt>
<trkpt lat="33.00338" lon="35.20834"><ele>303.0</ele><time>2021-07-26T03:44:37Z</time></trkpt>
<trkpt lat="33.00345" lon="35.20829"><ele>304.0</ele><time>2021-07-26T03:44:42Z</time></trkpt>
<trkpt lat="33.00352" lon="35.20824"><ele>304.0</ele><time>2021-07-26T03:44:47Z</time></trkpt>
<trkpt lat="33.00359" lon="35.20819"><ele>305.0</ele><time>2021-07-26T03:44:52Z</time></trkpt>
<trkpt lat="33.00365" lon="35.20814"><ele>305.0</ele><time>2021-07-26T03:44:56Z</time></trkpt>
<trkpt lat="33.00372" lon="35.20809"><ele>305.0</ele><time>2021-07-26T03:45:00Z</time></trkpt>
<trkpt lat="33.00379" lon="35.20804"><ele>305.0</ele><time>2021-07-26T03:45:04Z</time></trkpt>
<trkpt lat="33.00386" lon="35.20798"><ele>305.0</ele><time>2021-07-26T03:45:08Z</time></trkpt>
<trkpt lat="33.00393" lon="35.20791"><ele>305.0</ele><time>2021-07-26T03:45:12Z</time></trkpt>
<trkpt lat="33.00399" lon="35.20786"><ele>305.0</ele><time>2021-07-26T03:45:15Z</time></trkpt>
<trkpt lat="33.00406" lon="35.20781"><ele>305.0</ele><time>2021-07-26T03:45:18Z</time></trkpt>
<trkpt lat="33.00413" lon="35.20776"><ele>305.0</ele><time>2021-07-26T03:45:21Z</time></trkpt>
<trkpt lat="33.0042" lon="35.2077"><ele>305.0</ele><time>2021-07-26T03:45:24Z</time></trkpt>
<trkpt lat="33.00426" lon="35.20765"><ele>304.0</ele><time>2021-07-26T03:45:27Z</time></trkpt>
<trkpt lat="33.00434" lon="35.20759"><ele>305.0</ele><time>2021-07-26T03:45:30Z</time></trkpt>
<trkpt lat="33.00441" lon="35.20752"><ele>305.0</ele><time>2021-07-26T03:45:33Z</time></trkpt>
<trkpt lat="33.00449" lon="35.20746"><ele>305.0</ele><time>2021-07-26T03:45:36Z</time></trkpt>
<trkpt lat="33.00458" lon="35.20739"><ele>305.0</ele><time>2021-07-26T03:45:39Z</time></trkpt>
<trkpt lat="33.00464" lon="35.20734"><ele>305.0</ele><time>2021-07-26T03:45:41Z</time></trkpt>
<trkpt lat="33.00471" lon="35.20728"><ele>305.0</ele><time>2021-07-26T03:45:43Z</time></trkpt>
<trkpt lat="33.00477" lon="35.20721"><ele>305.0</ele><time>2021-07-26T03:45:45Z</time></trkpt>
<trkpt lat="33.00484" lon="35.20714"><ele>305.0</ele><time>2021-07-26T03:45:47Z</time></trkpt>
<trkpt lat="33.0049" lon="35.20707"><ele>304.0</ele><time>2021-07-26T03:45:49Z</time></trkpt>
<trkpt lat="33.00496" lon="35.20699"><ele>304.0</ele><time>2021-07-26T03:45:51Z</time></trkpt>
<trkpt lat="33.00503" lon="35.2069"><ele>304.0</ele><time>2021-07-26T03:45:53Z</time></trkpt>
<trkpt lat="33.00509" lon="35.20681"><ele>304.0</ele><time>2021-07-26T03:45:55Z</time></trkpt>
<trkpt lat="33.00516" lon="35.20671"><ele>304.0</ele><time>2021-07-26T03:45:57Z</time></trkpt>
<trkpt lat="33.00522" lon="35.20661"><ele>303.0</ele><time>2021-07-26T03:45:59Z</time></trkpt>
<trkpt lat="33.00529" lon="35.20651"><ele>303.0</ele><time>2021-07-26T03:46:01Z</time></trkpt>
<trkpt lat="33.00536" lon="35.2064"><ele>302.0</ele><time>2021-07-26T03:46:03Z</time></trkpt>
<trkpt lat="33.00543" lon="35.2063"><ele>302.0</ele><time>2021-07-26T03:46:05Z</time></trkpt>
<trkpt lat="33.00551" lon="35.20619"><ele>302.0</ele><time>2021-07-26T03:46:07Z</time></trkpt>
<trkpt lat="33.00558" lon="35.2061"><ele>301.0</ele><time>2021-07-26T03:46:09Z</time></trkpt>
<trkpt lat="33.00567" lon="35.20602"><ele>301.0</ele><time>2021-07-26T03:46:11Z</time></trkpt>
<trkpt lat="33.00575" lon="35.20595"><ele>301.0</ele><time>2021-07-26T03:46:13Z</time></trkpt>
<trkpt lat="33.00584" lon="35.20592"><ele>301.0</ele><time>2021-07-26T03:46:15Z</time></trkpt>
<trkpt lat="33.00594" lon="35.20593"><ele>300.0</ele><time>2021-07-26T03:46:17Z</time></trkpt>
<trkpt lat="33.00602" lon="35.20593"><ele>300.0</ele><time>2021-07-26T03:46:19Z</time></trkpt>
<trkpt lat="33.00609" lon="35.20595"><ele>300.0</ele><time>2021-07-26T03:46:21Z</time></trkpt>
<trkpt lat="33.00616" lon="35.206"><ele>301.0</ele><time>2021-07-26T03:46:24Z</time></trkpt>
<trkpt lat="33.00617" lon="35.20611"><ele>301.0</ele><time>2021-07-26T03:46:27Z</time></trkpt>
<trkpt lat="33.00619" lon="35.20621"><ele>302.0</ele><time>2021-07-26T03:46:30Z</time></trkpt>
<trkpt lat="33.0062" lon="35.20631"><ele>303.0</ele><time>2021-07-26T03:46:33Z</time></trkpt>
<trkpt lat="33.00621" lon="35.2064"><ele>304.0</ele><time>2021-07-26T03:46:36Z</time></trkpt>
<trkpt lat="33.00622" lon="35.20649"><ele>305.0</ele><time>2021-07-26T03:46:39Z</time></trkpt>
<trkpt lat="33.00623" lon="35.20658"><ele>306.0</ele><time>2021-07-26T03:46:42Z</time></trkpt>
<trkpt lat="33.00624" lon="35.20669"><ele>307.0</ele><time>2021-07-26T03:46:46Z</time></trkpt>
<trkpt lat="33.00625" lon="35.2068"><ele>308.0</ele><time>2021-07-26T03:46:50Z</time></trkpt>
<trkpt lat="33.00626" lon="35.20688"><ele>308.0</ele><time>2021-07-26T03:46:53Z</time></trkpt>
<trkpt lat="33.00627" lon="35.20697"><ele>309.0</ele><time>2021-07-26T03:46:56Z</time></trkpt>
<trkpt lat="33.00628" lon="35.20708"><ele>310.0</ele><time>2021-07-26T03:47:00Z</time></trkpt>
<trkpt lat="33.00629" lon="35.20716"><ele>310.0</ele><time>2021-07-26T03:47:03Z</time></trkpt>
<trkpt lat="33.0063" lon="35.20727"><ele>310.0</ele><time>2021-07-26T03:47:07Z</time></trkpt>
<trkpt lat="33.00632" lon="35.20738"><ele>311.0</ele><time>2021-07-26T03:47:11Z</time></trkpt>
<trkpt lat="33.00632" lon="35.20747"><ele>311.0</ele><time>2021-07-26T03:47:14Z</time></trkpt>
<trkpt lat="33.00634" lon="35.20758"><ele>311.0</ele><time>2021-07-26T03:47:18Z</time></trkpt>
<trkpt lat="33.00635" lon="35.20766"><ele>312.0</ele><time>2021-07-26T03:47:21Z</time></trkpt>
<trkpt lat="33.00636" lon="35.20777"><ele>312.0</ele><time>2021-07-26T03:47:25Z</time></trkpt>
<trkpt lat="33.00637" lon="35.20787"><ele>313.0</ele><time>2021-07-26T03:47:29Z</time></trkpt>
<trkpt lat="33.00638" lon="35.20797"><ele>314.0</ele><time>2021-07-26T03:47:33Z</time></trkpt>
<trkpt lat="33.00639" lon="35.20807"><ele>314.0</ele><time>2021-07-26T03:47:37Z</time></trkpt>
<trkpt lat="33.0064" lon="35.20816"><ele>314.0</ele><time>2021-07-26T03:47:41Z</time></trkpt>
<trkpt lat="33.00641" lon="35.20826"><ele>315.0</ele><time>2021-07-26T03:47:45Z</time></trkpt>
<trkpt lat="33.00642" lon="35.20835"><ele>315.0</ele><time>2021-07-26T03:47:49Z</time></trkpt>
<trkpt lat="33.00644" lon="35.20845"><ele>316.0</ele><time>2021-07-26T03:47:53Z</time></trkpt>
<trkpt lat="33.00645" lon="35.20854"><ele>317.0</ele><time>2021-07-26T03:47:57Z</time></trkpt>
<trkpt lat="33.00647" lon="35.20864"><ele>317.0</ele><time>2021-07-26T03:48:01Z</time></trkpt>
<trkpt lat="33.00648" lon="35.20875"><ele>318.0</ele><time>2021-07-26T03:48:05Z</time></trkpt>
<trkpt lat="33.0065" lon="35.20885"><ele>319.0</ele><time>2021-07-26T03:48:09Z</time></trkpt>
<trkpt lat="33.00651" lon="35.20894"><ele>320.0</ele><time>2021-07-26T03:48:13Z</time></trkpt>
<trkpt lat="33.00652" lon="35.20904"><ele>320.0</ele><time>2021-07-26T03:48:17Z</time></trkpt>
<trkpt lat="33.00651" lon="35.20914"><ele>320.0</ele><time>2021-07-26T03:48:21Z</time></trkpt>
<trkpt lat="33.00652" lon="35.20923"><ele>321.0</ele><time>2021-07-26T03:48:25Z</time></trkpt>
<trkpt lat="33.00652" lon="35.20933"><ele>321.0</ele><time>2021-07-26T03:48:29Z</time></trkpt>
<trkpt lat="33.00653" lon="35.20943"><ele>321.0</ele><time>2021-07-26T03:48:33Z</time></trkpt>
<trkpt lat="33.00652" lon="35.20953"><ele>322.0</ele><time>2021-07-26T03:48:37Z</time></trkpt>
<trkpt lat="33.0065" lon="35.20962"><ele>322.0</ele><time>2021-07-26T03:48:41Z</time></trkpt>
<trkpt lat="33.00652" lon="35.20972"><ele>322.0</ele><time>2021-07-26T03:48:45Z</time></trkpt>
<trkpt lat="33.00652" lon="35.20982"><ele>323.0</ele><time>2021-07-26T03:48:49Z</time></trkpt>
<trkpt lat="33.00653" lon="35.20991"><ele>323.0</ele><time>2021-07-26T03:48:52Z</time></trkpt>
<trkpt lat="33.00653" lon="35.21"><ele>323.0</ele><time>2021-07-26T03:48:55Z</time></trkpt>
<trkpt lat="33.00653" lon="35.21009"><ele>324.0</ele><time>2021-07-26T03:48:58Z</time></trkpt>
<trkpt lat="33.00654" lon="35.21019"><ele>325.0</ele><time>2021-07-26T03:49:01Z</time></trkpt>
<trkpt lat="33.00654" lon="35.21029"><ele>325.0</ele><time>2021-07-26T03:49:05Z</time></trkpt>
<trkpt lat="33.00655" lon="35.21039"><ele>326.0</ele><time>2021-07-26T03:49:08Z</time></trkpt>
<trkpt lat="33.00655" lon="35.21048"><ele>326.0</ele><time>2021-07-26T03:49:11Z</time></trkpt>
<trkpt lat="33.00655" lon="35.21057"><ele>326.0</ele><time>2021-07-26T03:49:14Z</time></trkpt>
<trkpt lat="33.00653" lon="35.21067"><ele>327.0</ele><time>2021-07-26T03:49:18Z</time></trkpt>
<trkpt lat="33.00653" lon="35.21076"><ele>328.0</ele><time>2021-07-26T03:49:22Z</time></trkpt>
<trkpt lat="33.00653" lon="35.21087"><ele>329.0</ele><time>2021-07-26T03:49:26Z</time></trkpt>
<trkpt lat="33.00653" lon="35.21097"><ele>329.0</ele><time>2021-07-26T03:49:30Z</time></trkpt>
<trkpt lat="33.00652" lon="35.21108"><ele>329.0</ele><time>2021-07-26T03:49:34Z</time></trkpt>
<trkpt lat="33.00651" lon="35.21117"><ele>330.0</ele><time>2021-07-26T03:49:38Z</time></trkpt>
<trkpt lat="33.0065" lon="35.21128"><ele>330.0</ele><time>2021-07-26T03:49:42Z</time></trkpt>
<trkpt lat="33.00649" lon="35.21138"><ele>330.0</ele><time>2021-07-26T03:49:46Z</time></trkpt>
<trkpt lat="33.00648" lon="35.21149"><ele>331.0</ele><time>2021-07-26T03:49:50Z</time></trkpt>
<trkpt lat="33.00648" lon="35.21158"><ele>332.0</ele><time>2021-07-26T03:49:53Z</time></trkpt>
<trkpt lat="33.00645" lon="35.21168"><ele>332.0</ele><time>2021-07-26T03:49:57Z</time></trkpt>
<trkpt lat="33.00644" lon="35.21178"><ele>334.0</ele><time>2021-07-26T03:50:01Z</time></trkpt>
<trkpt lat="33.00644" lon="35.21187"><ele>334.0</ele><time>2021-07-26T03:50:04Z</time></trkpt>
<trkpt lat="33.00643" lon="35.21198"><ele>335.0</ele><time>2021-07-26T03:50:08Z</time></trkpt>
<trkpt lat="33.00641" lon="35.21207"><ele>336.0</ele><time>2021-07-26T03:50:12Z</time></trkpt>
<trkpt lat="33.00639" lon="35.21216"><ele>337.0</ele><time>2021-07-26T03:50:16Z</time></trkpt>
<trkpt lat="33.00635" lon="35.21225"><ele>337.0</ele><time>2021-07-26T03:50:20Z</time></trkpt>
<trkpt lat="33.00632" lon="35.21234"><ele>338.0</ele><time>2021-07-26T03:50:25Z</time></trkpt>
<trkpt lat="33.00628" lon="35.21241"><ele>339.0</ele><time>2021-07-26T03:50:28Z</time></trkpt>
<trkpt lat="33.00621" lon="35.21249"><ele>340.0</ele><time>2021-07-26T03:50:32Z</time></trkpt>
<trkpt lat="33.00616" lon="35.21257"><ele>341.0</ele><time>2021-07-26T03:50:36Z</time></trkpt>
<trkpt lat="33.00609" lon="35.21264"><ele>342.0</ele><time>2021-07-26T03:50:40Z</time></trkpt>
<trkpt lat="33.00604" lon="35.21273"><ele>342.0</ele><time>2021-07-26T03:50:44Z</time></trkpt>
<trkpt lat="33.00597" lon="35.2128"><ele>342.0</ele><time>2021-07-26T03:50:48Z</time></trkpt>
<trkpt lat="33.00593" lon="35.21288"><ele>341.0</ele><time>2021-07-26T03:50:51Z</time></trkpt>
<trkpt lat="33.00589" lon="35.21295"><ele>341.0</ele><time>2021-07-26T03:50:54Z</time></trkpt>
<trkpt lat="33.00583" lon="35.21302"><ele>340.0</ele><time>2021-07-26T03:50:57Z</time></trkpt>
<trkpt lat="33.00578" lon="35.21309"><ele>339.0</ele><time>2021-07-26T03:51:00Z</time></trkpt>
<trkpt lat="33.00573" lon="35.21316"><ele>338.0</ele><time>2021-07-26T03:51:03Z</time></trkpt>
<trkpt lat="33.00567" lon="35.21324"><ele>338.0</ele><time>2021-07-26T03:51:06Z</time></trkpt>
<trkpt lat="33.00562" lon="35.21332"><ele>338.0</ele><time>2021-07-26T03:51:10Z</time></trkpt>
<trkpt lat="33.00555" lon="35.2134"><ele>339.0</ele><time>2021-07-26T03:51:14Z</time></trkpt>
<trkpt lat="33.00547" lon="35.21346"><ele>339.0</ele><time>2021-07-26T03:51:18Z</time></trkpt>
<trkpt lat="33.00539" lon="35.21352"><ele>339.0</ele><time>2021-07-26T03:51:21Z</time></trkpt>
<trkpt lat="33.00532" lon="35.21357"><ele>338.0</ele><time>2021-07-26T03:51:25Z</time></trkpt>
<trkpt lat="33.00528" lon="35.21366"><ele>336.0</ele><time>2021-07-26T03:51:31Z</time></trkpt>
<trkpt lat="33.00527" lon="35.21376"><ele>336.0</ele><time>2021-07-26T03:51:35Z</time></trkpt>
<trkpt lat="33.00524" lon="35.21385"><ele>336.0</ele><time>2021-07-26T03:51:38Z</time></trkpt>
<trkpt lat="33.00519" lon="35.21394"><ele>337.0</ele><time>2021-07-26T03:51:41Z</time></trkpt>
<trkpt lat="33.00514" lon="35.21402"><ele>337.0</ele><time>2021-07-26T03:51:44Z</time></trkpt>
<trkpt lat="33.00506" lon="35.21411"><ele>337.0</ele><time>2021-07-26T03:51:47Z</time></trkpt>
<trkpt lat="33.00499" lon="35.2142"><ele>337.0</ele><time>2021-07-26T03:51:50Z</time></trkpt>
<trkpt lat="33.00495" lon="35.21427"><ele>337.0</ele><time>2021-07-26T03:51:52Z</time></trkpt>
<trkpt lat="33.0049" lon="35.21434"><ele>338.0</ele><time>2021-07-26T03:51:54Z</time></trkpt>
<trkpt lat="33.00485" lon="35.21441"><ele>337.0</ele><time>2021-07-26T03:51:56Z</time></trkpt>
<trkpt lat="33.00481" lon="35.21449"><ele>337.0</ele><time>2021-07-26T03:51:58Z</time></trkpt>
<trkpt lat="33.00477" lon="35.21458"><ele>337.0</ele><time>2021-07-26T03:52:00Z</time></trkpt>
<trkpt lat="33.00474" lon="35.21466"><ele>337.0</ele><time>2021-07-26T03:52:02Z</time></trkpt>
<trkpt lat="33.00471" lon="35.21474"><ele>337.0</ele><time>2021-07-26T03:52:04Z</time></trkpt>
<trkpt lat="33.00467" lon="35.21486"><ele>338.0</ele><time>2021-07-26T03:52:07Z</time></trkpt>
<trkpt lat="33.00465" lon="35.21497"><ele>338.0</ele><time>2021-07-26T03:52:10Z</time></trkpt>
<trkpt lat="33.00463" lon="35.21507"><ele>339.0</ele><time>2021-07-26T03:52:13Z</time></trkpt>
<trkpt lat="33.00462" lon="35.21518"><ele>339.0</ele><time>2021-07-26T03:52:16Z</time></trkpt>
<trkpt lat="33.00461" lon="35.21527"><ele>340.0</ele><time>2021-07-26T03:52:19Z</time></trkpt>
<trkpt lat="33.00464" lon="35.21536"><ele>341.0</ele><time>2021-07-26T03:52:22Z</time></trkpt>
<trkpt lat="33.00472" lon="35.21535"><ele>343.0</ele><time>2021-07-26T03:52:29Z</time></trkpt>
<trkpt lat="33.00479" lon="35.2153"><ele>343.0</ele><time>2021-07-26T03:52:35Z</time></trkpt>
<trkpt lat="33.00488" lon="35.21528"><ele>343.0</ele><time>2021-07-26T03:52:42Z</time></trkpt>
<trkpt lat="33.00496" lon="35.2153"><ele>344.0</ele><time>2021-07-26T03:52:45Z</time></trkpt>
</trkseg></trk></gpx>