<?xml version="1.0" encoding="utf-8"?>
<gpx version="1.1"><trk><trkseg>
<trkpt lat="33.00503" lon="35.21546"><ele>347.0</ele><time>2021-08-06T04:13:41Z</time></trkpt>
<trkpt lat="33.00506" lon="35.21555"><ele>360.0</ele><time>2021-08-06T04:14:35Z</time></trkpt>
<trkpt lat="33.00513" lon="35.21558"><ele>360.0</ele><time>2021-08-06T04:14:40Z</time></trkpt>
<trkpt lat="33.0052" lon="35.21555"><ele>360.0</ele><time>2021-08-06T04:14:46Z</time></trkpt>
<trkpt lat="33.00526" lon="35.21549"><ele>360.0</ele><time>2021-08-06T04:14:51Z</time></trkpt>
<trkpt lat="33.00534" lon="35.21544"><ele>360.0</ele><time>2021-08-06T04:14:56Z</time></trkpt>
<trkpt lat="33.00542" lon="35.21542"><ele>361.0</ele><time>2021-08-06T04:15:00Z</time></trkpt>
<trkpt lat="33.0055" lon="35.21543"><ele>361.0</ele><time>2021-08-06T04:15:04Z</time></trkpt>
<trkpt lat="33.00558" lon="35.21539"><ele>361.0</ele><time>2021-08-06T04:15:09Z</time></trkpt>
<trkpt lat="33.00561" lon="35.21528"><ele>361.0</ele><time>2021-08-06T04:15:12Z</time></trkpt>
<trkpt lat="33.00565" lon="35.2152"><ele>361.0</ele><time>2021-08-06T04:15:14Z</time></trkpt>
<trkpt lat="33.0057" lon="35.21513"><ele>360.0</ele><time>2021-08-06T04:15:16Z</time></trkpt>
<trkpt lat="33.00579" lon="35.21507"><ele>360.0</ele><time>2021-08-06T04:15:19Z</time></trkpt>
<trkpt lat="33.00588" lon="35.21502"><ele>360.0</ele><time>2021-08-06T04:15:22Z</time></trkpt>
<trkpt lat="33.00595" lon="35.21497"><ele>360.0</ele><time>2021-08-06T04:15:25Z</time></trkpt>
<trkpt lat="33.006" lon="35.2149"><ele>359.0</ele><time>2021-08-06T04:15:29Z</time></trkpt>
<trkpt lat="33.00599" lon="35.2148"><ele>359.0</ele><time>2021-08-06T04:15:32Z</time></trkpt>
<trkpt lat="33.00594" lon="35.2147"><ele>358.0</ele><time>2021-08-06T04:15:35Z</time></trkpt>
<trkpt lat="33.00588" lon="35.21461"><ele>358.0</ele><time>2021-08-06T04:15:37Z</time></trkpt>
<trkpt lat="33.00582" lon="35.21451"><ele>357.0</ele><time>2021-08-06T04:15:39Z</time></trkpt>
<trkpt lat="33.00574" lon="35.21442"><ele>357.0</ele><time>2021-08-06T04:15:41Z</time></trkpt>
<trkpt lat="33.00568" lon="35.21431"><ele>356.0</ele><time>2021-08-06T04:15:43Z</time></trkpt>
<trkpt lat="33.00561" lon="35.21421"><ele>355.0</ele><time>2021-08-06T04:15:45Z</time></trkpt>
<trkpt lat="33.00553" lon="35.2141"><ele>355.0</ele><time>2021-08-06T04:15:47Z</time></trkpt>
<trkpt lat="33.00547" lon="35.21399"><ele>354.0</ele><time>2021-08-06T04:15:49Z</time></trkpt>
<trkpt lat="33.00545" lon="35.21387"><ele>353.0</ele><time>2021-08-06T04:15:51Z</time></trkpt>
<trkpt lat="33.0055" lon="35.21373"><ele>352.0</ele><time>2021-08-06T04:15:53Z</time></trkpt>
<trkpt lat="33.00554" lon="35.2136"><ele>351.0</ele><time>2021-08-06T04:15:55Z</time></trkpt>
<trkpt lat="33.0056" lon="35.21348"><ele>351.0</ele><time>2021-08-06T04:15:57Z</time></trkpt>
<trkpt lat="33.00566" lon="35.21336"><ele>350.0</ele><time>2021-08-06T04:15:59Z</time></trkpt>
<trkpt lat="33.00572" lon="35.21324"><ele>350.0</ele><time>2021-08-06T04:16:01Z</time></trkpt>
<trkpt lat="33.0058" lon="35.21314"><ele>349.0</ele><time>2021-08-06T04:16:03Z</time></trkpt>
<trkpt lat="33.00587" lon="35.21303"><ele>349.0</ele><time>2021-08-06T04:16:05Z</time></trkpt>
<trkpt lat="33.00594" lon="35.21291"><ele>348.0</ele><time>2021-08-06T04:16:07Z</time></trkpt>
<trkpt lat="33.00602" lon="35.21282"><ele>348.0</ele><time>2021-08-06T04:16:09Z</time></trkpt>
<trkpt lat="33.00607" lon="35.21271"><ele>348.0</ele><time>2021-08-06T04:16:11Z</time></trkpt>
<trkpt lat="33.00616" lon="35.2126"><ele>348.0</ele><time>2021-08-06T04:16:13Z</time></trkpt>
<trkpt lat="33.00624" lon="35.2125"><ele>347.0</ele><time>2021-08-06T04:16:15Z</time></trkpt>
<trkpt lat="33.00631" lon="35.2124"><ele>347.0</ele><time>2021-08-06T04:16:17Z</time></trkpt>
<trkpt lat="33.00636" lon="35.21228"><ele>346.0</ele><time>2021-08-06T04:16:19Z</time></trkpt>
<trkpt lat="33.0064" lon="35.21217"><ele>346.0</ele><time>2021-08-06T04:16:21Z</time></trkpt>
<trkpt lat="33.00642" lon="35.21208"><ele>345.0</ele><time>2021-08-06T04:16:23Z</time></trkpt>
<trkpt lat="33.00644" lon="35.21199"><ele>345.0</ele><time>2021-08-06T04:16:25Z</time></trkpt>
<trkpt lat="33.00646" lon="35.21188"><ele>344.0</ele><time>2021-08-06T04:16:28Z</time></trkpt>
<trkpt lat="33.00645" lon="35.21179"><ele>343.0</ele><time>2021-08-06T04:16:44Z</time></trkpt>
<trkpt lat="33.00646" lon="35.21169"><ele>343.0</ele><time>2021-08-06T04:16:48Z</time></trkpt>
<trkpt lat="33.00646" lon="35.21157"><ele>342.0</ele><time>2021-08-06T04:16:51Z</time></trkpt>
<trkpt lat="33.00648" lon="35.21147"><ele>342.0</ele><time>2021-08-06T04:16:53Z</time></trkpt>
<trkpt lat="33.00649" lon="35.21137"><ele>341.0</ele><time>2021-08-06T04:16:55Z</time></trkpt>
<trkpt lat="33.00651" lon="35.21125"><ele>340.0</ele><time>2021-08-06T04:16:57Z</time></trkpt>
<trkpt lat="33.00653" lon="35.21111"><ele>340.0</ele><time>2021-08-06T04:16:59Z</time></trkpt>
<trkpt lat="33.00655" lon="35.21097"><ele>339.0</ele><time>2021-08-06T04:17:01Z</time></trkpt>
<trkpt lat="33.00655" lon="35.21082"><ele>338.0</ele><time>2021-08-06T04:17:03Z</time></trkpt>
<trkpt lat="33.00655" lon="35.21067"><ele>337.0</ele><time>2021-08-06T04:17:05Z</time></trkpt>
<trkpt lat="33.00654" lon="35.21052"><ele>337.0</ele><time>2021-08-06T04:17:07Z</time></trkpt>
<trkpt lat="33.00655" lon="35.21035"><ele>336.0</ele><time>2021-08-06T04:17:09Z</time></trkpt>
<trkpt lat="33.00654" lon="35.21019"><ele>336.0</ele><time>2021-08-06T04:17:11Z</time></trkpt>
<trkpt lat="33.00653" lon="35.21002"><ele>335.0</ele><time>2021-08-06T04:17:13Z</time></trkpt>
<trkpt lat="33.00652" lon="35.20986"><ele>334.0</ele><time>2021-08-06T04:17:15Z</time></trkpt>
<trkpt lat="33.00652" lon="35.2097"><ele>333.0</ele><time>2021-08-06T04:17:17Z</time></trkpt>
<trkpt lat="33.00653" lon="35.20955"><ele>333.0</ele><time>2021-08-06T04:17:19Z</time></trkpt>
<trkpt lat="33.00652" lon="35.20942"><ele>332.0</ele><time>2021-08-06T04:17:21Z</time></trkpt>
<trkpt lat="33.00652" lon="35.20928"><ele>331.0</ele><time>2021-08-06T04:17:23Z</time></trkpt>
<trkpt lat="33.00652" lon="35.20915"><ele>331.0</ele><time>2021-08-06T04:17:25Z</time></trkpt>
<trkpt lat="33.00651" lon="35.209"><ele>330.0</ele><time>2021-08-06T04:17:27Z</time></trkpt>
<trkpt lat="33.00657" lon="35.2089"><ele>330.0</ele><time>2021-08-06T04:17:29Z</time></trkpt>
<trkpt lat="33.00662" lon="35.20879"><ele>328.0</ele><time>2021-08-06T04:17:32Z</time></trkpt>
<trkpt lat="33.00664" lon="35.20869"><ele>328.0</ele><time>2021-08-06T04:17:34Z</time></trkpt>
<trkpt lat="33.0066" lon="35.20857"><ele>327.0</ele><time>2021-08-06T04:17:36Z</time></trkpt>
<trkpt lat="33.00655" lon="35.20845"><ele>327.0</ele><time>2021-08-06T04:17:38Z</time></trkpt>
<trkpt lat="33.00651" lon="35.20831"><ele>326.0</ele><time>2021-08-06T04:17:40Z</time></trkpt>
<trkpt lat="33.00649" lon="35.20817"><ele>326.0</ele><time>2021-08-06T04:17:42Z</time></trkpt>
<trkpt lat="33.00647" lon="35.20801"><ele>325.0</ele><time>2021-08-06T04:17:44Z</time></trkpt>
<trkpt lat="33.00646" lon="35.20792"><ele>325.0</ele><time>2021-08-06T04:17:45Z</time></trkpt>
<trkpt lat="33.00644" lon="35.20783"><ele>324.0</ele><time>2021-08-06T04:17:46Z</time></trkpt>
<trkpt lat="33.00643" lon="35.20774"><ele>324.0</ele><time>2021-08-06T04:17:47Z</time></trkpt>
<trkpt lat="33.00642" lon="35.20764"><ele>324.0</ele><time>2021-08-06T04:17:48Z</time></trkpt>
<trkpt lat="33.00641" lon="35.20754"><ele>322.0</ele><time>2021-08-06T04:17:49Z</time></trkpt>
<trkpt lat="33.00639" lon="35.20744"><ele>322.0</ele><time>2021-08-06T04:17:50Z</time></trkpt>
<trkpt lat="33.00638" lon="35.20733"><ele>321.0</ele><time>2021-08-06T04:17:51Z</time></trkpt>
<trkpt lat="33.00637" lon="35.20721"><ele>321.0</ele><time>2021-08-06T04:17:52Z</time></trkpt>
<trkpt lat="33.00636" lon="35.2071"><ele>320.0</ele><time>2021-08-06T04:17:53Z</time></trkpt>
<trkpt lat="33.00635" lon="35.207"><ele>320.0</ele><time>2021-08-06T04:17:54Z</time></trkpt>
<trkpt lat="33.00634" lon="35.20692"><ele>319.0</ele><time>2021-08-06T04:17:55Z</time></trkpt>
<trkpt lat="33.00632" lon="35.20677"><ele>318.0</ele><time>2021-08-06T04:17:57Z</time></trkpt>
<trkpt lat="33.0063" lon="35.20663"><ele>317.0</ele><time>2021-08-06T04:17:59Z</time></trkpt>
<trkpt lat="33.00626" lon="35.20648"><ele>316.0</ele><time>2021-08-06T04:18:01Z</time></trkpt>
<trkpt lat="33.00624" lon="35.20632"><ele>315.0</ele><time>2021-08-06T04:18:03Z</time></trkpt>
<trkpt lat="33.00626" lon="35.20615"><ele>314.0</ele><time>2021-08-06T04:18:05Z</time></trkpt>
<trkpt lat="33.00627" lon="35.20601"><ele>313.0</ele><time>2021-08-06T04:18:07Z</time></trkpt>
<trkpt lat="33.00625" lon="35.2059"><ele>312.0</ele><time>2021-08-06T04:18:09Z</time></trkpt>
<trkpt lat="33.00617" lon="35.20581"><ele>312.0</ele><time>2021-08-06T04:18:11Z</time></trkpt>
<trkpt lat="33.00606" lon="35.2058"><ele>312.0</ele><time>2021-08-06T04:18:13Z</time></trkpt>
<trkpt lat="33.00596" lon="35.2058"><ele>311.0</ele><time>2021-08-06T04:18:15Z</time></trkpt>
<trkpt lat="33.00589" lon="35.20582"><ele>311.0</ele><time>2021-08-06T04:18:17Z</time></trkpt>
<trkpt lat="33.00582" lon="35.20585"><ele>311.0</ele><time>2021-08-06T04:18:27Z</time></trkpt>
<trkpt lat="33.00577" lon="35.20592"><ele>311.0</ele><time>2021-08-06T04:21:33Z</time></trkpt>
<trkpt lat="33.0057" lon="35.20588"><ele>310.0</ele><time>2021-08-06T04:23:55Z</time></trkpt>
<trkpt lat="33.00563" lon="35.20595"><ele>310.0</ele><time>2021-08-06T04:23:59Z</time></trkpt>
<trkpt lat="33.00555" lon="35.20603"><ele>310.0</ele><time>2021-08-06T04:24:03Z</time></trkpt>
<trkpt lat="33.00549" lon="35.20612"><ele>310.0</ele><time>2021-08-06T04:24:06Z</time></trkpt>
<trkpt lat="33.00541" lon="35.20621"><ele>310.0</ele><time>2021-08-06T04:24:09Z</time></trkpt>
<trkpt lat="33.00536" lon="35.20628"><ele>310.0</ele><time>2021-08-06T04:24:11Z</time></trkpt>
<trkpt lat="33.00532" lon="35.20635"><ele>310.0</ele><time>2021-08-06T04:24:13Z</time></trkpt>
<trkpt lat="33.00526" lon="35.2064"><ele>310.0</ele><time>2021-08-06T04:24:15Z</time></trkpt>
<trkpt lat="33.00522" lon="35.20648"><ele>310.0</ele><time>2021-08-06T04:24:17Z</time></trkpt>
<trkpt lat="33.00517" lon="35.20655"><ele>311.0</ele><time>2021-08-06T04:24:19Z</time></trkpt>
<trkpt lat="33.00512" lon="35.20663"><ele>311.0</ele><time>2021-08-06T04:24:21Z</time></trkpt>
<trkpt lat="33.00508" lon="35.2067"><ele>311.0</ele><time>2021-08-06T04:24:23Z</time></trkpt>
<trkpt lat="33.00502" lon="35.20678"><ele>311.0</ele><time>2021-08-06T04:24:25Z</time></trkpt>
<trkpt lat="33.00497" lon="35.20686"><ele>311.0</ele><time>2021-08-06T04:24:27Z</time></trkpt>
<trkpt lat="33.00492" lon="35.20694"><ele>312.0</ele><time>2021-08-06T04:24:29Z</time></trkpt>
<trkpt lat="33.00486" lon="35.20701"><ele>312.0</ele><time>2021-08-06T04:24:31Z</time></trkpt>
<trkpt lat="33.0048" lon="35.20708"><ele>312.0</ele><time>2021-08-06T04:24:33Z</time></trkpt>
<trkpt lat="33.00474" lon="35.20715"><ele>312.0</ele><time>2021-08-06T04:24:35Z</time></trkpt>
<trkpt lat="33.00468" lon="35.20722"><ele>312.0</ele><time>2021-08-06T04:24:37Z</time></trkpt>
<trkpt lat="33.00461" lon="35.20728"><ele>312.0</ele><time>2021-08-06T04:24:39Z</time></trkpt>
<trkpt lat="33.00455" lon="35.20734"><ele>313.0</ele><time>2021-08-06T04:24:41Z</time></trkpt>
<trkpt lat="33.00447" lon="35.2074"><ele>313.0</ele><time>2021-08-06T04:24:43Z</time></trkpt>
<trkpt lat="33.0044" lon="35.20745"><ele>313.0</ele><time>2021-08-06T04:24:45Z</time></trkpt>
<trkpt lat="33.00433" lon="35.20752"><ele>313.0</ele><time>2021-08-06T04:24:47Z</time></trkpt>
<trkpt lat="33.00426" lon="35.20758"><ele>313.0</ele><time>2021-08-06T04:24:49Z</time></trkpt>
<trkpt lat="33.00419" lon="35.20764"><ele>313.0</ele><time>2021-08-06T04:24:51Z</time></trkpt>
<trkpt lat="33.00412" lon="35.2077"><ele>313.0</ele><time>2021-08-06T04:24:53Z</time></trkpt>
<trkpt lat="33.00405" lon="35.20775"><ele>313.0</ele><time>2021-08-06T04:24:55Z</time></trkpt>
<trkpt lat="33.00397" lon="35.20781"><ele>313.0</ele><time>2021-08-06T04:24:57Z</time></trkpt>
<trkpt lat="33.0039" lon="35.20787"><ele>313.0</ele><time>2021-08-06T04:24:59Z</time></trkpt>
<trkpt lat="33.00382" lon="35.20794"><ele>313.0</ele><time>2021-08-06T04:25:01Z</time></trkpt>
<trkpt lat="33.00374" lon="35.20801"><ele>313.0</ele><time>2021-08-06T04:25:03Z</time></trkpt>
<trkpt lat="33.00366" lon="35.20808"><ele>313.0</ele><time>2021-08-06T04:25:05Z</time></trkpt>
<trkpt lat="33.00357" lon="35.20815"><ele>312.0</ele><time>2021-08-06T04:25:07Z</time></trkpt>
<trkpt lat="33.00346" lon="35.20823"><ele>312.0</ele><time>2021-08-06T04:25:09Z</time></trkpt>
<trkpt lat="33.00333" lon="35.20831"><ele>311.0</ele><time>2021-08-06T04:25:11Z</time></trkpt>
<trkpt lat="33.00325" lon="35.20832"><ele>311.0</ele><time>2021-08-06T04:25:12Z</time></trkpt>
<trkpt lat="33.00317" lon="35.20835"><ele>310.0</ele><time>2021-08-06T04:25:13Z</time></trkpt>
<trkpt lat="33.00309" lon="35.20839"><ele>310.0</ele><time>2021-08-06T04:25:14Z</time></trkpt>
<trkpt lat="33.00301" lon="35.20842"><ele>309.0</ele><time>2021-08-06T04:25:15Z</time></trkpt>
<trkpt lat="33.00292" lon="35.20846"><ele>309.0</ele><time>2021-08-06T04:25:16Z</time></trkpt>
<trkpt lat="33.00282" lon="35.20851"><ele>308.0</ele><time>2021-08-06T04:25:17Z</time></trkpt>
<trkpt lat="33.00273" lon="35.20855"><ele>307.0</ele><time>2021-08-06T04:25:18Z</time></trkpt>
<trkpt lat="33.00264" lon="35.20859"><ele>306.0</ele><time>2021-08-06T04:25:19Z</time></trkpt>
<trkpt lat="33.00254" lon="35.20863"><ele>305.0</ele><time>2021-08-06T04:25:20Z</time></trkpt>
<trkpt lat="33.00244" lon="35.20868"><ele>304.0</ele><time>2021-08-06T04:25:21Z</time></trkpt>
<trkpt lat="33.00234" lon="35.20872"><ele>303.0</ele><time>2021-08-06T04:25:22Z</time></trkpt>
<trkpt lat="33.00224" lon="35.20877"><ele>302.0</ele><time>2021-08-06T04:25:23Z</time></trkpt>
<trkpt lat="33.00214" lon="35.20882"><ele>300.0</ele><time>2021-08-06T04:25:24Z</time></trkpt>
<trkpt lat="33.00203" lon="35.20887"><ele>299.0</ele><time>2021-08-06T04:25:25Z</time></trkpt>
<trkpt lat="33.00193" lon="35.20892"><ele>298.0</ele><time>2021-08-06T04:25:26Z</time></trkpt>
<trkpt lat="33.00182" lon="35.20897"><ele>297.0</ele><time>2021-08-06T04:25:27Z</time></trkpt>
<trkpt lat="33.00171" lon="35.20902"><ele>296.0</ele><time>2021-08-06T04:25:28Z</time></trkpt>
<trkpt lat="33.0016" lon="35.20908"><ele>295.0</ele><time>2021-08-06T04:25:29Z</time></trkpt>
<trkpt lat="33.00149" lon="35.20913"><ele>294.0</ele><time>2021-08-06T04:25:30Z</time></trkpt>
<trkpt lat="33.00138" lon="35.20918"><ele>293.0</ele><time>2021-08-06T04:25:31Z</time></trkpt>
<trkpt lat="33.00126" lon="35.20924"><ele>292.0</ele><time>2021-08-06T04:25:32Z</time></trkpt>
<trkpt lat="33.00115" lon="35.20929"><ele>290.0</ele><time>2021-08-06T04:25:33Z</time></trkpt>
<trkpt lat="33.00104" lon="35.20935"><ele>289.0</ele><time>2021-08-06T04:25:34Z</time></trkpt>
<trkpt lat="33.00094" lon="35.2094"><ele>288.0</ele><time>2021-08-06T04:25:35Z</time></trkpt>
<trkpt lat="33.00084" lon="35.20947"><ele>288.0</ele><time>2021-08-06T04:25:36Z</time></trkpt>
<trkpt lat="33.00075" lon="35.20954"><ele>287.0</ele><time>2021-08-06T04:25:37Z</time></trkpt>
<trkpt lat="33.00067" lon="35.20961"><ele>287.0</ele><time>2021-08-06T04:25:38Z</time></trkpt>
<trkpt lat="33.00061" lon="35.20969"><ele>287.0</ele><time>2021-08-06T04:25:39Z</time></trkpt>
<trkpt lat="33.00056" lon="35.20976"><ele>287.0</ele><time>2021-08-06T04:25:40Z</time></trkpt>
<trkpt lat="33.00048" lon="35.20989"><ele>288.0</ele><time>2021-08-06T04:25:42Z</time></trkpt>
<trkpt lat="33.00043" lon="35.20999"><ele>290.0</ele><time>2021-08-06T04:25:44Z</time></trkpt>
<trkpt lat="33.00039" lon="35.21006"><ele>291.0</ele><time>2021-08-06T04:25:46Z</time></trkpt>
<trkpt lat="33.00034" lon="35.21015"><ele>292.0</ele><time>2021-08-06T04:25:49Z</time></trkpt>
<trkpt lat="33.00029" lon="35.21024"><ele>293.0</ele><time>2021-08-06T04:25:53Z</time></trkpt>
<trkpt lat="33.00026" lon="35.21032"><ele>293.0</ele><time>2021-08-06T04:25:58Z</time></trkpt>
<trkpt lat="33.00021" lon="35.2104"><ele>294.0</ele><time>2021-08-06T04:26:04Z</time></trkpt>
<trkpt lat="33.00017" lon="35.21049"><ele>295.0</ele><time>2021-08-06T04:26:09Z</time></trkpt>
<trkpt lat="33.00012" lon="35.21057"><ele>295.0</ele><time>2021-08-06T04:26:14Z</time></trkpt>
<trkpt lat="33.00007" lon="35.21065"><ele>296.0</ele><time>2021-08-06T04:26:18Z</time></trkpt>
<trkpt lat="33.00004" lon="35.21073"><ele>297.0</ele><time>2021-08-06T04:26:22Z</time></trkpt>
<trkpt lat="33.0" lon="35.21081"><ele>297.0</ele><time>2021-08-06T04:26:26Z</time></trkpt>
<trkpt lat="32.99996" lon="35.21089"><ele>298.0</ele><time>2021-08-06T04:26:30Z</time></trkpt>
<trkpt lat="32.99991" lon="35.21098"><ele>298.0</ele><time>2021-08-06T04:26:34Z</time></trkpt>
<trkpt lat="32.99986" lon="35.21106"><ele>299.0</ele><time>2021-08-06T04:26:38Z</time></trkpt>
<trkpt lat="32.99982" lon="35.21114"><ele>300.0</ele><time>2021-08-06T04:26:42Z</time></trkpt>
<trkpt lat="32.99978" lon="35.21122"><ele>300.0</ele><time>2021-08-06T04:26:46Z</time></trkpt>
<trkpt lat="32.99974" lon="35.2113"><ele>301.0</ele><time>2021-08-06T04:26:50Z</time></trkpt>
<trkpt lat="32.99969" lon="35.21137"><ele>301.0</ele><time>2021-08-06T04:26:54Z</time></trkpt>
<trkpt lat="32.99964" lon="35.21145"><ele>302.0</ele><time>2021-08-06T04:26:59Z</time></trkpt>
<trkpt lat="32.9996" lon="35.21153"><ele>303.0</ele><time>2021-08-06T04:27:03Z</time></trkpt>
<trkpt lat="32.99956" lon="35.2116"><ele>304.0</ele><time>2021-08-06T04:27:07Z</time></trkpt>
<trkpt lat="32.99952" lon="35.21168"><ele>305.0</ele><time>2021-08-06T04:27:12Z</time></trkpt>
<trkpt lat="32.99948" lon="35.21175"><ele>305.0</ele><time>2021-08-06T04:27:16Z</time></trkpt>
<trkpt lat="32.99943" lon="35.21184"><ele>306.0</ele><time>2021-08-06T04:27:21Z</time></trkpt>
<trkpt lat="32.99938" lon="35.21191"><ele>307.0</ele><time>2021-08-06T04:27:26Z</time></trkpt>
<trkpt lat="32.99933" lon="35.21199"><ele>307.0</ele><time>2021-08-06T04:27:31Z</time></trkpt>
<trkpt lat="32.99928" lon="35.21207"><ele>308.0</ele><time>2021-08-06T04:27:37Z</time></trkpt>
<trkpt lat="32.99924" lon="35.21215"><ele>309.0</ele><time>2021-08-06T04:27:42Z</time></trkpt>
<trkpt lat="32.99921" lon="35.21223"><ele>310.0</ele><time>2021-08-06T04:27:47Z</time></trkpt>
<trkpt lat="32.99917" lon="35.21232"><ele>311.0</ele><time>2021-08-06T04:27:52Z</time></trkpt>
<trkpt lat="32.99912" lon="35.21241"><ele>312.0</ele><time>2021-08-06T04:27:57Z</time></trkpt>
<trkpt lat="32.99907" lon="35.21248"><ele>312.0</ele><time>2021-08-06T04:28:02Z</time></trkpt>
<trkpt lat="32.99903" lon="35.21256"><ele>313.0</ele><time>2021-08-06T04:28:07Z</time></trkpt>
<trkpt lat="32.99898" lon="35.21264"><ele>313.0</ele><time>2021-08-06T04:28:13Z</time></trkpt>
<trkpt lat="32.99895" lon="35.21272"><ele>314.0</ele><time>2021-08-06T04:28:18Z</time></trkpt>
<trkpt lat="32.99889" lon="35.21281"><ele>315.0</ele><time>2021-08-06T04:28:23Z</time></trkpt>
<trkpt lat="32.99885" lon="35.21288"><ele>316.0</ele><time>2021-08-06T04:28:28Z</time></trkpt>
<trkpt lat="32.9988" lon="35.21296"><ele>317.0</ele><time>2021-08-06T04:28:33Z</time></trkpt>
<trkpt lat="32.99876" lon="35.21303"><ele>318.0</ele><time>2021-08-06T04:28:38Z</time></trkpt>
<trkpt lat="32.99872" lon="35.21311"><ele>318.0</ele><time>2021-08-06T04:28:43Z</time></trkpt>
<trkpt lat="32.99868" lon="35.21319"><ele>319.0</ele><time>2021-08-06T04:28:49Z</time></trkpt>
<trkpt lat="32.99864" lon="35.21327"><ele>320.0</ele><time>2021-08-06T04:28:55Z</time></trkpt>
<trkpt lat="32.99861" lon="35.21336"><ele>321.0</ele><time>2021-08-06T04:29:01Z</time></trkpt>
<trkpt lat="32.99856" lon="35.21344"><ele>322.0</ele><time>2021-08-06T04:29:07Z</time></trkpt>
<trkpt lat="32.99851" lon="35.21352"><ele>323.0</ele><time>2021-08-06T04:29:12Z</time></trkpt>
<trkpt lat="32.99847" lon="35.21359"><ele>324.0</ele><time>2021-08-06T04:29:18Z</time></trkpt>
<trkpt lat="32.99842" lon="35.21368"><ele>324.0</ele><time>2021-08-06T04:29:23Z</time></trkpt>
<trkpt lat="32.99837" lon="35.21375"><ele>325.0</ele><time>2021-08-06T04:29:29Z</time></trkpt>
<trkpt lat="32.99833" lon="35.21383"><ele>326.0</ele><time>2021-08-06T04:29:34Z</time></trkpt>
<trkpt lat="32.99828" lon="35.21391"><ele>327.0</ele><time>2021-08-06T04:29:40Z</time></trkpt>
<trkpt lat="32.99824" lon="35.21399"><ele>328.0</ele><time>2021-08-06T04:29:45Z</time></trkpt>
<trkpt lat="32.9982" lon="35.21406"><ele>328.0</ele><time>2021-08-06T04:29:50Z</time></trkpt>
<trkpt lat="32.99816" lon="35.21414"><ele>329.0</ele><time>2021-08-06T04:29:56Z</time></trkpt>
<trkpt lat="32.99812" lon="35.21423"><ele>330.0</ele><time>2021-08-06T04:30:02Z</time></trkpt>
<trkpt lat="32.99809" lon="35.21432"><ele>331.0</ele><time>2021-08-06T04:30:08Z</time></trkpt>
<trkpt lat="32.99805" lon="35.2144"><ele>332.0</ele><time>2021-08-06T04:30:13Z</time></trkpt>
<trkpt lat="32.99801" lon="35.21448"><ele>332.0</ele><time>2021-08-06T04:30:18Z</time></trkpt>
<trkpt lat="32.99799" lon="35.21456"><ele>333.0</ele><time>2021-08-06T04:30:22Z</time></trkpt>
<trkpt lat="32.99795" lon="35.21464"><ele>334.0</ele><time>2021-08-06T04:30:27Z</time></trkpt>
<trkpt lat="32.99793" lon="35.21472"><ele>334.0</ele><time>2021-08-06T04:30:32Z</time></trkpt>
<trkpt lat="32.9979" lon="35.21481"><ele>335.0</ele><time>2021-08-06T04:30:37Z</time></trkpt>
<trkpt lat="32.99788" lon="35.2149"><ele>336.0</ele><time>2021-08-06T04:30:42Z</time></trkpt>
<trkpt lat="32.99786" lon="35.21498"><ele>336.0</ele><time>2021-08-06T04:30:47Z</time></trkpt>
<trkpt lat="32.99784" lon="35.21507"><ele>337.0</ele><time>2021-08-06T04:30:52Z</time></trkpt>
<trkpt lat="32.99783" lon="35.21517"><ele>337.0</ele><time>2021-08-06T04:30:57Z</time></trkpt>
<trkpt lat="32.99781" lon="35.21526"><ele>338.0</ele><time>2021-08-06T04:31:02Z</time></trkpt>
<trkpt lat="32.99779" lon="35.21535"><ele>339.0</ele><time>2021-08-06T04:31:07Z</time></trkpt>
<trkpt lat="32.99778" lon="35.21545"><ele>339.0</ele><time>2021-08-06T04:31:12Z</time></trkpt>
<trkpt lat="32.99777" lon="35.21555"><ele>340.0</ele><time>2021-08-06T04:31:17Z</time></trkpt>
<trkpt lat="32.99775" lon="35.21564"><ele>341.0</ele><time>2021-08-06T04:31:22Z</time></trkpt>
<trkpt lat="32.99773" lon="35.21574"><ele>341.0</ele><time>2021-08-06T04:31:27Z</time></trkpt>
<trkpt lat="32.99772" lon="35.21583"><ele>342.0</ele><time>2021-08-06T04:31:32Z</time></trkpt>
<trkpt lat="32.9977" lon="35.21594"><ele>342.0</ele><time>2021-08-06T04:31:37Z</time></trkpt>
<trkpt lat="32.99768" lon="35.21604"><ele>343.0</ele><time>2021-08-06T04:31:42Z</time></trkpt>
<trkpt lat="32.99767" lon="35.21613"><ele>343.0</ele><time>2021-08-06T04:31:47Z</time></trkpt>
<trkpt lat="32.99765" lon="35.21622"><ele>344.0</ele><time>2021-08-06T04:31:52Z</time></trkpt>
<trkpt lat="32.99763" lon="35.2163"><ele>344.0</ele><time>2021-08-06T04:31:56Z</time></trkpt>
<trkpt lat="32.99762" lon="35.21639"><ele>345.0</ele><time>2021-08-06T04:32:00Z</time></trkpt>
<trkpt lat="32.99759" lon="35.21649"><ele>345.0</ele><time>2021-08-06T04:32:05Z</time></trkpt>
<trkpt lat="32.99756" lon="35.21657"><ele>346.0</ele><time>2021-08-06T04:32:09Z</time></trkpt>
<trkpt lat="32.99753" lon="35.21666"><ele>347.0</ele><time>2021-08-06T04:32:13Z</time></trkpt>
<trkpt lat="32.99751" lon="35.21674"><ele>347.0</ele><time>2021-08-06T04:32:17Z</time></trkpt>
<trkpt lat="32.99748" lon="35.21684"><ele>348.0</ele><time>2021-08-06T04:32:22Z</time></trkpt>
<trkpt lat="32.99741" lon="35.21689"><ele>348.0</ele><time>2021-08-06T04:32:27Z</time></trkpt>
<trkpt lat="32.99733" lon="35.21693"><ele>349.0</ele><time>2021-08-06T04:32:31Z</time></trkpt>
<trkpt lat="32.9973" lon="35.21701"><ele>350.0</ele><time>2021-08-06T04:32:35Z</time></trkpt>
<trkpt lat="32.99734" lon="35.2171"><ele>350.0</ele><time>2021-08-06T04:32:40Z</time></trkpt>
<trkpt lat="32.9974" lon="35.21715"><ele>350.0</ele><time>2021-08-06T04:32:44Z</time></trkpt>
<trkpt lat="32.99749" lon="35.21714"><ele>350.0</ele><time>2021-08-06T04:32:49Z</time></trkpt>
<trkpt lat="32.99755" lon="35.21707"><ele>350.0</ele><time>2021-08-06T04:32:52Z</time></trkpt>
<trkpt lat="32.99756" lon="35.21698"><ele>349.0</ele><time>2021-08-06T04:32:54Z</time></trkpt>
<trkpt lat="32.99755" lon="35.2169"><ele>349.0</ele><time>2021-08-06T04:32:56Z</time></trkpt>
<trkpt lat="32.99755" lon="35.2168"><ele>349.0</ele><time>2021-08-06T04:32:58Z</time></trkpt>
<trkpt lat="32.99759" lon="35.21668"><ele>348.0</ele><time>2021-08-06T04:33:00Z</time></trkpt>
<trkpt lat="32.99762" lon="35.21657"><ele>347.0</ele><time>2021-08-06T04:33:02Z</time></trkpt>
<trkpt lat="32.99766" lon="35.21647"><ele>347.0</ele><time>2021-08-06T04:33:04Z</time></trkpt>
<trkpt lat="32.9977" lon="35.21637"><ele>346.0</ele><time>2021-08-06T04:33:06Z</time></trkpt>
<trkpt lat="32.99773" lon="35.21625"><ele>345.0</ele><time>2021-08-06T04:33:08Z</time></trkpt>
<trkpt lat="32.99776" lon="35.21613"><ele>345.0</ele><time>2021-08-06T04:33:10Z</time></trkpt>
<trkpt lat="32.99778" lon="35.216"><ele>344.0</ele><time>2021-08-06T04:33:12Z</time></trkpt>
<trkpt lat="32.9978" lon="35.21586"><ele>343.0</ele><time>2021-08-06T04:33:14Z</time></trkpt>
<trkpt lat="32.99782" lon="35.21573"><ele>342.0</ele><time>2021-08-06T04:33:16Z</time></trkpt>
<trkpt lat="32.99784" lon="35.21562"><ele>342.0</ele><time>2021-08-06T04:33:18Z</time></trkpt>
<trkpt lat="32.99786" lon="35.21551"><ele>341.0</ele><time>2021-08-06T04:33:21Z</time></trkpt>
<trkpt lat="32.9978" lon="35.21544"><ele>340.0</ele><time>2021-08-06T04:33:26Z</time></trkpt>
<trkpt lat="32.99773" lon="35.21551"><ele>340.0</ele><time>2021-08-06T04:33:30Z</time></trkpt>
<trkpt lat="32.99768" lon="35.2156"><ele>340.0</ele><time>2021-08-06T04:33:34Z</time></trkpt>
<trkpt lat="32.99766" lon="35.21569"><ele>341.0</ele><time>2021-08-06T04:33:38Z</time></trkpt>
<trkpt lat="32.99763" lon="35.21579"><ele>341.0</ele><time>2021-08-06T04:33:43Z</time></trkpt>
<trkpt lat="32.99759" lon="35.21587"><ele>342.0</ele><time>2021-08-06T04:33:47Z</time></trkpt>
<trkpt lat="32.99751" lon="35.21587"><ele>342.0</ele><time>2021-08-06T04:33:52Z</time></trkpt>
<trkpt lat="32.99744" lon="35.21582"><ele>342.0</ele><time>2021-08-06T04:33:56Z</time></trkpt>
<trkpt lat="32.99738" lon="35.21576"><ele>342.0</ele><time>2021-08-06T04:34:00Z</time></trkpt>
<trkpt lat="32.99733" lon="35.2157"><ele>342.0</ele><time>2021-08-06T04:34:03Z</time></trkpt>
<trkpt lat="32.99726" lon="35.21563"><ele>342.0</ele><time>2021-08-06T04:34:07Z</time></trkpt>
<trkpt lat="32.99717" lon="35.21557"><ele>342.0</ele><time>2021-08-06T04:34:11Z</time></trkpt>
<trkpt lat="32.9971" lon="35.21553"><ele>342.0</ele><time>2021-08-06T04:34:14Z</time></trkpt>
<trkpt lat="32.99703" lon="35.21551"><ele>342.0</ele><time>2021-08-06T04:34:17Z</time></trkpt>
<trkpt lat="32.99696" lon="35.21548"><ele>342.0</ele><time>2021-08-06T04:34:20Z</time></trkpt>
<trkpt lat="32.99687" lon="35.21546"><ele>342.0</ele><time>2021-08-06T04:34:24Z</time></trkpt>
<trkpt lat="32.99679" lon="35.21544"><ele>342.0</ele><time>2021-08-06T04:34:27Z</time></trkpt>
<trkpt lat="32.99671" lon="35.21539"><ele>342.0</ele><time>2021-08-06T04:34:31Z</time></trkpt>
<trkpt lat="32.99664" lon="35.21535"><ele>342.0</ele><time>2021-08-06T04:34:34Z</time></trkpt>
<trkpt lat="32.99656" lon="35.21534"><ele>342.0</ele><time>2021-08-06T04:34:38Z</time></trkpt>
<trkpt lat="32.99648" lon="35.21537"><ele>343.0</ele><time>2021-08-06T04:34:42Z</time></trkpt>
<trkpt lat="32.99641" lon="35.2154"><ele>343.0</ele><time>2021-08-06T04:34:46Z</time></trkpt>
<trkpt lat="32.99633" lon="35.21543"><ele>343.0</ele><time>2021-08-06T04:34:50Z</time></trkpt>
<trkpt lat="32.99626" lon="35.21544"><ele>343.0</ele><time>2021-08-06T04:34:55Z</time></trkpt>
<trkpt lat="32.99618" lon="35.2154"><ele>343.0</ele><time>2021-08-06T04:34:59Z</time></trkpt>
<trkpt lat="32.9961" lon="35.21537"><ele>343.0</ele><time>2021-08-06T04:35:02Z</time></trkpt>
<trkpt lat="32.99602" lon="35.21535"><ele>344.0</ele><time>2021-08-06T04:35:06Z</time></trkpt>
<trkpt lat="32.99594" lon="35.21534"><ele>344.0</ele><time>2021-08-06T04:35:10Z</time></trkpt>
<trkpt lat="32.99586" lon="35.21531"><ele>344.0</ele><time>2021-08-06T04:35:14Z</time></trkpt>
<trkpt lat="32.99578" lon="35.2153"><ele>344.0</ele><time>2021-08-06T04:35:17Z</time></trkpt>
<trkpt lat="32.99571" lon="35.21528"><ele>344.0</ele><time>2021-08-06T04:35:20Z</time></trkpt>
<trkpt lat="32.99564" lon="35.21528"><ele>344.0</ele><time>2021-08-06T04:35:23Z</time></trkpt>
<trkpt lat="32.99555" lon="35.21528"><ele>344.0</ele><time>2021-08-06T04:35:27Z</time></trkpt>
<trkpt lat="32.99547" lon="35.21527"><ele>345.0</ele><time>2021-08-06T04:35:31Z</time></trkpt>
<trkpt lat="32.99538" lon="35.21527"><ele>345.0</ele><time>2021-08-06T04:35:35Z</time></trkpt>
<trkpt lat="32.99529" lon="35.21526"><ele>345.0</ele><time>2021-08-06T04:35:39Z</time></trkpt>
<trkpt lat="32.99521" lon="35.21526"><ele>346.0</ele><time>2021-08-06T04:35:43Z</time></trkpt>
<trkpt lat="32.99513" lon="35.21524"><ele>346.0</ele><time>2021-08-06T04:35:47Z</time></trkpt>
<trkpt lat="32.99505" lon="35.21523"><ele>346.0</ele><time>2021-08-06T04:35:51Z</time></trkpt>
<trkpt lat="32.99497" lon="35.21522"><ele>346.0</ele><time>2021-08-06T04:35:55Z</time></trkpt>
<trkpt lat="32.99488" lon="35.21522"><ele>347.0</ele><time>2021-08-06T04:36:00Z</time></trkpt>
<trkpt lat="32.99481" lon="35.21522"><ele>347.0</ele><time>2021-08-06T04:36:04Z</time></trkpt>
<trkpt lat="32.99489" lon="35.21521"><ele>347.0</ele><time>2021-08-06T04:36:31Z</time></trkpt>
<trkpt lat="32.99497" lon="35.2152"><ele>347.0</ele><time>2021-08-06T04:36:34Z</time></trkpt>
<trkpt lat="32.99507" lon="35.21521"><ele>346.0</ele><time>2021-08-06T04:36:37Z</time></trkpt>
<trkpt lat="32.99515" lon="35.21522"><ele>346.0</ele><time>2021-08-06T04:36:40Z</time></trkpt>
<trkpt lat="32.99525" lon="35.21524"><ele>346.0</ele><time>2021-08-06T04:36:43Z</time></trkpt>
<trkpt lat="32.99534" lon="35.21525"><ele>346.0</ele><time>2021-08-06T04:36:46Z</time></trkpt>
<trkpt lat="32.99543" lon="35.21526"><ele>346.0</ele><time>2021-08-06T04:36:49Z</time></trkpt>
<trkpt lat="32.99553" lon="35.21526"><ele>345.0</ele><time>2021-08-06T04:36:52Z</time></trkpt>
<trkpt lat="32.99563" lon="35.21526"><ele>345.0</ele><time>2021-08-06T04:36:54Z</time></trkpt>
<trkpt lat="32.99573" lon="35.21527"><ele>345.0</ele><time>2021-08-06T04:36:56Z</time></trkpt>
<trkpt lat="32.9958" lon="35.21529"><ele>344.0</ele><time>2021-08-06T04:36:58Z</time></trkpt>
<trkpt lat="32.9959" lon="35.21533"><ele>344.0</ele><time>2021-08-06T04:37:01Z</time></trkpt>
<trkpt lat="32.996" lon="35.21534"><ele>344.0</ele><time>2021-08-06T04:37:04Z</time></trkpt>
<trkpt lat="32.9961" lon="35.21535"><ele>344.0</ele><time>2021-08-06T04:37:07Z</time></trkpt>
<trkpt lat="32.99619" lon="35.21539"><ele>343.0</ele><time>2021-08-06T04:37:11Z</time></trkpt>
<trkpt lat="32.99626" lon="35.21542"><ele>343.0</ele><time>2021-08-06T04:37:14Z</time></trkpt>
<trkpt lat="32.99634" lon="35.21539"><ele>343.0</ele><time>2021-08-06T04:37:17Z</time></trkpt>
<trkpt lat="32.99642" lon="35.21537"><ele>343.0</ele><time>2021-08-06T04:37:20Z</time></trkpt>
<trkpt lat="32.99649" lon="35.21534"><ele>343.0</ele><time>2021-08-06T04:37:23Z</time></trkpt>
<trkpt lat="32.99658" lon="35.2153"><ele>343.0</ele><time>2021-08-06T04:37:27Z</time></trkpt>
<trkpt lat="32.99667" lon="35.21534"><ele>342.0</ele><time>2021-08-06T04:37:30Z</time></trkpt>
<trkpt lat="32.99674" lon="35.2154"><ele>342.0</ele><time>2021-08-06T04:37:34Z</time></trkpt>
<trkpt lat="32.99682" lon="35.21542"><ele>342.0</ele><time>2021-08-06T04:37:37Z</time></trkpt>
<trkpt lat="32.99691" lon="35.21545"><ele>342.0</ele><time>2021-08-06T04:37:40Z</time></trkpt>
<trkpt lat="32.997" lon="35.21549"><ele>342.0</ele><time>2021-08-06T04:37:43Z</time></trkpt>
<trkpt lat="32.9971" lon="35.21552"><ele>342.0</ele><time>2021-08-06T04:37:46Z</time></trkpt>
<trkpt lat="32.99718" lon="35.21556"><ele>342.0</ele><time>2021-08-06T04:37:48Z</time></trkpt>
<trkpt lat="32.99724" lon="35.2156"><ele>342.0</ele><time>2021-08-06T04:37:50Z</time></trkpt>
<trkpt lat="32.99731" lon="35.21567"><ele>342.0</ele><time>2021-08-06T04:37:53Z</time></trkpt>
<trkpt lat="32.99738" lon="35.21574"><ele>342.0</ele><time>2021-08-06T04:37:57Z</time></trkpt>
<trkpt lat="32.99746" lon="35.21579"><ele>342.0</ele><time>2021-08-06T04:38:01Z</time></trkpt>
<trkpt lat="32.99751" lon="35.21585"><ele>342.0</ele><time>2021-08-06T04:38:05Z</time></trkpt>
<trkpt lat="32.99759" lon="35.21581"><ele>342.0</ele><time>2021-08-06T04:38:09Z</time></trkpt>
<trkpt lat="32.99762" lon="35.21573"><ele>342.0</ele><time>2021-08-06T04:38:12Z</time></trkpt>
<trkpt lat="32.99764" lon="35.21562"><ele>341.0</ele><time>2021-08-06T04:38:15Z</time></trkpt>
<trkpt lat="32.99766" lon="35.2155"><ele>341.0</ele><time>2021-08-06T04:38:18Z</time></trkpt>
<trkpt lat="32.9977" lon="35.21541"><ele>340.0</ele><time>2021-08-06T04:38:21Z</time></trkpt>
<trkpt lat="32.99778" lon="35.2154"><ele>340.0</ele><time>2021-08-06T04:38:25Z</time></trkpt>
<trkpt lat="32.99784" lon="35.21535"><ele>340.0</ele><time>2021-08-06T04:38:28Z</time></trkpt>
<trkpt lat="32.99788" lon="35.21526"><ele>339.0</ele><time>2021-08-06T04:38:30Z</time></trkpt>
<trkpt lat="32.99789" lon="35.21515"><ele>339.0</ele><time>2021-08-06T04:38:32Z</time></trkpt>
<trkpt lat="32.99791" lon="35.21501"><ele>338.0</ele><time>2021-08-06T04:38:34Z</time></trkpt>
<trkpt lat="32.99795" lon="35.21485"><ele>338.0</ele><time>2021-08-06T04:38:36Z</time></trkpt>
<trkpt lat="32.99797" lon="35.21476"><ele>337.0</ele><time>2021-08-06T04:38:37Z</time></trkpt>
<trkpt lat="32.998" lon="35.21467"><ele>337.0</ele><time>2021-08-06T04:38:38Z</time></trkpt>
<trkpt lat="32.99803" lon="35.21457"><ele>336.0</ele><time>2021-08-06T04:38:39Z</time></trkpt>
<trkpt lat="32.99807" lon="35.21447"><ele>335.0</ele><time>2021-08-06T04:38:40Z</time></trkpt>
<trkpt lat="32.99812" lon="35.21437"><ele>334.0</ele><time>2021-08-06T04:38:41Z</time></trkpt>
<trkpt lat="32.99817" lon="35.21427"><ele>334.0</ele><time>2021-08-06T04:38:42Z</time></trkpt>
<trkpt lat="32.99823" lon="35.21416"><ele>333.0</ele><time>2021-08-06T04:38:43Z</time></trkpt>
<trkpt lat="32.99829" lon="35.21406"><ele>332.0</ele><time>2021-08-06T04:38:44Z</time></trkpt>
<trkpt lat="32.99835" lon="35.21395"><ele>331.0</ele><time>2021-08-06T04:38:45Z</time></trkpt>
<trkpt lat="32.99842" lon="35.21383"><ele>330.0</ele><time>2021-08-06T04:38:46Z</time></trkpt>
<trkpt lat="32.99849" lon="35.21371"><ele>329.0</ele><time>2021-08-06T04:38:47Z</time></trkpt>
<trkpt lat="32.99856" lon="35.21359"><ele>328.0</ele><time>2021-08-06T04:38:48Z</time></trkpt>
<trkpt lat="32.99862" lon="35.21346"><ele>326.0</ele><time>2021-08-06T04:38:49Z</time></trkpt>
<trkpt lat="32.9987" lon="35.21333"><ele>325.0</ele><time>2021-08-06T04:38:50Z</time></trkpt>
<trkpt lat="32.99877" lon="35.2132"><ele>323.0</ele><time>2021-08-06T04:38:51Z</time></trkpt>
<trkpt lat="32.99885" lon="35.21307"><ele>322.0</ele><time>2021-08-06T04:38:52Z</time></trkpt>
<trkpt lat="32.99892" lon="35.21294"><ele>320.0</ele><time>2021-08-06T04:38:53Z</time></trkpt>
<trkpt lat="32.999" lon="35.2128"><ele>319.0</ele><time>2021-08-06T04:38:54Z</time></trkpt>
<trkpt lat="32.99908" lon="35.21266"><ele>318.0</ele><time>2021-08-06T04:38:55Z</time></trkpt>
<trkpt lat="32.99916" lon="35.21252"><ele>316.0</ele><time>2021-08-06T04:38:56Z</time></trkpt>
<trkpt lat="32.99924" lon="35.21239"><ele>315.0</ele><time>2021-08-06T04:38:57Z</time></trkpt>
<trkpt lat="32.99931" lon="35.21225"><ele>313.0</ele><time>2021-08-06T04:38:58Z</time></trkpt>
<trkpt lat="32.99939" lon="35.21212"><ele>312.0</ele><time>2021-08-06T04:38:59Z</time></trkpt>
<trkpt lat="32.99946" lon="35.21199"><ele>311.0</ele><time>2021-08-06T04:39:00Z</time></trkpt>
<trkpt lat="32.99953" lon="35.21186"><ele>310.0</ele><time>2021-08-06T04:39:01Z</time></trkpt>
<trkpt lat="32.9996" lon="35.21173"><ele>308.0</ele><time>2021-08-06T04:39:02Z</time></trkpt>
<trkpt lat="32.99967" lon="35.2116"><ele>307.0</ele><time>2021-08-06T04:39:03Z</time></trkpt>
<trkpt lat="32.99974" lon="35.21146"><ele>306.0</ele><time>2021-08-06T04:39:04Z</time></trkpt>
<trkpt lat="32.99982" lon="35.21134"><ele>305.0</ele><time>2021-08-06T04:39:05Z</time></trkpt>
<trkpt lat="32.99989" lon="35.21122"><ele>304.0</ele><time>2021-08-06T04:39:06Z</time></trkpt>
<trkpt lat="32.99996" lon="35.21109"><ele>303.0</ele><time>2021-08-06T04:39:07Z</time></trkpt>
<trkpt lat="33.00002" lon="35.21097"><ele>301.0</ele><time>2021-08-06T04:39:08Z</time></trkpt>
<trkpt lat="33.00009" lon="35.21085"><ele>299.0</ele><time>2021-08-06T04:39:09Z</time></trkpt>
<trkpt lat="33.00015" lon="35.21072"><ele>298.0</ele><time>2021-08-06T04:39:10Z</time></trkpt>
<trkpt lat="33.00021" lon="35.2106"><ele>297.0</ele><time>2021-08-06T04:39:11Z</time></trkpt>
<trkpt lat="33.00028" lon="35.21048"><ele>297.0</ele><time>2021-08-06T04:39:12Z</time></trkpt>
<trkpt lat="33.00034" lon="35.21036"><ele>296.0</ele><time>2021-08-06T04:39:13Z</time></trkpt>
<trkpt lat="33.00039" lon="35.21024"><ele>295.0</ele><time>2021-08-06T04:39:14Z</time></trkpt>
<trkpt lat="33.00046" lon="35.21013"><ele>294.0</ele><time>2021-08-06T04:39:15Z</time></trkpt>
<trkpt lat="33.00052" lon="35.21002"><ele>293.0</ele><time>2021-08-06T04:39:16Z</time></trkpt>
<trkpt lat="33.00059" lon="35.20991"><ele>292.0</ele><time>2021-08-06T04:39:17Z</time></trkpt>
<trkpt lat="33.00066" lon="35.2098"><ele>291.0</ele><time>2021-08-06T04:39:18Z</time></trkpt>
<trkpt lat="33.00075" lon="35.2097"><ele>290.0</ele><time>2021-08-06T04:39:19Z</time></trkpt>
<trkpt lat="33.00084" lon="35.20961"><ele>289.0</ele><time>2021-08-06T04:39:20Z</time></trkpt>
<trkpt lat="33.00094" lon="35.20953"><ele>288.0</ele><time>2021-08-06T04:39:21Z</time></trkpt>
<trkpt lat="33.00104" lon="35.20946"><ele>287.0</ele><time>2021-08-06T04:39:22Z</time></trkpt>
<trkpt lat="33.00114" lon="35.20941"><ele>286.0</ele><time>2021-08-06T04:39:23Z</time></trkpt>
<trkpt lat="33.00124" lon="35.20937"><ele>286.0</ele><time>2021-08-06T04:39:24Z</time></trkpt>
<trkpt lat="33.00132" lon="35.20933"><ele>285.0</ele><time>2021-08-06T04:39:25Z</time></trkpt>
<trkpt lat="33.0014" lon="35.20929"><ele>285.0</ele><time>2021-08-06T04:39:26Z</time></trkpt>
<trkpt lat="33.00147" lon="35.20926"><ele>285.0</ele><time>2021-08-06T04:39:27Z</time></trkpt>
<trkpt lat="33.00158" lon="35.2092"><ele>287.0</ele><time>2021-08-06T04:39:29Z</time></trkpt>
<trkpt lat="33.00167" lon="35.20916"><ele>289.0</ele><time>2021-08-06T04:39:31Z</time></trkpt>
<trkpt lat="33.00176" lon="35.20912"><ele>290.0</ele><time>2021-08-06T04:39:34Z</time></trkpt>
<trkpt lat="33.00184" lon="35.20908"><ele>291.0</ele><time>2021-08-06T04:39:37Z</time></trkpt>
<trkpt lat="33.00191" lon="35.20905"><ele>292.0</ele><time>2021-08-06T04:39:40Z</time></trkpt>
<trkpt lat="33.002" lon="35.209"><ele>293.0</ele><time>2021-08-06T04:39:44Z</time></trkpt>
<trkpt lat="33.00208" lon="35.20897"><ele>294.0</ele><time>2021-08-06T04:39:48Z</time></trkpt>
<trkpt lat="33.00215" lon="35.20893"><ele>295.0</ele><time>2021-08-06T04:39:52Z</time></trkpt>
<trkpt lat="33.00223" lon="35.2089"><ele>296.0</ele><time>2021-08-06T04:39:56Z</time></trkpt>
<trkpt lat="33.0023" lon="35.20886"><ele>296.0</ele><time>2021-08-06T04:40:00Z</time></trkpt>
<trkpt lat="33.00238" lon="35.20883"><ele>297.0</ele><time>2021-08-06T04:40:04Z</time></trkpt>
<trkpt lat="33.00245" lon="35.20879"><ele>298.0</ele><time>2021-08-06T04:40:08Z</time></trkpt>
<trkpt lat="33.00253" lon="35.20875"><ele>299.0</ele><time>2021-08-06T04:40:12Z</time></trkpt>
<trkpt lat="33.0026" lon="35.20872"><ele>300.0</ele><time>2021-08-06T04:40:16Z</time></trkpt>
<trkpt lat="33.00268" lon="35.20868"><ele>301.0</ele><time>2021-08-06T04:40:21Z</time></trkpt>
<trkpt lat="33.00276" lon="35.20864"><ele>302.0</ele><time>2021-08-06T04:40:26Z</time></trkpt>
<trkpt lat="33.00284" lon="35.20861"><ele>302.0</ele><time>2021-08-06T04:40:31Z</time></trkpt>
<trkpt lat="33.00292" lon="35.20857"><ele>304.0</ele><time>2021-08-06T04:40:36Z</time></trkpt>
<trkpt lat="33.003" lon="35.20854"><ele>304.0</ele><time>2021-08-06T04:40:41Z</time></trkpt>
<trkpt lat="33.00308" lon="35.2085"><ele>305.0</ele><time>2021-08-06T04:40:46Z</time></trkpt>
<trkpt lat="33.00315" lon="35.20846"><ele>306.0</ele><time>2021-08-06T04:40:50Z</time></trkpt>
<trkpt lat="33.00323" lon="35.20842"><ele>307.0</ele><time>2021-08-06T04:40:55Z</time></trkpt>
<trkpt lat="33.0033" lon="35.20838"><ele>307.0</ele><time>2021-08-06T04:41:00Z</time></trkpt>
<trkpt lat="33.00338" lon="35.20834"><ele>308.0</ele><time>2021-08-06T04:41:05Z</time></trkpt>
<trkpt lat="33.00346" lon="35.20829"><ele>309.0</ele><time>2021-08-06T04:41:10Z</time></trkpt>
<trkpt lat="33.00353" lon="35.20824"><ele>309.0</ele><time>2021-08-06T04:41:15Z</time></trkpt>
<trkpt lat="33.0036" lon="35.20818"><ele>310.0</ele><time>2021-08-06T04:41:20Z</time></trkpt>
<trkpt lat="33.00368" lon="35.20812"><ele>311.0</ele><time>2021-08-06T04:41:25Z</time></trkpt>
<trkpt lat="33.00374" lon="35.20806"><ele>311.0</ele><time>2021-08-06T04:41:29Z</time></trkpt>
<trkpt lat="33.00381" lon="35.20801"><ele>311.0</ele><time>2021-08-06T04:41:33Z</time></trkpt>
<trkpt lat="33.00388" lon="35.20796"><ele>311.0</ele><time>2021-08-06T04:41:37Z</time></trkpt>
<trkpt lat="33.00395" lon="35.2079"><ele>312.0</ele><time>2021-08-06T04:41:41Z</time></trkpt>
<trkpt lat="33.00401" lon="35.20785"><ele>312.0</ele><time>2021-08-06T04:41:44Z</time></trkpt>
<trkpt lat="33.00407" lon="35.2078"><ele>312.0</ele><time>2021-08-06T04:41:47Z</time></trkpt>
<trkpt lat="33.00414" lon="35.20774"><ele>312.0</ele><time>2021-08-06T04:41:50Z</time></trkpt>
<trkpt lat="33.00421" lon="35.20769"><ele>312.0</ele><time>2021-08-06T04:41:53Z</time></trkpt>
<trkpt lat="33.00428" lon="35.20764"><ele>312.0</ele><time>2021-08-06T04:41:56Z</time></trkpt>
<trkpt lat="33.00435" lon="35.20758"><ele>312.0</ele><time>2021-08-06T04:41:59Z</time></trkpt>
<trkpt lat="33.00442" lon="35.20751"><ele>312.0</ele><time>2021-08-06T04:42:02Z</time></trkpt>
<trkpt lat="33.0045" lon="35.20745"><ele>312.0</ele><time>2021-08-06T04:42:05Z</time></trkpt>
<trkpt lat="33.00459" lon="35.20738"><ele>312.0</ele><time>2021-08-06T04:42:08Z</time></trkpt>
<trkpt lat="33.00465" lon="35.20733"><ele>312.0</ele><time>2021-08-06T04:42:10Z</time></trkpt>
<trkpt lat="33.00471" lon="35.20728"><ele>312.0</ele><time>2021-08-06T04:42:12Z</time></trkpt>
<trkpt lat="33.00477" lon="35.20721"><ele>312.0</ele><time>2021-08-06T04:42:14Z</time></trkpt>
<trkpt lat="33.00483" lon="35.20714"><ele>312.0</ele><time>2021-08-06T04:42:16Z</time></trkpt>
<trkpt lat="33.0049" lon="35.20707"><ele>312.0</ele><time>2021-08-06T04:42:18Z</time></trkpt>
<trkpt lat="33.00496" lon="35.20699"><ele>311.0</ele><time>2021-08-06T04:42:20Z</time></trkpt>
<trkpt lat="33.00503" lon="35.20689"><ele>311.0</ele><time>2021-08-06T04:42:22Z</time></trkpt>
<trkpt lat="33.00509" lon="35.20679"><ele>311.0</ele><time>2021-08-06T04:42:24Z</time></trkpt>
<trkpt lat="33.00516" lon="35.2067"><ele>311.0</ele><time>2021-08-06T04:42:26Z</time></trkpt>
<trkpt lat="33.00523" lon="35.2066"><ele>310.0</ele><time>2021-08-06T04:42:28Z</time></trkpt>
<trkpt lat="33.0053" lon="35.20649"><ele>310.0</ele><time>2021-08-06T04:42:30Z</time></trkpt>
<trkpt lat="33.00537" lon="35.20639"><ele>310.0</ele><time>2021-08-06T04:42:32Z</time></trkpt>
<trkpt lat="33.00544" lon="35.20629"><ele>309.0</ele><time>2021-08-06T04:42:34Z</time></trkpt>
<trkpt lat="33.00551" lon="35.20619"><ele>309.0</ele><time>2021-08-06T04:42:36Z</time></trkpt>
<trkpt lat="33.00559" lon="35.20609"><ele>309.0</ele><time>2021-08-06T04:42:38Z</time></trkpt>
<trkpt lat="33.00568" lon="35.20602"><ele>309.0</ele><time>2021-08-06T04:42:40Z</time></trkpt>
<trkpt lat="33.00578" lon="35.20597"><ele>308.0</ele><time>2021-08-06T04:42:42Z</time></trkpt>
<trkpt lat="33.00586" lon="35.20594"><ele>309.0</ele><time>2021-08-06T04:42:44Z</time></trkpt>
<trkpt lat="33.00595" lon="35.20592"><ele>309.0</ele><time>2021-08-06T04:42:46Z</time></trkpt>
<trkpt lat="33.00603" lon="35.20591"><ele>309.0</ele><time>2021-08-06T04:42:48Z</time></trkpt>
<trkpt lat="33.0061" lon="35.20593"><ele>309.0</ele><time>2021-08-06T04:42:50Z</time></trkpt>
<trkpt lat="33.00617" lon="35.20601"><ele>309.0</ele><time>2021-08-06T04:42:53Z</time></trkpt>
<trkpt lat="33.00618" lon="35.20611"><ele>309.0</ele><time>2021-08-06T04:42:56Z</time></trkpt>
<trkpt lat="33.00618" lon="35.20621"><ele>310.0</ele><time>2021-08-06T04:42:59Z</time></trkpt>
<trkpt lat="33.0062" lon="35.20631"><ele>310.0</ele><time>2021-08-06T04:43:02Z</time></trkpt>
<trkpt lat="33.00621" lon="35.20641"><ele>311.0</ele><time>2021-08-06T04:43:05Z</time></trkpt>
<trkpt lat="33.00622" lon="35.20651"><ele>312.0</ele><time>2021-08-06T04:43:08Z</time></trkpt>
<trkpt lat="33.00623" lon="35.2066"><ele>312.0</ele><time>2021-08-06T04:43:11Z</time></trkpt>
<trkpt lat="33.00624" lon="35.2067"><ele>313.0</ele><time>2021-08-06T04:43:14Z</time></trkpt>
<trkpt lat="33.00625" lon="35.20679"><ele>313.0</ele><time>2021-08-06T04:43:17Z</time></trkpt>
<trkpt lat="33.00626" lon="35.20688"><ele>314.0</ele><time>2021-08-06T04:43:20Z</time></trkpt>
<trkpt lat="33.00627" lon="35.20697"><ele>314.0</ele><time>2021-08-06T04:43:23Z</time></trkpt>
<trkpt lat="33.00628" lon="35.20706"><ele>315.0</ele><time>2021-08-06T04:43:26Z</time></trkpt>
<trkpt lat="33.00629" lon="35.20715"><ele>315.0</ele><time>2021-08-06T04:43:29Z</time></trkpt>
<trkpt lat="33.0063" lon="35.20725"><ele>316.0</ele><time>2021-08-06T04:43:32Z</time></trkpt>
<trkpt lat="33.00631" lon="35.20734"><ele>317.0</ele><time>2021-08-06T04:43:35Z</time></trkpt>
<trkpt lat="33.00632" lon="35.20744"><ele>317.0</ele><time>2021-08-06T04:43:38Z</time></trkpt>
<trkpt lat="33.00633" lon="35.20752"><ele>318.0</ele><time>2021-08-06T04:43:41Z</time></trkpt>
<trkpt lat="33.00634" lon="35.20762"><ele>319.0</ele><time>2021-08-06T04:43:44Z</time></trkpt>
<trkpt lat="33.00635" lon="35.20771"><ele>320.0</ele><time>2021-08-06T04:43:47Z</time></trkpt>
<trkpt lat="33.00636" lon="35.20779"><ele>320.0</ele><time>2021-08-06T04:43:50Z</time></trkpt>
<trkpt lat="33.00637" lon="35.20788"><ele>321.0</ele><time>2021-08-06T04:43:53Z</time></trkpt>
<trkpt lat="33.00638" lon="35.20797"><ele>321.0</ele><time>2021-08-06T04:43:56Z</time></trkpt>
<trkpt lat="33.00639" lon="35.20806"><ele>322.0</ele><time>2021-08-06T04:43:59Z</time></trkpt>
<trkpt lat="33.0064" lon="35.20817"><ele>323.0</ele><time>2021-08-06T04:44:03Z</time></trkpt>
<trkpt lat="33.00641" lon="35.20828"><ele>323.0</ele><time>2021-08-06T04:44:07Z</time></trkpt>
<trkpt lat="33.00643" lon="35.20837"><ele>324.0</ele><time>2021-08-06T04:44:11Z</time></trkpt>
<trkpt lat="33.00645" lon="35.20847"><ele>325.0</ele><time>2021-08-06T04:44:15Z</time></trkpt>
<trkpt lat="33.00646" lon="35.20858"><ele>325.0</ele><time>2021-08-06T04:44:19Z</time></trkpt>
<trkpt lat="33.00648" lon="35.2087"><ele>326.0</ele><time>2021-08-06T04:44:23Z</time></trkpt>
<trkpt lat="33.00649" lon="35.20878"><ele>326.0</ele><time>2021-08-06T04:44:26Z</time></trkpt>
<trkpt lat="33.00651" lon="35.20888"><ele>326.0</ele><time>2021-08-06T04:44:30Z</time></trkpt>
<trkpt lat="33.0065" lon="35.20899"><ele>327.0</ele><time>2021-08-06T04:44:35Z</time></trkpt>
<trkpt lat="33.0065" lon="35.20909"><ele>328.0</ele><time>2021-08-06T04:44:40Z</time></trkpt>
<trkpt lat="33.00649" lon="35.20918"><ele>328.0</ele><time>2021-08-06T04:44:44Z</time></trkpt>
<trkpt lat="33.00649" lon="35.20928"><ele>329.0</ele><time>2021-08-06T04:44:48Z</time></trkpt>
<trkpt lat="33.00649" lon="35.20937"><ele>329.0</ele><time>2021-08-06T04:44:52Z</time></trkpt>
<trkpt lat="33.00651" lon="35.20946"><ele>329.0</ele><time>2021-08-06T04:44:56Z</time></trkpt>
<trkpt lat="33.0065" lon="35.20955"><ele>330.0</ele><time>2021-08-06T04:45:00Z</time></trkpt>
<trkpt lat="33.0065" lon="35.20965"><ele>331.0</ele><time>2021-08-06T04:45:04Z</time></trkpt>
<trkpt lat="33.00651" lon="35.20975"><ele>331.0</ele><time>2021-08-06T04:45:08Z</time></trkpt>
<trkpt lat="33.00652" lon="35.20985"><ele>331.0</ele><time>2021-08-06T04:45:12Z</time></trkpt>
<trkpt lat="33.00654" lon="35.20995"><ele>332.0</ele><time>2021-08-06T04:45:16Z</time></trkpt>
<trkpt lat="33.00653" lon="35.21005"><ele>332.0</ele><time>2021-08-06T04:45:20Z</time></trkpt>
<trkpt lat="33.00653" lon="35.21016"><ele>332.0</ele><time>2021-08-06T04:45:24Z</time></trkpt>
<trkpt lat="33.00655" lon="35.21027"><ele>333.0</ele><time>2021-08-06T04:45:28Z</time></trkpt>
<trkpt lat="33.00655" lon="35.21037"><ele>333.0</ele><time>2021-08-06T04:45:32Z</time></trkpt>
<trkpt lat="33.00655" lon="35.21049"><ele>333.0</ele><time>2021-08-06T04:45:36Z</time></trkpt>
<trkpt lat="33.00656" lon="35.21059"><ele>334.0</ele><time>2021-08-06T04:45:40Z</time></trkpt>
<trkpt lat="33.00654" lon="35.21069"><ele>335.0</ele><time>2021-08-06T04:45:44Z</time></trkpt>
<trkpt lat="33.00653" lon="35.21079"><ele>335.0</ele><time>2021-08-06T04:45:48Z</time></trkpt>
<trkpt lat="33.00653" lon="35.21089"><ele>335.0</ele><time>2021-08-06T04:45:52Z</time></trkpt>
<trkpt lat="33.00653" lon="35.21099"><ele>336.0</ele><time>2021-08-06T04:45:56Z</time></trkpt>
<trkpt lat="33.00652" lon="35.2111"><ele>336.0</ele><time>2021-08-06T04:46:00Z</time></trkpt>
<trkpt lat="33.00651" lon="35.21119"><ele>337.0</ele><time>2021-08-06T04:46:04Z</time></trkpt>
<trkpt lat="33.0065" lon="35.21128"><ele>337.0</ele><time>2021-08-06T04:46:08Z</time></trkpt>
<trkpt lat="33.00649" lon="35.21138"><ele>338.0</ele><time>2021-08-06T04:46:12Z</time></trkpt>
<trkpt lat="33.0065" lon="35.21147"><ele>338.0</ele><time>2021-08-06T04:46:15Z</time></trkpt>
<trkpt lat="33.00648" lon="35.21158"><ele>339.0</ele><time>2021-08-06T04:46:19Z</time></trkpt>
<trkpt lat="33.00646" lon="35.21169"><ele>339.0</ele><time>2021-08-06T04:46:23Z</time></trkpt>
<trkpt lat="33.00645" lon="35.21179"><ele>340.0</ele><time>2021-08-06T04:46:27Z</time></trkpt>
<trkpt lat="33.00644" lon="35.2119"><ele>340.0</ele><time>2021-08-06T04:46:31Z</time></trkpt>
<trkpt lat="33.00641" lon="35.212"><ele>341.0</ele><time>2021-08-06T04:46:35Z</time></trkpt>
<trkpt lat="33.00638" lon="35.21209"><ele>342.0</ele><time>2021-08-06T04:46:39Z</time></trkpt>
<trkpt lat="33.00635" lon="35.21219"><ele>343.0</ele><time>2021-08-06T04:46:43Z</time></trkpt>
<trkpt lat="33.00631" lon="35.21229"><ele>343.0</ele><time>2021-08-06T04:46:47Z</time></trkpt>
<trkpt lat="33.00627" lon="35.21237"><ele>344.0</ele><time>2021-08-06T04:46:51Z</time></trkpt>
<trkpt lat="33.00623" lon="35.21245"><ele>344.0</ele><time>2021-08-06T04:46:55Z</time></trkpt>
<trkpt lat="33.00618" lon="35.21252"><ele>344.0</ele><time>2021-08-06T04:46:59Z</time></trkpt>
<trkpt lat="33.00613" lon="35.2126"><ele>345.0</ele><time>2021-08-06T04:47:03Z</time></trkpt>
<trkpt lat="33.00609" lon="35.21268"><ele>345.0</ele><time>2021-08-06T04:47:07Z</time></trkpt>
<trkpt lat="33.00604" lon="35.21277"><ele>346.0</ele><time>2021-08-06T04:47:11Z</time></trkpt>
<trkpt lat="33.00598" lon="35.21285"><ele>346.0</ele><time>2021-08-06T04:47:15Z</time></trkpt>
<trkpt lat="33.00593" lon="35.21293"><ele>346.0</ele><time>2021-08-06T04:47:19Z</time></trkpt>
<trkpt lat="33.00587" lon="35.21299"><ele>346.0</ele><time>2021-08-06T04:47:23Z</time></trkpt>
<trkpt lat="33.00581" lon="35.21309"><ele>347.0</ele><time>2021-08-06T04:47:27Z</time></trkpt>
<trkpt lat="33.00577" lon="35.21316"><ele>347.0</ele><time>2021-08-06T04:47:30Z</time></trkpt>
<trkpt lat="33.00573" lon="35.21323"><ele>347.0</ele><time>2021-08-06T04:47:33Z</time></trkpt>
<trkpt lat="33.00567" lon="35.21332"><ele>347.0</ele><time>2021-08-06T04:47:37Z</time></trkpt>
<trkpt lat="33.00562" lon="35.21338"><ele>347.0</ele><time>2021-08-06T04:47:40Z</time></trkpt>
<trkpt lat="33.00555" lon="35.21343"><ele>347.0</ele><time>2021-08-06T04:47:43Z</time></trkpt>
<trkpt lat="33.00549" lon="35.21348"><ele>348.0</ele><time>2021-08-06T04:47:46Z</time></trkpt>
<trkpt lat="33.0054" lon="35.21352"><ele>348.0</ele><time>2021-08-06T04:47:50Z</time></trkpt>
<trkpt lat="33.00532" lon="35.21358"><ele>348.0</ele><time>2021-08-06T04:47:54Z</time></trkpt>
<trkpt lat="33.00528" lon="35.21366"><ele>348.0</ele><time>2021-08-06T04:47:57Z</time></trkpt>
<trkpt lat="33.00526" lon="35.21375"><ele>348.0</ele><time>2021-08-06T04:48:00Z</time></trkpt>
<trkpt lat="33.00524" lon="35.21384"><ele>348.0</ele><time>2021-08-06T04:48:03Z</time></trkpt>
<trkpt lat="33.0052" lon="35.21392"><ele>349.0</ele><time>2021-08-06T04:48:06Z</time></trkpt>
<trkpt lat="33.00515" lon="35.214"><ele>349.0</ele><time>2021-08-06T04:48:09Z</time></trkpt>
<trkpt lat="33.00509" lon="35.21408"><ele>349.0</ele><time>2021-08-06T04:48:12Z</time></trkpt>
<trkpt lat="33.00503" lon="35.21418"><ele>349.0</ele><time>2021-08-06T04:48:15Z</time></trkpt>
<trkpt lat="33.00497" lon="35.21427"><ele>349.0</ele><time>2021-08-06T04:48:18Z</time></trkpt>
<trkpt lat="33.00493" lon="35.21434"><ele>349.0</ele><time>2021-08-06T04:48:20Z</time></trkpt>
<trkpt lat="33.00487" lon="35.21446"><ele>348.0</ele><time>2021-08-06T04:48:23Z</time></trkpt>
<trkpt lat="33.00482" lon="35.21457"><ele>348.0</ele><time>2021-08-06T04:48:26Z</time></trkpt>
<trkpt lat="33.00478" lon="35.21467"><ele>348.0</ele><time>2021-08-06T04:48:29Z</time></trkpt>
<trkpt lat="33.00473" lon="35.21477"><ele>348.0</ele><time>2021-08-06T04:48:32Z</time></trkpt>
<trkpt lat="33.0047" lon="35.21489"><ele>349.0</ele><time>2021-08-06T04:48:35Z</time></trkpt>
<trkpt lat="33.00467" lon="35.21499"><ele>349.0</ele><time>2021-08-06T04:48:38Z</time></trkpt>
<trkpt lat="33.00464" lon="35.21511"><ele>349.0</ele><time>2021-08-06T04:48:41Z</time></trkpt>
<trkpt lat="33.00461" lon="35.21522"><ele>349.0</ele><time>2021-08-06T04:48:44Z</time></trkpt>
<trkpt lat="33.00459" lon="35.21532"><ele>350.0</ele><time>2021-08-06T04:48:47Z</time></trkpt>
<trkpt lat="33.00456" lon="35.21542"><ele>350.0</ele><time>2021-08-06T04:48:50Z</time></trkpt>
<trkpt lat="33.00453" lon="35.21553"><ele>351.0</ele><time>2021-08-06T04:48:53Z</time></trkpt>
<trkpt lat="33.00452" lon="35.21564"><ele>351.0</ele><time>2021-08-06T04:48:56Z</time></trkpt>
<trkpt lat="33.00451" lon="35.21575"><ele>351.0</ele><time>2021-08-06T04:48:59Z</time></trkpt>
<trkpt lat="33.00448" lon="35.21585"><ele>352.0</ele><time>2021-08-06T04:49:02Z</time></trkpt>
<trkpt lat="33.00448" lon="35.21595"><ele>352.0</ele><time>2021-08-06T04:49:05Z</time></trkpt>
<trkpt lat="33.00446" lon="35.21603"><ele>353.0</ele><time>2021-08-06T04:49:08Z</time></trkpt>
<trkpt lat="33.00445" lon="35.21613"><ele>353.0</ele><time>2021-08-06T04:49:12Z</time></trkpt>
<trkpt lat="33.00445" lon="35.21623"><ele>354.0</ele><time>2021-08-06T04:49:16Z</time></trkpt>
<trkpt lat="33.00444" lon="35.21633"><ele>354.0</ele><time>2021-08-06T04:49:20Z</time></trkpt>
<trkpt lat="33.00442" lon="35.21642"><ele>355.0</ele><time>2021-08-06T04:49:24Z</time></trkpt>
<trkpt lat="33.00441" lon="35.21651"><ele>356.0</ele><time>2021-08-06T04:49:28Z</time></trkpt>
<trkpt lat="33.00441" lon="35.2166"><ele>357.0</ele><time>2021-08-06T04:49:32Z</time></trkpt>
<trkpt lat="33.0044" lon="35.2167"><ele>357.0</ele><time>2021-08-06T04:49:36Z</time></trkpt>
<trkpt lat="33.00441" lon="35.21679"><ele>358.0</ele><time>2021-08-06T04:49:40Z</time></trkpt>
<trkpt lat="33.00446" lon="35.21685"><ele>359.0</ele><time>2021-08-06T04:49:45Z</time></trkpt>
<trkpt lat="33.00454" lon="35.21679"><ele>359.0</ele><time>2021-08-06T04:49:50Z</time></trkpt>
<trkpt lat="33.00461" lon="35.21676"><ele>360.0</ele><time>2021-08-06T04:49:55Z</time></trkpt>
<trkpt lat="33.00469" lon="35.21671"><ele>360.0</ele><time>2021-08-06T04:50:00Z</time></trkpt>
<trkpt lat="33.00476" lon="35.21668"><ele>361.0</ele><time>2021-08-06T04:50:04Z</time></trkpt>
<trkpt lat="33.00484" lon="35.21667"><ele>362.0</ele><time>2021-08-06T04:50:10Z</time></trkpt>
<trkpt lat="33.00491" lon="35.21669"><ele>362.0</ele><time>2021-08-06T04:50:15Z</time></trkpt>
<trkpt lat="33.00499" lon="35.21668"><ele>363.0</ele><time>2021-08-06T04:50:19Z</time></trkpt>
<trkpt lat="33.00507" lon="35.21668"><ele>363.0</ele><time>2021-08-06T04:50:23Z</time></trkpt>
<trkpt lat="33.00515" lon="35.21666"><ele>364.0</ele><time>2021-08-06T04:50:28Z</time></trkpt>
<trkpt lat="33.00523" lon="35.21666"><ele>365.0</ele><time>2021-08-06T04:50:32Z</time></trkpt>
<trkpt lat="33.0053" lon="35.21668"><ele>365.0</ele><time>2021-08-06T04:50:35Z</time></trkpt>
<trkpt lat="33.00537" lon="35.21669"><ele>366.0</ele><time>2021-08-06T04:50:39Z</time></trkpt>
<trkpt lat="33.00545" lon="35.2167"><ele>366.0</ele><time>2021-08-06T04:50:44Z</time></trkpt>
<trkpt lat="33.00551" lon="35.21666"><ele>366.0</ele><time>2021-08-06T04:50:48Z</time></trkpt>
<trkpt lat="33.00551" lon="35.21655"><ele>366.0</ele><time>2021-08-06T04:50:51Z</time></trkpt>
<trkpt lat="33.00552" lon="35.21646"><ele>366.0</ele><time>2021-08-06T04:50:53Z</time></trkpt>
<trkpt lat="33.00551" lon="35.21636"><ele>365.0</ele><time>2021-08-06T04:50:55Z</time></trkpt>
<trkpt lat="33.00551" lon="35.21626"><ele>365.0</ele><time>2021-08-06T04:50:57Z</time></trkpt>
<trkpt lat="33.00549" lon="35.21616"><ele>364.0</ele><time>2021-08-06T04:50:59Z</time></trkpt>
<trkpt lat="33.00548" lon="35.21604"><ele>363.0</ele><time>2021-08-06T04:51:01Z</time></trkpt>
<trkpt lat="33.00547" lon="35.21592"><ele>362.0</ele><time>2021-08-06T04:51:03Z</time></trkpt>
<trkpt lat="33.00547" lon="35.21579"><ele>362.0</ele><time>2021-08-06T04:51:05Z</time></trkpt>
<trkpt lat="33.00549" lon="35.21567"><ele>361.0</ele><time>2021-08-06T04:51:07Z</time></trkpt>
<trkpt lat="33.00551" lon="35.21558"><ele>361.0</ele><time>2021-08-06T04:51:09Z</time></trkpt>
<trkpt lat="33.00554" lon="35.21547"><ele>360.0</ele><time>2021-08-06T04:51:12Z</time></trkpt>
<trkpt lat="33.00546" lon="35.21544"><ele>359.0</ele><time>2021-08-06T04:51:16Z</time></trkpt>
<trkpt lat="33.00536" lon="35.21542"><ele>358.0</ele><time>2021-08-06T04:51:19Z</time></trkpt>
<trkpt lat="33.00527" lon="35.21548"><ele>358.0</ele><time>2021-08-06T04:51:22Z</time></trkpt>
<trkpt lat="33.0052" lon="35.21556"><ele>358.0</ele><time>2021-08-06T04:51:25Z</time></trkpt>
<trkpt lat="33.00512" lon="35.21559"><ele>358.0</ele><time>2021-08-06T04:51:31Z</time></trkpt>
<trkpt lat="33.00506" lon="35.21553"><ele>358.0</ele><time>2021-08-06T04:51:34Z</time></trkpt>
<trkpt lat="33.00501" lon="35.21546"><ele>358.0</ele><time>2021-08-06T04:53:47Z</time></trkpt>
</trkseg></trk></gpx>