<?xml version="1.0" encoding="utf-8"?>
<gpx version="1.1"><trk><trkseg>
<trkpt lat="33.00506" lon="35.21551"><ele>347.0</ele><time>2021-07-29T04:17:10Z</time></trkpt>
<trkpt lat="33.005" lon="35.21559"><ele>358.0</ele><time>2021-07-29T04:18:08Z</time></trkpt>
<trkpt lat="33.00507" lon="35.21564"><ele>357.0</ele><time>2021-07-29T04:18:27Z</time></trkpt>
<trkpt lat="33.00515" lon="35.21559"><ele>358.0</ele><time>2021-07-29T04:18:33Z</time></trkpt>
<trkpt lat="33.00519" lon="35.21552"><ele>358.0</ele><time>2021-07-29T04:18:36Z</time></trkpt>
<trkpt lat="33.00527" lon="35.21545"><ele>357.0</ele><time>2021-07-29T04:18:40Z</time></trkpt>
<trkpt lat="33.00536" lon="35.21541"><ele>358.0</ele><time>2021-07-29T04:18:44Z</time></trkpt>
<trkpt lat="33.00545" lon="35.21539"><ele>358.0</ele><time>2021-07-29T04:18:48Z</time></trkpt>
<trkpt lat="33.00552" lon="35.21542"><ele>358.0</ele><time>2021-07-29T04:18:53Z</time></trkpt>
<trkpt lat="33.00559" lon="35.21537"><ele>358.0</ele><time>2021-07-29T04:18:58Z</time></trkpt>
<trkpt lat="33.00562" lon="35.21527"><ele>358.0</ele><time>2021-07-29T04:19:36Z</time></trkpt>
<trkpt lat="33.00566" lon="35.21518"><ele>358.0</ele><time>2021-07-29T04:19:39Z</time></trkpt>
<trkpt lat="33.00572" lon="35.21511"><ele>357.0</ele><time>2021-07-29T04:19:41Z</time></trkpt>
<trkpt lat="33.00581" lon="35.21505"><ele>357.0</ele><time>2021-07-29T04:19:44Z</time></trkpt>
<trkpt lat="33.00588" lon="35.21502"><ele>357.0</ele><time>2021-07-29T04:19:46Z</time></trkpt>
<trkpt lat="33.00595" lon="35.21497"><ele>357.0</ele><time>2021-07-29T04:19:48Z</time></trkpt>
<trkpt lat="33.00599" lon="35.21487"><ele>356.0</ele><time>2021-07-29T04:19:51Z</time></trkpt>
<trkpt lat="33.00597" lon="35.21478"><ele>356.0</ele><time>2021-07-29T04:19:53Z</time></trkpt>
<trkpt lat="33.00592" lon="35.21468"><ele>355.0</ele><time>2021-07-29T04:19:55Z</time></trkpt>
<trkpt lat="33.00585" lon="35.21458"><ele>355.0</ele><time>2021-07-29T04:19:57Z</time></trkpt>
<trkpt lat="33.00579" lon="35.21449"><ele>354.0</ele><time>2021-07-29T04:19:59Z</time></trkpt>
<trkpt lat="33.00574" lon="35.21442"><ele>354.0</ele><time>2021-07-29T04:20:01Z</time></trkpt>
<trkpt lat="33.00569" lon="35.21434"><ele>353.0</ele><time>2021-07-29T04:20:03Z</time></trkpt>
<trkpt lat="33.00562" lon="35.21423"><ele>353.0</ele><time>2021-07-29T04:20:05Z</time></trkpt>
<trkpt lat="33.00556" lon="35.21412"><ele>352.0</ele><time>2021-07-29T04:20:07Z</time></trkpt>
<trkpt lat="33.00551" lon="35.21402"><ele>351.0</ele><time>2021-07-29T04:20:09Z</time></trkpt>
<trkpt lat="33.00546" lon="35.21393"><ele>350.0</ele><time>2021-07-29T04:20:11Z</time></trkpt>
<trkpt lat="33.00547" lon="35.21381"><ele>350.0</ele><time>2021-07-29T04:20:13Z</time></trkpt>
<trkpt lat="33.00551" lon="35.21372"><ele>349.0</ele><time>2021-07-29T04:20:15Z</time></trkpt>
<trkpt lat="33.00556" lon="35.21359"><ele>348.0</ele><time>2021-07-29T04:20:17Z</time></trkpt>
<trkpt lat="33.0056" lon="35.21344"><ele>348.0</ele><time>2021-07-29T04:20:19Z</time></trkpt>
<trkpt lat="33.00567" lon="35.21332"><ele>347.0</ele><time>2021-07-29T04:20:21Z</time></trkpt>
<trkpt lat="33.00574" lon="35.21321"><ele>346.0</ele><time>2021-07-29T04:20:23Z</time></trkpt>
<trkpt lat="33.00581" lon="35.21308"><ele>346.0</ele><time>2021-07-29T04:20:25Z</time></trkpt>
<trkpt lat="33.00589" lon="35.21298"><ele>345.0</ele><time>2021-07-29T04:20:27Z</time></trkpt>
<trkpt lat="33.00599" lon="35.21286"><ele>345.0</ele><time>2021-07-29T04:20:29Z</time></trkpt>
<trkpt lat="33.00604" lon="35.21278"><ele>345.0</ele><time>2021-07-29T04:20:30Z</time></trkpt>
<trkpt lat="33.00609" lon="35.21271"><ele>345.0</ele><time>2021-07-29T04:20:31Z</time></trkpt>
<trkpt lat="33.00614" lon="35.21263"><ele>344.0</ele><time>2021-07-29T04:20:32Z</time></trkpt>
<trkpt lat="33.00618" lon="35.21256"><ele>344.0</ele><time>2021-07-29T04:20:33Z</time></trkpt>
<trkpt lat="33.00628" lon="35.21242"><ele>344.0</ele><time>2021-07-29T04:20:35Z</time></trkpt>
<trkpt lat="33.00633" lon="35.21234"><ele>343.0</ele><time>2021-07-29T04:20:36Z</time></trkpt>
<trkpt lat="33.00637" lon="35.21226"><ele>343.0</ele><time>2021-07-29T04:20:37Z</time></trkpt>
<trkpt lat="33.0064" lon="35.21217"><ele>343.0</ele><time>2021-07-29T04:20:38Z</time></trkpt>
<trkpt lat="33.00643" lon="35.21208"><ele>342.0</ele><time>2021-07-29T04:20:39Z</time></trkpt>
<trkpt lat="33.00645" lon="35.21198"><ele>342.0</ele><time>2021-07-29T04:20:40Z</time></trkpt>
<trkpt lat="33.00646" lon="35.21187"><ele>341.0</ele><time>2021-07-29T04:20:41Z</time></trkpt>
<trkpt lat="33.00647" lon="35.21176"><ele>341.0</ele><time>2021-07-29T04:20:42Z</time></trkpt>
<trkpt lat="33.00648" lon="35.21166"><ele>340.0</ele><time>2021-07-29T04:20:43Z</time></trkpt>
<trkpt lat="33.00649" lon="35.21158"><ele>340.0</ele><time>2021-07-29T04:20:44Z</time></trkpt>
<trkpt lat="33.00651" lon="35.21149"><ele>339.0</ele><time>2021-07-29T04:20:45Z</time></trkpt>
<trkpt lat="33.00652" lon="35.2114"><ele>339.0</ele><time>2021-07-29T04:20:46Z</time></trkpt>
<trkpt lat="33.00653" lon="35.21132"><ele>338.0</ele><time>2021-07-29T04:20:47Z</time></trkpt>
<trkpt lat="33.00654" lon="35.21122"><ele>338.0</ele><time>2021-07-29T04:20:48Z</time></trkpt>
<trkpt lat="33.00654" lon="35.21113"><ele>337.0</ele><time>2021-07-29T04:20:49Z</time></trkpt>
<trkpt lat="33.00655" lon="35.21103"><ele>337.0</ele><time>2021-07-29T04:20:50Z</time></trkpt>
<trkpt lat="33.00655" lon="35.21093"><ele>336.0</ele><time>2021-07-29T04:20:51Z</time></trkpt>
<trkpt lat="33.00656" lon="35.21083"><ele>336.0</ele><time>2021-07-29T04:20:52Z</time></trkpt>
<trkpt lat="33.0066" lon="35.21073"><ele>335.0</ele><time>2021-07-29T04:20:53Z</time></trkpt>
<trkpt lat="33.00661" lon="35.21064"><ele>335.0</ele><time>2021-07-29T04:20:54Z</time></trkpt>
<trkpt lat="33.00661" lon="35.21054"><ele>334.0</ele><time>2021-07-29T04:20:55Z</time></trkpt>
<trkpt lat="33.00661" lon="35.21045"><ele>334.0</ele><time>2021-07-29T04:20:56Z</time></trkpt>
<trkpt lat="33.00661" lon="35.21036"><ele>333.0</ele><time>2021-07-29T04:20:57Z</time></trkpt>
<trkpt lat="33.0066" lon="35.21022"><ele>333.0</ele><time>2021-07-29T04:20:59Z</time></trkpt>
<trkpt lat="33.00659" lon="35.21013"><ele>331.0</ele><time>2021-07-29T04:21:04Z</time></trkpt>
<trkpt lat="33.00657" lon="35.21"><ele>331.0</ele><time>2021-07-29T04:21:07Z</time></trkpt>
<trkpt lat="33.00656" lon="35.20987"><ele>330.0</ele><time>2021-07-29T04:21:09Z</time></trkpt>
<trkpt lat="33.00656" lon="35.20974"><ele>330.0</ele><time>2021-07-29T04:21:11Z</time></trkpt>
<trkpt lat="33.00655" lon="35.20959"><ele>330.0</ele><time>2021-07-29T04:21:13Z</time></trkpt>
<trkpt lat="33.00654" lon="35.20943"><ele>329.0</ele><time>2021-07-29T04:21:15Z</time></trkpt>
<trkpt lat="33.00654" lon="35.20927"><ele>329.0</ele><time>2021-07-29T04:21:17Z</time></trkpt>
<trkpt lat="33.00654" lon="35.2091"><ele>328.0</ele><time>2021-07-29T04:21:19Z</time></trkpt>
<trkpt lat="33.00654" lon="35.20897"><ele>327.0</ele><time>2021-07-29T04:21:21Z</time></trkpt>
<trkpt lat="33.00658" lon="35.20887"><ele>326.0</ele><time>2021-07-29T04:21:23Z</time></trkpt>
<trkpt lat="33.0066" lon="35.20879"><ele>325.0</ele><time>2021-07-29T04:21:29Z</time></trkpt>
<trkpt lat="33.00664" lon="35.20868"><ele>325.0</ele><time>2021-07-29T04:21:32Z</time></trkpt>
<trkpt lat="33.00658" lon="35.20857"><ele>324.0</ele><time>2021-07-29T04:21:34Z</time></trkpt>
<trkpt lat="33.00651" lon="35.20846"><ele>324.0</ele><time>2021-07-29T04:21:36Z</time></trkpt>
<trkpt lat="33.00648" lon="35.20833"><ele>323.0</ele><time>2021-07-29T04:21:38Z</time></trkpt>
<trkpt lat="33.00645" lon="35.20818"><ele>323.0</ele><time>2021-07-29T04:21:40Z</time></trkpt>
<trkpt lat="33.00644" lon="35.20801"><ele>322.0</ele><time>2021-07-29T04:21:42Z</time></trkpt>
<trkpt lat="33.00645" lon="35.20792"><ele>322.0</ele><time>2021-07-29T04:21:43Z</time></trkpt>
<trkpt lat="33.00645" lon="35.20783"><ele>321.0</ele><time>2021-07-29T04:21:44Z</time></trkpt>
<trkpt lat="33.00644" lon="35.20773"><ele>321.0</ele><time>2021-07-29T04:21:45Z</time></trkpt>
<trkpt lat="33.00643" lon="35.20764"><ele>320.0</ele><time>2021-07-29T04:21:46Z</time></trkpt>
<trkpt lat="33.00642" lon="35.20755"><ele>319.0</ele><time>2021-07-29T04:21:47Z</time></trkpt>
<trkpt lat="33.00641" lon="35.20746"><ele>319.0</ele><time>2021-07-29T04:21:48Z</time></trkpt>
<trkpt lat="33.0064" lon="35.20737"><ele>318.0</ele><time>2021-07-29T04:21:49Z</time></trkpt>
<trkpt lat="33.00638" lon="35.2072"><ele>317.0</ele><time>2021-07-29T04:21:51Z</time></trkpt>
<trkpt lat="33.00637" lon="35.20712"><ele>317.0</ele><time>2021-07-29T04:21:52Z</time></trkpt>
<trkpt lat="33.00636" lon="35.20703"><ele>316.0</ele><time>2021-07-29T04:21:53Z</time></trkpt>
<trkpt lat="33.00634" lon="35.20693"><ele>316.0</ele><time>2021-07-29T04:21:54Z</time></trkpt>
<trkpt lat="33.00632" lon="35.20683"><ele>315.0</ele><time>2021-07-29T04:21:55Z</time></trkpt>
<trkpt lat="33.00632" lon="35.20673"><ele>315.0</ele><time>2021-07-29T04:21:56Z</time></trkpt>
<trkpt lat="33.00632" lon="35.20662"><ele>314.0</ele><time>2021-07-29T04:21:57Z</time></trkpt>
<trkpt lat="33.00631" lon="35.20652"><ele>314.0</ele><time>2021-07-29T04:21:58Z</time></trkpt>
<trkpt lat="33.00629" lon="35.20643"><ele>313.0</ele><time>2021-07-29T04:21:59Z</time></trkpt>
<trkpt lat="33.00628" lon="35.20633"><ele>312.0</ele><time>2021-07-29T04:22:00Z</time></trkpt>
<trkpt lat="33.00627" lon="35.20624"><ele>312.0</ele><time>2021-07-29T04:22:01Z</time></trkpt>
<trkpt lat="33.00627" lon="35.20616"><ele>311.0</ele><time>2021-07-29T04:22:02Z</time></trkpt>
<trkpt lat="33.00626" lon="35.20607"><ele>311.0</ele><time>2021-07-29T04:22:03Z</time></trkpt>
<trkpt lat="33.00625" lon="35.20592"><ele>310.0</ele><time>2021-07-29T04:22:05Z</time></trkpt>
<trkpt lat="33.00618" lon="35.2058"><ele>309.0</ele><time>2021-07-29T04:22:07Z</time></trkpt>
<trkpt lat="33.00605" lon="35.20578"><ele>308.0</ele><time>2021-07-29T04:22:09Z</time></trkpt>
<trkpt lat="33.00593" lon="35.2058"><ele>308.0</ele><time>2021-07-29T04:22:11Z</time></trkpt>
<trkpt lat="33.00582" lon="35.20584"><ele>308.0</ele><time>2021-07-29T04:22:13Z</time></trkpt>
<trkpt lat="33.00572" lon="35.20589"><ele>308.0</ele><time>2021-07-29T04:22:15Z</time></trkpt>
<trkpt lat="33.00563" lon="35.20597"><ele>308.0</ele><time>2021-07-29T04:22:17Z</time></trkpt>
<trkpt lat="33.00554" lon="35.20605"><ele>308.0</ele><time>2021-07-29T04:22:19Z</time></trkpt>
<trkpt lat="33.00546" lon="35.20615"><ele>308.0</ele><time>2021-07-29T04:22:21Z</time></trkpt>
<trkpt lat="33.00539" lon="35.20625"><ele>308.0</ele><time>2021-07-29T04:22:23Z</time></trkpt>
<trkpt lat="33.00533" lon="35.20634"><ele>308.0</ele><time>2021-07-29T04:22:25Z</time></trkpt>
<trkpt lat="33.00527" lon="35.20643"><ele>308.0</ele><time>2021-07-29T04:22:27Z</time></trkpt>
<trkpt lat="33.0052" lon="35.20649"><ele>308.0</ele><time>2021-07-29T04:22:29Z</time></trkpt>
<trkpt lat="33.00515" lon="35.20659"><ele>309.0</ele><time>2021-07-29T04:22:31Z</time></trkpt>
<trkpt lat="33.00509" lon="35.20667"><ele>309.0</ele><time>2021-07-29T04:22:33Z</time></trkpt>
<trkpt lat="33.00504" lon="35.20675"><ele>309.0</ele><time>2021-07-29T04:22:35Z</time></trkpt>
<trkpt lat="33.00497" lon="35.20683"><ele>309.0</ele><time>2021-07-29T04:22:37Z</time></trkpt>
<trkpt lat="33.00492" lon="35.20691"><ele>309.0</ele><time>2021-07-29T04:22:39Z</time></trkpt>
<trkpt lat="33.00487" lon="35.20699"><ele>310.0</ele><time>2021-07-29T04:22:41Z</time></trkpt>
<trkpt lat="33.00481" lon="35.20707"><ele>310.0</ele><time>2021-07-29T04:22:43Z</time></trkpt>
<trkpt lat="33.00475" lon="35.20714"><ele>310.0</ele><time>2021-07-29T04:22:45Z</time></trkpt>
<trkpt lat="33.00469" lon="35.20721"><ele>310.0</ele><time>2021-07-29T04:22:47Z</time></trkpt>
<trkpt lat="33.00462" lon="35.20728"><ele>310.0</ele><time>2021-07-29T04:22:49Z</time></trkpt>
<trkpt lat="33.00455" lon="35.20734"><ele>310.0</ele><time>2021-07-29T04:22:51Z</time></trkpt>
<trkpt lat="33.00448" lon="35.2074"><ele>311.0</ele><time>2021-07-29T04:22:53Z</time></trkpt>
<trkpt lat="33.00441" lon="35.20746"><ele>311.0</ele><time>2021-07-29T04:22:55Z</time></trkpt>
<trkpt lat="33.00434" lon="35.20752"><ele>311.0</ele><time>2021-07-29T04:22:57Z</time></trkpt>
<trkpt lat="33.00426" lon="35.20758"><ele>311.0</ele><time>2021-07-29T04:22:59Z</time></trkpt>
<trkpt lat="33.00419" lon="35.20764"><ele>311.0</ele><time>2021-07-29T04:23:01Z</time></trkpt>
<trkpt lat="33.00412" lon="35.2077"><ele>311.0</ele><time>2021-07-29T04:23:03Z</time></trkpt>
<trkpt lat="33.00402" lon="35.20772"><ele>311.0</ele><time>2021-07-29T04:23:05Z</time></trkpt>
<trkpt lat="33.00395" lon="35.20778"><ele>311.0</ele><time>2021-07-29T04:23:07Z</time></trkpt>
<trkpt lat="33.00387" lon="35.20784"><ele>311.0</ele><time>2021-07-29T04:23:09Z</time></trkpt>
<trkpt lat="33.00379" lon="35.2079"><ele>311.0</ele><time>2021-07-29T04:23:11Z</time></trkpt>
<trkpt lat="33.0037" lon="35.20798"><ele>311.0</ele><time>2021-07-29T04:23:13Z</time></trkpt>
<trkpt lat="33.00361" lon="35.20805"><ele>310.0</ele><time>2021-07-29T04:23:15Z</time></trkpt>
<trkpt lat="33.00351" lon="35.20813"><ele>310.0</ele><time>2021-07-29T04:23:17Z</time></trkpt>
<trkpt lat="33.0034" lon="35.20821"><ele>309.0</ele><time>2021-07-29T04:23:19Z</time></trkpt>
<trkpt lat="33.00327" lon="35.20829"><ele>309.0</ele><time>2021-07-29T04:23:21Z</time></trkpt>
<trkpt lat="33.00319" lon="35.20833"><ele>308.0</ele><time>2021-07-29T04:23:22Z</time></trkpt>
<trkpt lat="33.00312" lon="35.20836"><ele>308.0</ele><time>2021-07-29T04:23:23Z</time></trkpt>
<trkpt lat="33.00304" lon="35.2084"><ele>307.0</ele><time>2021-07-29T04:23:24Z</time></trkpt>
<trkpt lat="33.00295" lon="35.20844"><ele>306.0</ele><time>2021-07-29T04:23:25Z</time></trkpt>
<trkpt lat="33.00286" lon="35.20848"><ele>306.0</ele><time>2021-07-29T04:23:26Z</time></trkpt>
<trkpt lat="33.00277" lon="35.20852"><ele>305.0</ele><time>2021-07-29T04:23:27Z</time></trkpt>
<trkpt lat="33.00268" lon="35.20857"><ele>304.0</ele><time>2021-07-29T04:23:28Z</time></trkpt>
<trkpt lat="33.00258" lon="35.20862"><ele>303.0</ele><time>2021-07-29T04:23:29Z</time></trkpt>
<trkpt lat="33.00247" lon="35.20867"><ele>302.0</ele><time>2021-07-29T04:23:30Z</time></trkpt>
<trkpt lat="33.00237" lon="35.20871"><ele>301.0</ele><time>2021-07-29T04:23:31Z</time></trkpt>
<trkpt lat="33.00226" lon="35.20876"><ele>300.0</ele><time>2021-07-29T04:23:32Z</time></trkpt>
<trkpt lat="33.00216" lon="35.20881"><ele>298.0</ele><time>2021-07-29T04:23:33Z</time></trkpt>
<trkpt lat="33.00205" lon="35.20887"><ele>297.0</ele><time>2021-07-29T04:23:34Z</time></trkpt>
<trkpt lat="33.00193" lon="35.20892"><ele>296.0</ele><time>2021-07-29T04:23:35Z</time></trkpt>
<trkpt lat="33.00181" lon="35.20898"><ele>295.0</ele><time>2021-07-29T04:23:36Z</time></trkpt>
<trkpt lat="33.00169" lon="35.20903"><ele>293.0</ele><time>2021-07-29T04:23:37Z</time></trkpt>
<trkpt lat="33.00157" lon="35.20909"><ele>292.0</ele><time>2021-07-29T04:23:38Z</time></trkpt>
<trkpt lat="33.00145" lon="35.20915"><ele>291.0</ele><time>2021-07-29T04:23:39Z</time></trkpt>
<trkpt lat="33.00133" lon="35.20921"><ele>290.0</ele><time>2021-07-29T04:23:40Z</time></trkpt>
<trkpt lat="33.0012" lon="35.20927"><ele>289.0</ele><time>2021-07-29T04:23:41Z</time></trkpt>
<trkpt lat="33.00108" lon="35.20933"><ele>287.0</ele><time>2021-07-29T04:23:42Z</time></trkpt>
<trkpt lat="33.00096" lon="35.20938"><ele>286.0</ele><time>2021-07-29T04:23:43Z</time></trkpt>
<trkpt lat="33.00085" lon="35.20945"><ele>285.0</ele><time>2021-07-29T04:23:44Z</time></trkpt>
<trkpt lat="33.00075" lon="35.20953"><ele>285.0</ele><time>2021-07-29T04:23:45Z</time></trkpt>
<trkpt lat="33.00066" lon="35.20961"><ele>284.0</ele><time>2021-07-29T04:23:46Z</time></trkpt>
<trkpt lat="33.00054" lon="35.20978"><ele>284.0</ele><time>2021-07-29T04:23:47Z</time></trkpt>
<trkpt lat="33.0005" lon="35.20986"><ele>285.0</ele><time>2021-07-29T04:23:48Z</time></trkpt>
<trkpt lat="33.00043" lon="35.21"><ele>286.0</ele><time>2021-07-29T04:23:50Z</time></trkpt>
<trkpt lat="33.00037" lon="35.2101"><ele>288.0</ele><time>2021-07-29T04:23:52Z</time></trkpt>
<trkpt lat="33.00032" lon="35.21018"><ele>289.0</ele><time>2021-07-29T04:23:54Z</time></trkpt>
<trkpt lat="33.00028" lon="35.21026"><ele>290.0</ele><time>2021-07-29T04:23:58Z</time></trkpt>
<trkpt lat="33.00024" lon="35.21034"><ele>291.0</ele><time>2021-07-29T04:24:01Z</time></trkpt>
<trkpt lat="33.00019" lon="35.21043"><ele>292.0</ele><time>2021-07-29T04:24:05Z</time></trkpt>
<trkpt lat="33.00016" lon="35.21051"><ele>292.0</ele><time>2021-07-29T04:24:08Z</time></trkpt>
<trkpt lat="33.00012" lon="35.21058"><ele>293.0</ele><time>2021-07-29T04:24:11Z</time></trkpt>
<trkpt lat="33.00008" lon="35.21066"><ele>293.0</ele><time>2021-07-29T04:24:14Z</time></trkpt>
<trkpt lat="33.00004" lon="35.21073"><ele>294.0</ele><time>2021-07-29T04:24:17Z</time></trkpt>
<trkpt lat="33.0" lon="35.21081"><ele>294.0</ele><time>2021-07-29T04:24:20Z</time></trkpt>
<trkpt lat="32.99995" lon="35.2109"><ele>295.0</ele><time>2021-07-29T04:24:24Z</time></trkpt>
<trkpt lat="32.9999" lon="35.21099"><ele>296.0</ele><time>2021-07-29T04:24:28Z</time></trkpt>
<trkpt lat="32.99986" lon="35.21107"><ele>297.0</ele><time>2021-07-29T04:24:31Z</time></trkpt>
<trkpt lat="32.99982" lon="35.21114"><ele>297.0</ele><time>2021-07-29T04:24:34Z</time></trkpt>
<trkpt lat="32.99977" lon="35.21124"><ele>298.0</ele><time>2021-07-29T04:24:38Z</time></trkpt>
<trkpt lat="32.99972" lon="35.21133"><ele>299.0</ele><time>2021-07-29T04:24:42Z</time></trkpt>
<trkpt lat="32.99967" lon="35.21141"><ele>300.0</ele><time>2021-07-29T04:24:46Z</time></trkpt>
<trkpt lat="32.99962" lon="35.2115"><ele>301.0</ele><time>2021-07-29T04:24:51Z</time></trkpt>
<trkpt lat="32.99959" lon="35.21159"><ele>302.0</ele><time>2021-07-29T04:24:55Z</time></trkpt>
<trkpt lat="32.99953" lon="35.21166"><ele>303.0</ele><time>2021-07-29T04:24:59Z</time></trkpt>
<trkpt lat="32.99948" lon="35.21174"><ele>303.0</ele><time>2021-07-29T04:25:03Z</time></trkpt>
<trkpt lat="32.99944" lon="35.21181"><ele>304.0</ele><time>2021-07-29T04:25:06Z</time></trkpt>
<trkpt lat="32.99939" lon="35.2119"><ele>305.0</ele><time>2021-07-29T04:25:10Z</time></trkpt>
<trkpt lat="32.99934" lon="35.21199"><ele>305.0</ele><time>2021-07-29T04:25:14Z</time></trkpt>
<trkpt lat="32.99929" lon="35.21208"><ele>306.0</ele><time>2021-07-29T04:25:18Z</time></trkpt>
<trkpt lat="32.99925" lon="35.21215"><ele>307.0</ele><time>2021-07-29T04:25:22Z</time></trkpt>
<trkpt lat="32.99921" lon="35.21223"><ele>308.0</ele><time>2021-07-29T04:25:26Z</time></trkpt>
<trkpt lat="32.99916" lon="35.21231"><ele>309.0</ele><time>2021-07-29T04:25:32Z</time></trkpt>
<trkpt lat="32.99912" lon="35.21241"><ele>310.0</ele><time>2021-07-29T04:25:37Z</time></trkpt>
<trkpt lat="32.99907" lon="35.21247"><ele>310.0</ele><time>2021-07-29T04:25:41Z</time></trkpt>
<trkpt lat="32.99903" lon="35.21254"><ele>311.0</ele><time>2021-07-29T04:25:45Z</time></trkpt>
<trkpt lat="32.99898" lon="35.21263"><ele>312.0</ele><time>2021-07-29T04:25:50Z</time></trkpt>
<trkpt lat="32.99894" lon="35.21271"><ele>312.0</ele><time>2021-07-29T04:25:56Z</time></trkpt>
<trkpt lat="32.9989" lon="35.21279"><ele>313.0</ele><time>2021-07-29T04:26:01Z</time></trkpt>
<trkpt lat="32.99886" lon="35.21287"><ele>314.0</ele><time>2021-07-29T04:26:06Z</time></trkpt>
<trkpt lat="32.99882" lon="35.21294"><ele>315.0</ele><time>2021-07-29T04:26:11Z</time></trkpt>
<trkpt lat="32.99877" lon="35.21302"><ele>316.0</ele><time>2021-07-29T04:26:16Z</time></trkpt>
<trkpt lat="32.99873" lon="35.21311"><ele>317.0</ele><time>2021-07-29T04:26:22Z</time></trkpt>
<trkpt lat="32.99868" lon="35.21319"><ele>318.0</ele><time>2021-07-29T04:26:27Z</time></trkpt>
<trkpt lat="32.99864" lon="35.21326"><ele>319.0</ele><time>2021-07-29T04:26:32Z</time></trkpt>
<trkpt lat="32.9986" lon="35.21334"><ele>320.0</ele><time>2021-07-29T04:26:37Z</time></trkpt>
<trkpt lat="32.99856" lon="35.21342"><ele>320.0</ele><time>2021-07-29T04:26:41Z</time></trkpt>
<trkpt lat="32.99851" lon="35.2135"><ele>321.0</ele><time>2021-07-29T04:26:47Z</time></trkpt>
<trkpt lat="32.99848" lon="35.21357"><ele>322.0</ele><time>2021-07-29T04:26:52Z</time></trkpt>
<trkpt lat="32.99843" lon="35.21366"><ele>323.0</ele><time>2021-07-29T04:26:58Z</time></trkpt>
<trkpt lat="32.99839" lon="35.21374"><ele>324.0</ele><time>2021-07-29T04:27:03Z</time></trkpt>
<trkpt lat="32.99835" lon="35.21382"><ele>325.0</ele><time>2021-07-29T04:27:08Z</time></trkpt>
<trkpt lat="32.9983" lon="35.21389"><ele>325.0</ele><time>2021-07-29T04:27:13Z</time></trkpt>
<trkpt lat="32.99826" lon="35.21397"><ele>326.0</ele><time>2021-07-29T04:27:18Z</time></trkpt>
<trkpt lat="32.99821" lon="35.21405"><ele>327.0</ele><time>2021-07-29T04:27:23Z</time></trkpt>
<trkpt lat="32.99817" lon="35.21413"><ele>328.0</ele><time>2021-07-29T04:27:28Z</time></trkpt>
<trkpt lat="32.99813" lon="35.21421"><ele>329.0</ele><time>2021-07-29T04:27:33Z</time></trkpt>
<trkpt lat="32.99809" lon="35.21429"><ele>329.0</ele><time>2021-07-29T04:27:38Z</time></trkpt>
<trkpt lat="32.99806" lon="35.21437"><ele>330.0</ele><time>2021-07-29T04:27:43Z</time></trkpt>
<trkpt lat="32.99802" lon="35.21446"><ele>331.0</ele><time>2021-07-29T04:27:48Z</time></trkpt>
<trkpt lat="32.99798" lon="35.21455"><ele>332.0</ele><time>2021-07-29T04:27:53Z</time></trkpt>
<trkpt lat="32.99795" lon="35.21464"><ele>332.0</ele><time>2021-07-29T04:27:58Z</time></trkpt>
<trkpt lat="32.99793" lon="35.21472"><ele>333.0</ele><time>2021-07-29T04:28:03Z</time></trkpt>
<trkpt lat="32.9979" lon="35.21481"><ele>334.0</ele><time>2021-07-29T04:28:08Z</time></trkpt>
<trkpt lat="32.99788" lon="35.21489"><ele>335.0</ele><time>2021-07-29T04:28:13Z</time></trkpt>
<trkpt lat="32.99786" lon="35.21499"><ele>336.0</ele><time>2021-07-29T04:28:18Z</time></trkpt>
<trkpt lat="32.99784" lon="35.21508"><ele>336.0</ele><time>2021-07-29T04:28:23Z</time></trkpt>
<trkpt lat="32.99783" lon="35.21517"><ele>337.0</ele><time>2021-07-29T04:28:28Z</time></trkpt>
<trkpt lat="32.99781" lon="35.21526"><ele>337.0</ele><time>2021-07-29T04:28:33Z</time></trkpt>
<trkpt lat="32.99779" lon="35.21536"><ele>338.0</ele><time>2021-07-29T04:28:38Z</time></trkpt>
<trkpt lat="32.99778" lon="35.21546"><ele>339.0</ele><time>2021-07-29T04:28:43Z</time></trkpt>
<trkpt lat="32.99776" lon="35.21555"><ele>339.0</ele><time>2021-07-29T04:28:48Z</time></trkpt>
<trkpt lat="32.99775" lon="35.21565"><ele>340.0</ele><time>2021-07-29T04:28:53Z</time></trkpt>
<trkpt lat="32.99774" lon="35.21574"><ele>340.0</ele><time>2021-07-29T04:28:58Z</time></trkpt>
<trkpt lat="32.99772" lon="35.21583"><ele>341.0</ele><time>2021-07-29T04:29:03Z</time></trkpt>
<trkpt lat="32.9977" lon="35.21592"><ele>341.0</ele><time>2021-07-29T04:29:07Z</time></trkpt>
<trkpt lat="32.99769" lon="35.21601"><ele>342.0</ele><time>2021-07-29T04:29:12Z</time></trkpt>
<trkpt lat="32.99767" lon="35.21612"><ele>342.0</ele><time>2021-07-29T04:29:17Z</time></trkpt>
<trkpt lat="32.99766" lon="35.2162"><ele>343.0</ele><time>2021-07-29T04:29:21Z</time></trkpt>
<trkpt lat="32.99764" lon="35.21628"><ele>344.0</ele><time>2021-07-29T04:29:25Z</time></trkpt>
<trkpt lat="32.99761" lon="35.21639"><ele>344.0</ele><time>2021-07-29T04:29:30Z</time></trkpt>
<trkpt lat="32.99759" lon="35.21649"><ele>345.0</ele><time>2021-07-29T04:29:35Z</time></trkpt>
<trkpt lat="32.99757" lon="35.21657"><ele>345.0</ele><time>2021-07-29T04:29:39Z</time></trkpt>
<trkpt lat="32.99755" lon="35.21665"><ele>346.0</ele><time>2021-07-29T04:29:43Z</time></trkpt>
<trkpt lat="32.99752" lon="35.21673"><ele>346.0</ele><time>2021-07-29T04:29:47Z</time></trkpt>
<trkpt lat="32.99748" lon="35.21682"><ele>347.0</ele><time>2021-07-29T04:29:51Z</time></trkpt>
<trkpt lat="32.99742" lon="35.21689"><ele>347.0</ele><time>2021-07-29T04:29:55Z</time></trkpt>
<trkpt lat="32.99736" lon="35.21694"><ele>348.0</ele><time>2021-07-29T04:30:00Z</time></trkpt>
<trkpt lat="32.99734" lon="35.21705"><ele>349.0</ele><time>2021-07-29T04:30:04Z</time></trkpt>
<trkpt lat="32.9974" lon="35.21714"><ele>349.0</ele><time>2021-07-29T04:30:09Z</time></trkpt>
<trkpt lat="32.99748" lon="35.21712"><ele>349.0</ele><time>2021-07-29T04:30:14Z</time></trkpt>
<trkpt lat="32.99753" lon="35.21704"><ele>349.0</ele><time>2021-07-29T04:30:17Z</time></trkpt>
<trkpt lat="32.99753" lon="35.21693"><ele>349.0</ele><time>2021-07-29T04:30:19Z</time></trkpt>
<trkpt lat="32.99754" lon="35.2168"><ele>348.0</ele><time>2021-07-29T04:30:21Z</time></trkpt>
<trkpt lat="32.99758" lon="35.21667"><ele>347.0</ele><time>2021-07-29T04:30:23Z</time></trkpt>
<trkpt lat="32.99762" lon="35.21653"><ele>346.0</ele><time>2021-07-29T04:30:25Z</time></trkpt>
<trkpt lat="32.99766" lon="35.21638"><ele>346.0</ele><time>2021-07-29T04:30:27Z</time></trkpt>
<trkpt lat="32.99773" lon="35.21625"><ele>345.0</ele><time>2021-07-29T04:30:29Z</time></trkpt>
<trkpt lat="32.99775" lon="35.21616"><ele>344.0</ele><time>2021-07-29T04:30:30Z</time></trkpt>
<trkpt lat="32.99777" lon="35.21607"><ele>344.0</ele><time>2021-07-29T04:30:31Z</time></trkpt>
<trkpt lat="32.99778" lon="35.21598"><ele>344.0</ele><time>2021-07-29T04:30:32Z</time></trkpt>
<trkpt lat="32.9978" lon="35.21588"><ele>343.0</ele><time>2021-07-29T04:30:33Z</time></trkpt>
<trkpt lat="32.99782" lon="35.21578"><ele>343.0</ele><time>2021-07-29T04:30:34Z</time></trkpt>
<trkpt lat="32.99783" lon="35.21568"><ele>342.0</ele><time>2021-07-29T04:30:35Z</time></trkpt>
<trkpt lat="32.99785" lon="35.21557"><ele>341.0</ele><time>2021-07-29T04:30:36Z</time></trkpt>
<trkpt lat="32.99786" lon="35.21547"><ele>340.0</ele><time>2021-07-29T04:30:37Z</time></trkpt>
<trkpt lat="32.99788" lon="35.21536"><ele>340.0</ele><time>2021-07-29T04:30:38Z</time></trkpt>
<trkpt lat="32.9979" lon="35.21526"><ele>339.0</ele><time>2021-07-29T04:30:39Z</time></trkpt>
<trkpt lat="32.99792" lon="35.21515"><ele>338.0</ele><time>2021-07-29T04:30:40Z</time></trkpt>
<trkpt lat="32.99794" lon="35.21504"><ele>338.0</ele><time>2021-07-29T04:30:41Z</time></trkpt>
<trkpt lat="32.99797" lon="35.21492"><ele>337.0</ele><time>2021-07-29T04:30:42Z</time></trkpt>
<trkpt lat="32.99799" lon="35.2148"><ele>336.0</ele><time>2021-07-29T04:30:43Z</time></trkpt>
<trkpt lat="32.99803" lon="35.21468"><ele>336.0</ele><time>2021-07-29T04:30:44Z</time></trkpt>
<trkpt lat="32.99807" lon="35.21456"><ele>335.0</ele><time>2021-07-29T04:30:45Z</time></trkpt>
<trkpt lat="32.99812" lon="35.21445"><ele>334.0</ele><time>2021-07-29T04:30:46Z</time></trkpt>
<trkpt lat="32.99817" lon="35.21433"><ele>333.0</ele><time>2021-07-29T04:30:47Z</time></trkpt>
<trkpt lat="32.99823" lon="35.21421"><ele>332.0</ele><time>2021-07-29T04:30:48Z</time></trkpt>
<trkpt lat="32.99829" lon="35.21409"><ele>331.0</ele><time>2021-07-29T04:30:49Z</time></trkpt>
<trkpt lat="32.99835" lon="35.21397"><ele>330.0</ele><time>2021-07-29T04:30:50Z</time></trkpt>
<trkpt lat="32.99842" lon="35.21384"><ele>329.0</ele><time>2021-07-29T04:30:51Z</time></trkpt>
<trkpt lat="32.99849" lon="35.21372"><ele>328.0</ele><time>2021-07-29T04:30:52Z</time></trkpt>
<trkpt lat="32.99856" lon="35.2136"><ele>326.0</ele><time>2021-07-29T04:30:53Z</time></trkpt>
<trkpt lat="32.99863" lon="35.21347"><ele>325.0</ele><time>2021-07-29T04:30:54Z</time></trkpt>
<trkpt lat="32.9987" lon="35.21333"><ele>324.0</ele><time>2021-07-29T04:30:55Z</time></trkpt>
<trkpt lat="32.99878" lon="35.21319"><ele>323.0</ele><time>2021-07-29T04:30:56Z</time></trkpt>
<trkpt lat="32.99885" lon="35.21306"><ele>320.0</ele><time>2021-07-29T04:30:57Z</time></trkpt>
<trkpt lat="32.99893" lon="35.21292"><ele>319.0</ele><time>2021-07-29T04:30:58Z</time></trkpt>
<trkpt lat="32.99901" lon="35.21278"><ele>317.0</ele><time>2021-07-29T04:30:59Z</time></trkpt>
<trkpt lat="32.99909" lon="35.21264"><ele>316.0</ele><time>2021-07-29T04:31:00Z</time></trkpt>
<trkpt lat="32.99918" lon="35.21249"><ele>315.0</ele><time>2021-07-29T04:31:01Z</time></trkpt>
<trkpt lat="32.99926" lon="35.21235"><ele>313.0</ele><time>2021-07-29T04:31:02Z</time></trkpt>
<trkpt lat="32.99934" lon="35.2122"><ele>312.0</ele><time>2021-07-29T04:31:03Z</time></trkpt>
<trkpt lat="32.99942" lon="35.21206"><ele>310.0</ele><time>2021-07-29T04:31:04Z</time></trkpt>
<trkpt lat="32.9995" lon="35.21191"><ele>309.0</ele><time>2021-07-29T04:31:05Z</time></trkpt>
<trkpt lat="32.99959" lon="35.21178"><ele>307.0</ele><time>2021-07-29T04:31:06Z</time></trkpt>
<trkpt lat="32.99967" lon="35.21163"><ele>306.0</ele><time>2021-07-29T04:31:07Z</time></trkpt>
<trkpt lat="32.99974" lon="35.21148"><ele>305.0</ele><time>2021-07-29T04:31:08Z</time></trkpt>
<trkpt lat="32.99983" lon="35.21133"><ele>303.0</ele><time>2021-07-29T04:31:09Z</time></trkpt>
<trkpt lat="32.9999" lon="35.21119"><ele>302.0</ele><time>2021-07-29T04:31:10Z</time></trkpt>
<trkpt lat="32.99998" lon="35.21104"><ele>301.0</ele><time>2021-07-29T04:31:11Z</time></trkpt>
<trkpt lat="33.00005" lon="35.21089"><ele>299.0</ele><time>2021-07-29T04:31:12Z</time></trkpt>
<trkpt lat="33.00013" lon="35.21074"><ele>298.0</ele><time>2021-07-29T04:31:13Z</time></trkpt>
<trkpt lat="33.00021" lon="35.21059"><ele>297.0</ele><time>2021-07-29T04:31:14Z</time></trkpt>
<trkpt lat="33.00029" lon="35.21045"><ele>296.0</ele><time>2021-07-29T04:31:15Z</time></trkpt>
<trkpt lat="33.00036" lon="35.2103"><ele>294.0</ele><time>2021-07-29T04:31:16Z</time></trkpt>
<trkpt lat="33.00044" lon="35.21015"><ele>292.0</ele><time>2021-07-29T04:31:17Z</time></trkpt>
<trkpt lat="33.00052" lon="35.21001"><ele>291.0</ele><time>2021-07-29T04:31:18Z</time></trkpt>
<trkpt lat="33.0006" lon="35.20987"><ele>290.0</ele><time>2021-07-29T04:31:19Z</time></trkpt>
<trkpt lat="33.00069" lon="35.20974"><ele>289.0</ele><time>2021-07-29T04:31:20Z</time></trkpt>
<trkpt lat="33.0008" lon="35.20962"><ele>288.0</ele><time>2021-07-29T04:31:21Z</time></trkpt>
<trkpt lat="33.00092" lon="35.20953"><ele>286.0</ele><time>2021-07-29T04:31:22Z</time></trkpt>
<trkpt lat="33.00104" lon="35.20945"><ele>285.0</ele><time>2021-07-29T04:31:23Z</time></trkpt>
<trkpt lat="33.00116" lon="35.20939"><ele>284.0</ele><time>2021-07-29T04:31:24Z</time></trkpt>
<trkpt lat="33.00127" lon="35.20935"><ele>284.0</ele><time>2021-07-29T04:31:25Z</time></trkpt>
<trkpt lat="33.00138" lon="35.20931"><ele>284.0</ele><time>2021-07-29T04:31:26Z</time></trkpt>
<trkpt lat="33.00147" lon="35.20926"><ele>284.0</ele><time>2021-07-29T04:31:27Z</time></trkpt>
<trkpt lat="33.00156" lon="35.20922"><ele>284.0</ele><time>2021-07-29T04:31:28Z</time></trkpt>
<trkpt lat="33.00163" lon="35.20919"><ele>285.0</ele><time>2021-07-29T04:31:29Z</time></trkpt>
<trkpt lat="33.00175" lon="35.20912"><ele>287.0</ele><time>2021-07-29T04:31:31Z</time></trkpt>
<trkpt lat="33.00184" lon="35.20908"><ele>289.0</ele><time>2021-07-29T04:31:33Z</time></trkpt>
<trkpt lat="33.00192" lon="35.20904"><ele>290.0</ele><time>2021-07-29T04:31:36Z</time></trkpt>
<trkpt lat="33.00201" lon="35.209"><ele>292.0</ele><time>2021-07-29T04:31:40Z</time></trkpt>
<trkpt lat="33.00209" lon="35.20896"><ele>293.0</ele><time>2021-07-29T04:31:44Z</time></trkpt>
<trkpt lat="33.00217" lon="35.20892"><ele>294.0</ele><time>2021-07-29T04:31:48Z</time></trkpt>
<trkpt lat="33.00226" lon="35.20888"><ele>295.0</ele><time>2021-07-29T04:31:52Z</time></trkpt>
<trkpt lat="33.00233" lon="35.20885"><ele>295.0</ele><time>2021-07-29T04:31:56Z</time></trkpt>
<trkpt lat="33.0024" lon="35.20881"><ele>296.0</ele><time>2021-07-29T04:32:00Z</time></trkpt>
<trkpt lat="33.00248" lon="35.20878"><ele>297.0</ele><time>2021-07-29T04:32:04Z</time></trkpt>
<trkpt lat="33.00256" lon="35.20874"><ele>298.0</ele><time>2021-07-29T04:32:08Z</time></trkpt>
<trkpt lat="33.00263" lon="35.20871"><ele>299.0</ele><time>2021-07-29T04:32:12Z</time></trkpt>
<trkpt lat="33.00271" lon="35.20867"><ele>300.0</ele><time>2021-07-29T04:32:16Z</time></trkpt>
<trkpt lat="33.00279" lon="35.20863"><ele>301.0</ele><time>2021-07-29T04:32:20Z</time></trkpt>
<trkpt lat="33.00287" lon="35.20859"><ele>302.0</ele><time>2021-07-29T04:32:24Z</time></trkpt>
<trkpt lat="33.00295" lon="35.20855"><ele>303.0</ele><time>2021-07-29T04:32:28Z</time></trkpt>
<trkpt lat="33.00303" lon="35.20852"><ele>304.0</ele><time>2021-07-29T04:32:32Z</time></trkpt>
<trkpt lat="33.0031" lon="35.20849"><ele>304.0</ele><time>2021-07-29T04:32:36Z</time></trkpt>
<trkpt lat="33.00318" lon="35.20844"><ele>305.0</ele><time>2021-07-29T04:32:41Z</time></trkpt>
<trkpt lat="33.00326" lon="35.2084"><ele>306.0</ele><time>2021-07-29T04:32:46Z</time></trkpt>
<trkpt lat="33.00332" lon="35.20836"><ele>307.0</ele><time>2021-07-29T04:32:50Z</time></trkpt>
<trkpt lat="33.00339" lon="35.20832"><ele>307.0</ele><time>2021-07-29T04:32:54Z</time></trkpt>
<trkpt lat="33.00347" lon="35.20828"><ele>308.0</ele><time>2021-07-29T04:32:59Z</time></trkpt>
<trkpt lat="33.00353" lon="35.20823"><ele>308.0</ele><time>2021-07-29T04:33:03Z</time></trkpt>
<trkpt lat="33.0036" lon="35.20818"><ele>309.0</ele><time>2021-07-29T04:33:08Z</time></trkpt>
<trkpt lat="33.00367" lon="35.20813"><ele>309.0</ele><time>2021-07-29T04:33:12Z</time></trkpt>
<trkpt lat="33.00373" lon="35.20808"><ele>310.0</ele><time>2021-07-29T04:33:16Z</time></trkpt>
<trkpt lat="33.00379" lon="35.20802"><ele>310.0</ele><time>2021-07-29T04:33:20Z</time></trkpt>
<trkpt lat="33.00387" lon="35.20796"><ele>311.0</ele><time>2021-07-29T04:33:24Z</time></trkpt>
<trkpt lat="33.00394" lon="35.2079"><ele>311.0</ele><time>2021-07-29T04:33:28Z</time></trkpt>
<trkpt lat="33.00402" lon="35.20784"><ele>311.0</ele><time>2021-07-29T04:33:32Z</time></trkpt>
<trkpt lat="33.0041" lon="35.20778"><ele>311.0</ele><time>2021-07-29T04:33:36Z</time></trkpt>
<trkpt lat="33.00416" lon="35.20772"><ele>311.0</ele><time>2021-07-29T04:33:39Z</time></trkpt>
<trkpt lat="33.00422" lon="35.20768"><ele>311.0</ele><time>2021-07-29T04:33:42Z</time></trkpt>
<trkpt lat="33.00429" lon="35.20763"><ele>311.0</ele><time>2021-07-29T04:33:45Z</time></trkpt>
<trkpt lat="33.00435" lon="35.20758"><ele>311.0</ele><time>2021-07-29T04:33:48Z</time></trkpt>
<trkpt lat="33.00442" lon="35.20752"><ele>311.0</ele><time>2021-07-29T04:33:51Z</time></trkpt>
<trkpt lat="33.00449" lon="35.20746"><ele>311.0</ele><time>2021-07-29T04:33:54Z</time></trkpt>
<trkpt lat="33.00457" lon="35.20739"><ele>311.0</ele><time>2021-07-29T04:33:57Z</time></trkpt>
<trkpt lat="33.00466" lon="35.20732"><ele>311.0</ele><time>2021-07-29T04:34:00Z</time></trkpt>
<trkpt lat="33.00472" lon="35.20727"><ele>311.0</ele><time>2021-07-29T04:34:02Z</time></trkpt>
<trkpt lat="33.00478" lon="35.20721"><ele>311.0</ele><time>2021-07-29T04:34:04Z</time></trkpt>
<trkpt lat="33.00483" lon="35.20714"><ele>311.0</ele><time>2021-07-29T04:34:06Z</time></trkpt>
<trkpt lat="33.00489" lon="35.20707"><ele>310.0</ele><time>2021-07-29T04:34:08Z</time></trkpt>
<trkpt lat="33.00495" lon="35.207"><ele>310.0</ele><time>2021-07-29T04:34:10Z</time></trkpt>
<trkpt lat="33.005" lon="35.20692"><ele>310.0</ele><time>2021-07-29T04:34:12Z</time></trkpt>
<trkpt lat="33.00506" lon="35.20684"><ele>310.0</ele><time>2021-07-29T04:34:14Z</time></trkpt>
<trkpt lat="33.00512" lon="35.20675"><ele>309.0</ele><time>2021-07-29T04:34:16Z</time></trkpt>
<trkpt lat="33.00518" lon="35.20666"><ele>309.0</ele><time>2021-07-29T04:34:18Z</time></trkpt>
<trkpt lat="33.00525" lon="35.20657"><ele>309.0</ele><time>2021-07-29T04:34:20Z</time></trkpt>
<trkpt lat="33.00531" lon="35.20648"><ele>309.0</ele><time>2021-07-29T04:34:22Z</time></trkpt>
<trkpt lat="33.00537" lon="35.20638"><ele>308.0</ele><time>2021-07-29T04:34:24Z</time></trkpt>
<trkpt lat="33.00544" lon="35.20629"><ele>308.0</ele><time>2021-07-29T04:34:26Z</time></trkpt>
<trkpt lat="33.00551" lon="35.20619"><ele>308.0</ele><time>2021-07-29T04:34:28Z</time></trkpt>
<trkpt lat="33.00559" lon="35.20609"><ele>308.0</ele><time>2021-07-29T04:34:30Z</time></trkpt>
<trkpt lat="33.00569" lon="35.20602"><ele>307.0</ele><time>2021-07-29T04:34:32Z</time></trkpt>
<trkpt lat="33.00578" lon="35.20596"><ele>307.0</ele><time>2021-07-29T04:34:34Z</time></trkpt>
<trkpt lat="33.00588" lon="35.20592"><ele>307.0</ele><time>2021-07-29T04:34:36Z</time></trkpt>
<trkpt lat="33.00598" lon="35.20591"><ele>307.0</ele><time>2021-07-29T04:34:38Z</time></trkpt>
<trkpt lat="33.00607" lon="35.20591"><ele>308.0</ele><time>2021-07-29T04:34:40Z</time></trkpt>
<trkpt lat="33.00614" lon="35.20596"><ele>308.0</ele><time>2021-07-29T04:34:42Z</time></trkpt>
<trkpt lat="33.00617" lon="35.20607"><ele>308.0</ele><time>2021-07-29T04:34:45Z</time></trkpt>
<trkpt lat="33.00618" lon="35.20618"><ele>309.0</ele><time>2021-07-29T04:34:48Z</time></trkpt>
<trkpt lat="33.00619" lon="35.20627"><ele>309.0</ele><time>2021-07-29T04:34:51Z</time></trkpt>
<trkpt lat="33.0062" lon="35.20636"><ele>310.0</ele><time>2021-07-29T04:34:54Z</time></trkpt>
<trkpt lat="33.00622" lon="35.20645"><ele>310.0</ele><time>2021-07-29T04:34:57Z</time></trkpt>
<trkpt lat="33.00623" lon="35.20654"><ele>311.0</ele><time>2021-07-29T04:35:00Z</time></trkpt>
<trkpt lat="33.00624" lon="35.20662"><ele>311.0</ele><time>2021-07-29T04:35:03Z</time></trkpt>
<trkpt lat="33.00624" lon="35.20672"><ele>312.0</ele><time>2021-07-29T04:35:06Z</time></trkpt>
<trkpt lat="33.00625" lon="35.2068"><ele>312.0</ele><time>2021-07-29T04:35:09Z</time></trkpt>
<trkpt lat="33.00626" lon="35.2069"><ele>313.0</ele><time>2021-07-29T04:35:12Z</time></trkpt>
<trkpt lat="33.00627" lon="35.20699"><ele>313.0</ele><time>2021-07-29T04:35:15Z</time></trkpt>
<trkpt lat="33.00628" lon="35.20708"><ele>314.0</ele><time>2021-07-29T04:35:18Z</time></trkpt>
<trkpt lat="33.00629" lon="35.20717"><ele>314.0</ele><time>2021-07-29T04:35:21Z</time></trkpt>
<trkpt lat="33.0063" lon="35.20725"><ele>315.0</ele><time>2021-07-29T04:35:24Z</time></trkpt>
<trkpt lat="33.00631" lon="35.20737"><ele>316.0</ele><time>2021-07-29T04:35:28Z</time></trkpt>
<trkpt lat="33.00632" lon="35.20747"><ele>316.0</ele><time>2021-07-29T04:35:32Z</time></trkpt>
<trkpt lat="33.00634" lon="35.20756"><ele>317.0</ele><time>2021-07-29T04:35:35Z</time></trkpt>
<trkpt lat="33.00635" lon="35.20767"><ele>317.0</ele><time>2021-07-29T04:35:39Z</time></trkpt>
<trkpt lat="33.00636" lon="35.20778"><ele>318.0</ele><time>2021-07-29T04:35:43Z</time></trkpt>
<trkpt lat="33.00637" lon="35.20789"><ele>319.0</ele><time>2021-07-29T04:35:47Z</time></trkpt>
<trkpt lat="33.00638" lon="35.20798"><ele>319.0</ele><time>2021-07-29T04:35:50Z</time></trkpt>
<trkpt lat="33.00639" lon="35.20809"><ele>320.0</ele><time>2021-07-29T04:35:54Z</time></trkpt>
<trkpt lat="33.0064" lon="35.20818"><ele>320.0</ele><time>2021-07-29T04:35:57Z</time></trkpt>
<trkpt lat="33.00641" lon="35.20828"><ele>321.0</ele><time>2021-07-29T04:36:01Z</time></trkpt>
<trkpt lat="33.00643" lon="35.20837"><ele>322.0</ele><time>2021-07-29T04:36:05Z</time></trkpt>
<trkpt lat="33.00645" lon="35.20847"><ele>322.0</ele><time>2021-07-29T04:36:10Z</time></trkpt>
<trkpt lat="33.00646" lon="35.20855"><ele>323.0</ele><time>2021-07-29T04:36:14Z</time></trkpt>
<trkpt lat="33.00648" lon="35.20866"><ele>323.0</ele><time>2021-07-29T04:36:18Z</time></trkpt>
<trkpt lat="33.0065" lon="35.20874"><ele>323.0</ele><time>2021-07-29T04:36:21Z</time></trkpt>
<trkpt lat="33.0065" lon="35.20884"><ele>324.0</ele><time>2021-07-29T04:36:25Z</time></trkpt>
<trkpt lat="33.0065" lon="35.20894"><ele>324.0</ele><time>2021-07-29T04:36:29Z</time></trkpt>
<trkpt lat="33.00649" lon="35.20903"><ele>325.0</ele><time>2021-07-29T04:36:33Z</time></trkpt>
<trkpt lat="33.0065" lon="35.20913"><ele>326.0</ele><time>2021-07-29T04:36:37Z</time></trkpt>
<trkpt lat="33.0065" lon="35.20922"><ele>326.0</ele><time>2021-07-29T04:36:41Z</time></trkpt>
<trkpt lat="33.00651" lon="35.20932"><ele>327.0</ele><time>2021-07-29T04:36:45Z</time></trkpt>
<trkpt lat="33.00652" lon="35.20941"><ele>327.0</ele><time>2021-07-29T04:36:49Z</time></trkpt>
<trkpt lat="33.00653" lon="35.2095"><ele>328.0</ele><time>2021-07-29T04:36:53Z</time></trkpt>
<trkpt lat="33.00653" lon="35.2096"><ele>328.0</ele><time>2021-07-29T04:36:57Z</time></trkpt>
<trkpt lat="33.00652" lon="35.20969"><ele>328.0</ele><time>2021-07-29T04:37:01Z</time></trkpt>
<trkpt lat="33.00652" lon="35.20979"><ele>329.0</ele><time>2021-07-29T04:37:06Z</time></trkpt>
<trkpt lat="33.00653" lon="35.20989"><ele>329.0</ele><time>2021-07-29T04:37:10Z</time></trkpt>
<trkpt lat="33.00653" lon="35.21001"><ele>330.0</ele><time>2021-07-29T04:37:14Z</time></trkpt>
<trkpt lat="33.00653" lon="35.21012"><ele>330.0</ele><time>2021-07-29T04:37:18Z</time></trkpt>
<trkpt lat="33.00654" lon="35.21021"><ele>330.0</ele><time>2021-07-29T04:37:22Z</time></trkpt>
<trkpt lat="33.00654" lon="35.21032"><ele>331.0</ele><time>2021-07-29T04:37:26Z</time></trkpt>
<trkpt lat="33.00654" lon="35.21043"><ele>331.0</ele><time>2021-07-29T04:37:30Z</time></trkpt>
<trkpt lat="33.00656" lon="35.21053"><ele>331.0</ele><time>2021-07-29T04:37:34Z</time></trkpt>
<trkpt lat="33.00654" lon="35.21063"><ele>332.0</ele><time>2021-07-29T04:37:38Z</time></trkpt>
<trkpt lat="33.00654" lon="35.21072"><ele>333.0</ele><time>2021-07-29T04:37:42Z</time></trkpt>
<trkpt lat="33.00653" lon="35.21084"><ele>333.0</ele><time>2021-07-29T04:37:46Z</time></trkpt>
<trkpt lat="33.00653" lon="35.21093"><ele>333.0</ele><time>2021-07-29T04:37:49Z</time></trkpt>
<trkpt lat="33.00653" lon="35.21104"><ele>334.0</ele><time>2021-07-29T04:37:53Z</time></trkpt>
<trkpt lat="33.00651" lon="35.21114"><ele>334.0</ele><time>2021-07-29T04:37:57Z</time></trkpt>
<trkpt lat="33.0065" lon="35.21123"><ele>335.0</ele><time>2021-07-29T04:38:00Z</time></trkpt>
<trkpt lat="33.0065" lon="35.21133"><ele>335.0</ele><time>2021-07-29T04:38:04Z</time></trkpt>
<trkpt lat="33.0065" lon="35.21143"><ele>336.0</ele><time>2021-07-29T04:38:08Z</time></trkpt>
<trkpt lat="33.00649" lon="35.21154"><ele>337.0</ele><time>2021-07-29T04:38:12Z</time></trkpt>
<trkpt lat="33.00648" lon="35.21164"><ele>337.0</ele><time>2021-07-29T04:38:16Z</time></trkpt>
<trkpt lat="33.00647" lon="35.21173"><ele>338.0</ele><time>2021-07-29T04:38:20Z</time></trkpt>
<trkpt lat="33.00646" lon="35.21182"><ele>338.0</ele><time>2021-07-29T04:38:24Z</time></trkpt>
<trkpt lat="33.00646" lon="35.21192"><ele>338.0</ele><time>2021-07-29T04:38:28Z</time></trkpt>
<trkpt lat="33.00644" lon="35.21202"><ele>339.0</ele><time>2021-07-29T04:38:32Z</time></trkpt>
<trkpt lat="33.00642" lon="35.21212"><ele>340.0</ele><time>2021-07-29T04:38:36Z</time></trkpt>
<trkpt lat="33.0064" lon="35.21221"><ele>340.0</ele><time>2021-07-29T04:38:40Z</time></trkpt>
<trkpt lat="33.00636" lon="35.21231"><ele>341.0</ele><time>2021-07-29T04:38:44Z</time></trkpt>
<trkpt lat="33.00633" lon="35.21239"><ele>341.0</ele><time>2021-07-29T04:38:48Z</time></trkpt>
<trkpt lat="33.00628" lon="35.21247"><ele>342.0</ele><time>2021-07-29T04:38:52Z</time></trkpt>
<trkpt lat="33.00621" lon="35.21249"><ele>342.0</ele><time>2021-07-29T04:38:55Z</time></trkpt>
<trkpt lat="33.00615" lon="35.21257"><ele>343.0</ele><time>2021-07-29T04:38:59Z</time></trkpt>
<trkpt lat="33.00609" lon="35.21264"><ele>343.0</ele><time>2021-07-29T04:39:03Z</time></trkpt>
<trkpt lat="33.00604" lon="35.21272"><ele>343.0</ele><time>2021-07-29T04:39:07Z</time></trkpt>
<trkpt lat="33.00599" lon="35.2128"><ele>344.0</ele><time>2021-07-29T04:39:11Z</time></trkpt>
<trkpt lat="33.00593" lon="35.21288"><ele>344.0</ele><time>2021-07-29T04:39:15Z</time></trkpt>
<trkpt lat="33.00587" lon="35.21296"><ele>344.0</ele><time>2021-07-29T04:39:19Z</time></trkpt>
<trkpt lat="33.00582" lon="35.21303"><ele>344.0</ele><time>2021-07-29T04:39:22Z</time></trkpt>
<trkpt lat="33.00576" lon="35.21312"><ele>344.0</ele><time>2021-07-29T04:39:26Z</time></trkpt>
<trkpt lat="33.0057" lon="35.2132"><ele>345.0</ele><time>2021-07-29T04:39:30Z</time></trkpt>
<trkpt lat="33.00564" lon="35.21328"><ele>345.0</ele><time>2021-07-29T04:39:34Z</time></trkpt>
<trkpt lat="33.00558" lon="35.21334"><ele>345.0</ele><time>2021-07-29T04:39:37Z</time></trkpt>
<trkpt lat="33.00552" lon="35.2134"><ele>345.0</ele><time>2021-07-29T04:39:40Z</time></trkpt>
<trkpt lat="33.00547" lon="35.21346"><ele>346.0</ele><time>2021-07-29T04:39:43Z</time></trkpt>
<trkpt lat="33.0054" lon="35.21351"><ele>346.0</ele><time>2021-07-29T04:39:46Z</time></trkpt>
<trkpt lat="33.00534" lon="35.21357"><ele>346.0</ele><time>2021-07-29T04:39:49Z</time></trkpt>
<trkpt lat="33.00529" lon="35.21364"><ele>347.0</ele><time>2021-07-29T04:39:52Z</time></trkpt>
<trkpt lat="33.00529" lon="35.21376"><ele>347.0</ele><time>2021-07-29T04:39:55Z</time></trkpt>
<trkpt lat="33.00534" lon="35.21384"><ele>347.0</ele><time>2021-07-29T04:39:58Z</time></trkpt>
<trkpt lat="33.00541" lon="35.21391"><ele>347.0</ele><time>2021-07-29T04:40:02Z</time></trkpt>
<trkpt lat="33.00546" lon="35.21398"><ele>348.0</ele><time>2021-07-29T04:40:05Z</time></trkpt>
<trkpt lat="33.00552" lon="35.21407"><ele>348.0</ele><time>2021-07-29T04:40:09Z</time></trkpt>
<trkpt lat="33.00557" lon="35.21416"><ele>349.0</ele><time>2021-07-29T04:40:13Z</time></trkpt>
<trkpt lat="33.00562" lon="35.21425"><ele>350.0</ele><time>2021-07-29T04:40:17Z</time></trkpt>
<trkpt lat="33.00569" lon="35.21431"><ele>351.0</ele><time>2021-07-29T04:40:21Z</time></trkpt>
<trkpt lat="33.00574" lon="35.21438"><ele>351.0</ele><time>2021-07-29T04:40:24Z</time></trkpt>
<trkpt lat="33.00579" lon="35.21445"><ele>351.0</ele><time>2021-07-29T04:40:27Z</time></trkpt>
<trkpt lat="33.00585" lon="35.21454"><ele>352.0</ele><time>2021-07-29T04:40:31Z</time></trkpt>
<trkpt lat="33.0059" lon="35.21463"><ele>353.0</ele><time>2021-07-29T04:40:35Z</time></trkpt>
<trkpt lat="33.00595" lon="35.21472"><ele>353.0</ele><time>2021-07-29T04:40:39Z</time></trkpt>
<trkpt lat="33.00599" lon="35.21481"><ele>354.0</ele><time>2021-07-29T04:40:43Z</time></trkpt>
<trkpt lat="33.006" lon="35.2149"><ele>354.0</ele><time>2021-07-29T04:40:47Z</time></trkpt>
<trkpt lat="33.00595" lon="35.21498"><ele>355.0</ele><time>2021-07-29T04:40:51Z</time></trkpt>
<trkpt lat="33.00589" lon="35.21503"><ele>355.0</ele><time>2021-07-29T04:40:54Z</time></trkpt>
<trkpt lat="33.00582" lon="35.21507"><ele>355.0</ele><time>2021-07-29T04:40:57Z</time></trkpt>
<trkpt lat="33.00575" lon="35.21512"><ele>355.0</ele><time>2021-07-29T04:41:00Z</time></trkpt>
<trkpt lat="33.00569" lon="35.2152"><ele>356.0</ele><time>2021-07-29T04:41:04Z</time></trkpt>
<trkpt lat="33.00564" lon="35.21527"><ele>356.0</ele><time>2021-07-29T04:41:07Z</time></trkpt>
<trkpt lat="33.00562" lon="35.21535"><ele>356.0</ele><time>2021-07-29T04:41:10Z</time></trkpt>
<trkpt lat="33.00559" lon="35.21545"><ele>357.0</ele><time>2021-07-29T04:41:14Z</time></trkpt>
<trkpt lat="33.0055" lon="35.21546"><ele>357.0</ele><time>2021-07-29T04:41:18Z</time></trkpt>
<trkpt lat="33.00542" lon="35.21543"><ele>357.0</ele><time>2021-07-29T04:41:21Z</time></trkpt>
<trkpt lat="33.00534" lon="35.21549"><ele>356.0</ele><time>2021-07-29T04:41:24Z</time></trkpt>
<trkpt lat="33.00528" lon="35.21557"><ele>356.0</ele><time>2021-07-29T04:41:27Z</time></trkpt>
<trkpt lat="33.0052" lon="35.21561"><ele>356.0</ele><time>2021-07-29T04:41:33Z</time></trkpt>
<trkpt lat="33.00513" lon="35.21558"><ele>356.0</ele><time>2021-07-29T04:41:36Z</time></trkpt>
<trkpt lat="33.00508" lon="35.21551"><ele>356.0</ele><time>2021-07-29T04:41:40Z</time></trkpt>
<trkpt lat="33.00501" lon="35.21546"><ele>356.0</ele><time>2021-07-29T04:43:00Z</time></trkpt>
</trkseg></trk></gpx>