<?xml version="1.0" encoding="utf-8"?>
<gpx version="1.1"><trk><trkseg>
<trkpt lat="33.00506" lon="35.21555"><ele>348.0</ele><time>2021-08-01T03:49:08Z</time></trkpt>
<trkpt lat="33.00513" lon="35.21559"><ele>359.0</ele><time>2021-08-01T03:50:30Z</time></trkpt>
<trkpt lat="33.00521" lon="35.21555"><ele>359.0</ele><time>2021-08-01T03:50:37Z</time></trkpt>
<trkpt lat="33.00528" lon="35.21549"><ele>360.0</ele><time>2021-08-01T03:50:41Z</time></trkpt>
<trkpt lat="33.00534" lon="35.21544"><ele>360.0</ele><time>2021-08-01T03:50:44Z</time></trkpt>
<trkpt lat="33.00543" lon="35.21544"><ele>360.0</ele><time>2021-08-01T03:50:47Z</time></trkpt>
<trkpt lat="33.0055" lon="35.21545"><ele>360.0</ele><time>2021-08-01T03:50:51Z</time></trkpt>
<trkpt lat="33.00558" lon="35.21537"><ele>360.0</ele><time>2021-08-01T03:50:56Z</time></trkpt>
<trkpt lat="33.00561" lon="35.21528"><ele>360.0</ele><time>2021-08-01T03:50:58Z</time></trkpt>
<trkpt lat="33.00567" lon="35.21521"><ele>360.0</ele><time>2021-08-01T03:51:00Z</time></trkpt>
<trkpt lat="33.00573" lon="35.21513"><ele>359.0</ele><time>2021-08-01T03:51:02Z</time></trkpt>
<trkpt lat="33.00581" lon="35.21507"><ele>359.0</ele><time>2021-08-01T03:51:04Z</time></trkpt>
<trkpt lat="33.00589" lon="35.21502"><ele>359.0</ele><time>2021-08-01T03:51:06Z</time></trkpt>
<trkpt lat="33.00598" lon="35.21499"><ele>359.0</ele><time>2021-08-01T03:51:10Z</time></trkpt>
<trkpt lat="33.006" lon="35.21491"><ele>358.0</ele><time>2021-08-01T03:51:13Z</time></trkpt>
<trkpt lat="33.00598" lon="35.21482"><ele>358.0</ele><time>2021-08-01T03:51:15Z</time></trkpt>
<trkpt lat="33.00593" lon="35.21473"><ele>358.0</ele><time>2021-08-01T03:51:17Z</time></trkpt>
<trkpt lat="33.00588" lon="35.21463"><ele>357.0</ele><time>2021-08-01T03:51:19Z</time></trkpt>
<trkpt lat="33.00582" lon="35.21453"><ele>357.0</ele><time>2021-08-01T03:51:21Z</time></trkpt>
<trkpt lat="33.00576" lon="35.21444"><ele>356.0</ele><time>2021-08-01T03:51:23Z</time></trkpt>
<trkpt lat="33.00569" lon="35.21436"><ele>355.0</ele><time>2021-08-01T03:51:25Z</time></trkpt>
<trkpt lat="33.00563" lon="35.21428"><ele>355.0</ele><time>2021-08-01T03:51:27Z</time></trkpt>
<trkpt lat="33.00557" lon="35.21417"><ele>354.0</ele><time>2021-08-01T03:51:29Z</time></trkpt>
<trkpt lat="33.00551" lon="35.21406"><ele>353.0</ele><time>2021-08-01T03:51:31Z</time></trkpt>
<trkpt lat="33.00546" lon="35.21393"><ele>353.0</ele><time>2021-08-01T03:51:33Z</time></trkpt>
<trkpt lat="33.00549" lon="35.21377"><ele>352.0</ele><time>2021-08-01T03:51:35Z</time></trkpt>
<trkpt lat="33.00554" lon="35.21361"><ele>351.0</ele><time>2021-08-01T03:51:37Z</time></trkpt>
<trkpt lat="33.00557" lon="35.21352"><ele>350.0</ele><time>2021-08-01T03:51:38Z</time></trkpt>
<trkpt lat="33.00561" lon="35.21345"><ele>350.0</ele><time>2021-08-01T03:51:39Z</time></trkpt>
<trkpt lat="33.00568" lon="35.2133"><ele>349.0</ele><time>2021-08-01T03:51:41Z</time></trkpt>
<trkpt lat="33.00576" lon="35.21316"><ele>348.0</ele><time>2021-08-01T03:51:43Z</time></trkpt>
<trkpt lat="33.00584" lon="35.21303"><ele>348.0</ele><time>2021-08-01T03:51:45Z</time></trkpt>
<trkpt lat="33.0059" lon="35.21298"><ele>348.0</ele><time>2021-08-01T03:51:46Z</time></trkpt>
<trkpt lat="33.00594" lon="35.2129"><ele>348.0</ele><time>2021-08-01T03:51:47Z</time></trkpt>
<trkpt lat="33.00598" lon="35.21283"><ele>348.0</ele><time>2021-08-01T03:51:48Z</time></trkpt>
<trkpt lat="33.00603" lon="35.21276"><ele>347.0</ele><time>2021-08-01T03:51:49Z</time></trkpt>
<trkpt lat="33.00607" lon="35.21269"><ele>347.0</ele><time>2021-08-01T03:51:50Z</time></trkpt>
<trkpt lat="33.00612" lon="35.21262"><ele>347.0</ele><time>2021-08-01T03:51:51Z</time></trkpt>
<trkpt lat="33.00617" lon="35.21255"><ele>347.0</ele><time>2021-08-01T03:51:52Z</time></trkpt>
<trkpt lat="33.00622" lon="35.21248"><ele>347.0</ele><time>2021-08-01T03:51:53Z</time></trkpt>
<trkpt lat="33.00627" lon="35.21241"><ele>346.0</ele><time>2021-08-01T03:51:54Z</time></trkpt>
<trkpt lat="33.00632" lon="35.21234"><ele>346.0</ele><time>2021-08-01T03:51:55Z</time></trkpt>
<trkpt lat="33.00637" lon="35.21217"><ele>345.0</ele><time>2021-08-01T03:51:57Z</time></trkpt>
<trkpt lat="33.0064" lon="35.21209"><ele>345.0</ele><time>2021-08-01T03:51:58Z</time></trkpt>
<trkpt lat="33.00643" lon="35.21199"><ele>344.0</ele><time>2021-08-01T03:51:59Z</time></trkpt>
<trkpt lat="33.00646" lon="35.2119"><ele>344.0</ele><time>2021-08-01T03:52:00Z</time></trkpt>
<trkpt lat="33.00646" lon="35.2118"><ele>343.0</ele><time>2021-08-01T03:52:01Z</time></trkpt>
<trkpt lat="33.00648" lon="35.21172"><ele>343.0</ele><time>2021-08-01T03:52:02Z</time></trkpt>
<trkpt lat="33.00648" lon="35.21163"><ele>342.0</ele><time>2021-08-01T03:52:03Z</time></trkpt>
<trkpt lat="33.00649" lon="35.21154"><ele>342.0</ele><time>2021-08-01T03:52:04Z</time></trkpt>
<trkpt lat="33.0065" lon="35.21144"><ele>341.0</ele><time>2021-08-01T03:52:05Z</time></trkpt>
<trkpt lat="33.00652" lon="35.21135"><ele>341.0</ele><time>2021-08-01T03:52:06Z</time></trkpt>
<trkpt lat="33.00654" lon="35.21126"><ele>340.0</ele><time>2021-08-01T03:52:07Z</time></trkpt>
<trkpt lat="33.00655" lon="35.21116"><ele>340.0</ele><time>2021-08-01T03:52:08Z</time></trkpt>
<trkpt lat="33.00657" lon="35.21107"><ele>339.0</ele><time>2021-08-01T03:52:09Z</time></trkpt>
<trkpt lat="33.00657" lon="35.21096"><ele>339.0</ele><time>2021-08-01T03:52:10Z</time></trkpt>
<trkpt lat="33.00658" lon="35.21086"><ele>338.0</ele><time>2021-08-01T03:52:11Z</time></trkpt>
<trkpt lat="33.00658" lon="35.21075"><ele>337.0</ele><time>2021-08-01T03:52:12Z</time></trkpt>
<trkpt lat="33.00657" lon="35.21066"><ele>337.0</ele><time>2021-08-01T03:52:13Z</time></trkpt>
<trkpt lat="33.00658" lon="35.21055"><ele>337.0</ele><time>2021-08-01T03:52:14Z</time></trkpt>
<trkpt lat="33.00657" lon="35.21045"><ele>336.0</ele><time>2021-08-01T03:52:15Z</time></trkpt>
<trkpt lat="33.00657" lon="35.21035"><ele>336.0</ele><time>2021-08-01T03:52:16Z</time></trkpt>
<trkpt lat="33.00656" lon="35.2102"><ele>335.0</ele><time>2021-08-01T03:52:18Z</time></trkpt>
<trkpt lat="33.00654" lon="35.21008"><ele>334.0</ele><time>2021-08-01T03:52:20Z</time></trkpt>
<trkpt lat="33.00653" lon="35.20994"><ele>334.0</ele><time>2021-08-01T03:52:22Z</time></trkpt>
<trkpt lat="33.00651" lon="35.20983"><ele>333.0</ele><time>2021-08-01T03:52:24Z</time></trkpt>
<trkpt lat="33.0065" lon="35.2097"><ele>333.0</ele><time>2021-08-01T03:52:26Z</time></trkpt>
<trkpt lat="33.0065" lon="35.20956"><ele>332.0</ele><time>2021-08-01T03:52:28Z</time></trkpt>
<trkpt lat="33.00651" lon="35.20939"><ele>332.0</ele><time>2021-08-01T03:52:30Z</time></trkpt>
<trkpt lat="33.00651" lon="35.20922"><ele>331.0</ele><time>2021-08-01T03:52:32Z</time></trkpt>
<trkpt lat="33.00651" lon="35.20914"><ele>331.0</ele><time>2021-08-01T03:52:33Z</time></trkpt>
<trkpt lat="33.00651" lon="35.209"><ele>330.0</ele><time>2021-08-01T03:52:35Z</time></trkpt>
<trkpt lat="33.00653" lon="35.2089"><ele>329.0</ele><time>2021-08-01T03:52:37Z</time></trkpt>
<trkpt lat="33.00658" lon="35.2088"><ele>328.0</ele><time>2021-08-01T03:52:40Z</time></trkpt>
<trkpt lat="33.00659" lon="35.2087"><ele>327.0</ele><time>2021-08-01T03:52:42Z</time></trkpt>
<trkpt lat="33.00657" lon="35.20857"><ele>327.0</ele><time>2021-08-01T03:52:44Z</time></trkpt>
<trkpt lat="33.00652" lon="35.20843"><ele>326.0</ele><time>2021-08-01T03:52:46Z</time></trkpt>
<trkpt lat="33.00648" lon="35.20828"><ele>326.0</ele><time>2021-08-01T03:52:48Z</time></trkpt>
<trkpt lat="33.00646" lon="35.20811"><ele>325.0</ele><time>2021-08-01T03:52:50Z</time></trkpt>
<trkpt lat="33.00645" lon="35.20802"><ele>324.0</ele><time>2021-08-01T03:52:51Z</time></trkpt>
<trkpt lat="33.00646" lon="35.20793"><ele>324.0</ele><time>2021-08-01T03:52:52Z</time></trkpt>
<trkpt lat="33.00645" lon="35.20783"><ele>324.0</ele><time>2021-08-01T03:52:53Z</time></trkpt>
<trkpt lat="33.00644" lon="35.20773"><ele>323.0</ele><time>2021-08-01T03:52:54Z</time></trkpt>
<trkpt lat="33.00644" lon="35.20764"><ele>323.0</ele><time>2021-08-01T03:52:55Z</time></trkpt>
<trkpt lat="33.00643" lon="35.20755"><ele>322.0</ele><time>2021-08-01T03:52:56Z</time></trkpt>
<trkpt lat="33.00641" lon="35.20738"><ele>321.0</ele><time>2021-08-01T03:52:58Z</time></trkpt>
<trkpt lat="33.00639" lon="35.20728"><ele>320.0</ele><time>2021-08-01T03:52:59Z</time></trkpt>
<trkpt lat="33.00639" lon="35.20719"><ele>320.0</ele><time>2021-08-01T03:53:00Z</time></trkpt>
<trkpt lat="33.00638" lon="35.2071"><ele>319.0</ele><time>2021-08-01T03:53:01Z</time></trkpt>
<trkpt lat="33.00636" lon="35.20694"><ele>318.0</ele><time>2021-08-01T03:53:03Z</time></trkpt>
<trkpt lat="33.00634" lon="35.20678"><ele>317.0</ele><time>2021-08-01T03:53:05Z</time></trkpt>
<trkpt lat="33.00631" lon="35.20663"><ele>316.0</ele><time>2021-08-01T03:53:07Z</time></trkpt>
<trkpt lat="33.00629" lon="35.20654"><ele>316.0</ele><time>2021-08-01T03:53:08Z</time></trkpt>
<trkpt lat="33.00627" lon="35.20645"><ele>315.0</ele><time>2021-08-01T03:53:09Z</time></trkpt>
<trkpt lat="33.00628" lon="35.20636"><ele>315.0</ele><time>2021-08-01T03:53:10Z</time></trkpt>
<trkpt lat="33.00628" lon="35.20626"><ele>314.0</ele><time>2021-08-01T03:53:11Z</time></trkpt>
<trkpt lat="33.00628" lon="35.20617"><ele>314.0</ele><time>2021-08-01T03:53:12Z</time></trkpt>
<trkpt lat="33.00628" lon="35.20603"><ele>313.0</ele><time>2021-08-01T03:53:14Z</time></trkpt>
<trkpt lat="33.00626" lon="35.20591"><ele>312.0</ele><time>2021-08-01T03:53:16Z</time></trkpt>
<trkpt lat="33.00618" lon="35.20582"><ele>311.0</ele><time>2021-08-01T03:53:18Z</time></trkpt>
<trkpt lat="33.00607" lon="35.2058"><ele>311.0</ele><time>2021-08-01T03:53:20Z</time></trkpt>
<trkpt lat="33.00596" lon="35.20581"><ele>311.0</ele><time>2021-08-01T03:53:22Z</time></trkpt>
<trkpt lat="33.00585" lon="35.20584"><ele>311.0</ele><time>2021-08-01T03:53:24Z</time></trkpt>
<trkpt lat="33.00575" lon="35.2059"><ele>311.0</ele><time>2021-08-01T03:53:26Z</time></trkpt>
<trkpt lat="33.00565" lon="35.20598"><ele>311.0</ele><time>2021-08-01T03:53:28Z</time></trkpt>
<trkpt lat="33.00555" lon="35.20606"><ele>311.0</ele><time>2021-08-01T03:53:30Z</time></trkpt>
<trkpt lat="33.00546" lon="35.20616"><ele>310.0</ele><time>2021-08-01T03:53:32Z</time></trkpt>
<trkpt lat="33.00538" lon="35.20627"><ele>311.0</ele><time>2021-08-01T03:53:34Z</time></trkpt>
<trkpt lat="33.00531" lon="35.20637"><ele>311.0</ele><time>2021-08-01T03:53:36Z</time></trkpt>
<trkpt lat="33.00524" lon="35.20647"><ele>311.0</ele><time>2021-08-01T03:53:38Z</time></trkpt>
<trkpt lat="33.00515" lon="35.20656"><ele>311.0</ele><time>2021-08-01T03:53:40Z</time></trkpt>
<trkpt lat="33.00508" lon="35.20666"><ele>311.0</ele><time>2021-08-01T03:53:42Z</time></trkpt>
<trkpt lat="33.00501" lon="35.20676"><ele>312.0</ele><time>2021-08-01T03:53:44Z</time></trkpt>
<trkpt lat="33.00494" lon="35.20686"><ele>312.0</ele><time>2021-08-01T03:53:46Z</time></trkpt>
<trkpt lat="33.00487" lon="35.20697"><ele>312.0</ele><time>2021-08-01T03:53:48Z</time></trkpt>
<trkpt lat="33.00479" lon="35.20706"><ele>312.0</ele><time>2021-08-01T03:53:50Z</time></trkpt>
<trkpt lat="33.00471" lon="35.20714"><ele>313.0</ele><time>2021-08-01T03:53:52Z</time></trkpt>
<trkpt lat="33.00462" lon="35.20722"><ele>313.0</ele><time>2021-08-01T03:53:54Z</time></trkpt>
<trkpt lat="33.00453" lon="35.2073"><ele>313.0</ele><time>2021-08-01T03:53:56Z</time></trkpt>
<trkpt lat="33.00445" lon="35.20737"><ele>313.0</ele><time>2021-08-01T03:53:58Z</time></trkpt>
<trkpt lat="33.00436" lon="35.20745"><ele>313.0</ele><time>2021-08-01T03:54:00Z</time></trkpt>
<trkpt lat="33.00428" lon="35.20752"><ele>314.0</ele><time>2021-08-01T03:54:02Z</time></trkpt>
<trkpt lat="33.00419" lon="35.20759"><ele>314.0</ele><time>2021-08-01T03:54:04Z</time></trkpt>
<trkpt lat="33.0041" lon="35.20767"><ele>314.0</ele><time>2021-08-01T03:54:06Z</time></trkpt>
<trkpt lat="33.00401" lon="35.20774"><ele>314.0</ele><time>2021-08-01T03:54:08Z</time></trkpt>
<trkpt lat="33.00392" lon="35.20782"><ele>314.0</ele><time>2021-08-01T03:54:10Z</time></trkpt>
<trkpt lat="33.00384" lon="35.2079"><ele>313.0</ele><time>2021-08-01T03:54:12Z</time></trkpt>
<trkpt lat="33.00374" lon="35.20798"><ele>313.0</ele><time>2021-08-01T03:54:14Z</time></trkpt>
<trkpt lat="33.00364" lon="35.20806"><ele>313.0</ele><time>2021-08-01T03:54:16Z</time></trkpt>
<trkpt lat="33.00354" lon="35.20814"><ele>313.0</ele><time>2021-08-01T03:54:18Z</time></trkpt>
<trkpt lat="33.00343" lon="35.20823"><ele>312.0</ele><time>2021-08-01T03:54:20Z</time></trkpt>
<trkpt lat="33.00331" lon="35.2083"><ele>311.0</ele><time>2021-08-01T03:54:22Z</time></trkpt>
<trkpt lat="33.00325" lon="35.20834"><ele>311.0</ele><time>2021-08-01T03:54:23Z</time></trkpt>
<trkpt lat="33.00311" lon="35.2084"><ele>310.0</ele><time>2021-08-01T03:54:25Z</time></trkpt>
<trkpt lat="33.00303" lon="35.20843"><ele>309.0</ele><time>2021-08-01T03:54:26Z</time></trkpt>
<trkpt lat="33.00296" lon="35.20846"><ele>308.0</ele><time>2021-08-01T03:54:27Z</time></trkpt>
<trkpt lat="33.00289" lon="35.2085"><ele>308.0</ele><time>2021-08-01T03:54:28Z</time></trkpt>
<trkpt lat="33.00281" lon="35.20854"><ele>307.0</ele><time>2021-08-01T03:54:29Z</time></trkpt>
<trkpt lat="33.00273" lon="35.20858"><ele>307.0</ele><time>2021-08-01T03:54:30Z</time></trkpt>
<trkpt lat="33.00265" lon="35.20862"><ele>306.0</ele><time>2021-08-01T03:54:31Z</time></trkpt>
<trkpt lat="33.00258" lon="35.20865"><ele>305.0</ele><time>2021-08-01T03:54:32Z</time></trkpt>
<trkpt lat="33.0025" lon="35.20869"><ele>304.0</ele><time>2021-08-01T03:54:33Z</time></trkpt>
<trkpt lat="33.00241" lon="35.20872"><ele>303.0</ele><time>2021-08-01T03:54:34Z</time></trkpt>
<trkpt lat="33.00231" lon="35.20875"><ele>303.0</ele><time>2021-08-01T03:54:35Z</time></trkpt>
<trkpt lat="33.00222" lon="35.20879"><ele>302.0</ele><time>2021-08-01T03:54:36Z</time></trkpt>
<trkpt lat="33.00212" lon="35.20883"><ele>301.0</ele><time>2021-08-01T03:54:37Z</time></trkpt>
<trkpt lat="33.00203" lon="35.20888"><ele>300.0</ele><time>2021-08-01T03:54:38Z</time></trkpt>
<trkpt lat="33.00192" lon="35.20893"><ele>298.0</ele><time>2021-08-01T03:54:39Z</time></trkpt>
<trkpt lat="33.00182" lon="35.20898"><ele>297.0</ele><time>2021-08-01T03:54:40Z</time></trkpt>
<trkpt lat="33.00171" lon="35.20903"><ele>296.0</ele><time>2021-08-01T03:54:41Z</time></trkpt>
<trkpt lat="33.0016" lon="35.20908"><ele>295.0</ele><time>2021-08-01T03:54:42Z</time></trkpt>
<trkpt lat="33.00149" lon="35.20913"><ele>294.0</ele><time>2021-08-01T03:54:43Z</time></trkpt>
<trkpt lat="33.00137" lon="35.20919"><ele>293.0</ele><time>2021-08-01T03:54:44Z</time></trkpt>
<trkpt lat="33.00126" lon="35.20924"><ele>292.0</ele><time>2021-08-01T03:54:45Z</time></trkpt>
<trkpt lat="33.00114" lon="35.2093"><ele>291.0</ele><time>2021-08-01T03:54:46Z</time></trkpt>
<trkpt lat="33.00102" lon="35.20936"><ele>290.0</ele><time>2021-08-01T03:54:47Z</time></trkpt>
<trkpt lat="33.00092" lon="35.20941"><ele>289.0</ele><time>2021-08-01T03:54:48Z</time></trkpt>
<trkpt lat="33.00082" lon="35.20947"><ele>288.0</ele><time>2021-08-01T03:54:49Z</time></trkpt>
<trkpt lat="33.00073" lon="35.20955"><ele>287.0</ele><time>2021-08-01T03:54:50Z</time></trkpt>
<trkpt lat="33.00065" lon="35.20962"><ele>287.0</ele><time>2021-08-01T03:54:51Z</time></trkpt>
<trkpt lat="33.00059" lon="35.2097"><ele>287.0</ele><time>2021-08-01T03:54:52Z</time></trkpt>
<trkpt lat="33.00053" lon="35.20978"><ele>287.0</ele><time>2021-08-01T03:54:53Z</time></trkpt>
<trkpt lat="33.00047" lon="35.20991"><ele>288.0</ele><time>2021-08-01T03:54:55Z</time></trkpt>
<trkpt lat="33.0004" lon="35.21002"><ele>290.0</ele><time>2021-08-01T03:54:57Z</time></trkpt>
<trkpt lat="33.00036" lon="35.21011"><ele>291.0</ele><time>2021-08-01T03:54:59Z</time></trkpt>
<trkpt lat="33.00032" lon="35.21019"><ele>292.0</ele><time>2021-08-01T03:55:01Z</time></trkpt>
<trkpt lat="33.00028" lon="35.21026"><ele>292.0</ele><time>2021-08-01T03:55:03Z</time></trkpt>
<trkpt lat="33.00023" lon="35.21035"><ele>293.0</ele><time>2021-08-01T03:55:06Z</time></trkpt>
<trkpt lat="33.00019" lon="35.21043"><ele>294.0</ele><time>2021-08-01T03:55:09Z</time></trkpt>
<trkpt lat="33.00015" lon="35.21051"><ele>295.0</ele><time>2021-08-01T03:55:12Z</time></trkpt>
<trkpt lat="33.00011" lon="35.21059"><ele>296.0</ele><time>2021-08-01T03:55:15Z</time></trkpt>
<trkpt lat="33.00007" lon="35.21068"><ele>296.0</ele><time>2021-08-01T03:55:18Z</time></trkpt>
<trkpt lat="33.00003" lon="35.21076"><ele>297.0</ele><time>2021-08-01T03:55:21Z</time></trkpt>
<trkpt lat="32.99998" lon="35.21084"><ele>297.0</ele><time>2021-08-01T03:55:24Z</time></trkpt>
<trkpt lat="32.99994" lon="35.21091"><ele>298.0</ele><time>2021-08-01T03:55:27Z</time></trkpt>
<trkpt lat="32.99989" lon="35.211"><ele>299.0</ele><time>2021-08-01T03:55:31Z</time></trkpt>
<trkpt lat="32.99985" lon="35.21109"><ele>300.0</ele><time>2021-08-01T03:55:35Z</time></trkpt>
<trkpt lat="32.9998" lon="35.21118"><ele>300.0</ele><time>2021-08-01T03:55:39Z</time></trkpt>
<trkpt lat="32.99975" lon="35.21126"><ele>301.0</ele><time>2021-08-01T03:55:43Z</time></trkpt>
<trkpt lat="32.9997" lon="35.21135"><ele>302.0</ele><time>2021-08-01T03:55:47Z</time></trkpt>
<trkpt lat="32.99965" lon="35.21144"><ele>303.0</ele><time>2021-08-01T03:55:51Z</time></trkpt>
<trkpt lat="32.99961" lon="35.21152"><ele>303.0</ele><time>2021-08-01T03:55:55Z</time></trkpt>
<trkpt lat="32.99956" lon="35.2116"><ele>304.0</ele><time>2021-08-01T03:55:59Z</time></trkpt>
<trkpt lat="32.99951" lon="35.21168"><ele>305.0</ele><time>2021-08-01T03:56:03Z</time></trkpt>
<trkpt lat="32.99946" lon="35.21177"><ele>306.0</ele><time>2021-08-01T03:56:07Z</time></trkpt>
<trkpt lat="32.99941" lon="35.21186"><ele>307.0</ele><time>2021-08-01T03:56:11Z</time></trkpt>
<trkpt lat="32.99937" lon="35.21193"><ele>307.0</ele><time>2021-08-01T03:56:15Z</time></trkpt>
<trkpt lat="32.99933" lon="35.21201"><ele>308.0</ele><time>2021-08-01T03:56:19Z</time></trkpt>
<trkpt lat="32.99929" lon="35.21208"><ele>309.0</ele><time>2021-08-01T03:56:23Z</time></trkpt>
<trkpt lat="32.99925" lon="35.21216"><ele>310.0</ele><time>2021-08-01T03:56:28Z</time></trkpt>
<trkpt lat="32.9992" lon="35.21223"><ele>310.0</ele><time>2021-08-01T03:56:33Z</time></trkpt>
<trkpt lat="32.99916" lon="35.21231"><ele>310.0</ele><time>2021-08-01T03:56:39Z</time></trkpt>
<trkpt lat="32.99911" lon="35.2124"><ele>312.0</ele><time>2021-08-01T03:56:45Z</time></trkpt>
<trkpt lat="32.99907" lon="35.21249"><ele>312.0</ele><time>2021-08-01T03:56:50Z</time></trkpt>
<trkpt lat="32.99903" lon="35.21257"><ele>313.0</ele><time>2021-08-01T03:56:55Z</time></trkpt>
<trkpt lat="32.99899" lon="35.21265"><ele>314.0</ele><time>2021-08-01T03:57:00Z</time></trkpt>
<trkpt lat="32.99896" lon="35.21274"><ele>315.0</ele><time>2021-08-01T03:57:05Z</time></trkpt>
<trkpt lat="32.99889" lon="35.2128"><ele>316.0</ele><time>2021-08-01T03:57:10Z</time></trkpt>
<trkpt lat="32.99885" lon="35.21288"><ele>316.0</ele><time>2021-08-01T03:57:15Z</time></trkpt>
<trkpt lat="32.9988" lon="35.21297"><ele>317.0</ele><time>2021-08-01T03:57:20Z</time></trkpt>
<trkpt lat="32.99876" lon="35.21305"><ele>318.0</ele><time>2021-08-01T03:57:25Z</time></trkpt>
<trkpt lat="32.99871" lon="35.21313"><ele>319.0</ele><time>2021-08-01T03:57:30Z</time></trkpt>
<trkpt lat="32.99866" lon="35.21321"><ele>320.0</ele><time>2021-08-01T03:57:35Z</time></trkpt>
<trkpt lat="32.99863" lon="35.21329"><ele>321.0</ele><time>2021-08-01T03:57:39Z</time></trkpt>
<trkpt lat="32.99858" lon="35.21336"><ele>322.0</ele><time>2021-08-01T03:57:44Z</time></trkpt>
<trkpt lat="32.99854" lon="35.21344"><ele>323.0</ele><time>2021-08-01T03:57:50Z</time></trkpt>
<trkpt lat="32.9985" lon="35.21353"><ele>324.0</ele><time>2021-08-01T03:57:56Z</time></trkpt>
<trkpt lat="32.99846" lon="35.21362"><ele>325.0</ele><time>2021-08-01T03:58:02Z</time></trkpt>
<trkpt lat="32.99842" lon="35.21369"><ele>325.0</ele><time>2021-08-01T03:58:07Z</time></trkpt>
<trkpt lat="32.99838" lon="35.21377"><ele>326.0</ele><time>2021-08-01T03:58:12Z</time></trkpt>
<trkpt lat="32.99834" lon="35.21384"><ele>327.0</ele><time>2021-08-01T03:58:17Z</time></trkpt>
<trkpt lat="32.99828" lon="35.21391"><ele>328.0</ele><time>2021-08-01T03:58:22Z</time></trkpt>
<trkpt lat="32.99824" lon="35.21399"><ele>329.0</ele><time>2021-08-01T03:58:28Z</time></trkpt>
<trkpt lat="32.9982" lon="35.21407"><ele>329.0</ele><time>2021-08-01T03:58:33Z</time></trkpt>
<trkpt lat="32.99815" lon="35.21416"><ele>330.0</ele><time>2021-08-01T03:58:38Z</time></trkpt>
<trkpt lat="32.99812" lon="35.21424"><ele>331.0</ele><time>2021-08-01T03:58:43Z</time></trkpt>
<trkpt lat="32.99808" lon="35.21432"><ele>332.0</ele><time>2021-08-01T03:58:48Z</time></trkpt>
<trkpt lat="32.99804" lon="35.21441"><ele>332.0</ele><time>2021-08-01T03:58:53Z</time></trkpt>
<trkpt lat="32.998" lon="35.21449"><ele>333.0</ele><time>2021-08-01T03:58:58Z</time></trkpt>
<trkpt lat="32.99797" lon="35.21458"><ele>334.0</ele><time>2021-08-01T03:59:03Z</time></trkpt>
<trkpt lat="32.99794" lon="35.21467"><ele>335.0</ele><time>2021-08-01T03:59:08Z</time></trkpt>
<trkpt lat="32.99791" lon="35.21476"><ele>336.0</ele><time>2021-08-01T03:59:13Z</time></trkpt>
<trkpt lat="32.99789" lon="35.21485"><ele>336.0</ele><time>2021-08-01T03:59:18Z</time></trkpt>
<trkpt lat="32.99787" lon="35.21495"><ele>337.0</ele><time>2021-08-01T03:59:23Z</time></trkpt>
<trkpt lat="32.99785" lon="35.21505"><ele>338.0</ele><time>2021-08-01T03:59:28Z</time></trkpt>
<trkpt lat="32.99783" lon="35.21515"><ele>338.0</ele><time>2021-08-01T03:59:33Z</time></trkpt>
<trkpt lat="32.99782" lon="35.21525"><ele>339.0</ele><time>2021-08-01T03:59:38Z</time></trkpt>
<trkpt lat="32.99779" lon="35.21535"><ele>340.0</ele><time>2021-08-01T03:59:43Z</time></trkpt>
<trkpt lat="32.99778" lon="35.21543"><ele>340.0</ele><time>2021-08-01T03:59:47Z</time></trkpt>
<trkpt lat="32.99777" lon="35.21553"><ele>341.0</ele><time>2021-08-01T03:59:52Z</time></trkpt>
<trkpt lat="32.99775" lon="35.21563"><ele>341.0</ele><time>2021-08-01T03:59:57Z</time></trkpt>
<trkpt lat="32.99774" lon="35.21572"><ele>342.0</ele><time>2021-08-01T04:00:02Z</time></trkpt>
<trkpt lat="32.99773" lon="35.21581"><ele>343.0</ele><time>2021-08-01T04:00:06Z</time></trkpt>
<trkpt lat="32.99772" lon="35.2159"><ele>343.0</ele><time>2021-08-01T04:00:10Z</time></trkpt>
<trkpt lat="32.99769" lon="35.216"><ele>344.0</ele><time>2021-08-01T04:00:15Z</time></trkpt>
<trkpt lat="32.99767" lon="35.2161"><ele>344.0</ele><time>2021-08-01T04:00:20Z</time></trkpt>
<trkpt lat="32.99766" lon="35.21621"><ele>345.0</ele><time>2021-08-01T04:00:25Z</time></trkpt>
<trkpt lat="32.99764" lon="35.21629"><ele>345.0</ele><time>2021-08-01T04:00:29Z</time></trkpt>
<trkpt lat="32.99761" lon="35.21637"><ele>346.0</ele><time>2021-08-01T04:00:34Z</time></trkpt>
<trkpt lat="32.9976" lon="35.21647"><ele>346.0</ele><time>2021-08-01T04:00:38Z</time></trkpt>
<trkpt lat="32.99757" lon="35.21656"><ele>347.0</ele><time>2021-08-01T04:00:43Z</time></trkpt>
<trkpt lat="32.99754" lon="35.21665"><ele>347.0</ele><time>2021-08-01T04:00:47Z</time></trkpt>
<trkpt lat="32.99751" lon="35.21675"><ele>348.0</ele><time>2021-08-01T04:00:51Z</time></trkpt>
<trkpt lat="32.99747" lon="35.21683"><ele>348.0</ele><time>2021-08-01T04:00:55Z</time></trkpt>
<trkpt lat="32.99741" lon="35.21689"><ele>349.0</ele><time>2021-08-01T04:00:59Z</time></trkpt>
<trkpt lat="32.99736" lon="35.21698"><ele>350.0</ele><time>2021-08-01T04:01:04Z</time></trkpt>
<trkpt lat="32.99737" lon="35.21708"><ele>351.0</ele><time>2021-08-01T04:01:08Z</time></trkpt>
<trkpt lat="32.99744" lon="35.21714"><ele>351.0</ele><time>2021-08-01T04:01:12Z</time></trkpt>
<trkpt lat="32.99751" lon="35.21713"><ele>351.0</ele><time>2021-08-01T04:01:15Z</time></trkpt>
<trkpt lat="32.99755" lon="35.21704"><ele>351.0</ele><time>2021-08-01T04:01:18Z</time></trkpt>
<trkpt lat="32.99753" lon="35.21693"><ele>350.0</ele><time>2021-08-01T04:01:20Z</time></trkpt>
<trkpt lat="32.99753" lon="35.21682"><ele>350.0</ele><time>2021-08-01T04:01:22Z</time></trkpt>
<trkpt lat="32.99758" lon="35.2167"><ele>349.0</ele><time>2021-08-01T04:01:24Z</time></trkpt>
<trkpt lat="32.99761" lon="35.21658"><ele>348.0</ele><time>2021-08-01T04:01:26Z</time></trkpt>
<trkpt lat="32.99765" lon="35.21644"><ele>347.0</ele><time>2021-08-01T04:01:28Z</time></trkpt>
<trkpt lat="32.99767" lon="35.21628"><ele>347.0</ele><time>2021-08-01T04:01:30Z</time></trkpt>
<trkpt lat="32.9977" lon="35.21611"><ele>346.0</ele><time>2021-08-01T04:01:32Z</time></trkpt>
<trkpt lat="32.99772" lon="35.21602"><ele>346.0</ele><time>2021-08-01T04:01:33Z</time></trkpt>
<trkpt lat="32.99773" lon="35.21592"><ele>345.0</ele><time>2021-08-01T04:01:34Z</time></trkpt>
<trkpt lat="32.99775" lon="35.21582"><ele>345.0</ele><time>2021-08-01T04:01:35Z</time></trkpt>
<trkpt lat="32.99776" lon="35.21572"><ele>344.0</ele><time>2021-08-01T04:01:36Z</time></trkpt>
<trkpt lat="32.99778" lon="35.21562"><ele>344.0</ele><time>2021-08-01T04:01:37Z</time></trkpt>
<trkpt lat="32.9978" lon="35.21552"><ele>343.0</ele><time>2021-08-01T04:01:38Z</time></trkpt>
<trkpt lat="32.99782" lon="35.21541"><ele>342.0</ele><time>2021-08-01T04:01:39Z</time></trkpt>
<trkpt lat="32.99784" lon="35.2153"><ele>342.0</ele><time>2021-08-01T04:01:40Z</time></trkpt>
<trkpt lat="32.99785" lon="35.21519"><ele>341.0</ele><time>2021-08-01T04:01:41Z</time></trkpt>
<trkpt lat="32.99787" lon="35.21509"><ele>341.0</ele><time>2021-08-01T04:01:42Z</time></trkpt>
<trkpt lat="32.99789" lon="35.21498"><ele>340.0</ele><time>2021-08-01T04:01:43Z</time></trkpt>
<trkpt lat="32.99792" lon="35.21487"><ele>339.0</ele><time>2021-08-01T04:01:44Z</time></trkpt>
<trkpt lat="32.99794" lon="35.21476"><ele>338.0</ele><time>2021-08-01T04:01:45Z</time></trkpt>
<trkpt lat="32.99798" lon="35.21465"><ele>337.0</ele><time>2021-08-01T04:01:46Z</time></trkpt>
<trkpt lat="32.99802" lon="35.21454"><ele>336.0</ele><time>2021-08-01T04:01:47Z</time></trkpt>
<trkpt lat="32.99807" lon="35.21443"><ele>336.0</ele><time>2021-08-01T04:01:48Z</time></trkpt>
<trkpt lat="32.99815" lon="35.21434"><ele>335.0</ele><time>2021-08-01T04:01:49Z</time></trkpt>
<trkpt lat="32.99821" lon="35.21424"><ele>334.0</ele><time>2021-08-01T04:01:50Z</time></trkpt>
<trkpt lat="32.99827" lon="35.21413"><ele>333.0</ele><time>2021-08-01T04:01:51Z</time></trkpt>
<trkpt lat="32.99833" lon="35.21401"><ele>332.0</ele><time>2021-08-01T04:01:52Z</time></trkpt>
<trkpt lat="32.99839" lon="35.2139"><ele>331.0</ele><time>2021-08-01T04:01:53Z</time></trkpt>
<trkpt lat="32.99845" lon="35.21379"><ele>330.0</ele><time>2021-08-01T04:01:54Z</time></trkpt>
<trkpt lat="32.99851" lon="35.21368"><ele>329.0</ele><time>2021-08-01T04:01:55Z</time></trkpt>
<trkpt lat="32.99858" lon="35.21356"><ele>328.0</ele><time>2021-08-01T04:01:56Z</time></trkpt>
<trkpt lat="32.99865" lon="35.21344"><ele>326.0</ele><time>2021-08-01T04:01:57Z</time></trkpt>
<trkpt lat="32.99871" lon="35.21332"><ele>325.0</ele><time>2021-08-01T04:01:58Z</time></trkpt>
<trkpt lat="32.99878" lon="35.2132"><ele>324.0</ele><time>2021-08-01T04:01:59Z</time></trkpt>
<trkpt lat="32.99885" lon="35.21308"><ele>323.0</ele><time>2021-08-01T04:02:00Z</time></trkpt>
<trkpt lat="32.99892" lon="35.21296"><ele>321.0</ele><time>2021-08-01T04:02:01Z</time></trkpt>
<trkpt lat="32.99899" lon="35.21283"><ele>320.0</ele><time>2021-08-01T04:02:02Z</time></trkpt>
<trkpt lat="32.99906" lon="35.2127"><ele>318.0</ele><time>2021-08-01T04:02:03Z</time></trkpt>
<trkpt lat="32.99913" lon="35.21257"><ele>316.0</ele><time>2021-08-01T04:02:04Z</time></trkpt>
<trkpt lat="32.9992" lon="35.21244"><ele>314.0</ele><time>2021-08-01T04:02:05Z</time></trkpt>
<trkpt lat="32.99927" lon="35.21231"><ele>313.0</ele><time>2021-08-01T04:02:06Z</time></trkpt>
<trkpt lat="32.99935" lon="35.21218"><ele>312.0</ele><time>2021-08-01T04:02:07Z</time></trkpt>
<trkpt lat="32.99942" lon="35.21204"><ele>311.0</ele><time>2021-08-01T04:02:08Z</time></trkpt>
<trkpt lat="32.99949" lon="35.21191"><ele>310.0</ele><time>2021-08-01T04:02:09Z</time></trkpt>
<trkpt lat="32.99956" lon="35.21178"><ele>308.0</ele><time>2021-08-01T04:02:10Z</time></trkpt>
<trkpt lat="32.99963" lon="35.21165"><ele>307.0</ele><time>2021-08-01T04:02:11Z</time></trkpt>
<trkpt lat="32.99971" lon="35.21152"><ele>306.0</ele><time>2021-08-01T04:02:12Z</time></trkpt>
<trkpt lat="32.99978" lon="35.21139"><ele>305.0</ele><time>2021-08-01T04:02:13Z</time></trkpt>
<trkpt lat="32.99986" lon="35.21125"><ele>303.0</ele><time>2021-08-01T04:02:14Z</time></trkpt>
<trkpt lat="32.99994" lon="35.21111"><ele>302.0</ele><time>2021-08-01T04:02:15Z</time></trkpt>
<trkpt lat="33.00001" lon="35.21098"><ele>301.0</ele><time>2021-08-01T04:02:16Z</time></trkpt>
<trkpt lat="33.00009" lon="35.21084"><ele>300.0</ele><time>2021-08-01T04:02:17Z</time></trkpt>
<trkpt lat="33.00016" lon="35.2107"><ele>299.0</ele><time>2021-08-01T04:02:18Z</time></trkpt>
<trkpt lat="33.00023" lon="35.21057"><ele>298.0</ele><time>2021-08-01T04:02:19Z</time></trkpt>
<trkpt lat="33.0003" lon="35.21044"><ele>297.0</ele><time>2021-08-01T04:02:20Z</time></trkpt>
<trkpt lat="33.00036" lon="35.21031"><ele>296.0</ele><time>2021-08-01T04:02:21Z</time></trkpt>
<trkpt lat="33.00043" lon="35.21018"><ele>294.0</ele><time>2021-08-01T04:02:22Z</time></trkpt>
<trkpt lat="33.0005" lon="35.21006"><ele>293.0</ele><time>2021-08-01T04:02:23Z</time></trkpt>
<trkpt lat="33.00056" lon="35.20994"><ele>292.0</ele><time>2021-08-01T04:02:24Z</time></trkpt>
<trkpt lat="33.00063" lon="35.20982"><ele>291.0</ele><time>2021-08-01T04:02:25Z</time></trkpt>
<trkpt lat="33.00072" lon="35.20971"><ele>290.0</ele><time>2021-08-01T04:02:26Z</time></trkpt>
<trkpt lat="33.00082" lon="35.20961"><ele>289.0</ele><time>2021-08-01T04:02:27Z</time></trkpt>
<trkpt lat="33.00093" lon="35.20952"><ele>288.0</ele><time>2021-08-01T04:02:28Z</time></trkpt>
<trkpt lat="33.00104" lon="35.20945"><ele>287.0</ele><time>2021-08-01T04:02:29Z</time></trkpt>
<trkpt lat="33.00115" lon="35.20938"><ele>286.0</ele><time>2021-08-01T04:02:30Z</time></trkpt>
<trkpt lat="33.00125" lon="35.20933"><ele>286.0</ele><time>2021-08-01T04:02:31Z</time></trkpt>
<trkpt lat="33.00134" lon="35.2093"><ele>286.0</ele><time>2021-08-01T04:02:32Z</time></trkpt>
<trkpt lat="33.00143" lon="35.20927"><ele>286.0</ele><time>2021-08-01T04:02:33Z</time></trkpt>
<trkpt lat="33.0015" lon="35.20924"><ele>286.0</ele><time>2021-08-01T04:02:34Z</time></trkpt>
<trkpt lat="33.00162" lon="35.20918"><ele>287.0</ele><time>2021-08-01T04:02:36Z</time></trkpt>
<trkpt lat="33.00171" lon="35.20914"><ele>289.0</ele><time>2021-08-01T04:02:38Z</time></trkpt>
<trkpt lat="33.00178" lon="35.20911"><ele>291.0</ele><time>2021-08-01T04:02:41Z</time></trkpt>
<trkpt lat="33.00185" lon="35.20908"><ele>292.0</ele><time>2021-08-01T04:02:45Z</time></trkpt>
<trkpt lat="33.00191" lon="35.20904"><ele>293.0</ele><time>2021-08-01T04:02:49Z</time></trkpt>
<trkpt lat="33.00199" lon="35.20901"><ele>294.0</ele><time>2021-08-01T04:02:53Z</time></trkpt>
<trkpt lat="33.00206" lon="35.20897"><ele>295.0</ele><time>2021-08-01T04:02:57Z</time></trkpt>
<trkpt lat="33.00213" lon="35.20894"><ele>295.0</ele><time>2021-08-01T04:03:00Z</time></trkpt>
<trkpt lat="33.00221" lon="35.2089"><ele>296.0</ele><time>2021-08-01T04:03:04Z</time></trkpt>
<trkpt lat="33.00228" lon="35.20887"><ele>297.0</ele><time>2021-08-01T04:03:07Z</time></trkpt>
<trkpt lat="33.00236" lon="35.20883"><ele>298.0</ele><time>2021-08-01T04:03:11Z</time></trkpt>
<trkpt lat="33.00244" lon="35.2088"><ele>298.0</ele><time>2021-08-01T04:03:15Z</time></trkpt>
<trkpt lat="33.00251" lon="35.20877"><ele>300.0</ele><time>2021-08-01T04:03:19Z</time></trkpt>
<trkpt lat="33.0026" lon="35.20872"><ele>301.0</ele><time>2021-08-01T04:03:23Z</time></trkpt>
<trkpt lat="33.00268" lon="35.20869"><ele>302.0</ele><time>2021-08-01T04:03:27Z</time></trkpt>
<trkpt lat="33.00276" lon="35.20866"><ele>303.0</ele><time>2021-08-01T04:03:31Z</time></trkpt>
<trkpt lat="33.00283" lon="35.20861"><ele>304.0</ele><time>2021-08-01T04:03:36Z</time></trkpt>
<trkpt lat="33.0029" lon="35.20858"><ele>304.0</ele><time>2021-08-01T04:03:40Z</time></trkpt>
<trkpt lat="33.00297" lon="35.20855"><ele>305.0</ele><time>2021-08-01T04:03:44Z</time></trkpt>
<trkpt lat="33.00305" lon="35.20851"><ele>306.0</ele><time>2021-08-01T04:03:48Z</time></trkpt>
<trkpt lat="33.00312" lon="35.20848"><ele>307.0</ele><time>2021-08-01T04:03:52Z</time></trkpt>
<trkpt lat="33.0032" lon="35.20844"><ele>307.0</ele><time>2021-08-01T04:03:56Z</time></trkpt>
<trkpt lat="33.00327" lon="35.20841"><ele>308.0</ele><time>2021-08-01T04:04:00Z</time></trkpt>
<trkpt lat="33.00333" lon="35.20837"><ele>309.0</ele><time>2021-08-01T04:04:04Z</time></trkpt>
<trkpt lat="33.00341" lon="35.20832"><ele>309.0</ele><time>2021-08-01T04:04:09Z</time></trkpt>
<trkpt lat="33.00348" lon="35.20827"><ele>311.0</ele><time>2021-08-01T04:04:14Z</time></trkpt>
<trkpt lat="33.00355" lon="35.20822"><ele>312.0</ele><time>2021-08-01T04:04:19Z</time></trkpt>
<trkpt lat="33.00362" lon="35.20816"><ele>312.0</ele><time>2021-08-01T04:04:24Z</time></trkpt>
<trkpt lat="33.00368" lon="35.20811"><ele>312.0</ele><time>2021-08-01T04:04:28Z</time></trkpt>
<trkpt lat="33.00375" lon="35.20806"><ele>313.0</ele><time>2021-08-01T04:04:32Z</time></trkpt>
<trkpt lat="33.00381" lon="35.20801"><ele>313.0</ele><time>2021-08-01T04:04:36Z</time></trkpt>
<trkpt lat="33.00388" lon="35.20795"><ele>313.0</ele><time>2021-08-01T04:04:40Z</time></trkpt>
<trkpt lat="33.00395" lon="35.20789"><ele>314.0</ele><time>2021-08-01T04:04:44Z</time></trkpt>
<trkpt lat="33.00403" lon="35.20783"><ele>314.0</ele><time>2021-08-01T04:04:48Z</time></trkpt>
<trkpt lat="33.00409" lon="35.20778"><ele>314.0</ele><time>2021-08-01T04:04:51Z</time></trkpt>
<trkpt lat="33.00416" lon="35.20773"><ele>314.0</ele><time>2021-08-01T04:04:54Z</time></trkpt>
<trkpt lat="33.00422" lon="35.20767"><ele>314.0</ele><time>2021-08-01T04:04:57Z</time></trkpt>
<trkpt lat="33.00429" lon="35.20762"><ele>314.0</ele><time>2021-08-01T04:05:00Z</time></trkpt>
<trkpt lat="33.00436" lon="35.20756"><ele>314.0</ele><time>2021-08-01T04:05:03Z</time></trkpt>
<trkpt lat="33.00444" lon="35.2075"><ele>314.0</ele><time>2021-08-01T04:05:06Z</time></trkpt>
<trkpt lat="33.00452" lon="35.20743"><ele>314.0</ele><time>2021-08-01T04:05:09Z</time></trkpt>
<trkpt lat="33.00461" lon="35.20736"><ele>314.0</ele><time>2021-08-01T04:05:12Z</time></trkpt>
<trkpt lat="33.00468" lon="35.20731"><ele>314.0</ele><time>2021-08-01T04:05:14Z</time></trkpt>
<trkpt lat="33.00474" lon="35.20726"><ele>314.0</ele><time>2021-08-01T04:05:16Z</time></trkpt>
<trkpt lat="33.0048" lon="35.2072"><ele>314.0</ele><time>2021-08-01T04:05:18Z</time></trkpt>
<trkpt lat="33.00485" lon="35.20713"><ele>314.0</ele><time>2021-08-01T04:05:20Z</time></trkpt>
<trkpt lat="33.00491" lon="35.20706"><ele>313.0</ele><time>2021-08-01T04:05:22Z</time></trkpt>
<trkpt lat="33.00497" lon="35.20697"><ele>313.0</ele><time>2021-08-01T04:05:24Z</time></trkpt>
<trkpt lat="33.00504" lon="35.20688"><ele>313.0</ele><time>2021-08-01T04:05:26Z</time></trkpt>
<trkpt lat="33.0051" lon="35.20679"><ele>313.0</ele><time>2021-08-01T04:05:28Z</time></trkpt>
<trkpt lat="33.00517" lon="35.20669"><ele>312.0</ele><time>2021-08-01T04:05:30Z</time></trkpt>
<trkpt lat="33.00523" lon="35.20659"><ele>312.0</ele><time>2021-08-01T04:05:32Z</time></trkpt>
<trkpt lat="33.0053" lon="35.20649"><ele>312.0</ele><time>2021-08-01T04:05:34Z</time></trkpt>
<trkpt lat="33.00538" lon="35.20638"><ele>312.0</ele><time>2021-08-01T04:05:36Z</time></trkpt>
<trkpt lat="33.00545" lon="35.20627"><ele>311.0</ele><time>2021-08-01T04:05:38Z</time></trkpt>
<trkpt lat="33.00552" lon="35.20617"><ele>311.0</ele><time>2021-08-01T04:05:40Z</time></trkpt>
<trkpt lat="33.0056" lon="35.20608"><ele>311.0</ele><time>2021-08-01T04:05:42Z</time></trkpt>
<trkpt lat="33.0057" lon="35.206"><ele>311.0</ele><time>2021-08-01T04:05:44Z</time></trkpt>
<trkpt lat="33.00579" lon="35.20595"><ele>310.0</ele><time>2021-08-01T04:05:46Z</time></trkpt>
<trkpt lat="33.00589" lon="35.20591"><ele>310.0</ele><time>2021-08-01T04:05:48Z</time></trkpt>
<trkpt lat="33.00598" lon="35.20591"><ele>310.0</ele><time>2021-08-01T04:05:50Z</time></trkpt>
<trkpt lat="33.00606" lon="35.20591"><ele>311.0</ele><time>2021-08-01T04:05:52Z</time></trkpt>
<trkpt lat="33.00613" lon="35.20595"><ele>311.0</ele><time>2021-08-01T04:05:54Z</time></trkpt>
<trkpt lat="33.00617" lon="35.20606"><ele>311.0</ele><time>2021-08-01T04:05:57Z</time></trkpt>
<trkpt lat="33.00618" lon="35.20616"><ele>312.0</ele><time>2021-08-01T04:06:00Z</time></trkpt>
<trkpt lat="33.00618" lon="35.20626"><ele>312.0</ele><time>2021-08-01T04:06:03Z</time></trkpt>
<trkpt lat="33.00621" lon="35.20636"><ele>313.0</ele><time>2021-08-01T04:06:06Z</time></trkpt>
<trkpt lat="33.00622" lon="35.20646"><ele>313.0</ele><time>2021-08-01T04:06:09Z</time></trkpt>
<trkpt lat="33.00623" lon="35.20656"><ele>314.0</ele><time>2021-08-01T04:06:12Z</time></trkpt>
<trkpt lat="33.00624" lon="35.20666"><ele>314.0</ele><time>2021-08-01T04:06:15Z</time></trkpt>
<trkpt lat="33.00625" lon="35.20676"><ele>315.0</ele><time>2021-08-01T04:06:18Z</time></trkpt>
<trkpt lat="33.00626" lon="35.20685"><ele>316.0</ele><time>2021-08-01T04:06:21Z</time></trkpt>
<trkpt lat="33.00627" lon="35.20695"><ele>316.0</ele><time>2021-08-01T04:06:24Z</time></trkpt>
<trkpt lat="33.00628" lon="35.20705"><ele>317.0</ele><time>2021-08-01T04:06:27Z</time></trkpt>
<trkpt lat="33.00629" lon="35.20714"><ele>317.0</ele><time>2021-08-01T04:06:30Z</time></trkpt>
<trkpt lat="33.0063" lon="35.20725"><ele>318.0</ele><time>2021-08-01T04:06:33Z</time></trkpt>
<trkpt lat="33.00632" lon="35.20734"><ele>319.0</ele><time>2021-08-01T04:06:36Z</time></trkpt>
<trkpt lat="33.00632" lon="35.20744"><ele>319.0</ele><time>2021-08-01T04:06:39Z</time></trkpt>
<trkpt lat="33.00633" lon="35.20754"><ele>320.0</ele><time>2021-08-01T04:06:42Z</time></trkpt>
<trkpt lat="33.00635" lon="35.20764"><ele>320.0</ele><time>2021-08-01T04:06:45Z</time></trkpt>
<trkpt lat="33.00636" lon="35.20773"><ele>321.0</ele><time>2021-08-01T04:06:48Z</time></trkpt>
<trkpt lat="33.00637" lon="35.20781"><ele>322.0</ele><time>2021-08-01T04:06:51Z</time></trkpt>
<trkpt lat="33.00638" lon="35.20791"><ele>322.0</ele><time>2021-08-01T04:06:55Z</time></trkpt>
<trkpt lat="33.00639" lon="35.20802"><ele>323.0</ele><time>2021-08-01T04:06:59Z</time></trkpt>
<trkpt lat="33.0064" lon="35.20812"><ele>324.0</ele><time>2021-08-01T04:07:03Z</time></trkpt>
<trkpt lat="33.00641" lon="35.20822"><ele>324.0</ele><time>2021-08-01T04:07:07Z</time></trkpt>
<trkpt lat="33.00642" lon="35.20833"><ele>325.0</ele><time>2021-08-01T04:07:11Z</time></trkpt>
<trkpt lat="33.00643" lon="35.20843"><ele>325.0</ele><time>2021-08-01T04:07:15Z</time></trkpt>
<trkpt lat="33.00645" lon="35.20854"><ele>326.0</ele><time>2021-08-01T04:07:19Z</time></trkpt>
<trkpt lat="33.00646" lon="35.20864"><ele>326.0</ele><time>2021-08-01T04:07:23Z</time></trkpt>
<trkpt lat="33.00647" lon="35.20873"><ele>326.0</ele><time>2021-08-01T04:07:26Z</time></trkpt>
<trkpt lat="33.00649" lon="35.20882"><ele>327.0</ele><time>2021-08-01T04:07:29Z</time></trkpt>
<trkpt lat="33.0065" lon="35.20893"><ele>327.0</ele><time>2021-08-01T04:07:33Z</time></trkpt>
<trkpt lat="33.0065" lon="35.20902"><ele>328.0</ele><time>2021-08-01T04:07:36Z</time></trkpt>
<trkpt lat="33.0065" lon="35.20911"><ele>329.0</ele><time>2021-08-01T04:07:39Z</time></trkpt>
<trkpt lat="33.00651" lon="35.2092"><ele>329.0</ele><time>2021-08-01T04:07:42Z</time></trkpt>
<trkpt lat="33.00651" lon="35.20931"><ele>330.0</ele><time>2021-08-01T04:07:46Z</time></trkpt>
<trkpt lat="33.00651" lon="35.2094"><ele>330.0</ele><time>2021-08-01T04:07:50Z</time></trkpt>
<trkpt lat="33.00652" lon="35.2095"><ele>331.0</ele><time>2021-08-01T04:07:54Z</time></trkpt>
<trkpt lat="33.00651" lon="35.20958"><ele>331.0</ele><time>2021-08-01T04:07:58Z</time></trkpt>
<trkpt lat="33.00651" lon="35.20968"><ele>332.0</ele><time>2021-08-01T04:08:03Z</time></trkpt>
<trkpt lat="33.00651" lon="35.20978"><ele>332.0</ele><time>2021-08-01T04:08:07Z</time></trkpt>
<trkpt lat="33.00651" lon="35.20988"><ele>332.0</ele><time>2021-08-01T04:08:11Z</time></trkpt>
<trkpt lat="33.00652" lon="35.20999"><ele>333.0</ele><time>2021-08-01T04:08:15Z</time></trkpt>
<trkpt lat="33.00653" lon="35.21011"><ele>333.0</ele><time>2021-08-01T04:08:19Z</time></trkpt>
<trkpt lat="33.00654" lon="35.21019"><ele>333.0</ele><time>2021-08-01T04:08:22Z</time></trkpt>
<trkpt lat="33.00655" lon="35.21028"><ele>334.0</ele><time>2021-08-01T04:08:25Z</time></trkpt>
<trkpt lat="33.00654" lon="35.21037"><ele>334.0</ele><time>2021-08-01T04:08:28Z</time></trkpt>
<trkpt lat="33.00655" lon="35.21046"><ele>334.0</ele><time>2021-08-01T04:08:31Z</time></trkpt>
<trkpt lat="33.00655" lon="35.21055"><ele>335.0</ele><time>2021-08-01T04:08:34Z</time></trkpt>
<trkpt lat="33.00653" lon="35.21064"><ele>335.0</ele><time>2021-08-01T04:08:38Z</time></trkpt>
<trkpt lat="33.00654" lon="35.21074"><ele>336.0</ele><time>2021-08-01T04:08:42Z</time></trkpt>
<trkpt lat="33.00654" lon="35.21085"><ele>336.0</ele><time>2021-08-01T04:08:46Z</time></trkpt>
<trkpt lat="33.00653" lon="35.21096"><ele>337.0</ele><time>2021-08-01T04:08:50Z</time></trkpt>
<trkpt lat="33.00653" lon="35.21105"><ele>337.0</ele><time>2021-08-01T04:08:53Z</time></trkpt>
<trkpt lat="33.00652" lon="35.21114"><ele>337.0</ele><time>2021-08-01T04:08:56Z</time></trkpt>
<trkpt lat="33.00653" lon="35.21123"><ele>338.0</ele><time>2021-08-01T04:08:59Z</time></trkpt>
<trkpt lat="33.00652" lon="35.21131"><ele>338.0</ele><time>2021-08-01T04:09:02Z</time></trkpt>
<trkpt lat="33.0065" lon="35.2114"><ele>339.0</ele><time>2021-08-01T04:09:05Z</time></trkpt>
<trkpt lat="33.0065" lon="35.21149"><ele>340.0</ele><time>2021-08-01T04:09:08Z</time></trkpt>
<trkpt lat="33.00648" lon="35.2116"><ele>340.0</ele><time>2021-08-01T04:09:12Z</time></trkpt>
<trkpt lat="33.00647" lon="35.21171"><ele>341.0</ele><time>2021-08-01T04:09:16Z</time></trkpt>
<trkpt lat="33.00646" lon="35.21181"><ele>341.0</ele><time>2021-08-01T04:09:20Z</time></trkpt>
<trkpt lat="33.00645" lon="35.21191"><ele>342.0</ele><time>2021-08-01T04:09:24Z</time></trkpt>
<trkpt lat="33.00644" lon="35.212"><ele>342.0</ele><time>2021-08-01T04:09:27Z</time></trkpt>
<trkpt lat="33.00642" lon="35.21209"><ele>343.0</ele><time>2021-08-01T04:09:30Z</time></trkpt>
<trkpt lat="33.00639" lon="35.21217"><ele>343.0</ele><time>2021-08-01T04:09:33Z</time></trkpt>
<trkpt lat="33.00635" lon="35.21226"><ele>344.0</ele><time>2021-08-01T04:09:37Z</time></trkpt>
<trkpt lat="33.00631" lon="35.21234"><ele>345.0</ele><time>2021-08-01T04:09:42Z</time></trkpt>
<trkpt lat="33.00627" lon="35.21241"><ele>345.0</ele><time>2021-08-01T04:09:46Z</time></trkpt>
<trkpt lat="33.00621" lon="35.21248"><ele>346.0</ele><time>2021-08-01T04:09:50Z</time></trkpt>
<trkpt lat="33.00616" lon="35.21255"><ele>346.0</ele><time>2021-08-01T04:09:54Z</time></trkpt>
<trkpt lat="33.0061" lon="35.21263"><ele>346.0</ele><time>2021-08-01T04:09:58Z</time></trkpt>
<trkpt lat="33.00604" lon="35.21272"><ele>346.0</ele><time>2021-08-01T04:10:02Z</time></trkpt>
<trkpt lat="33.00598" lon="35.21281"><ele>347.0</ele><time>2021-08-01T04:10:06Z</time></trkpt>
<trkpt lat="33.00593" lon="35.21287"><ele>347.0</ele><time>2021-08-01T04:10:09Z</time></trkpt>
<trkpt lat="33.00589" lon="35.21294"><ele>347.0</ele><time>2021-08-01T04:10:12Z</time></trkpt>
<trkpt lat="33.00584" lon="35.21302"><ele>348.0</ele><time>2021-08-01T04:10:15Z</time></trkpt>
<trkpt lat="33.00579" lon="35.21309"><ele>348.0</ele><time>2021-08-01T04:10:18Z</time></trkpt>
<trkpt lat="33.00573" lon="35.21316"><ele>348.0</ele><time>2021-08-01T04:10:21Z</time></trkpt>
<trkpt lat="33.00568" lon="35.21323"><ele>348.0</ele><time>2021-08-01T04:10:24Z</time></trkpt>
<trkpt lat="33.00562" lon="35.2133"><ele>348.0</ele><time>2021-08-01T04:10:27Z</time></trkpt>
<trkpt lat="33.00556" lon="35.21338"><ele>349.0</ele><time>2021-08-01T04:10:30Z</time></trkpt>
<trkpt lat="33.00549" lon="35.21345"><ele>349.0</ele><time>2021-08-01T04:10:33Z</time></trkpt>
<trkpt lat="33.00541" lon="35.2135"><ele>349.0</ele><time>2021-08-01T04:10:36Z</time></trkpt>
<trkpt lat="33.00535" lon="35.21356"><ele>349.0</ele><time>2021-08-01T04:10:39Z</time></trkpt>
<trkpt lat="33.00531" lon="35.21364"><ele>350.0</ele><time>2021-08-01T04:10:42Z</time></trkpt>
<trkpt lat="33.00529" lon="35.21374"><ele>350.0</ele><time>2021-08-01T04:10:45Z</time></trkpt>
<trkpt lat="33.00533" lon="35.21383"><ele>350.0</ele><time>2021-08-01T04:10:48Z</time></trkpt>
<trkpt lat="33.00538" lon="35.2139"><ele>350.0</ele><time>2021-08-01T04:10:51Z</time></trkpt>
<trkpt lat="33.00546" lon="35.21398"><ele>351.0</ele><time>2021-08-01T04:10:55Z</time></trkpt>
<trkpt lat="33.00551" lon="35.21406"><ele>352.0</ele><time>2021-08-01T04:10:59Z</time></trkpt>
<trkpt lat="33.00556" lon="35.21413"><ele>352.0</ele><time>2021-08-01T04:11:02Z</time></trkpt>
<trkpt lat="33.00562" lon="35.21419"><ele>353.0</ele><time>2021-08-01T04:11:05Z</time></trkpt>
<trkpt lat="33.00568" lon="35.21426"><ele>353.0</ele><time>2021-08-01T04:11:08Z</time></trkpt>
<trkpt lat="33.00574" lon="35.21433"><ele>354.0</ele><time>2021-08-01T04:11:12Z</time></trkpt>
<trkpt lat="33.00578" lon="35.21444"><ele>355.0</ele><time>2021-08-01T04:11:16Z</time></trkpt>
<trkpt lat="33.00583" lon="35.2145"><ele>355.0</ele><time>2021-08-01T04:11:19Z</time></trkpt>
<trkpt lat="33.00588" lon="35.21457"><ele>355.0</ele><time>2021-08-01T04:11:22Z</time></trkpt>
<trkpt lat="33.0059" lon="35.21468"><ele>356.0</ele><time>2021-08-01T04:11:26Z</time></trkpt>
<trkpt lat="33.00595" lon="35.21475"><ele>356.0</ele><time>2021-08-01T04:11:30Z</time></trkpt>
<trkpt lat="33.00599" lon="35.21484"><ele>357.0</ele><time>2021-08-01T04:11:34Z</time></trkpt>
<trkpt lat="33.00597" lon="35.21495"><ele>357.0</ele><time>2021-08-01T04:11:38Z</time></trkpt>
<trkpt lat="33.00588" lon="35.21499"><ele>358.0</ele><time>2021-08-01T04:11:42Z</time></trkpt>
<trkpt lat="33.00581" lon="35.21504"><ele>358.0</ele><time>2021-08-01T04:11:45Z</time></trkpt>
<trkpt lat="33.00574" lon="35.2151"><ele>358.0</ele><time>2021-08-01T04:11:48Z</time></trkpt>
<trkpt lat="33.00567" lon="35.21515"><ele>359.0</ele><time>2021-08-01T04:11:51Z</time></trkpt>
<trkpt lat="33.00562" lon="35.21524"><ele>359.0</ele><time>2021-08-01T04:11:54Z</time></trkpt>
<trkpt lat="33.00559" lon="35.21532"><ele>359.0</ele><time>2021-08-01T04:11:57Z</time></trkpt>
<trkpt lat="33.00557" lon="35.21542"><ele>360.0</ele><time>2021-08-01T04:12:01Z</time></trkpt>
<trkpt lat="33.00548" lon="35.21544"><ele>360.0</ele><time>2021-08-01T04:12:07Z</time></trkpt>
<trkpt lat="33.00539" lon="35.21544"><ele>360.0</ele><time>2021-08-01T04:12:10Z</time></trkpt>
<trkpt lat="33.00532" lon="35.21547"><ele>360.0</ele><time>2021-08-01T04:12:13Z</time></trkpt>
<trkpt lat="33.00526" lon="35.21553"><ele>359.0</ele><time>2021-08-01T04:12:16Z</time></trkpt>
<trkpt lat="33.0052" lon="35.2156"><ele>359.0</ele><time>2021-08-01T04:12:20Z</time></trkpt>
<trkpt lat="33.00512" lon="35.21557"><ele>359.0</ele><time>2021-08-01T04:12:25Z</time></trkpt>
<trkpt lat="33.00505" lon="35.21553"><ele>359.0</ele><time>2021-08-01T04:12:28Z</time></trkpt>
<trkpt lat="33.00506" lon="35.21545"><ele>359.0</ele><time>2021-08-01T04:14:58Z</time></trkpt>
</trkseg></trk></gpx>