<?xml version="1.0" encoding="utf-8"?>
<gpx version="1.1"><trk><trkseg>
<trkpt lat="33.00501" lon="35.21551"><ele>348.0</ele><time>2022-05-07T03:51:22Z</time></trkpt>
<trkpt lat="33.00501" lon="35.21551"><ele>348.0</ele><time>2022-05-07T03:51:23Z</time></trkpt>
<trkpt lat="33.00501" lon="35.21551"><ele>348.0</ele><time>2022-05-07T03:51:24Z</time></trkpt>
<trkpt lat="33.00501" lon="35.21551"><ele>348.0</ele><time>2022-05-07T03:51:25Z</time></trkpt>
<trkpt lat="33.00509" lon="35.21558"><ele>348.0</ele><time>2022-05-07T03:51:26Z</time></trkpt>
<trkpt lat="33.0051" lon="35.21559"><ele>348.0</ele><time>2022-05-07T03:51:27Z</time></trkpt>
<trkpt lat="33.00511" lon="35.2156"><ele>349.0</ele><time>2022-05-07T03:51:28Z</time></trkpt>
<trkpt lat="33.00513" lon="35.2156"><ele>349.0</ele><time>2022-05-07T03:51:29Z</time></trkpt>
<trkpt lat="33.00514" lon="35.2156"><ele>349.0</ele><time>2022-05-07T03:51:30Z</time></trkpt>
<trkpt lat="33.00515" lon="35.21559"><ele>349.0</ele><time>2022-05-07T03:51:31Z</time></trkpt>
<trkpt lat="33.00516" lon="35.21558"><ele>349.0</ele><time>2022-05-07T03:51:32Z</time></trkpt>
<trkpt lat="33.00517" lon="35.21557"><ele>350.0</ele><time>2022-05-07T03:51:33Z</time></trkpt>
<trkpt lat="33.00517" lon="35.21556"><ele>350.0</ele><time>2022-05-07T03:51:34Z</time></trkpt>
</trkseg></trk></gpx>