<?xml version="1.0" encoding="utf-8"?>
<gpx version="1.1"><trk><trkseg>
<trkpt lat="33.0651166" lon="35.1606964"><ele>93.8</ele><time>2022-11-23T11:09:57Z</time></trkpt>
<trkpt lat="33.0649183" lon="35.1605996"><ele>95.2</ele><time>2022-11-23T11:10:07Z</time></trkpt>
<trkpt lat="33.0648636" lon="35.1608103"><ele>95.5</ele><time>2022-11-23T11:13:44Z</time></trkpt>
<trkpt lat="33.0648152" lon="35.1610285"><ele>96.0</ele><time>2022-11-23T11:14:49Z</time></trkpt>
<trkpt lat="33.0648584" lon="35.1612574"><ele>95.4</ele><time>2022-11-23T11:14:58Z</time></trkpt>
<trkpt lat="33.064788" lon="35.1614558"><ele>96.2</ele><time>2022-11-23T11:15:09Z</time></trkpt>
<trkpt lat="33.0648103" lon="35.1616836"><ele>96.0</ele><time>2022-11-23T11:15:21Z</time></trkpt>
<trkpt lat="33.0648542" lon="35.1619119"><ele>95.5</ele><time>2022-11-23T11:15:29Z</time></trkpt>
<trkpt lat="33.0648267" lon="35.1621384"><ele>96.1</ele><time>2022-11-23T11:15:36Z</time></trkpt>
<trkpt lat="33.0648114" lon="35.1623555"><ele>96.7</ele><time>2022-11-23T11:15:46Z</time></trkpt>
<trkpt lat="33.0648311" lon="35.1625799"><ele>96.3</ele><time>2022-11-23T11:15:52Z</time></trkpt>
<trkpt lat="33.0647556" lon="35.162781"><ele>97.5</ele><time>2022-11-23T11:16:01Z</time></trkpt>
<trkpt lat="33.0647283" lon="35.1630042"><ele>97.7</ele><time>2022-11-23T11:16:09Z</time></trkpt>
<trkpt lat="33.0647602" lon="35.1632323"><ele>96.8</ele><time>2022-11-23T11:16:16Z</time></trkpt>
<trkpt lat="33.0645741" lon="35.1631682"><ele>100.8</ele><time>2022-11-23T11:16:35Z</time></trkpt>
<trkpt lat="33.0645924" lon="35.1629519"><ele>100.8</ele><time>2022-11-23T11:16:42Z</time></trkpt>
<trkpt lat="33.0645636" lon="35.1627235"><ele>101.6</ele><time>2022-11-23T11:16:48Z</time></trkpt>
<trkpt lat="33.0645331" lon="35.162503"><ele>102.5</ele><time>2022-11-23T11:16:56Z</time></trkpt>
<trkpt lat="33.0644967" lon="35.1622782"><ele>102.6</ele><time>2022-11-23T11:17:07Z</time></trkpt>
<trkpt lat="33.0644586" lon="35.162048"><ele>102.6</ele><time>2022-11-23T11:17:17Z</time></trkpt>
<trkpt lat="33.0643455" lon="35.1622371"><ele>105.3</ele><time>2022-11-23T11:17:31Z</time></trkpt>
<trkpt lat="33.0643036" lon="35.1624683"><ele>107.1</ele><time>2022-11-23T11:17:42Z</time></trkpt>
<trkpt lat="33.0643355" lon="35.1626873"><ele>106.5</ele><time>2022-11-23T11:17:49Z</time></trkpt>
<trkpt lat="33.0643092" lon="35.1629213"><ele>106.9</ele><time>2022-11-23T11:17:59Z</time></trkpt>
<trkpt lat="33.0642068" lon="35.163107"><ele>109.0</ele><time>2022-11-23T11:18:07Z</time></trkpt>
<trkpt lat="33.0641003" lon="35.1629073"><ele>110.8</ele><time>2022-11-23T11:18:25Z</time></trkpt>
<trkpt lat="33.0639985" lon="35.1627117"><ele>112.1</ele><time>2022-11-23T11:18:37Z</time></trkpt>
<trkpt lat="33.0639428" lon="35.1624721"><ele>112.8</ele><time>2022-11-23T11:18:45Z</time></trkpt>
<trkpt lat="33.0639009" lon="35.1622485"><ele>112.2</ele><time>2022-11-23T11:18:54Z</time></trkpt>
<trkpt lat="33.0637242" lon="35.1623226"><ele>114.8</ele><time>2022-11-23T11:19:07Z</time></trkpt>
<trkpt lat="33.0637591" lon="35.1625497"><ele>115.4</ele><time>2022-11-23T11:19:18Z</time></trkpt>
<trkpt lat="33.0637207" lon="35.1627866"><ele>115.7</ele><time>2022-11-23T11:19:27Z</time></trkpt>
<trkpt lat="33.0636663" lon="35.1630133"><ele>116.2</ele><time>2022-11-23T11:19:36Z</time></trkpt>
<trkpt lat="33.0635981" lon="35.1632178"><ele>116.8</ele><time>2022-11-23T11:19:44Z</time></trkpt>
<trkpt lat="33.0634204" lon="35.1633027"><ele>118.9</ele><time>2022-11-23T11:19:51Z</time></trkpt>
<trkpt lat="33.0632181" lon="35.1633795"><ele>118.7</ele><time>2022-11-23T11:19:57Z</time></trkpt>
<trkpt lat="33.0630317" lon="35.1634844"><ele>116.1</ele><time>2022-11-23T11:20:03Z</time></trkpt>
<trkpt lat="33.0631328" lon="35.1636913"><ele>114.5</ele><time>2022-11-23T11:20:09Z</time></trkpt>
<trkpt lat="33.0632964" lon="35.1638126"><ele>114.1</ele><time>2022-11-23T11:20:14Z</time></trkpt>
<trkpt lat="33.0634804" lon="35.1638235"><ele>112.6</ele><time>2022-11-23T11:20:19Z</time></trkpt>
<trkpt lat="33.0633681" lon="35.1640051"><ele>111.6</ele><time>2022-11-23T11:20:32Z</time></trkpt>
<trkpt lat="33.0631814" lon="35.1640929"><ele>110.4</ele><time>2022-11-23T11:20:39Z</time></trkpt>
<trkpt lat="33.0630005" lon="35.1641088"><ele>109.5</ele><time>2022-11-23T11:20:45Z</time></trkpt>
<trkpt lat="33.0627814" lon="35.164085"><ele>108.8</ele><time>2022-11-23T11:20:50Z</time></trkpt>
<trkpt lat="33.0626246" lon="35.1639566"><ele>109.1</ele><time>2022-11-23T11:20:54Z</time></trkpt>
<trkpt lat="33.0624396" lon="35.1638693"><ele>108.6</ele><time>2022-11-23T11:20:59Z</time></trkpt>
<trkpt lat="33.0622942" lon="35.1637191"><ele>107.8</ele><time>2022-11-23T11:21:03Z</time></trkpt>
<trkpt lat="33.0620873" lon="35.163644"><ele>105.9</ele><time>2022-11-23T11:21:08Z</time></trkpt>
<trkpt lat="33.0618928" lon="35.1635896"><ele>103.7</ele><time>2022-11-23T11:21:14Z</time></trkpt>
<trkpt lat="33.0617141" lon="35.16362"><ele>101.4</ele><time>2022-11-23T11:21:33Z</time></trkpt>
<trkpt lat="33.0615297" lon="35.163703"><ele>100.2</ele><time>2022-11-23T11:21:39Z</time></trkpt>
<trkpt lat="33.061341" lon="35.163679"><ele>100.0</ele><time>2022-11-23T11:23:31Z</time></trkpt>
<trkpt lat="33.0611962" lon="35.1635432"><ele>100.3</ele><time>2022-11-23T11:23:37Z</time></trkpt>
<trkpt lat="33.0610777" lon="35.1633564"><ele>100.5</ele><time>2022-11-23T11:23:42Z</time></trkpt>
<trkpt lat="33.0609963" lon="35.1631434"><ele>99.6</ele><time>2022-11-23T11:24:14Z</time></trkpt>
<trkpt lat="33.0609161" lon="35.1628964"><ele>97.8</ele><time>2022-11-23T11:24:22Z</time></trkpt>
<trkpt lat="33.0607988" lon="35.1626891"><ele>95.9</ele><time>2022-11-23T11:24:26Z</time></trkpt>
<trkpt lat="33.0606803" lon="35.1624897"><ele>96.3</ele><time>2022-11-23T11:24:30Z</time></trkpt>
<trkpt lat="33.0605537" lon="35.1623056"><ele>97.3</ele><time>2022-11-23T11:24:34Z</time></trkpt>
<trkpt lat="33.0604458" lon="35.1620913"><ele>97.3</ele><time>2022-11-23T11:24:39Z</time></trkpt>
<trkpt lat="33.0603349" lon="35.1618873"><ele>96.6</ele><time>2022-11-23T11:24:44Z</time></trkpt>
<trkpt lat="33.0602289" lon="35.1616749"><ele>95.0</ele><time>2022-11-23T11:24:50Z</time></trkpt>
<trkpt lat="33.0601491" lon="35.1614791"><ele>93.8</ele><time>2022-11-23T11:24:56Z</time></trkpt>
<trkpt lat="33.0600584" lon="35.1612499"><ele>92.3</ele><time>2022-11-23T11:25:03Z</time></trkpt>
<trkpt lat="33.0600333" lon="35.161001"><ele>90.6</ele><time>2022-11-23T11:25:07Z</time></trkpt>
<trkpt lat="33.0599785" lon="35.1607291"><ele>88.9</ele><time>2022-11-23T11:25:11Z</time></trkpt>
<trkpt lat="33.059887" lon="35.1604708"><ele>88.8</ele><time>2022-11-23T11:25:15Z</time></trkpt>
<trkpt lat="33.059829" lon="35.1602614"><ele>88.4</ele><time>2022-11-23T11:25:18Z</time></trkpt>
<trkpt lat="33.0597596" lon="35.160039"><ele>87.7</ele><time>2022-11-23T11:25:22Z</time></trkpt>
<trkpt lat="33.0597053" lon="35.1597653"><ele>86.1</ele><time>2022-11-23T11:25:26Z</time></trkpt>
<trkpt lat="33.0596229" lon="35.1595289"><ele>84.3</ele><time>2022-11-23T11:25:30Z</time></trkpt>
<trkpt lat="33.0594998" lon="35.159336"><ele>82.4</ele><time>2022-11-23T11:25:34Z</time></trkpt>
<trkpt lat="33.0593896" lon="35.1591636"><ele>80.1</ele><time>2022-11-23T11:25:38Z</time></trkpt>
<trkpt lat="33.0593032" lon="35.1589255"><ele>78.3</ele><time>2022-11-23T11:25:44Z</time></trkpt>
<trkpt lat="33.0592328" lon="35.1586873"><ele>76.6</ele><time>2022-11-23T11:25:49Z</time></trkpt>
<trkpt lat="33.0592328" lon="35.1584672"><ele>75.3</ele><time>2022-11-23T11:25:53Z</time></trkpt>
<trkpt lat="33.0592642" lon="35.158254"><ele>74.6</ele><time>2022-11-23T11:25:57Z</time></trkpt>
<trkpt lat="33.0592275" lon="35.1580291"><ele>74.3</ele><time>2022-11-23T11:26:02Z</time></trkpt>
<trkpt lat="33.0592385" lon="35.1578138"><ele>74.3</ele><time>2022-11-23T11:26:07Z</time></trkpt>
<trkpt lat="33.0593102" lon="35.1575718"><ele>74.4</ele><time>2022-11-23T11:26:13Z</time></trkpt>
<trkpt lat="33.0594442" lon="35.1573717"><ele>74.1</ele><time>2022-11-23T11:26:18Z</time></trkpt>
<trkpt lat="33.0594881" lon="35.1571435"><ele>73.0</ele><time>2022-11-23T11:26:22Z</time></trkpt>
<trkpt lat="33.059431" lon="35.156893"><ele>71.7</ele><time>2022-11-23T11:26:26Z</time></trkpt>
<trkpt lat="33.0592644" lon="35.1567267"><ele>70.5</ele><time>2022-11-23T11:26:30Z</time></trkpt>
<trkpt lat="33.059067" lon="35.1566425"><ele>70.0</ele><time>2022-11-23T11:26:34Z</time></trkpt>
<trkpt lat="33.0589011" lon="35.1565349"><ele>69.6</ele><time>2022-11-23T11:26:38Z</time></trkpt>
<trkpt lat="33.0587341" lon="35.1563863"><ele>69.0</ele><time>2022-11-23T11:26:43Z</time></trkpt>
<trkpt lat="33.0585505" lon="35.1562976"><ele>68.8</ele><time>2022-11-23T11:26:48Z</time></trkpt>
<trkpt lat="33.058355" lon="35.1563454"><ele>69.4</ele><time>2022-11-23T11:26:54Z</time></trkpt>
<trkpt lat="33.0581943" lon="35.1564678"><ele>69.3</ele><time>2022-11-23T11:26:59Z</time></trkpt>
<trkpt lat="33.0580642" lon="35.1566621"><ele>69.3</ele><time>2022-11-23T11:27:04Z</time></trkpt>
<trkpt lat="33.0578895" lon="35.1568087"><ele>68.5</ele><time>2022-11-23T11:27:10Z</time></trkpt>
<trkpt lat="33.0577367" lon="35.1569726"><ele>67.7</ele><time>2022-11-23T11:27:16Z</time></trkpt>
<trkpt lat="33.0575767" lon="35.1571124"><ele>67.0</ele><time>2022-11-23T11:27:22Z</time></trkpt>
<trkpt lat="33.0574145" lon="35.1572812"><ele>67.1</ele><time>2022-11-23T11:27:26Z</time></trkpt>
<trkpt lat="33.0572413" lon="35.157381"><ele>68.2</ele><time>2022-11-23T11:27:31Z</time></trkpt>
<trkpt lat="33.0570648" lon="35.1572614"><ele>68.8</ele><time>2022-11-23T11:27:37Z</time></trkpt>
<trkpt lat="33.0568882" lon="35.1571455"><ele>69.3</ele><time>2022-11-23T11:27:42Z</time></trkpt>
<trkpt lat="33.0566962" lon="35.157117"><ele>70.0</ele><time>2022-11-23T11:27:49Z</time></trkpt>
<trkpt lat="33.0565155" lon="35.1571303"><ele>71.5</ele><time>2022-11-23T11:27:57Z</time></trkpt>
<trkpt lat="33.0563201" lon="35.1570903"><ele>73.1</ele><time>2022-11-23T11:28:07Z</time></trkpt>
<trkpt lat="33.0561678" lon="35.1569488"><ele>73.9</ele><time>2022-11-23T11:28:15Z</time></trkpt>
<trkpt lat="33.0561685" lon="35.1566954"><ele>73.0</ele><time>2022-11-23T11:28:21Z</time></trkpt>
<trkpt lat="33.0559724" lon="35.1566912"><ele>74.7</ele><time>2022-11-23T11:28:32Z</time></trkpt>
<trkpt lat="33.0558697" lon="35.1564778"><ele>75.6</ele><time>2022-11-23T11:28:40Z</time></trkpt>
<trkpt lat="33.0558311" lon="35.1562577"><ele>76.0</ele><time>2022-11-23T11:28:45Z</time></trkpt>
<trkpt lat="33.0558394" lon="35.156008"><ele>75.9</ele><time>2022-11-23T11:28:50Z</time></trkpt>
<trkpt lat="33.0558096" lon="35.1557921"><ele>75.8</ele><time>2022-11-23T11:28:54Z</time></trkpt>
<trkpt lat="33.0557483" lon="35.1555871"><ele>74.4</ele><time>2022-11-23T11:28:58Z</time></trkpt>
<trkpt lat="33.0556024" lon="35.155713"><ele>74.4</ele><time>2022-11-23T11:29:08Z</time></trkpt>
<trkpt lat="33.0556097" lon="35.1559288"><ele>75.3</ele><time>2022-11-23T11:29:14Z</time></trkpt>
<trkpt lat="33.0556428" lon="35.1561449"><ele>75.6</ele><time>2022-11-23T11:29:21Z</time></trkpt>
<trkpt lat="33.0554865" lon="35.156286"><ele>75.4</ele><time>2022-11-23T11:29:28Z</time></trkpt>
<trkpt lat="33.0554219" lon="35.1564964"><ele>75.7</ele><time>2022-11-23T11:29:35Z</time></trkpt>
<trkpt lat="33.0552898" lon="35.1566433"><ele>75.9</ele><time>2022-11-23T11:29:42Z</time></trkpt>
<trkpt lat="33.055248" lon="35.1568594"><ele>76.7</ele><time>2022-11-23T11:29:50Z</time></trkpt>
<trkpt lat="33.0551035" lon="35.1570113"><ele>77.2</ele><time>2022-11-23T11:29:57Z</time></trkpt>
<trkpt lat="33.055091" lon="35.1572415"><ele>78.0</ele><time>2022-11-23T11:30:04Z</time></trkpt>
<trkpt lat="33.0551915" lon="35.1574448"><ele>78.8</ele><time>2022-11-23T11:30:12Z</time></trkpt>
<trkpt lat="33.0553089" lon="35.1576271"><ele>79.8</ele><time>2022-11-23T11:30:20Z</time></trkpt>
<trkpt lat="33.0553737" lon="35.1578278"><ele>81.2</ele><time>2022-11-23T11:30:27Z</time></trkpt>
<trkpt lat="33.0553422" lon="35.1580498"><ele>82.7</ele><time>2022-11-23T11:30:33Z</time></trkpt>
<trkpt lat="33.0553768" lon="35.1582837"><ele>84.5</ele><time>2022-11-23T11:30:40Z</time></trkpt>
<trkpt lat="33.0553463" lon="35.1585113"><ele>85.0</ele><time>2022-11-23T11:30:46Z</time></trkpt>
<trkpt lat="33.0553539" lon="35.1587468"><ele>85.2</ele><time>2022-11-23T11:30:52Z</time></trkpt>
<trkpt lat="33.0555096" lon="35.1589063"><ele>86.1</ele><time>2022-11-23T11:30:58Z</time></trkpt>
<trkpt lat="33.0556205" lon="35.1590783"><ele>87.2</ele><time>2022-11-23T11:31:04Z</time></trkpt>
<trkpt lat="33.055756" lon="35.159235"><ele>88.2</ele><time>2022-11-23T11:31:10Z</time></trkpt>
<trkpt lat="33.0558824" lon="35.1594088"><ele>88.7</ele><time>2022-11-23T11:31:17Z</time></trkpt>
<trkpt lat="33.0558593" lon="35.1596624"><ele>88.1</ele><time>2022-11-23T11:31:24Z</time></trkpt>
<trkpt lat="33.0558935" lon="35.1598931"><ele>87.7</ele><time>2022-11-23T11:31:29Z</time></trkpt>
<trkpt lat="33.0560987" lon="35.1599581"><ele>89.2</ele><time>2022-11-23T11:31:35Z</time></trkpt>
<trkpt lat="33.056249" lon="35.1601388"><ele>90.0</ele><time>2022-11-23T11:31:41Z</time></trkpt>
<trkpt lat="33.0563824" lon="35.1603158"><ele>90.8</ele><time>2022-11-23T11:31:47Z</time></trkpt>
<trkpt lat="33.0565197" lon="35.160482"><ele>91.8</ele><time>2022-11-23T11:31:54Z</time></trkpt>
<trkpt lat="33.0567008" lon="35.1605953"><ele>93.5</ele><time>2022-11-23T11:32:04Z</time></trkpt>
<trkpt lat="33.0568371" lon="35.1604179"><ele>95.2</ele><time>2022-11-23T11:32:14Z</time></trkpt>
<trkpt lat="33.0570173" lon="35.1604171"><ele>97.0</ele><time>2022-11-23T11:32:23Z</time></trkpt>
<trkpt lat="33.0571769" lon="35.1602912"><ele>98.3</ele><time>2022-11-23T11:32:32Z</time></trkpt>
<trkpt lat="33.0573339" lon="35.1601765"><ele>99.4</ele><time>2022-11-23T11:32:40Z</time></trkpt>
<trkpt lat="33.0575114" lon="35.160086"><ele>100.3</ele><time>2022-11-23T11:32:47Z</time></trkpt>
<trkpt lat="33.0576111" lon="35.1602698"><ele>101.1</ele><time>2022-11-23T11:33:00Z</time></trkpt>
<trkpt lat="33.0576732" lon="35.1604855"><ele>102.6</ele><time>2022-11-23T11:33:11Z</time></trkpt>
<trkpt lat="33.057576" lon="35.1606926"><ele>103.7</ele><time>2022-11-23T11:33:21Z</time></trkpt>
<trkpt lat="33.0575577" lon="35.1609079"><ele>104.7</ele><time>2022-11-23T11:33:28Z</time></trkpt>
<trkpt lat="33.0576692" lon="35.1610895"><ele>106.5</ele><time>2022-11-23T11:33:40Z</time></trkpt>
<trkpt lat="33.0578555" lon="35.161153"><ele>108.3</ele><time>2022-11-23T11:33:52Z</time></trkpt>
<trkpt lat="33.0580455" lon="35.1611537"><ele>109.9</ele><time>2022-11-23T11:34:04Z</time></trkpt>
<trkpt lat="33.0581616" lon="35.1613322"><ele>112.0</ele><time>2022-11-23T11:34:16Z</time></trkpt>
<trkpt lat="33.0581492" lon="35.1615517"><ele>113.4</ele><time>2022-11-23T11:34:27Z</time></trkpt>
<trkpt lat="33.0582275" lon="35.1617486"><ele>114.8</ele><time>2022-11-23T11:34:39Z</time></trkpt>
<trkpt lat="33.0581046" lon="35.1619161"><ele>113.0</ele><time>2022-11-23T11:34:48Z</time></trkpt>
<trkpt lat="33.0581304" lon="35.1621522"><ele>112.3</ele><time>2022-11-23T11:34:56Z</time></trkpt>
<trkpt lat="33.0580619" lon="35.1623763"><ele>111.0</ele><time>2022-11-23T11:35:02Z</time></trkpt>
<trkpt lat="33.0581871" lon="35.1625616"><ele>110.9</ele><time>2022-11-23T11:35:10Z</time></trkpt>
<trkpt lat="33.0583632" lon="35.1626151"><ele>112.0</ele><time>2022-11-23T11:35:15Z</time></trkpt>
<trkpt lat="33.0585449" lon="35.162708"><ele>112.8</ele><time>2022-11-23T11:35:22Z</time></trkpt>
<trkpt lat="33.0587134" lon="35.1628338"><ele>113.4</ele><time>2022-11-23T11:35:49Z</time></trkpt>
<trkpt lat="33.0588638" lon="35.1629781"><ele>114.0</ele><time>2022-11-23T11:35:56Z</time></trkpt>
<trkpt lat="33.0589903" lon="35.1631326"><ele>114.6</ele><time>2022-11-23T11:36:03Z</time></trkpt>
<trkpt lat="33.0591024" lon="35.1633389"><ele>115.1</ele><time>2022-11-23T11:36:10Z</time></trkpt>
<trkpt lat="33.0592354" lon="35.163524"><ele>113.6</ele><time>2022-11-23T11:36:17Z</time></trkpt>
<trkpt lat="33.0593992" lon="35.1636768"><ele>111.2</ele><time>2022-11-23T11:36:24Z</time></trkpt>
<trkpt lat="33.0595821" lon="35.1638192"><ele>109.3</ele><time>2022-11-23T11:36:31Z</time></trkpt>
<trkpt lat="33.059766" lon="35.163959"><ele>107.7</ele><time>2022-11-23T11:36:36Z</time></trkpt>
<trkpt lat="33.0599503" lon="35.1640352"><ele>106.9</ele><time>2022-11-23T11:36:42Z</time></trkpt>
<trkpt lat="33.0601403" lon="35.1639943"><ele>105.8</ele><time>2022-11-23T11:36:47Z</time></trkpt>
<trkpt lat="33.060308" lon="35.1638484"><ele>104.9</ele><time>2022-11-23T11:36:51Z</time></trkpt>
<trkpt lat="33.0604459" lon="35.1636762"><ele>104.0</ele><time>2022-11-23T11:36:55Z</time></trkpt>
<trkpt lat="33.0606338" lon="35.1636978"><ele>101.9</ele><time>2022-11-23T11:37:07Z</time></trkpt>
<trkpt lat="33.0606398" lon="35.1639387"><ele>101.1</ele><time>2022-11-23T11:37:12Z</time></trkpt>
<trkpt lat="33.0607829" lon="35.1640711"><ele>99.7</ele><time>2022-11-23T11:37:19Z</time></trkpt>
<trkpt lat="33.0609813" lon="35.1640231"><ele>99.1</ele><time>2022-11-23T11:37:25Z</time></trkpt>
<trkpt lat="33.0611407" lon="35.1641539"><ele>98.7</ele><time>2022-11-23T11:37:31Z</time></trkpt>
<trkpt lat="33.0612631" lon="35.1643338"><ele>98.8</ele><time>2022-11-23T11:37:39Z</time></trkpt>
<trkpt lat="33.0614471" lon="35.1643901"><ele>98.8</ele><time>2022-11-23T11:37:47Z</time></trkpt>
<trkpt lat="33.0616262" lon="35.1643325"><ele>98.5</ele><time>2022-11-23T11:37:53Z</time></trkpt>
<trkpt lat="33.0618127" lon="35.1644186"><ele>99.7</ele><time>2022-11-23T11:38:00Z</time></trkpt>
<trkpt lat="33.0619925" lon="35.1644702"><ele>101.2</ele><time>2022-11-23T11:38:08Z</time></trkpt>
<trkpt lat="33.0621788" lon="35.1644451"><ele>102.7</ele><time>2022-11-23T11:38:18Z</time></trkpt>
<trkpt lat="33.0623622" lon="35.1644751"><ele>104.0</ele><time>2022-11-23T11:38:30Z</time></trkpt>
<trkpt lat="33.0625568" lon="35.1644602"><ele>105.3</ele><time>2022-11-23T11:38:40Z</time></trkpt>
<trkpt lat="33.0627131" lon="35.1645749"><ele>104.8</ele><time>2022-11-23T11:38:49Z</time></trkpt>
<trkpt lat="33.062887" lon="35.1646353"><ele>104.6</ele><time>2022-11-23T11:38:57Z</time></trkpt>
<trkpt lat="33.063072" lon="35.164729"><ele>103.9</ele><time>2022-11-23T11:39:05Z</time></trkpt>
<trkpt lat="33.0632131" lon="35.1648705"><ele>102.6</ele><time>2022-11-23T11:39:11Z</time></trkpt>
<trkpt lat="33.0632924" lon="35.1650704"><ele>101.6</ele><time>2022-11-23T11:39:17Z</time></trkpt>
<trkpt lat="33.063421" lon="35.1652413"><ele>102.4</ele><time>2022-11-23T11:39:24Z</time></trkpt>
<trkpt lat="33.0636222" lon="35.1652666"><ele>101.2</ele><time>2022-11-23T11:39:32Z</time></trkpt>
<trkpt lat="33.0638183" lon="35.1653211"><ele>100.4</ele><time>2022-11-23T11:39:37Z</time></trkpt>
<trkpt lat="33.0640079" lon="35.1653603"><ele>99.5</ele><time>2022-11-23T11:39:42Z</time></trkpt>
<trkpt lat="33.0642029" lon="35.1653574"><ele>98.4</ele><time>2022-11-23T11:39:47Z</time></trkpt>
<trkpt lat="33.0643889" lon="35.1652535"><ele>97.6</ele><time>2022-11-23T11:39:53Z</time></trkpt>
<trkpt lat="33.0644957" lon="35.1650634"><ele>95.1</ele><time>2022-11-23T11:39:58Z</time></trkpt>
<trkpt lat="33.0646878" lon="35.1649364"><ele>94.0</ele><time>2022-11-23T11:40:04Z</time></trkpt>
<trkpt lat="33.0648722" lon="35.1648312"><ele>93.6</ele><time>2022-11-23T11:40:09Z</time></trkpt>
<trkpt lat="33.0650395" lon="35.1647367"><ele>92.8</ele><time>2022-11-23T11:40:13Z</time></trkpt>
<trkpt lat="33.0652242" lon="35.1646509"><ele>91.9</ele><time>2022-11-23T11:40:17Z</time></trkpt>
<trkpt lat="33.0653888" lon="35.164552"><ele>90.7</ele><time>2022-11-23T11:40:21Z</time></trkpt>
<trkpt lat="33.0655755" lon="35.1644869"><ele>89.4</ele><time>2022-11-23T11:40:26Z</time></trkpt>
<trkpt lat="33.0657596" lon="35.164523"><ele>89.1</ele><time>2022-11-23T11:40:33Z</time></trkpt>
<trkpt lat="33.0659496" lon="35.1645442"><ele>87.4</ele><time>2022-11-23T11:40:39Z</time></trkpt>
<trkpt lat="33.0661216" lon="35.1646149"><ele>85.1</ele><time>2022-11-23T11:40:43Z</time></trkpt>
<trkpt lat="33.0662503" lon="35.1648116"><ele>84.1</ele><time>2022-11-23T11:40:48Z</time></trkpt>
<trkpt lat="33.0663471" lon="35.1650363"><ele>83.7</ele><time>2022-11-23T11:40:53Z</time></trkpt>
<trkpt lat="33.0664739" lon="35.1652127"><ele>80.8</ele><time>2022-11-23T11:40:57Z</time></trkpt>
<trkpt lat="33.0665736" lon="35.1654294"><ele>77.7</ele><time>2022-11-23T11:41:02Z</time></trkpt>
<trkpt lat="33.0666327" lon="35.1656551"><ele>75.0</ele><time>2022-11-23T11:41:07Z</time></trkpt>
<trkpt lat="33.0666666" lon="35.165874"><ele>73.2</ele><time>2022-11-23T11:41:11Z</time></trkpt>
<trkpt lat="33.0666305" lon="35.1660979"><ele>74.1</ele><time>2022-11-23T11:41:15Z</time></trkpt>
<trkpt lat="33.0666527" lon="35.1663175"><ele>73.6</ele><time>2022-11-23T11:41:19Z</time></trkpt>
<trkpt lat="33.0666615" lon="35.1665515"><ele>73.2</ele><time>2022-11-23T11:41:23Z</time></trkpt>
<trkpt lat="33.0666082" lon="35.1667986"><ele>74.7</ele><time>2022-11-23T11:41:28Z</time></trkpt>
<trkpt lat="33.0666053" lon="35.1670243"><ele>74.8</ele><time>2022-11-23T11:41:34Z</time></trkpt>
<trkpt lat="33.0666238" lon="35.1672867"><ele>74.1</ele><time>2022-11-23T11:41:39Z</time></trkpt>
<trkpt lat="33.0665972" lon="35.1674998"><ele>74.7</ele><time>2022-11-23T11:41:43Z</time></trkpt>
<trkpt lat="33.0665792" lon="35.1677457"><ele>75.1</ele><time>2022-11-23T11:41:49Z</time></trkpt>
<trkpt lat="33.0666329" lon="35.1679803"><ele>74.0</ele><time>2022-11-23T11:41:55Z</time></trkpt>
<trkpt lat="33.0666895" lon="35.1682088"><ele>72.9</ele><time>2022-11-23T11:42:00Z</time></trkpt>
<trkpt lat="33.0666982" lon="35.168451"><ele>73.0</ele><time>2022-11-23T11:42:05Z</time></trkpt>
<trkpt lat="33.0665828" lon="35.1686175"><ele>75.3</ele><time>2022-11-23T11:42:11Z</time></trkpt>
<trkpt lat="33.0665364" lon="35.1688535"><ele>76.9</ele><time>2022-11-23T11:42:19Z</time></trkpt>
<trkpt lat="33.0665863" lon="35.1690929"><ele>76.4</ele><time>2022-11-23T11:42:26Z</time></trkpt>
<trkpt lat="33.066688" lon="35.1693122"><ele>75.0</ele><time>2022-11-23T11:42:32Z</time></trkpt>
<trkpt lat="33.0666703" lon="35.1695328"><ele>75.0</ele><time>2022-11-23T11:42:36Z</time></trkpt>
<trkpt lat="33.066589" lon="35.1697361"><ele>76.1</ele><time>2022-11-23T11:42:42Z</time></trkpt>
<trkpt lat="33.06653" lon="35.1699549"><ele>76.9</ele><time>2022-11-23T11:42:48Z</time></trkpt>
<trkpt lat="33.0664632" lon="35.1701808"><ele>77.5</ele><time>2022-11-23T11:42:54Z</time></trkpt>
<trkpt lat="33.066346" lon="35.170383"><ele>78.3</ele><time>2022-11-23T11:43:01Z</time></trkpt>
<trkpt lat="33.0662591" lon="35.1705816"><ele>78.5</ele><time>2022-11-23T11:43:08Z</time></trkpt>
<trkpt lat="33.0661079" lon="35.1707218"><ele>78.9</ele><time>2022-11-23T11:43:15Z</time></trkpt>
<trkpt lat="33.0659891" lon="35.1708907"><ele>79.0</ele><time>2022-11-23T11:43:22Z</time></trkpt>
<trkpt lat="33.0657861" lon="35.1708857"><ele>80.6</ele><time>2022-11-23T11:43:31Z</time></trkpt>
<trkpt lat="33.0655947" lon="35.170843"><ele>84.6</ele><time>2022-11-23T11:43:39Z</time></trkpt>
<trkpt lat="33.0654415" lon="35.1709934"><ele>86.3</ele><time>2022-11-23T11:43:47Z</time></trkpt>
<trkpt lat="33.0652949" lon="35.1711339"><ele>87.2</ele><time>2022-11-23T11:43:53Z</time></trkpt>
<trkpt lat="33.0651316" lon="35.1712618"><ele>87.6</ele><time>2022-11-23T11:44:01Z</time></trkpt>
<trkpt lat="33.0649808" lon="35.1714052"><ele>87.2</ele><time>2022-11-23T11:44:08Z</time></trkpt>
<trkpt lat="33.0648407" lon="35.1715479"><ele>88.2</ele><time>2022-11-23T11:44:15Z</time></trkpt>
<trkpt lat="33.0646902" lon="35.1716909"><ele>89.2</ele><time>2022-11-23T11:44:23Z</time></trkpt>
<trkpt lat="33.0645279" lon="35.1718454"><ele>91.7</ele><time>2022-11-23T11:44:31Z</time></trkpt>
<trkpt lat="33.0643975" lon="35.1720153"><ele>92.2</ele><time>2022-11-23T11:44:38Z</time></trkpt>
<trkpt lat="33.0642674" lon="35.1721912"><ele>91.3</ele><time>2022-11-23T11:44:45Z</time></trkpt>
<trkpt lat="33.0642936" lon="35.1724227"><ele>87.5</ele><time>2022-11-23T11:44:55Z</time></trkpt>
<trkpt lat="33.0642132" lon="35.1726242"><ele>86.8</ele><time>2022-11-23T11:46:07Z</time></trkpt>
<trkpt lat="33.0640876" lon="35.1728182"><ele>89.2</ele><time>2022-11-23T11:46:15Z</time></trkpt>
<trkpt lat="33.0639356" lon="35.1729746"><ele>93.1</ele><time>2022-11-23T11:46:24Z</time></trkpt>
<trkpt lat="33.0638791" lon="35.173194"><ele>94.4</ele><time>2022-11-23T11:46:31Z</time></trkpt>
<trkpt lat="33.0637671" lon="35.1733788"><ele>96.3</ele><time>2022-11-23T11:46:39Z</time></trkpt>
<trkpt lat="33.0637689" lon="35.173612"><ele>97.3</ele><time>2022-11-23T11:46:47Z</time></trkpt>
<trkpt lat="33.0637538" lon="35.1738368"><ele>98.2</ele><time>2022-11-23T11:46:53Z</time></trkpt>
<trkpt lat="33.0636982" lon="35.1740671"><ele>98.8</ele><time>2022-11-23T11:47:00Z</time></trkpt>
<trkpt lat="33.0636565" lon="35.1742772"><ele>99.7</ele><time>2022-11-23T11:47:07Z</time></trkpt>
<trkpt lat="33.0635158" lon="35.1744358"><ele>99.5</ele><time>2022-11-23T11:47:15Z</time></trkpt>
<trkpt lat="33.0633547" lon="35.1745684"><ele>97.9</ele><time>2022-11-23T11:47:25Z</time></trkpt>
<trkpt lat="33.0632751" lon="35.1747637"><ele>99.0</ele><time>2022-11-23T11:47:50Z</time></trkpt>
<trkpt lat="33.0631107" lon="35.174898"><ele>101.3</ele><time>2022-11-23T11:47:58Z</time></trkpt>
<trkpt lat="33.0630065" lon="35.1750755"><ele>102.5</ele><time>2022-11-23T11:48:06Z</time></trkpt>
<trkpt lat="33.0628782" lon="35.1752582"><ele>104.2</ele><time>2022-11-23T11:48:15Z</time></trkpt>
<trkpt lat="33.0628097" lon="35.1754754"><ele>104.9</ele><time>2022-11-23T11:48:25Z</time></trkpt>
<trkpt lat="33.0627406" lon="35.1756785"><ele>105.0</ele><time>2022-11-23T11:48:33Z</time></trkpt>
<trkpt lat="33.0627146" lon="35.1758942"><ele>105.0</ele><time>2022-11-23T11:48:41Z</time></trkpt>
<trkpt lat="33.0627761" lon="35.1760967"><ele>106.5</ele><time>2022-11-23T11:48:48Z</time></trkpt>
<trkpt lat="33.0627715" lon="35.1763292"><ele>107.6</ele><time>2022-11-23T11:48:59Z</time></trkpt>
<trkpt lat="33.0627356" lon="35.1765553"><ele>108.5</ele><time>2022-11-23T11:49:08Z</time></trkpt>
<trkpt lat="33.0627778" lon="35.1767739"><ele>109.7</ele><time>2022-11-23T11:49:19Z</time></trkpt>
<trkpt lat="33.0629075" lon="35.1769586"><ele>110.8</ele><time>2022-11-23T11:49:30Z</time></trkpt>
<trkpt lat="33.0630242" lon="35.1771289"><ele>111.1</ele><time>2022-11-23T11:49:37Z</time></trkpt>
<trkpt lat="33.0629873" lon="35.1773542"><ele>111.1</ele><time>2022-11-23T11:49:48Z</time></trkpt>
<trkpt lat="33.0629889" lon="35.1775802"><ele>111.1</ele><time>2022-11-23T11:50:00Z</time></trkpt>
<trkpt lat="33.0630338" lon="35.1778066"><ele>110.9</ele><time>2022-11-23T11:50:07Z</time></trkpt>
<trkpt lat="33.0630804" lon="35.1780182"><ele>110.7</ele><time>2022-11-23T11:50:17Z</time></trkpt>
<trkpt lat="33.063166" lon="35.1782092"><ele>110.2</ele><time>2022-11-23T11:50:24Z</time></trkpt>
<trkpt lat="33.0631927" lon="35.178435"><ele>110.4</ele><time>2022-11-23T11:50:33Z</time></trkpt>
<trkpt lat="33.0631358" lon="35.1786535"><ele>111.4</ele><time>2022-11-23T11:50:41Z</time></trkpt>
<trkpt lat="33.0629967" lon="35.1787951"><ele>111.9</ele><time>2022-11-23T11:50:51Z</time></trkpt>
<trkpt lat="33.0628826" lon="35.1789754"><ele>111.9</ele><time>2022-11-23T11:51:01Z</time></trkpt>
<trkpt lat="33.0627695" lon="35.1791443"><ele>111.4</ele><time>2022-11-23T11:51:11Z</time></trkpt>
<trkpt lat="33.0626436" lon="35.179305"><ele>111.2</ele><time>2022-11-23T11:51:23Z</time></trkpt>
<trkpt lat="33.062642" lon="35.179533"><ele>111.9</ele><time>2022-11-23T11:51:34Z</time></trkpt>
<trkpt lat="33.0626989" lon="35.1797484"><ele>112.8</ele><time>2022-11-23T11:51:41Z</time></trkpt>
<trkpt lat="33.0627662" lon="35.179973"><ele>113.8</ele><time>2022-11-23T11:51:52Z</time></trkpt>
<trkpt lat="33.0628468" lon="35.1801747"><ele>115.3</ele><time>2022-11-23T11:52:02Z</time></trkpt>
<trkpt lat="33.0629414" lon="35.1803681"><ele>116.1</ele><time>2022-11-23T11:52:11Z</time></trkpt>
<trkpt lat="33.0630863" lon="35.1805138"><ele>115.6</ele><time>2022-11-23T11:52:19Z</time></trkpt>
<trkpt lat="33.0632122" lon="35.1806847"><ele>114.2</ele><time>2022-11-23T11:52:29Z</time></trkpt>
<trkpt lat="33.0633457" lon="35.1808303"><ele>112.2</ele><time>2022-11-23T11:52:38Z</time></trkpt>
<trkpt lat="33.0635294" lon="35.1808578"><ele>113.8</ele><time>2022-11-23T11:52:47Z</time></trkpt>
<trkpt lat="33.0637318" lon="35.1809408"><ele>116.0</ele><time>2022-11-23T11:52:56Z</time></trkpt>
<trkpt lat="33.0638866" lon="35.1810518"><ele>117.7</ele><time>2022-11-23T11:53:04Z</time></trkpt>
<trkpt lat="33.0640082" lon="35.1812104"><ele>118.5</ele><time>2022-11-23T11:53:13Z</time></trkpt>
<trkpt lat="33.0641807" lon="35.1812948"><ele>118.6</ele><time>2022-11-23T11:53:20Z</time></trkpt>
<trkpt lat="33.0642871" lon="35.1814738"><ele>119.3</ele><time>2022-11-23T11:53:28Z</time></trkpt>
<trkpt lat="33.0644141" lon="35.1816316"><ele>119.9</ele><time>2022-11-23T11:53:36Z</time></trkpt>
<trkpt lat="33.064534" lon="35.1817975"><ele>121.0</ele><time>2022-11-23T11:53:43Z</time></trkpt>
<trkpt lat="33.0646134" lon="35.1819975"><ele>122.2</ele><time>2022-11-23T11:53:50Z</time></trkpt>
<trkpt lat="33.0645534" lon="35.1822171"><ele>122.5</ele><time>2022-11-23T11:53:57Z</time></trkpt>
<trkpt lat="33.0645091" lon="35.182454"><ele>122.9</ele><time>2022-11-23T11:54:04Z</time></trkpt>
<trkpt lat="33.0643992" lon="35.1826331"><ele>122.8</ele><time>2022-11-23T11:54:11Z</time></trkpt>
<trkpt lat="33.064255" lon="35.1828035"><ele>121.7</ele><time>2022-11-23T11:54:18Z</time></trkpt>
<trkpt lat="33.0641416" lon="35.1829844"><ele>120.8</ele><time>2022-11-23T11:54:25Z</time></trkpt>
<trkpt lat="33.0640503" lon="35.1831941"><ele>121.7</ele><time>2022-11-23T11:54:32Z</time></trkpt>
<trkpt lat="33.0638945" lon="35.1833314"><ele>123.5</ele><time>2022-11-23T11:54:37Z</time></trkpt>
<trkpt lat="33.06373" lon="35.1834266"><ele>126.2</ele><time>2022-11-23T11:54:44Z</time></trkpt>
<trkpt lat="33.0635653" lon="35.1835289"><ele>127.9</ele><time>2022-11-23T11:54:53Z</time></trkpt>
<trkpt lat="33.0634404" lon="35.1836978"><ele>128.2</ele><time>2022-11-23T11:55:01Z</time></trkpt>
<trkpt lat="33.0633061" lon="35.1838709"><ele>127.6</ele><time>2022-11-23T11:55:09Z</time></trkpt>
<trkpt lat="33.0631745" lon="35.1840505"><ele>128.5</ele><time>2022-11-23T11:55:18Z</time></trkpt>
<trkpt lat="33.0630946" lon="35.1842504"><ele>129.0</ele><time>2022-11-23T11:55:26Z</time></trkpt>
<trkpt lat="33.0630996" lon="35.1844775"><ele>129.8</ele><time>2022-11-23T11:55:34Z</time></trkpt>
<trkpt lat="33.0630369" lon="35.1846914"><ele>131.1</ele><time>2022-11-23T11:55:41Z</time></trkpt>
<trkpt lat="33.0630235" lon="35.1849287"><ele>131.9</ele><time>2022-11-23T11:55:51Z</time></trkpt>
<trkpt lat="33.0630319" lon="35.1851602"><ele>132.1</ele><time>2022-11-23T11:56:01Z</time></trkpt>
<trkpt lat="33.0630376" lon="35.185406"><ele>132.1</ele><time>2022-11-23T11:56:13Z</time></trkpt>
<trkpt lat="33.0630028" lon="35.1856319"><ele>132.4</ele><time>2022-11-23T11:56:22Z</time></trkpt>
<trkpt lat="33.062944" lon="35.1858368"><ele>133.2</ele><time>2022-11-23T11:56:30Z</time></trkpt>
<trkpt lat="33.0629714" lon="35.186055"><ele>134.2</ele><time>2022-11-23T11:56:40Z</time></trkpt>
<trkpt lat="33.0629368" lon="35.1858443"><ele>133.4</ele><time>2022-11-23T12:01:20Z</time></trkpt>
<trkpt lat="33.0629718" lon="35.1856"><ele>132.8</ele><time>2022-11-23T12:01:28Z</time></trkpt>
<trkpt lat="33.0630073" lon="35.1853669"><ele>132.3</ele><time>2022-11-23T12:01:37Z</time></trkpt>
<trkpt lat="33.0629928" lon="35.1851345"><ele>132.3</ele><time>2022-11-23T12:01:46Z</time></trkpt>
<trkpt lat="33.0629737" lon="35.1849194"><ele>132.2</ele><time>2022-11-23T12:01:51Z</time></trkpt>
<trkpt lat="33.0630329" lon="35.1846985"><ele>131.3</ele><time>2022-11-23T12:01:56Z</time></trkpt>
<trkpt lat="33.0630822" lon="35.1844674"><ele>130.1</ele><time>2022-11-23T12:02:01Z</time></trkpt>
<trkpt lat="33.0630925" lon="35.1842196"><ele>129.1</ele><time>2022-11-23T12:02:07Z</time></trkpt>
<trkpt lat="33.063192" lon="35.1839959"><ele>128.8</ele><time>2022-11-23T12:02:13Z</time></trkpt>
<trkpt lat="33.0633135" lon="35.1838361"><ele>127.8</ele><time>2022-11-23T12:02:18Z</time></trkpt>
<trkpt lat="33.0634548" lon="35.1836846"><ele>128.2</ele><time>2022-11-23T12:02:23Z</time></trkpt>
<trkpt lat="33.063576" lon="35.1835213"><ele>127.9</ele><time>2022-11-23T12:02:32Z</time></trkpt>
<trkpt lat="33.0637365" lon="35.1834233"><ele>126.3</ele><time>2022-11-23T12:02:40Z</time></trkpt>
<trkpt lat="33.063913" lon="35.1832788"><ele>123.7</ele><time>2022-11-23T12:02:46Z</time></trkpt>
<trkpt lat="33.0640616" lon="35.1831372"><ele>122.0</ele><time>2022-11-23T12:02:51Z</time></trkpt>
<trkpt lat="33.0641774" lon="35.1829471"><ele>120.6</ele><time>2022-11-23T12:02:57Z</time></trkpt>
<trkpt lat="33.0642813" lon="35.1827613"><ele>121.7</ele><time>2022-11-23T12:03:02Z</time></trkpt>
<trkpt lat="33.064409" lon="35.1826096"><ele>122.7</ele><time>2022-11-23T12:03:07Z</time></trkpt>
<trkpt lat="33.0645294" lon="35.1824078"><ele>122.9</ele><time>2022-11-23T12:03:13Z</time></trkpt>
<trkpt lat="33.0645322" lon="35.1821689"><ele>122.2</ele><time>2022-11-23T12:03:18Z</time></trkpt>
<trkpt lat="33.0645709" lon="35.181925"><ele>121.8</ele><time>2022-11-23T12:03:23Z</time></trkpt>
<trkpt lat="33.0644673" lon="35.1817363"><ele>120.5</ele><time>2022-11-23T12:03:27Z</time></trkpt>
<trkpt lat="33.0643254" lon="35.1815673"><ele>119.5</ele><time>2022-11-23T12:03:32Z</time></trkpt>
<trkpt lat="33.0641773" lon="35.1813807"><ele>118.6</ele><time>2022-11-23T12:03:37Z</time></trkpt>
<trkpt lat="33.0639993" lon="35.1812292"><ele>118.6</ele><time>2022-11-23T12:03:42Z</time></trkpt>
<trkpt lat="33.0638688" lon="35.1810775"><ele>117.9</ele><time>2022-11-23T12:03:46Z</time></trkpt>
<trkpt lat="33.0637072" lon="35.1809748"><ele>116.5</ele><time>2022-11-23T12:03:51Z</time></trkpt>
<trkpt lat="33.0635402" lon="35.1808717"><ele>114.3</ele><time>2022-11-23T12:03:57Z</time></trkpt>
<trkpt lat="33.0633431" lon="35.1808459"><ele>112.5</ele><time>2022-11-23T12:04:03Z</time></trkpt>
<trkpt lat="33.0631824" lon="35.1807491"><ele>114.3</ele><time>2022-11-23T12:04:08Z</time></trkpt>
<trkpt lat="33.0630686" lon="35.1805483"><ele>115.7</ele><time>2022-11-23T12:04:13Z</time></trkpt>
<trkpt lat="33.0629329" lon="35.1803986"><ele>116.3</ele><time>2022-11-23T12:04:17Z</time></trkpt>
<trkpt lat="33.0628588" lon="35.1801855"><ele>115.5</ele><time>2022-11-23T12:04:23Z</time></trkpt>
<trkpt lat="33.0627592" lon="35.1799851"><ele>114.0</ele><time>2022-11-23T12:04:28Z</time></trkpt>
<trkpt lat="33.0626814" lon="35.1797569"><ele>112.9</ele><time>2022-11-23T12:04:33Z</time></trkpt>
<trkpt lat="33.0626458" lon="35.1795198"><ele>112.0</ele><time>2022-11-23T12:04:39Z</time></trkpt>
<trkpt lat="33.0626378" lon="35.17929"><ele>111.1</ele><time>2022-11-23T12:04:45Z</time></trkpt>
<trkpt lat="33.0627896" lon="35.1791705"><ele>111.4</ele><time>2022-11-23T12:04:52Z</time></trkpt>
<trkpt lat="33.0628577" lon="35.1789576"><ele>111.9</ele><time>2022-11-23T12:04:58Z</time></trkpt>
<trkpt lat="33.0630158" lon="35.1788065"><ele>112.0</ele><time>2022-11-23T12:05:04Z</time></trkpt>
<trkpt lat="33.0631599" lon="35.1786356"><ele>111.4</ele><time>2022-11-23T12:05:12Z</time></trkpt>
<trkpt lat="33.0632064" lon="35.1784063"><ele>110.3</ele><time>2022-11-23T12:05:18Z</time></trkpt>
<trkpt lat="33.0631984" lon="35.1781894"><ele>109.9</ele><time>2022-11-23T12:05:23Z</time></trkpt>
<trkpt lat="33.0630941" lon="35.1779976"><ele>110.5</ele><time>2022-11-23T12:05:28Z</time></trkpt>
<trkpt lat="33.0630027" lon="35.1777822"><ele>111.1</ele><time>2022-11-23T12:05:35Z</time></trkpt>
<trkpt lat="33.0629708" lon="35.1775529"><ele>111.2</ele><time>2022-11-23T12:05:42Z</time></trkpt>
<trkpt lat="33.0629612" lon="35.1773376"><ele>111.2</ele><time>2022-11-23T12:05:48Z</time></trkpt>
<trkpt lat="33.0629503" lon="35.1770798"><ele>111.0</ele><time>2022-11-23T12:05:54Z</time></trkpt>
<trkpt lat="33.0628207" lon="35.1769244"><ele>110.5</ele><time>2022-11-23T12:06:01Z</time></trkpt>
<trkpt lat="33.062752" lon="35.176726"><ele>109.4</ele><time>2022-11-23T12:06:08Z</time></trkpt>
<trkpt lat="33.0627529" lon="35.1765057"><ele>108.4</ele><time>2022-11-23T12:06:15Z</time></trkpt>
<trkpt lat="33.0627504" lon="35.1762669"><ele>107.2</ele><time>2022-11-23T12:06:22Z</time></trkpt>
<trkpt lat="33.0627243" lon="35.1760284"><ele>106.0</ele><time>2022-11-23T12:06:28Z</time></trkpt>
<trkpt lat="33.0626892" lon="35.1757975"><ele>104.6</ele><time>2022-11-23T12:06:34Z</time></trkpt>
<trkpt lat="33.0627541" lon="35.1755954"><ele>105.0</ele><time>2022-11-23T12:06:39Z</time></trkpt>
<trkpt lat="33.0628525" lon="35.1753631"><ele>104.7</ele><time>2022-11-23T12:06:44Z</time></trkpt>
<trkpt lat="33.0629642" lon="35.1751534"><ele>103.5</ele><time>2022-11-23T12:06:50Z</time></trkpt>
<trkpt lat="33.0630583" lon="35.1749583"><ele>101.8</ele><time>2022-11-23T12:06:55Z</time></trkpt>
<trkpt lat="33.063186" lon="35.1747955"><ele>100.7</ele><time>2022-11-23T12:07:00Z</time></trkpt>
<trkpt lat="33.0633197" lon="35.1746369"><ele>98.2</ele><time>2022-11-23T12:07:05Z</time></trkpt>
<trkpt lat="33.0634196" lon="35.1744324"><ele>98.0</ele><time>2022-11-23T12:07:11Z</time></trkpt>
<trkpt lat="33.0635813" lon="35.1742951"><ele>99.1</ele><time>2022-11-23T12:07:16Z</time></trkpt>
<trkpt lat="33.0636972" lon="35.1740986"><ele>98.9</ele><time>2022-11-23T12:07:21Z</time></trkpt>
<trkpt lat="33.0637537" lon="35.1738901"><ele>98.6</ele><time>2022-11-23T12:07:26Z</time></trkpt>
<trkpt lat="33.0637827" lon="35.1736601"><ele>97.6</ele><time>2022-11-23T12:07:31Z</time></trkpt>
<trkpt lat="33.0637723" lon="35.1734163"><ele>96.6</ele><time>2022-11-23T12:07:38Z</time></trkpt>
<trkpt lat="33.0638699" lon="35.173191"><ele>94.8</ele><time>2022-11-23T12:07:43Z</time></trkpt>
<trkpt lat="33.0639544" lon="35.1729578"><ele>93.0</ele><time>2022-11-23T12:07:48Z</time></trkpt>
<trkpt lat="33.0641134" lon="35.1728006"><ele>89.0</ele><time>2022-11-23T12:07:55Z</time></trkpt>
<trkpt lat="33.0642196" lon="35.1726003"><ele>86.7</ele><time>2022-11-23T12:08:01Z</time></trkpt>
<trkpt lat="33.0643359" lon="35.172433"><ele>87.1</ele><time>2022-11-23T12:08:08Z</time></trkpt>
<trkpt lat="33.0645251" lon="35.1725052"><ele>86.5</ele><time>2022-11-23T12:08:15Z</time></trkpt>
<trkpt lat="33.0646727" lon="35.1723315"><ele>87.2</ele><time>2022-11-23T12:08:22Z</time></trkpt>
<trkpt lat="33.0648135" lon="35.1721913"><ele>86.7</ele><time>2022-11-23T12:08:28Z</time></trkpt>
<trkpt lat="33.0649902" lon="35.1721015"><ele>84.8</ele><time>2022-11-23T12:08:35Z</time></trkpt>
<trkpt lat="33.0651802" lon="35.1720349"><ele>83.7</ele><time>2022-11-23T12:08:41Z</time></trkpt>
<trkpt lat="33.0653766" lon="35.171983"><ele>82.7</ele><time>2022-11-23T12:08:47Z</time></trkpt>
<trkpt lat="33.0655543" lon="35.172036"><ele>82.4</ele><time>2022-11-23T12:09:07Z</time></trkpt>
<trkpt lat="33.0657373" lon="35.1720365"><ele>81.9</ele><time>2022-11-23T12:09:25Z</time></trkpt>
<trkpt lat="33.0659087" lon="35.1721213"><ele>82.4</ele><time>2022-11-23T12:09:37Z</time></trkpt>
<trkpt lat="33.0659707" lon="35.1723315"><ele>84.6</ele><time>2022-11-23T12:09:51Z</time></trkpt>
<trkpt lat="33.0657916" lon="35.1723992"><ele>85.0</ele><time>2022-11-23T12:10:00Z</time></trkpt>
<trkpt lat="33.0659482" lon="35.172506"><ele>86.3</ele><time>2022-11-23T12:10:10Z</time></trkpt>
<trkpt lat="33.0660629" lon="35.1727026"><ele>90.3</ele><time>2022-11-23T12:10:21Z</time></trkpt>
<trkpt lat="33.0661553" lon="35.1728979"><ele>94.3</ele><time>2022-11-23T12:10:28Z</time></trkpt>
<trkpt lat="33.0663145" lon="35.172998"><ele>96.7</ele><time>2022-11-23T12:10:39Z</time></trkpt>
<trkpt lat="33.0664298" lon="35.1728284"><ele>93.8</ele><time>2022-11-23T12:10:45Z</time></trkpt>
<trkpt lat="33.0665306" lon="35.172647"><ele>90.6</ele><time>2022-11-23T12:10:51Z</time></trkpt>
<trkpt lat="33.066616" lon="35.1724356"><ele>87.4</ele><time>2022-11-23T12:10:57Z</time></trkpt>
<trkpt lat="33.0667359" lon="35.1722222"><ele>85.7</ele><time>2022-11-23T12:11:03Z</time></trkpt>
<trkpt lat="33.0668164" lon="35.1720274"><ele>84.2</ele><time>2022-11-23T12:11:07Z</time></trkpt>
<trkpt lat="33.0669755" lon="35.171851"><ele>83.4</ele><time>2022-11-23T12:11:12Z</time></trkpt>
<trkpt lat="33.067124" lon="35.1716641"><ele>82.3</ele><time>2022-11-23T12:11:17Z</time></trkpt>
<trkpt lat="33.0672851" lon="35.1715056"><ele>82.3</ele><time>2022-11-23T12:11:22Z</time></trkpt>
<trkpt lat="33.0674633" lon="35.1715685"><ele>83.9</ele><time>2022-11-23T12:11:27Z</time></trkpt>
<trkpt lat="33.0676389" lon="35.1716233"><ele>85.4</ele><time>2022-11-23T12:11:36Z</time></trkpt>
<trkpt lat="33.0678017" lon="35.1715158"><ele>85.3</ele><time>2022-11-23T12:11:48Z</time></trkpt>
<trkpt lat="33.0679638" lon="35.1716224"><ele>86.9</ele><time>2022-11-23T12:11:57Z</time></trkpt>
<trkpt lat="33.0680978" lon="35.1717795"><ele>89.0</ele><time>2022-11-23T12:12:08Z</time></trkpt>
<trkpt lat="33.0682779" lon="35.1718173"><ele>90.2</ele><time>2022-11-23T12:12:23Z</time></trkpt>
<trkpt lat="33.0684611" lon="35.1718883"><ele>90.3</ele><time>2022-11-23T12:12:36Z</time></trkpt>
<trkpt lat="33.068449" lon="35.1721144"><ele>92.3</ele><time>2022-11-23T12:12:51Z</time></trkpt>
<trkpt lat="33.0685462" lon="35.1723141"><ele>93.2</ele><time>2022-11-23T12:13:03Z</time></trkpt>
<trkpt lat="33.0687097" lon="35.1724346"><ele>92.5</ele><time>2022-11-23T12:13:17Z</time></trkpt>
<trkpt lat="33.0688801" lon="35.1725651"><ele>91.6</ele><time>2022-11-23T12:13:26Z</time></trkpt>
<trkpt lat="33.0690331" lon="35.1727289"><ele>90.4</ele><time>2022-11-23T12:13:33Z</time></trkpt>
<trkpt lat="33.069088" lon="35.1729741"><ele>90.5</ele><time>2022-11-23T12:13:39Z</time></trkpt>
<trkpt lat="33.0691537" lon="35.173194"><ele>90.0</ele><time>2022-11-23T12:13:46Z</time></trkpt>
<trkpt lat="33.0692359" lon="35.1734026"><ele>89.2</ele><time>2022-11-23T12:13:51Z</time></trkpt>
<trkpt lat="33.0692979" lon="35.173176"><ele>87.2</ele><time>2022-11-23T12:14:06Z</time></trkpt>
<trkpt lat="33.0692075" lon="35.1729872"><ele>88.4</ele><time>2022-11-23T12:14:13Z</time></trkpt>
<trkpt lat="33.0691792" lon="35.1727427"><ele>88.5</ele><time>2022-11-23T12:14:22Z</time></trkpt>
<trkpt lat="33.0691784" lon="35.1725273"><ele>87.9</ele><time>2022-11-23T12:14:27Z</time></trkpt>
<trkpt lat="33.0691103" lon="35.1723168"><ele>87.9</ele><time>2022-11-23T12:14:34Z</time></trkpt>
<trkpt lat="33.0690219" lon="35.1721235"><ele>87.8</ele><time>2022-11-23T12:14:42Z</time></trkpt>
<trkpt lat="33.069204" lon="35.1721633"><ele>86.4</ele><time>2022-11-23T12:14:50Z</time></trkpt>
<trkpt lat="33.0692617" lon="35.1724077"><ele>86.3</ele><time>2022-11-23T12:14:54Z</time></trkpt>
<trkpt lat="33.0692977" lon="35.1726286"><ele>86.3</ele><time>2022-11-23T12:14:59Z</time></trkpt>
<trkpt lat="33.0693612" lon="35.1728752"><ele>85.9</ele><time>2022-11-23T12:15:05Z</time></trkpt>
<trkpt lat="33.0694563" lon="35.1730973"><ele>84.3</ele><time>2022-11-23T12:15:09Z</time></trkpt>
<trkpt lat="33.0694065" lon="35.1733189"><ele>85.4</ele><time>2022-11-23T12:15:14Z</time></trkpt>
<trkpt lat="33.0694722" lon="35.1735441"><ele>86.0</ele><time>2022-11-23T12:15:20Z</time></trkpt>
<trkpt lat="33.0696671" lon="35.1735571"><ele>83.0</ele><time>2022-11-23T12:15:29Z</time></trkpt>
<trkpt lat="33.0696678" lon="35.173284"><ele>80.5</ele><time>2022-11-23T12:15:33Z</time></trkpt>
<trkpt lat="33.0696604" lon="35.1730606"><ele>80.7</ele><time>2022-11-23T12:15:39Z</time></trkpt>
<trkpt lat="33.0696722" lon="35.1728394"><ele>80.5</ele><time>2022-11-23T12:15:43Z</time></trkpt>
<trkpt lat="33.0696767" lon="35.172584"><ele>80.6</ele><time>2022-11-23T12:15:48Z</time></trkpt>
<trkpt lat="33.06964" lon="35.1723372"><ele>80.9</ele><time>2022-11-23T12:15:53Z</time></trkpt>
<trkpt lat="33.0696146" lon="35.1720959"><ele>80.9</ele><time>2022-11-23T12:15:59Z</time></trkpt>
<trkpt lat="33.0696587" lon="35.1718587"><ele>80.0</ele><time>2022-11-23T12:16:04Z</time></trkpt>
<trkpt lat="33.0696125" lon="35.1716396"><ele>80.1</ele><time>2022-11-23T12:16:09Z</time></trkpt>
<trkpt lat="33.0694903" lon="35.1714551"><ele>81.0</ele><time>2022-11-23T12:16:16Z</time></trkpt>
<trkpt lat="33.0694327" lon="35.1712392"><ele>81.3</ele><time>2022-11-23T12:16:25Z</time></trkpt>
<trkpt lat="33.0694543" lon="35.1710138"><ele>80.6</ele><time>2022-11-23T12:16:35Z</time></trkpt>
<trkpt lat="33.0694717" lon="35.1707988"><ele>79.8</ele><time>2022-11-23T12:16:43Z</time></trkpt>
<trkpt lat="33.0694067" lon="35.170573"><ele>79.5</ele><time>2022-11-23T12:16:51Z</time></trkpt>
<trkpt lat="33.0693413" lon="35.1703469"><ele>79.1</ele><time>2022-11-23T12:16:59Z</time></trkpt>
<trkpt lat="33.0692546" lon="35.1701544"><ele>78.9</ele><time>2022-11-23T12:17:04Z</time></trkpt>
<trkpt lat="33.0690962" lon="35.1700226"><ele>79.3</ele><time>2022-11-23T12:17:10Z</time></trkpt>
<trkpt lat="33.0689525" lon="35.1698929"><ele>78.9</ele><time>2022-11-23T12:17:16Z</time></trkpt>
<trkpt lat="33.068758" lon="35.1698743"><ele>79.3</ele><time>2022-11-23T12:17:23Z</time></trkpt>
<trkpt lat="33.0685662" lon="35.1698222"><ele>79.6</ele><time>2022-11-23T12:17:33Z</time></trkpt>
<trkpt lat="33.0685307" lon="35.1696102"><ele>78.9</ele><time>2022-11-23T12:17:39Z</time></trkpt>
<trkpt lat="33.0683985" lon="35.1694464"><ele>78.7</ele><time>2022-11-23T12:17:45Z</time></trkpt>
<trkpt lat="33.0684159" lon="35.1692012"><ele>77.7</ele><time>2022-11-23T12:17:53Z</time></trkpt>
<trkpt lat="33.0683132" lon="35.1689658"><ele>76.3</ele><time>2022-11-23T12:17:58Z</time></trkpt>
<trkpt lat="33.0681808" lon="35.1687728"><ele>73.6</ele><time>2022-11-23T12:18:05Z</time></trkpt>
<trkpt lat="33.0682058" lon="35.1685425"><ele>72.0</ele><time>2022-11-23T12:18:10Z</time></trkpt>
<trkpt lat="33.0682896" lon="35.1683108"><ele>70.8</ele><time>2022-11-23T12:18:15Z</time></trkpt>
<trkpt lat="33.0683947" lon="35.16809"><ele>70.5</ele><time>2022-11-23T12:18:20Z</time></trkpt>
<trkpt lat="33.0683974" lon="35.1678609"><ele>70.1</ele><time>2022-11-23T12:18:25Z</time></trkpt>
<trkpt lat="33.0684578" lon="35.167643"><ele>69.5</ele><time>2022-11-23T12:18:30Z</time></trkpt>
<trkpt lat="33.0685841" lon="35.1674755"><ele>68.5</ele><time>2022-11-23T12:18:35Z</time></trkpt>
<trkpt lat="33.0686484" lon="35.1672427"><ele>67.2</ele><time>2022-11-23T12:18:40Z</time></trkpt>
<trkpt lat="33.068629" lon="35.1670209"><ele>66.4</ele><time>2022-11-23T12:18:44Z</time></trkpt>
<trkpt lat="33.0686063" lon="35.1667777"><ele>65.6</ele><time>2022-11-23T12:18:50Z</time></trkpt>
<trkpt lat="33.0686138" lon="35.1665607"><ele>65.0</ele><time>2022-11-23T12:18:55Z</time></trkpt>
<trkpt lat="33.0685859" lon="35.1663244"><ele>65.4</ele><time>2022-11-23T12:19:01Z</time></trkpt>
<trkpt lat="33.0685987" lon="35.1660869"><ele>65.5</ele><time>2022-11-23T12:19:08Z</time></trkpt>
<trkpt lat="33.0686838" lon="35.1658845"><ele>65.3</ele><time>2022-11-23T12:19:17Z</time></trkpt>
<trkpt lat="33.0687013" lon="35.1656693"><ele>64.8</ele><time>2022-11-23T12:19:23Z</time></trkpt>
<trkpt lat="33.0687328" lon="35.1654278"><ele>63.9</ele><time>2022-11-23T12:19:29Z</time></trkpt>
<trkpt lat="33.0687511" lon="35.1651717"><ele>63.1</ele><time>2022-11-23T12:19:35Z</time></trkpt>
<trkpt lat="33.0688011" lon="35.164965"><ele>62.3</ele><time>2022-11-23T12:19:39Z</time></trkpt>
<trkpt lat="33.0688342" lon="35.1647525"><ele>62.0</ele><time>2022-11-23T12:19:44Z</time></trkpt>
<trkpt lat="33.0688401" lon="35.1645358"><ele>61.8</ele><time>2022-11-23T12:19:49Z</time></trkpt>
<trkpt lat="33.0688796" lon="35.1642956"><ele>61.5</ele><time>2022-11-23T12:19:56Z</time></trkpt>
<trkpt lat="33.068894" lon="35.1640571"><ele>61.5</ele><time>2022-11-23T12:20:03Z</time></trkpt>
<trkpt lat="33.0688497" lon="35.1638438"><ele>61.9</ele><time>2022-11-23T12:20:10Z</time></trkpt>
<trkpt lat="33.0688941" lon="35.1636233"><ele>62.4</ele><time>2022-11-23T12:20:16Z</time></trkpt>
<trkpt lat="33.0689646" lon="35.1633915"><ele>63.1</ele><time>2022-11-23T12:20:23Z</time></trkpt>
<trkpt lat="33.0690171" lon="35.1631583"><ele>63.1</ele><time>2022-11-23T12:20:30Z</time></trkpt>
<trkpt lat="33.0690318" lon="35.1629145"><ele>62.6</ele><time>2022-11-23T12:20:35Z</time></trkpt>
<trkpt lat="33.0690697" lon="35.1626746"><ele>62.2</ele><time>2022-11-23T12:20:40Z</time></trkpt>
<trkpt lat="33.0691744" lon="35.1624686"><ele>61.9</ele><time>2022-11-23T12:20:46Z</time></trkpt>
<trkpt lat="33.0691534" lon="35.1622427"><ele>61.4</ele><time>2022-11-23T12:20:51Z</time></trkpt>
<trkpt lat="33.0691681" lon="35.1620024"><ele>60.8</ele><time>2022-11-23T12:20:57Z</time></trkpt>
<trkpt lat="33.0690966" lon="35.1617716"><ele>60.1</ele><time>2022-11-23T12:21:02Z</time></trkpt>
<trkpt lat="33.0692129" lon="35.1615847"><ele>59.7</ele><time>2022-11-23T12:21:12Z</time></trkpt>
<trkpt lat="33.0694102" lon="35.1616603"><ele>59.1</ele><time>2022-11-23T12:21:18Z</time></trkpt>
<trkpt lat="33.0694706" lon="35.1614524"><ele>58.6</ele><time>2022-11-23T12:21:29Z</time></trkpt>
<trkpt lat="33.0694204" lon="35.1612137"><ele>58.4</ele><time>2022-11-23T12:21:34Z</time></trkpt>
<trkpt lat="33.0692771" lon="35.1610627"><ele>58.3</ele><time>2022-11-23T12:21:40Z</time></trkpt>
<trkpt lat="33.0690819" lon="35.1609924"><ele>58.1</ele><time>2022-11-23T12:21:47Z</time></trkpt>
<trkpt lat="33.0688781" lon="35.161001"><ele>57.4</ele><time>2022-11-23T12:21:53Z</time></trkpt>
<trkpt lat="33.0686918" lon="35.1608899"><ele>56.5</ele><time>2022-11-23T12:21:59Z</time></trkpt>
<trkpt lat="33.0685303" lon="35.161037"><ele>56.2</ele><time>2022-11-23T12:22:03Z</time></trkpt>
<trkpt lat="33.0684204" lon="35.1612478"><ele>56.3</ele><time>2022-11-23T12:22:09Z</time></trkpt>
<trkpt lat="33.0683047" lon="35.1614291"><ele>56.5</ele><time>2022-11-23T12:22:15Z</time></trkpt>
<trkpt lat="33.0682009" lon="35.161629"><ele>57.2</ele><time>2022-11-23T12:22:21Z</time></trkpt>
<trkpt lat="33.0681196" lon="35.1618304"><ele>58.0</ele><time>2022-11-23T12:22:27Z</time></trkpt>
<trkpt lat="33.0680321" lon="35.1620391"><ele>58.8</ele><time>2022-11-23T12:22:33Z</time></trkpt>
<trkpt lat="33.0679421" lon="35.1622704"><ele>59.7</ele><time>2022-11-23T12:22:39Z</time></trkpt>
<trkpt lat="33.0678289" lon="35.1624838"><ele>60.5</ele><time>2022-11-23T12:22:45Z</time></trkpt>
<trkpt lat="33.0676534" lon="35.1625489"><ele>60.9</ele><time>2022-11-23T12:22:50Z</time></trkpt>
<trkpt lat="33.067473" lon="35.1625704"><ele>61.2</ele><time>2022-11-23T12:22:55Z</time></trkpt>
<trkpt lat="33.0672798" lon="35.1625525"><ele>62.1</ele><time>2022-11-23T12:23:01Z</time></trkpt>
<trkpt lat="33.0670965" lon="35.1625184"><ele>62.9</ele><time>2022-11-23T12:23:07Z</time></trkpt>
<trkpt lat="33.0669225" lon="35.1624574"><ele>63.7</ele><time>2022-11-23T12:23:13Z</time></trkpt>
<trkpt lat="33.0667481" lon="35.1623883"><ele>64.6</ele><time>2022-11-23T12:23:19Z</time></trkpt>
<trkpt lat="33.0665473" lon="35.16234"><ele>66.7</ele><time>2022-11-23T12:23:26Z</time></trkpt>
<trkpt lat="33.0663497" lon="35.1622884"><ele>69.7</ele><time>2022-11-23T12:23:34Z</time></trkpt>
<trkpt lat="33.0661645" lon="35.1622423"><ele>72.4</ele><time>2022-11-23T12:23:43Z</time></trkpt>
<trkpt lat="33.065983" lon="35.1621842"><ele>75.1</ele><time>2022-11-23T12:23:53Z</time></trkpt>
<trkpt lat="33.065803" lon="35.1621585"><ele>77.8</ele><time>2022-11-23T12:24:02Z</time></trkpt>
<trkpt lat="33.0656518" lon="35.162035"><ele>80.8</ele><time>2022-11-23T12:24:14Z</time></trkpt>
<trkpt lat="33.0655252" lon="35.1618505"><ele>83.3</ele><time>2022-11-23T12:24:26Z</time></trkpt>
<trkpt lat="33.0654416" lon="35.1616571"><ele>85.1</ele><time>2022-11-23T12:24:38Z</time></trkpt>
<trkpt lat="33.0655733" lon="35.1614892"><ele>83.8</ele><time>2022-11-23T12:24:48Z</time></trkpt>
<trkpt lat="33.0657716" lon="35.1613854"><ele>81.6</ele><time>2022-11-23T12:24:54Z</time></trkpt>
<trkpt lat="33.0659726" lon="35.1613827"><ele>78.3</ele><time>2022-11-23T12:24:59Z</time></trkpt>
<trkpt lat="33.0661363" lon="35.1612718"><ele>76.2</ele><time>2022-11-23T12:25:04Z</time></trkpt>
<trkpt lat="33.0663087" lon="35.1611381"><ele>74.0</ele><time>2022-11-23T12:25:11Z</time></trkpt>
<trkpt lat="33.0664379" lon="35.1609615"><ele>72.1</ele><time>2022-11-23T12:25:19Z</time></trkpt>
<trkpt lat="33.0664201" lon="35.160726"><ele>73.1</ele><time>2022-11-23T12:25:30Z</time></trkpt>
<trkpt lat="33.0664272" lon="35.1605018"><ele>72.8</ele><time>2022-11-23T12:25:38Z</time></trkpt>
<trkpt lat="33.0664367" lon="35.1602653"><ele>72.7</ele><time>2022-11-23T12:25:45Z</time></trkpt>
<trkpt lat="33.0665354" lon="35.1600596"><ele>70.8</ele><time>2022-11-23T12:25:51Z</time></trkpt>
<trkpt lat="33.0664988" lon="35.1598259"><ele>72.0</ele><time>2022-11-23T12:25:57Z</time></trkpt>
<trkpt lat="33.0665534" lon="35.159594"><ele>71.9</ele><time>2022-11-23T12:26:04Z</time></trkpt>
<trkpt lat="33.0666103" lon="35.159348"><ele>71.5</ele><time>2022-11-23T12:26:09Z</time></trkpt>
<trkpt lat="33.0666117" lon="35.1591091"><ele>72.5</ele><time>2022-11-23T12:26:17Z</time></trkpt>
<trkpt lat="33.0667955" lon="35.1589654"><ele>70.3</ele><time>2022-11-23T12:26:24Z</time></trkpt>
<trkpt lat="33.0669134" lon="35.1587622"><ele>69.0</ele><time>2022-11-23T12:26:29Z</time></trkpt>
<trkpt lat="33.0669925" lon="35.1585679"><ele>68.3</ele><time>2022-11-23T12:26:34Z</time></trkpt>
<trkpt lat="33.067027" lon="35.1583329"><ele>68.1</ele><time>2022-11-23T12:26:40Z</time></trkpt>
<trkpt lat="33.0670899" lon="35.1581107"><ele>67.8</ele><time>2022-11-23T12:26:47Z</time></trkpt>
<trkpt lat="33.0672501" lon="35.1579475"><ele>64.7</ele><time>2022-11-23T12:26:53Z</time></trkpt>
<trkpt lat="33.0674018" lon="35.1577566"><ele>61.5</ele><time>2022-11-23T12:26:57Z</time></trkpt>
<trkpt lat="33.0674573" lon="35.1575487"><ele>60.2</ele><time>2022-11-23T12:27:00Z</time></trkpt>
<trkpt lat="33.0675304" lon="35.1573317"><ele>58.5</ele><time>2022-11-23T12:27:04Z</time></trkpt>
<trkpt lat="33.067571" lon="35.1570879"><ele>57.4</ele><time>2022-11-23T12:27:08Z</time></trkpt>
<trkpt lat="33.0675061" lon="35.1568312"><ele>57.4</ele><time>2022-11-23T12:27:12Z</time></trkpt>
<trkpt lat="33.0674324" lon="35.1565876"><ele>58.5</ele><time>2022-11-23T12:27:16Z</time></trkpt>
<trkpt lat="33.0673305" lon="35.1564054"><ele>60.5</ele><time>2022-11-23T12:27:21Z</time></trkpt>
<trkpt lat="33.0672534" lon="35.1561977"><ele>62.0</ele><time>2022-11-23T12:27:28Z</time></trkpt>
<trkpt lat="33.0671758" lon="35.1559984"><ele>63.0</ele><time>2022-11-23T12:27:37Z</time></trkpt>
<trkpt lat="33.0671499" lon="35.1557489"><ele>62.7</ele><time>2022-11-23T12:27:44Z</time></trkpt>
<trkpt lat="33.0671283" lon="35.1555061"><ele>62.3</ele><time>2022-11-23T12:27:49Z</time></trkpt>
<trkpt lat="33.0670778" lon="35.1552887"><ele>62.8</ele><time>2022-11-23T12:27:56Z</time></trkpt>
<trkpt lat="33.0670701" lon="35.1550729"><ele>62.2</ele><time>2022-11-23T12:28:03Z</time></trkpt>
<trkpt lat="33.0670566" lon="35.1548257"><ele>61.3</ele><time>2022-11-23T12:28:09Z</time></trkpt>
<trkpt lat="33.0670375" lon="35.1545781"><ele>60.2</ele><time>2022-11-23T12:28:13Z</time></trkpt>
<trkpt lat="33.0669843" lon="35.1543264"><ele>60.0</ele><time>2022-11-23T12:28:19Z</time></trkpt>
<trkpt lat="33.0669489" lon="35.1541001"><ele>59.4</ele><time>2022-11-23T12:28:25Z</time></trkpt>
<trkpt lat="33.0668991" lon="35.1538651"><ele>59.0</ele><time>2022-11-23T12:28:31Z</time></trkpt>
<trkpt lat="33.0668657" lon="35.1536412"><ele>58.2</ele><time>2022-11-23T12:28:36Z</time></trkpt>
<trkpt lat="33.0668033" lon="35.1533928"><ele>57.8</ele><time>2022-11-23T12:28:41Z</time></trkpt>
<trkpt lat="33.0667479" lon="35.1531573"><ele>56.7</ele><time>2022-11-23T12:28:45Z</time></trkpt>
<trkpt lat="33.0666427" lon="35.1529524"><ele>56.1</ele><time>2022-11-23T12:28:50Z</time></trkpt>
<trkpt lat="33.0664453" lon="35.1529092"><ele>57.0</ele><time>2022-11-23T12:28:58Z</time></trkpt>
<trkpt lat="33.0662572" lon="35.1529189"><ele>58.6</ele><time>2022-11-23T12:29:06Z</time></trkpt>
<trkpt lat="33.0660683" lon="35.1529825"><ele>60.7</ele><time>2022-11-23T12:29:14Z</time></trkpt>
<trkpt lat="33.0658769" lon="35.1530317"><ele>62.7</ele><time>2022-11-23T12:29:22Z</time></trkpt>
<trkpt lat="33.0658307" lon="35.1532445"><ele>65.1</ele><time>2022-11-23T12:29:36Z</time></trkpt>
<trkpt lat="33.0656304" lon="35.1532138"><ele>66.2</ele><time>2022-11-23T12:29:48Z</time></trkpt>
<trkpt lat="33.0654642" lon="35.1530817"><ele>66.3</ele><time>2022-11-23T12:29:55Z</time></trkpt>
<trkpt lat="33.0653381" lon="35.1529258"><ele>66.3</ele><time>2022-11-23T12:30:01Z</time></trkpt>
<trkpt lat="33.0653916" lon="35.1527049"><ele>64.3</ele><time>2022-11-23T12:30:09Z</time></trkpt>
<trkpt lat="33.0654264" lon="35.1524789"><ele>62.4</ele><time>2022-11-23T12:31:28Z</time></trkpt>
<trkpt lat="33.0655189" lon="35.1522847"><ele>60.0</ele><time>2022-11-23T12:31:34Z</time></trkpt>
<trkpt lat="33.0655951" lon="35.1520433"><ele>57.5</ele><time>2022-11-23T12:31:40Z</time></trkpt>
<trkpt lat="33.0656425" lon="35.1518351"><ele>55.5</ele><time>2022-11-23T12:31:44Z</time></trkpt>
<trkpt lat="33.0656482" lon="35.1516086"><ele>53.6</ele><time>2022-11-23T12:31:48Z</time></trkpt>
<trkpt lat="33.0655998" lon="35.151382"><ele>51.4</ele><time>2022-11-23T12:31:52Z</time></trkpt>
<trkpt lat="33.0655554" lon="35.1511216"><ele>48.9</ele><time>2022-11-23T12:31:57Z</time></trkpt>
<trkpt lat="33.0655159" lon="35.1509076"><ele>46.9</ele><time>2022-11-23T12:32:01Z</time></trkpt>
<trkpt lat="33.0654048" lon="35.1507002"><ele>46.2</ele><time>2022-11-23T12:32:05Z</time></trkpt>
<trkpt lat="33.065259" lon="35.1505242"><ele>46.5</ele><time>2022-11-23T12:32:09Z</time></trkpt>
<trkpt lat="33.0651484" lon="35.1503273"><ele>45.9</ele><time>2022-11-23T12:32:13Z</time></trkpt>
<trkpt lat="33.0649378" lon="35.1502797"><ele>47.1</ele><time>2022-11-23T12:32:19Z</time></trkpt>
<trkpt lat="33.0647473" lon="35.1502737"><ele>48.6</ele><time>2022-11-23T12:32:25Z</time></trkpt>
<trkpt lat="33.064559" lon="35.1503242"><ele>50.7</ele><time>2022-11-23T12:32:34Z</time></trkpt>
<trkpt lat="33.0643811" lon="35.1504118"><ele>53.0</ele><time>2022-11-23T12:32:40Z</time></trkpt>
<trkpt lat="33.0641947" lon="35.1504807"><ele>55.3</ele><time>2022-11-23T12:32:50Z</time></trkpt>
<trkpt lat="33.0640065" lon="35.1505156"><ele>56.8</ele><time>2022-11-23T12:33:01Z</time></trkpt>
<trkpt lat="33.0639887" lon="35.1507328"><ele>58.8</ele><time>2022-11-23T12:33:20Z</time></trkpt>
<trkpt lat="33.0641166" lon="35.1508933"><ele>59.5</ele><time>2022-11-23T12:33:28Z</time></trkpt>
<trkpt lat="33.0642331" lon="35.1510826"><ele>60.0</ele><time>2022-11-23T12:33:37Z</time></trkpt>
<trkpt lat="33.0643532" lon="35.1512465"><ele>60.3</ele><time>2022-11-23T12:33:47Z</time></trkpt>
<trkpt lat="33.0645464" lon="35.151233"><ele>59.2</ele><time>2022-11-23T12:33:56Z</time></trkpt>
<trkpt lat="33.0647372" lon="35.1512873"><ele>58.4</ele><time>2022-11-23T12:34:02Z</time></trkpt>
<trkpt lat="33.0648876" lon="35.151409"><ele>58.8</ele><time>2022-11-23T12:34:10Z</time></trkpt>
<trkpt lat="33.0650479" lon="35.1515218"><ele>58.9</ele><time>2022-11-23T12:34:16Z</time></trkpt>
<trkpt lat="33.0650819" lon="35.1517598"><ele>60.7</ele><time>2022-11-23T12:34:24Z</time></trkpt>
<trkpt lat="33.0651611" lon="35.151976"><ele>61.5</ele><time>2022-11-23T12:34:33Z</time></trkpt>
<trkpt lat="33.0650694" lon="35.1521669"><ele>63.8</ele><time>2022-11-23T12:34:44Z</time></trkpt>
<trkpt lat="33.0650998" lon="35.1523834"><ele>65.0</ele><time>2022-11-23T12:34:55Z</time></trkpt>
<trkpt lat="33.0650472" lon="35.1526001"><ele>66.9</ele><time>2022-11-23T12:35:06Z</time></trkpt>
<trkpt lat="33.064953" lon="35.1527997"><ele>68.6</ele><time>2022-11-23T12:35:18Z</time></trkpt>
<trkpt lat="33.0650344" lon="35.1530471"><ele>69.3</ele><time>2022-11-23T12:35:26Z</time></trkpt>
<trkpt lat="33.0651562" lon="35.1532474"><ele>69.6</ele><time>2022-11-23T12:35:31Z</time></trkpt>
<trkpt lat="33.0653476" lon="35.1532926"><ele>68.7</ele><time>2022-11-23T12:35:40Z</time></trkpt>
<trkpt lat="33.0654764" lon="35.1534563"><ele>69.6</ele><time>2022-11-23T12:35:52Z</time></trkpt>
<trkpt lat="33.0656161" lon="35.1536075"><ele>70.7</ele><time>2022-11-23T12:36:04Z</time></trkpt>
<trkpt lat="33.0657989" lon="35.1536829"><ele>70.8</ele><time>2022-11-23T12:36:14Z</time></trkpt>
<trkpt lat="33.065979" lon="35.1537013"><ele>69.6</ele><time>2022-11-23T12:36:21Z</time></trkpt>
<trkpt lat="33.0661622" lon="35.1536769"><ele>67.7</ele><time>2022-11-23T12:36:26Z</time></trkpt>
<trkpt lat="33.0663408" lon="35.1537707"><ele>66.8</ele><time>2022-11-23T12:36:32Z</time></trkpt>
<trkpt lat="33.0664772" lon="35.1539479"><ele>67.2</ele><time>2022-11-23T12:36:40Z</time></trkpt>
<trkpt lat="33.0665489" lon="35.1541698"><ele>68.4</ele><time>2022-11-23T12:36:47Z</time></trkpt>
<trkpt lat="33.0666377" lon="35.1543853"><ele>68.7</ele><time>2022-11-23T12:36:52Z</time></trkpt>
<trkpt lat="33.0667613" lon="35.1545811"><ele>67.3</ele><time>2022-11-23T12:36:57Z</time></trkpt>
<trkpt lat="33.0667914" lon="35.1547959"><ele>67.5</ele><time>2022-11-23T12:37:01Z</time></trkpt>
<trkpt lat="33.0667832" lon="35.155026"><ele>69.1</ele><time>2022-11-23T12:37:07Z</time></trkpt>
<trkpt lat="33.0666705" lon="35.1552172"><ele>73.3</ele><time>2022-11-23T12:37:18Z</time></trkpt>
<trkpt lat="33.0667034" lon="35.1554308"><ele>74.1</ele><time>2022-11-23T12:37:25Z</time></trkpt>
<trkpt lat="33.0667888" lon="35.1556197"><ele>72.9</ele><time>2022-11-23T12:37:30Z</time></trkpt>
<trkpt lat="33.0668244" lon="35.1558545"><ele>73.1</ele><time>2022-11-23T12:37:35Z</time></trkpt>
<trkpt lat="33.0668401" lon="35.1561"><ele>74.2</ele><time>2022-11-23T12:37:44Z</time></trkpt>
<trkpt lat="33.0668538" lon="35.1563146"><ele>75.0</ele><time>2022-11-23T12:37:52Z</time></trkpt>
<trkpt lat="33.0668719" lon="35.1565451"><ele>75.8</ele><time>2022-11-23T12:38:01Z</time></trkpt>
<trkpt lat="33.0668821" lon="35.156789"><ele>76.1</ele><time>2022-11-23T12:38:07Z</time></trkpt>
<trkpt lat="33.0669231" lon="35.1570194"><ele>74.9</ele><time>2022-11-23T12:38:17Z</time></trkpt>
<trkpt lat="33.0670289" lon="35.1572147"><ele>71.8</ele><time>2022-11-23T12:38:22Z</time></trkpt>
<trkpt lat="33.0670105" lon="35.1574293"><ele>71.9</ele><time>2022-11-23T12:38:28Z</time></trkpt>
<trkpt lat="33.0668873" lon="35.1575959"><ele>74.6</ele><time>2022-11-23T12:38:37Z</time></trkpt>
<trkpt lat="33.066755" lon="35.1577559"><ele>77.2</ele><time>2022-11-23T12:38:48Z</time></trkpt>
<trkpt lat="33.0666982" lon="35.1579701"><ele>77.4</ele><time>2022-11-23T12:38:54Z</time></trkpt>
<trkpt lat="33.0666403" lon="35.1581778"><ele>77.5</ele><time>2022-11-23T12:39:00Z</time></trkpt>
<trkpt lat="33.0665179" lon="35.1583488"><ele>79.0</ele><time>2022-11-23T12:39:08Z</time></trkpt>
<trkpt lat="33.0663964" lon="35.1585398"><ele>80.5</ele><time>2022-11-23T12:39:17Z</time></trkpt>
<trkpt lat="33.0663588" lon="35.1587537"><ele>80.2</ele><time>2022-11-23T12:39:23Z</time></trkpt>
<trkpt lat="33.0662837" lon="35.1589695"><ele>80.5</ele><time>2022-11-23T12:39:31Z</time></trkpt>
<trkpt lat="33.0661383" lon="35.1591166"><ele>82.6</ele><time>2022-11-23T12:39:42Z</time></trkpt>
<trkpt lat="33.0661221" lon="35.1593506"><ele>82.0</ele><time>2022-11-23T12:39:52Z</time></trkpt>
<trkpt lat="33.0660544" lon="35.159551"><ele>82.5</ele><time>2022-11-23T12:40:02Z</time></trkpt>
<trkpt lat="33.0660282" lon="35.1597638"><ele>82.2</ele><time>2022-11-23T12:40:10Z</time></trkpt>
<trkpt lat="33.0659536" lon="35.1599718"><ele>82.6</ele><time>2022-11-23T12:40:21Z</time></trkpt>
<trkpt lat="33.0658739" lon="35.1601942"><ele>84.1</ele><time>2022-11-23T12:40:32Z</time></trkpt>
<trkpt lat="33.065806" lon="35.1604016"><ele>85.3</ele><time>2022-11-23T12:40:40Z</time></trkpt>
<trkpt lat="33.065636" lon="35.160478"><ele>87.2</ele><time>2022-11-23T12:40:49Z</time></trkpt>
<trkpt lat="33.065509" lon="35.160661"><ele>88.5</ele><time>2022-11-23T12:40:56Z</time></trkpt>
<trkpt lat="33.0653385" lon="35.1607301"><ele>90.4</ele><time>2022-11-23T12:41:03Z</time></trkpt>
<trkpt lat="33.0651511" lon="35.1607149"><ele>92.5</ele><time>2022-11-23T12:41:10Z</time></trkpt>
<trkpt lat="33.0649682" lon="35.1607205"><ele>94.6</ele><time>2022-11-23T12:41:20Z</time></trkpt>
</trkseg></trk></gpx>