<?xml version="1.0" encoding="utf-8"?>
<gpx version="1.1"><trk><trkseg>
<trkpt lat="33.0050735" lon="35.2172059"><ele>359.4</ele><time>2022-08-15T10:56:30Z</time></trkpt>
<trkpt lat="33.0050743" lon="35.2172052"><ele>359.4</ele><time>2022-08-15T10:56:31Z</time></trkpt>
<trkpt lat="33.0050747" lon="35.2172048"><ele>359.4</ele><time>2022-08-15T10:56:32Z</time></trkpt>
<trkpt lat="33.0050282" lon="35.2171876"><ele>360.1</ele><time>2022-08-15T10:58:09Z</time></trkpt>
<trkpt lat="33.0050207" lon="35.2171916"><ele>360.0</ele><time>2022-08-15T10:58:10Z</time></trkpt>
<trkpt lat="33.0050143" lon="35.2171975"><ele>360.0</ele><time>2022-08-15T10:58:11Z</time></trkpt>
<trkpt lat="33.0050104" lon="35.2172059"><ele>360.0</ele><time>2022-08-15T10:58:12Z</time></trkpt>
<trkpt lat="33.0050083" lon="35.2172151"><ele>360.0</ele><time>2022-08-15T10:58:13Z</time></trkpt>
<trkpt lat="33.0050069" lon="35.2172239"><ele>359.9</ele><time>2022-08-15T10:58:14Z</time></trkpt>
<trkpt lat="33.0050071" lon="35.2172328"><ele>359.9</ele><time>2022-08-15T10:58:15Z</time></trkpt>
<trkpt lat="33.0050089" lon="35.2172416"><ele>359.9</ele><time>2022-08-15T10:58:16Z</time></trkpt>
<trkpt lat="33.0050948" lon="35.2171716"><ele>359.8</ele><time>2022-08-15T11:00:15Z</time></trkpt>
<trkpt lat="33.0050974" lon="35.2171777"><ele>359.8</ele><time>2022-08-15T11:00:16Z</time></trkpt>
<trkpt lat="33.0050529" lon="35.2172208"><ele>360.6</ele><time>2022-08-15T11:03:34Z</time></trkpt>
<trkpt lat="33.0050529" lon="35.2172264"><ele>360.6</ele><time>2022-08-15T11:03:35Z</time></trkpt>
<trkpt lat="33.0050528" lon="35.217232"><ele>360.5</ele><time>2022-08-15T11:03:36Z</time></trkpt>
<trkpt lat="33.0050517" lon="35.2172372"><ele>360.5</ele><time>2022-08-15T11:03:37Z</time></trkpt>
<trkpt lat="33.0050492" lon="35.2172417"><ele>360.5</ele><time>2022-08-15T11:03:38Z</time></trkpt>
<trkpt lat="33.004835" lon="35.2171748"><ele>358.8</ele><time>2022-08-15T11:04:25Z</time></trkpt>
<trkpt lat="33.0048341" lon="35.2171762"><ele>358.8</ele><time>2022-08-15T11:04:26Z</time></trkpt>
<trkpt lat="33.0048334" lon="35.217178"><ele>358.8</ele><time>2022-08-15T11:04:27Z</time></trkpt>
<trkpt lat="33.0048329" lon="35.2171804"><ele>358.8</ele><time>2022-08-15T11:04:28Z</time></trkpt>
<trkpt lat="33.0048326" lon="35.2171825"><ele>358.8</ele><time>2022-08-15T11:04:29Z</time></trkpt>
<trkpt lat="33.0048327" lon="35.2171842"><ele>358.8</ele><time>2022-08-15T11:04:30Z</time></trkpt>
<trkpt lat="33.0048319" lon="35.2171868"><ele>358.8</ele><time>2022-08-15T11:04:31Z</time></trkpt>
<trkpt lat="33.0048306" lon="35.2171904"><ele>358.8</ele><time>2022-08-15T11:04:32Z</time></trkpt>
<trkpt lat="33.0048294" lon="35.217194"><ele>358.8</ele><time>2022-08-15T11:04:33Z</time></trkpt>
<trkpt lat="33.0048282" lon="35.2171974"><ele>358.9</ele><time>2022-08-15T11:04:34Z</time></trkpt>
<trkpt lat="33.004827" lon="35.2172006"><ele>358.9</ele><time>2022-08-15T11:04:35Z</time></trkpt>
<trkpt lat="33.0048259" lon="35.2172037"><ele>358.9</ele><time>2022-08-15T11:04:36Z</time></trkpt>
<trkpt lat="33.0048248" lon="35.2172068"><ele>358.9</ele><time>2022-08-15T11:04:37Z</time></trkpt>
<trkpt lat="33.0048239" lon="35.2172098"><ele>358.9</ele><time>2022-08-15T11:04:38Z</time></trkpt>
<trkpt lat="33.0048238" lon="35.2172125"><ele>358.9</ele><time>2022-08-15T11:04:39Z</time></trkpt>
<trkpt lat="33.0048252" lon="35.2172148"><ele>358.9</ele><time>2022-08-15T11:04:40Z</time></trkpt>
<trkpt lat="33.0048275" lon="35.2172165"><ele>358.9</ele><time>2022-08-15T11:04:41Z</time></trkpt>
<trkpt lat="33.0050803" lon="35.2171643"><ele>359.9</ele><time>2022-08-15T11:13:36Z</time></trkpt>
<trkpt lat="33.0050815" lon="35.2171668"><ele>359.9</ele><time>2022-08-15T11:13:37Z</time></trkpt>
<trkpt lat="33.0050826" lon="35.2171694"><ele>359.9</ele><time>2022-08-15T11:13:38Z</time></trkpt>
<trkpt lat="33.0050354" lon="35.2172823"><ele>360.9</ele><time>2022-08-15T11:15:13Z</time></trkpt>
<trkpt lat="33.0050349" lon="35.2172847"><ele>360.9</ele><time>2022-08-15T11:15:14Z</time></trkpt>
<trkpt lat="33.0050345" lon="35.2172872"><ele>360.9</ele><time>2022-08-15T11:15:15Z</time></trkpt>
<trkpt lat="33.0050588" lon="35.2172008"><ele>360.1</ele><time>2022-08-15T11:16:51Z</time></trkpt>
<trkpt lat="33.0050602" lon="35.2172022"><ele>360.1</ele><time>2022-08-15T11:16:52Z</time></trkpt>
<trkpt lat="33.0050617" lon="35.2172034"><ele>360.1</ele><time>2022-08-15T11:16:53Z</time></trkpt>
<trkpt lat="33.0050632" lon="35.2172046"><ele>360.1</ele><time>2022-08-15T11:16:54Z</time></trkpt>
<trkpt lat="33.0050647" lon="35.2172056"><ele>360.1</ele><time>2022-08-15T11:16:55Z</time></trkpt>
<trkpt lat="33.0050664" lon="35.2172059"><ele>360.1</ele><time>2022-08-15T11:16:56Z</time></trkpt>
<trkpt lat="33.0050683" lon="35.2172055"><ele>360.2</ele><time>2022-08-15T11:16:57Z</time></trkpt>
<trkpt lat="33.0050702" lon="35.2172048"><ele>360.2</ele><time>2022-08-15T11:16:58Z</time></trkpt>
<trkpt lat="33.005072" lon="35.2172036"><ele>360.2</ele><time>2022-08-15T11:16:59Z</time></trkpt>
</trkseg></trk></gpx>