<?xml version="1.0" encoding="utf-8"?>
<gpx version="1.1"><trk><trkseg>
<trkpt lat="33.0050662" lon="35.2154711"><ele>351.1</ele><time>2022-01-04T13:16:46Z</time></trkpt>
<trkpt lat="33.0052463" lon="35.2155073"><ele>352.0</ele><time>2022-01-04T13:17:49Z</time></trkpt>
<trkpt lat="33.0054347" lon="35.215411"><ele>352.0</ele><time>2022-01-04T13:17:58Z</time></trkpt>
<trkpt lat="33.0056323" lon="35.2153669"><ele>352.5</ele><time>2022-01-04T13:18:07Z</time></trkpt>
<trkpt lat="33.0057152" lon="35.2151695"><ele>351.2</ele><time>2022-01-04T13:18:11Z</time></trkpt>
<trkpt lat="33.0058819" lon="35.2150339"><ele>350.4</ele><time>2022-01-04T13:18:15Z</time></trkpt>
<trkpt lat="33.0060408" lon="35.2149182"><ele>349.9</ele><time>2022-01-04T13:18:21Z</time></trkpt>
<trkpt lat="33.0059823" lon="35.214715"><ele>348.9</ele><time>2022-01-04T13:18:25Z</time></trkpt>
<trkpt lat="33.0058718" lon="35.2145088"><ele>347.8</ele><time>2022-01-04T13:18:29Z</time></trkpt>
<trkpt lat="33.0057481" lon="35.2143293"><ele>346.4</ele><time>2022-01-04T13:19:50Z</time></trkpt>
<trkpt lat="33.0056013" lon="35.2141351"><ele>344.7</ele><time>2022-01-04T13:19:55Z</time></trkpt>
<trkpt lat="33.0054853" lon="35.2139697"><ele>343.3</ele><time>2022-01-04T13:19:58Z</time></trkpt>
<trkpt lat="33.0054795" lon="35.2137248"><ele>342.1</ele><time>2022-01-04T13:20:01Z</time></trkpt>
<trkpt lat="33.0055802" lon="35.2134818"><ele>341.8</ele><time>2022-01-04T13:20:04Z</time></trkpt>
<trkpt lat="33.0057265" lon="35.2132629"><ele>342.3</ele><time>2022-01-04T13:20:07Z</time></trkpt>
<trkpt lat="33.0058811" lon="35.2130523"><ele>342.1</ele><time>2022-01-04T13:20:10Z</time></trkpt>
<trkpt lat="33.006018" lon="35.2128707"><ele>340.8</ele><time>2022-01-04T13:20:13Z</time></trkpt>
<trkpt lat="33.0061511" lon="35.2126798"><ele>339.2</ele><time>2022-01-04T13:20:16Z</time></trkpt>
<trkpt lat="33.0062778" lon="35.2124768"><ele>337.6</ele><time>2022-01-04T13:20:19Z</time></trkpt>
<trkpt lat="33.0064036" lon="35.2122688"><ele>336.4</ele><time>2022-01-04T13:20:22Z</time></trkpt>
<trkpt lat="33.0064722" lon="35.2120048"><ele>335.2</ele><time>2022-01-04T13:20:25Z</time></trkpt>
<trkpt lat="33.0065069" lon="35.2116995"><ele>333.9</ele><time>2022-01-04T13:20:28Z</time></trkpt>
<trkpt lat="33.0065404" lon="35.2114853"><ele>332.7</ele><time>2022-01-04T13:20:30Z</time></trkpt>
<trkpt lat="33.0065817" lon="35.2111672"><ele>330.6</ele><time>2022-01-04T13:20:33Z</time></trkpt>
<trkpt lat="33.0065985" lon="35.2109393"><ele>329.1</ele><time>2022-01-04T13:20:35Z</time></trkpt>
<trkpt lat="33.0066043" lon="35.2107155"><ele>327.5</ele><time>2022-01-04T13:20:37Z</time></trkpt>
<trkpt lat="33.0066012" lon="35.2104913"><ele>326.0</ele><time>2022-01-04T13:20:39Z</time></trkpt>
<trkpt lat="33.0065916" lon="35.2102649"><ele>324.4</ele><time>2022-01-04T13:20:41Z</time></trkpt>
<trkpt lat="33.0065807" lon="35.2100396"><ele>322.9</ele><time>2022-01-04T13:20:43Z</time></trkpt>
<trkpt lat="33.0065642" lon="35.2098139"><ele>321.9</ele><time>2022-01-04T13:20:45Z</time></trkpt>
<trkpt lat="33.006551" lon="35.2095226"><ele>320.8</ele><time>2022-01-04T13:20:48Z</time></trkpt>
<trkpt lat="33.0065418" lon="35.2092494"><ele>319.9</ele><time>2022-01-04T13:20:52Z</time></trkpt>
<trkpt lat="33.0065259" lon="35.2090274"><ele>319.1</ele><time>2022-01-04T13:20:55Z</time></trkpt>
<trkpt lat="33.0065" lon="35.2087595"><ele>318.1</ele><time>2022-01-04T13:20:58Z</time></trkpt>
<trkpt lat="33.0064509" lon="35.2084689"><ele>317.0</ele><time>2022-01-04T13:21:01Z</time></trkpt>
<trkpt lat="33.0064166" lon="35.2081707"><ele>315.6</ele><time>2022-01-04T13:21:04Z</time></trkpt>
<trkpt lat="33.0064236" lon="35.207956"><ele>314.4</ele><time>2022-01-04T13:21:06Z</time></trkpt>
<trkpt lat="33.0064369" lon="35.207741"><ele>313.2</ele><time>2022-01-04T13:21:08Z</time></trkpt>
<trkpt lat="33.0064201" lon="35.207511"><ele>311.9</ele><time>2022-01-04T13:21:10Z</time></trkpt>
<trkpt lat="33.00639" lon="35.2072784"><ele>310.6</ele><time>2022-01-04T13:21:12Z</time></trkpt>
<trkpt lat="33.0063601" lon="35.2070397"><ele>309.3</ele><time>2022-01-04T13:21:14Z</time></trkpt>
<trkpt lat="33.0063301" lon="35.2067953"><ele>307.9</ele><time>2022-01-04T13:21:16Z</time></trkpt>
<trkpt lat="33.0063018" lon="35.2065479"><ele>306.5</ele><time>2022-01-04T13:21:18Z</time></trkpt>
<trkpt lat="33.0062738" lon="35.2062998"><ele>305.1</ele><time>2022-01-04T13:21:20Z</time></trkpt>
<trkpt lat="33.0062596" lon="35.2060519"><ele>303.6</ele><time>2022-01-04T13:21:22Z</time></trkpt>
<trkpt lat="33.0062692" lon="35.2058019"><ele>302.1</ele><time>2022-01-04T13:21:24Z</time></trkpt>
<trkpt lat="33.0062831" lon="35.2055544"><ele>301.0</ele><time>2022-01-04T13:21:26Z</time></trkpt>
<trkpt lat="33.0062903" lon="35.2053128"><ele>300.0</ele><time>2022-01-04T13:21:28Z</time></trkpt>
<trkpt lat="33.006304" lon="35.2050744"><ele>299.0</ele><time>2022-01-04T13:21:30Z</time></trkpt>
<trkpt lat="33.0063349" lon="35.2048359"><ele>297.9</ele><time>2022-01-04T13:21:32Z</time></trkpt>
<trkpt lat="33.0063588" lon="35.2045949"><ele>296.8</ele><time>2022-01-04T13:21:34Z</time></trkpt>
<trkpt lat="33.0063767" lon="35.2043566"><ele>295.7</ele><time>2022-01-04T13:21:36Z</time></trkpt>
<trkpt lat="33.0064083" lon="35.2041127"><ele>294.6</ele><time>2022-01-04T13:21:38Z</time></trkpt>
<trkpt lat="33.0064379" lon="35.2038681"><ele>293.3</ele><time>2022-01-04T13:21:40Z</time></trkpt>
<trkpt lat="33.0064672" lon="35.2036228"><ele>291.9</ele><time>2022-01-04T13:21:42Z</time></trkpt>
<trkpt lat="33.0065031" lon="35.2033805"><ele>290.6</ele><time>2022-01-04T13:21:44Z</time></trkpt>
<trkpt lat="33.0065445" lon="35.2031438"><ele>289.4</ele><time>2022-01-04T13:21:46Z</time></trkpt>
<trkpt lat="33.0065962" lon="35.2029066"><ele>288.5</ele><time>2022-01-04T13:21:48Z</time></trkpt>
<trkpt lat="33.0066611" lon="35.2026683"><ele>287.8</ele><time>2022-01-04T13:21:50Z</time></trkpt>
<trkpt lat="33.0067371" lon="35.2024325"><ele>286.8</ele><time>2022-01-04T13:21:52Z</time></trkpt>
<trkpt lat="33.0068587" lon="35.2022232"><ele>285.4</ele><time>2022-01-04T13:21:54Z</time></trkpt>
<trkpt lat="33.0069828" lon="35.2020214"><ele>284.2</ele><time>2022-01-04T13:21:56Z</time></trkpt>
<trkpt lat="33.0071107" lon="35.2018368"><ele>283.3</ele><time>2022-01-04T13:21:58Z</time></trkpt>
<trkpt lat="33.0072562" lon="35.2016833"><ele>282.6</ele><time>2022-01-04T13:22:00Z</time></trkpt>
<trkpt lat="33.0073977" lon="35.2015314"><ele>282.1</ele><time>2022-01-04T13:22:02Z</time></trkpt>
<trkpt lat="33.0075321" lon="35.2013862"><ele>281.4</ele><time>2022-01-04T13:22:04Z</time></trkpt>
<trkpt lat="33.0076733" lon="35.2012439"><ele>280.8</ele><time>2022-01-04T13:22:06Z</time></trkpt>
<trkpt lat="33.0078138" lon="35.2011071"><ele>280.5</ele><time>2022-01-04T13:22:08Z</time></trkpt>
<trkpt lat="33.0080065" lon="35.2009062"><ele>280.5</ele><time>2022-01-04T13:22:11Z</time></trkpt>
<trkpt lat="33.0081895" lon="35.2006941"><ele>280.9</ele><time>2022-01-04T13:22:14Z</time></trkpt>
<trkpt lat="33.0083764" lon="35.2004948"><ele>281.0</ele><time>2022-01-04T13:22:17Z</time></trkpt>
<trkpt lat="33.0085564" lon="35.2002884"><ele>279.6</ele><time>2022-01-04T13:22:20Z</time></trkpt>
<trkpt lat="33.0087475" lon="35.2000937"><ele>278.3</ele><time>2022-01-04T13:22:23Z</time></trkpt>
<trkpt lat="33.0089407" lon="35.1998966"><ele>277.0</ele><time>2022-01-04T13:22:26Z</time></trkpt>
<trkpt lat="33.0091265" lon="35.1996889"><ele>275.9</ele><time>2022-01-04T13:22:29Z</time></trkpt>
<trkpt lat="33.009288" lon="35.1994523"><ele>274.5</ele><time>2022-01-04T13:22:32Z</time></trkpt>
<trkpt lat="33.0093921" lon="35.1991702"><ele>273.5</ele><time>2022-01-04T13:22:35Z</time></trkpt>
<trkpt lat="33.0094595" lon="35.1988578"><ele>272.1</ele><time>2022-01-04T13:22:38Z</time></trkpt>
<trkpt lat="33.0095148" lon="35.1986476"><ele>271.1</ele><time>2022-01-04T13:22:40Z</time></trkpt>
<trkpt lat="33.00956" lon="35.1984365"><ele>270.1</ele><time>2022-01-04T13:22:42Z</time></trkpt>
<trkpt lat="33.0095981" lon="35.1982181"><ele>269.0</ele><time>2022-01-04T13:22:44Z</time></trkpt>
<trkpt lat="33.0096204" lon="35.1979889"><ele>267.4</ele><time>2022-01-04T13:22:46Z</time></trkpt>
<trkpt lat="33.0096392" lon="35.1977471"><ele>265.7</ele><time>2022-01-04T13:22:48Z</time></trkpt>
<trkpt lat="33.0096652" lon="35.1974981"><ele>264.0</ele><time>2022-01-04T13:22:50Z</time></trkpt>
<trkpt lat="33.0096898" lon="35.1972447"><ele>262.1</ele><time>2022-01-04T13:22:52Z</time></trkpt>
<trkpt lat="33.0096786" lon="35.1969911"><ele>260.2</ele><time>2022-01-04T13:22:54Z</time></trkpt>
<trkpt lat="33.0096266" lon="35.1967417"><ele>258.7</ele><time>2022-01-04T13:22:56Z</time></trkpt>
<trkpt lat="33.0095578" lon="35.1965093"><ele>257.4</ele><time>2022-01-04T13:22:58Z</time></trkpt>
<trkpt lat="33.0094777" lon="35.1962732"><ele>256.5</ele><time>2022-01-04T13:23:00Z</time></trkpt>
<trkpt lat="33.0094085" lon="35.1960365"><ele>255.6</ele><time>2022-01-04T13:23:02Z</time></trkpt>
<trkpt lat="33.0093375" lon="35.1958013"><ele>254.7</ele><time>2022-01-04T13:23:04Z</time></trkpt>
<trkpt lat="33.0092612" lon="35.1955688"><ele>253.6</ele><time>2022-01-04T13:23:06Z</time></trkpt>
<trkpt lat="33.0091857" lon="35.1953337"><ele>252.5</ele><time>2022-01-04T13:23:08Z</time></trkpt>
<trkpt lat="33.0091" lon="35.1951037"><ele>251.2</ele><time>2022-01-04T13:23:10Z</time></trkpt>
<trkpt lat="33.008997" lon="35.1948859"><ele>250.0</ele><time>2022-01-04T13:23:12Z</time></trkpt>
<trkpt lat="33.0088818" lon="35.1946668"><ele>248.8</ele><time>2022-01-04T13:23:14Z</time></trkpt>
<trkpt lat="33.0087727" lon="35.1944373"><ele>247.4</ele><time>2022-01-04T13:23:16Z</time></trkpt>
<trkpt lat="33.0086787" lon="35.1941877"><ele>245.7</ele><time>2022-01-04T13:23:18Z</time></trkpt>
<trkpt lat="33.0086252" lon="35.1939195"><ele>244.2</ele><time>2022-01-04T13:23:20Z</time></trkpt>
<trkpt lat="33.0085855" lon="35.1936495"><ele>242.8</ele><time>2022-01-04T13:23:22Z</time></trkpt>
<trkpt lat="33.0085424" lon="35.1933786"><ele>241.5</ele><time>2022-01-04T13:23:24Z</time></trkpt>
<trkpt lat="33.0085007" lon="35.1931085"><ele>240.2</ele><time>2022-01-04T13:23:26Z</time></trkpt>
<trkpt lat="33.0084545" lon="35.1928422"><ele>239.0</ele><time>2022-01-04T13:23:28Z</time></trkpt>
<trkpt lat="33.0084155" lon="35.1925763"><ele>237.8</ele><time>2022-01-04T13:23:30Z</time></trkpt>
<trkpt lat="33.0084022" lon="35.1923089"><ele>236.8</ele><time>2022-01-04T13:23:32Z</time></trkpt>
<trkpt lat="33.0084259" lon="35.1920472"><ele>235.6</ele><time>2022-01-04T13:23:34Z</time></trkpt>
<trkpt lat="33.0084659" lon="35.1917913"><ele>234.2</ele><time>2022-01-04T13:23:36Z</time></trkpt>
<trkpt lat="33.008502" lon="35.1915322"><ele>232.5</ele><time>2022-01-04T13:23:38Z</time></trkpt>
<trkpt lat="33.0085379" lon="35.1912781"><ele>230.4</ele><time>2022-01-04T13:23:40Z</time></trkpt>
<trkpt lat="33.0085776" lon="35.1910287"><ele>228.4</ele><time>2022-01-04T13:23:42Z</time></trkpt>
<trkpt lat="33.0086194" lon="35.1907777"><ele>226.6</ele><time>2022-01-04T13:23:44Z</time></trkpt>
<trkpt lat="33.0086543" lon="35.1905344"><ele>225.8</ele><time>2022-01-04T13:23:46Z</time></trkpt>
<trkpt lat="33.0086869" lon="35.1902875"><ele>225.3</ele><time>2022-01-04T13:23:48Z</time></trkpt>
<trkpt lat="33.0087214" lon="35.1900409"><ele>224.9</ele><time>2022-01-04T13:23:50Z</time></trkpt>
<trkpt lat="33.0087559" lon="35.189792"><ele>224.1</ele><time>2022-01-04T13:23:52Z</time></trkpt>
<trkpt lat="33.0087934" lon="35.1895391"><ele>223.2</ele><time>2022-01-04T13:23:54Z</time></trkpt>
<trkpt lat="33.0088354" lon="35.1892871"><ele>222.1</ele><time>2022-01-04T13:23:56Z</time></trkpt>
<trkpt lat="33.008884" lon="35.189034"><ele>220.7</ele><time>2022-01-04T13:23:58Z</time></trkpt>
<trkpt lat="33.0089375" lon="35.1887788"><ele>218.7</ele><time>2022-01-04T13:24:00Z</time></trkpt>
<trkpt lat="33.0089992" lon="35.1885171"><ele>216.5</ele><time>2022-01-04T13:24:02Z</time></trkpt>
<trkpt lat="33.0090595" lon="35.1882524"><ele>214.2</ele><time>2022-01-04T13:24:04Z</time></trkpt>
<trkpt lat="33.0091198" lon="35.1879759"><ele>211.6</ele><time>2022-01-04T13:24:06Z</time></trkpt>
<trkpt lat="33.0091725" lon="35.1876786"><ele>208.8</ele><time>2022-01-04T13:24:08Z</time></trkpt>
<trkpt lat="33.00922" lon="35.1873606"><ele>206.0</ele><time>2022-01-04T13:24:10Z</time></trkpt>
<trkpt lat="33.0092593" lon="35.1870364"><ele>203.7</ele><time>2022-01-04T13:24:12Z</time></trkpt>
<trkpt lat="33.0093294" lon="35.1867143"><ele>201.1</ele><time>2022-01-04T13:24:14Z</time></trkpt>
<trkpt lat="33.0094532" lon="35.186404"><ele>198.7</ele><time>2022-01-04T13:24:16Z</time></trkpt>
<trkpt lat="33.0096165" lon="35.1861097"><ele>196.0</ele><time>2022-01-04T13:24:18Z</time></trkpt>
<trkpt lat="33.0098199" lon="35.1858434"><ele>192.8</ele><time>2022-01-04T13:24:20Z</time></trkpt>
<trkpt lat="33.0100036" lon="35.1855618"><ele>190.4</ele><time>2022-01-04T13:24:22Z</time></trkpt>
<trkpt lat="33.0101591" lon="35.1852824"><ele>189.6</ele><time>2022-01-04T13:24:24Z</time></trkpt>
<trkpt lat="33.0103002" lon="35.1850129"><ele>188.6</ele><time>2022-01-04T13:24:26Z</time></trkpt>
<trkpt lat="33.0104253" lon="35.1847488"><ele>188.4</ele><time>2022-01-04T13:24:28Z</time></trkpt>
<trkpt lat="33.0105352" lon="35.184492"><ele>188.3</ele><time>2022-01-04T13:24:30Z</time></trkpt>
<trkpt lat="33.01064" lon="35.1842561"><ele>187.9</ele><time>2022-01-04T13:24:32Z</time></trkpt>
<trkpt lat="33.0107422" lon="35.1840326"><ele>187.6</ele><time>2022-01-04T13:24:34Z</time></trkpt>
<trkpt lat="33.0108366" lon="35.1838316"><ele>187.7</ele><time>2022-01-04T13:24:36Z</time></trkpt>
<trkpt lat="33.010927" lon="35.1836364"><ele>188.2</ele><time>2022-01-04T13:24:38Z</time></trkpt>
<trkpt lat="33.0110849" lon="35.1833816"><ele>188.2</ele><time>2022-01-04T13:24:41Z</time></trkpt>
<trkpt lat="33.011241" lon="35.1831391"><ele>187.2</ele><time>2022-01-04T13:24:44Z</time></trkpt>
<trkpt lat="33.0113874" lon="35.1828997"><ele>186.2</ele><time>2022-01-04T13:24:47Z</time></trkpt>
<trkpt lat="33.0115082" lon="35.1826533"><ele>185.6</ele><time>2022-01-04T13:24:50Z</time></trkpt>
<trkpt lat="33.0116435" lon="35.1823861"><ele>184.3</ele><time>2022-01-04T13:24:53Z</time></trkpt>
<trkpt lat="33.0117411" lon="35.1822008"><ele>183.1</ele><time>2022-01-04T13:24:55Z</time></trkpt>
<trkpt lat="33.0118319" lon="35.182009"><ele>182.1</ele><time>2022-01-04T13:24:57Z</time></trkpt>
<trkpt lat="33.0119224" lon="35.1818097"><ele>181.1</ele><time>2022-01-04T13:24:59Z</time></trkpt>
<trkpt lat="33.0119964" lon="35.1815994"><ele>180.0</ele><time>2022-01-04T13:25:01Z</time></trkpt>
<trkpt lat="33.0120353" lon="35.1813748"><ele>178.9</ele><time>2022-01-04T13:25:03Z</time></trkpt>
<trkpt lat="33.0120482" lon="35.1811523"><ele>178.0</ele><time>2022-01-04T13:25:05Z</time></trkpt>
<trkpt lat="33.0120397" lon="35.1808285"><ele>176.8</ele><time>2022-01-04T13:25:08Z</time></trkpt>
<trkpt lat="33.0120433" lon="35.180602"><ele>176.1</ele><time>2022-01-04T13:25:10Z</time></trkpt>
<trkpt lat="33.0120636" lon="35.1803814"><ele>175.4</ele><time>2022-01-04T13:25:12Z</time></trkpt>
<trkpt lat="33.0120988" lon="35.1800699"><ele>174.3</ele><time>2022-01-04T13:25:15Z</time></trkpt>
<trkpt lat="33.0121537" lon="35.1797583"><ele>172.5</ele><time>2022-01-04T13:25:18Z</time></trkpt>
<trkpt lat="33.0121965" lon="35.1795497"><ele>171.1</ele><time>2022-01-04T13:25:20Z</time></trkpt>
<trkpt lat="33.01224" lon="35.1793379"><ele>169.6</ele><time>2022-01-04T13:25:22Z</time></trkpt>
<trkpt lat="33.0122822" lon="35.1791288"><ele>168.1</ele><time>2022-01-04T13:25:24Z</time></trkpt>
<trkpt lat="33.0123222" lon="35.1789123"><ele>166.7</ele><time>2022-01-04T13:25:26Z</time></trkpt>
<trkpt lat="33.0123822" lon="35.1786884"><ele>165.1</ele><time>2022-01-04T13:25:28Z</time></trkpt>
<trkpt lat="33.0124234" lon="35.1784575"><ele>163.5</ele><time>2022-01-04T13:25:30Z</time></trkpt>
<trkpt lat="33.0124789" lon="35.1782159"><ele>162.3</ele><time>2022-01-04T13:25:32Z</time></trkpt>
<trkpt lat="33.0125394" lon="35.1779677"><ele>161.9</ele><time>2022-01-04T13:25:34Z</time></trkpt>
<trkpt lat="33.0125997" lon="35.1777198"><ele>161.6</ele><time>2022-01-04T13:25:36Z</time></trkpt>
<trkpt lat="33.0126614" lon="35.1774717"><ele>161.1</ele><time>2022-01-04T13:25:38Z</time></trkpt>
<trkpt lat="33.0127083" lon="35.177229"><ele>160.4</ele><time>2022-01-04T13:25:40Z</time></trkpt>
<trkpt lat="33.0127622" lon="35.176987"><ele>159.6</ele><time>2022-01-04T13:25:42Z</time></trkpt>
<trkpt lat="33.0128074" lon="35.1767571"><ele>158.8</ele><time>2022-01-04T13:25:44Z</time></trkpt>
<trkpt lat="33.0128572" lon="35.1765256"><ele>157.7</ele><time>2022-01-04T13:25:46Z</time></trkpt>
<trkpt lat="33.0129102" lon="35.1762957"><ele>156.3</ele><time>2022-01-04T13:25:48Z</time></trkpt>
<trkpt lat="33.0129658" lon="35.1760768"><ele>154.9</ele><time>2022-01-04T13:25:50Z</time></trkpt>
<trkpt lat="33.0130207" lon="35.1758464"><ele>153.4</ele><time>2022-01-04T13:25:52Z</time></trkpt>
<trkpt lat="33.0130876" lon="35.1756055"><ele>151.8</ele><time>2022-01-04T13:25:54Z</time></trkpt>
<trkpt lat="33.0131646" lon="35.1753734"><ele>149.8</ele><time>2022-01-04T13:25:56Z</time></trkpt>
<trkpt lat="33.0132228" lon="35.1751329"><ele>147.8</ele><time>2022-01-04T13:25:58Z</time></trkpt>
<trkpt lat="33.0132896" lon="35.1749"><ele>145.8</ele><time>2022-01-04T13:26:00Z</time></trkpt>
<trkpt lat="33.0133943" lon="35.1746457"><ele>143.9</ele><time>2022-01-04T13:26:03Z</time></trkpt>
<trkpt lat="33.0134205" lon="35.1744191"><ele>142.9</ele><time>2022-01-04T13:26:11Z</time></trkpt>
<trkpt lat="33.0133978" lon="35.1746469"><ele>143.7</ele><time>2022-01-04T13:26:34Z</time></trkpt>
<trkpt lat="33.0133144" lon="35.1748478"><ele>144.6</ele><time>2022-01-04T13:26:40Z</time></trkpt>
<trkpt lat="33.0132254" lon="35.1750734"><ele>146.9</ele><time>2022-01-04T13:26:47Z</time></trkpt>
<trkpt lat="33.0131472" lon="35.1752702"><ele>149.0</ele><time>2022-01-04T13:26:53Z</time></trkpt>
<trkpt lat="33.0130701" lon="35.1754955"><ele>151.0</ele><time>2022-01-04T13:27:00Z</time></trkpt>
<trkpt lat="33.0130096" lon="35.1757054"><ele>152.6</ele><time>2022-01-04T13:27:07Z</time></trkpt>
<trkpt lat="33.012941" lon="35.175909"><ele>154.0</ele><time>2022-01-04T13:27:14Z</time></trkpt>
<trkpt lat="33.0128879" lon="35.176116"><ele>155.4</ele><time>2022-01-04T13:27:22Z</time></trkpt>
<trkpt lat="33.0128358" lon="35.176345"><ele>156.8</ele><time>2022-01-04T13:27:31Z</time></trkpt>
<trkpt lat="33.0127776" lon="35.1765718"><ele>158.2</ele><time>2022-01-04T13:27:39Z</time></trkpt>
<trkpt lat="33.012717" lon="35.1767926"><ele>159.4</ele><time>2022-01-04T13:27:47Z</time></trkpt>
<trkpt lat="33.0126609" lon="35.1770116"><ele>160.2</ele><time>2022-01-04T13:27:57Z</time></trkpt>
<trkpt lat="33.0126123" lon="35.1772317"><ele>160.9</ele><time>2022-01-04T13:28:06Z</time></trkpt>
<trkpt lat="33.0125511" lon="35.1774626"><ele>161.6</ele><time>2022-01-04T13:28:15Z</time></trkpt>
<trkpt lat="33.0125032" lon="35.1776891"><ele>162.0</ele><time>2022-01-04T13:28:24Z</time></trkpt>
<trkpt lat="33.0124599" lon="35.1779061"><ele>162.2</ele><time>2022-01-04T13:28:34Z</time></trkpt>
<trkpt lat="33.0124082" lon="35.1781142"><ele>162.5</ele><time>2022-01-04T13:28:43Z</time></trkpt>
<trkpt lat="33.0123717" lon="35.1783492"><ele>162.8</ele><time>2022-01-04T13:28:53Z</time></trkpt>
<trkpt lat="33.0123163" lon="35.1785658"><ele>164.4</ele><time>2022-01-04T13:29:02Z</time></trkpt>
<trkpt lat="33.0122685" lon="35.1787973"><ele>165.9</ele><time>2022-01-04T13:29:12Z</time></trkpt>
<trkpt lat="33.0122252" lon="35.1790136"><ele>167.4</ele><time>2022-01-04T13:29:21Z</time></trkpt>
<trkpt lat="33.0121894" lon="35.1792308"><ele>168.8</ele><time>2022-01-04T13:29:30Z</time></trkpt>
<trkpt lat="33.0121432" lon="35.1794469"><ele>170.3</ele><time>2022-01-04T13:29:38Z</time></trkpt>
<trkpt lat="33.0121125" lon="35.1796764"><ele>171.8</ele><time>2022-01-04T13:29:46Z</time></trkpt>
<trkpt lat="33.012094" lon="35.1799051"><ele>173.3</ele><time>2022-01-04T13:29:54Z</time></trkpt>
<trkpt lat="33.0120483" lon="35.1801207"><ele>174.5</ele><time>2022-01-04T13:30:03Z</time></trkpt>
<trkpt lat="33.0120114" lon="35.1803471"><ele>175.3</ele><time>2022-01-04T13:30:11Z</time></trkpt>
<trkpt lat="33.0120001" lon="35.1805715"><ele>176.0</ele><time>2022-01-04T13:30:18Z</time></trkpt>
<trkpt lat="33.0119803" lon="35.180798"><ele>176.7</ele><time>2022-01-04T13:30:25Z</time></trkpt>
<trkpt lat="33.0119861" lon="35.1810218"><ele>177.5</ele><time>2022-01-04T13:30:32Z</time></trkpt>
<trkpt lat="33.0119608" lon="35.1812535"><ele>178.5</ele><time>2022-01-04T13:30:39Z</time></trkpt>
<trkpt lat="33.0119399" lon="35.1814871"><ele>179.6</ele><time>2022-01-04T13:30:46Z</time></trkpt>
<trkpt lat="33.0118876" lon="35.1816972"><ele>180.7</ele><time>2022-01-04T13:30:53Z</time></trkpt>
<trkpt lat="33.0118008" lon="35.181905"><ele>181.8</ele><time>2022-01-04T13:31:00Z</time></trkpt>
<trkpt lat="33.0117028" lon="35.182088"><ele>182.8</ele><time>2022-01-04T13:31:07Z</time></trkpt>
<trkpt lat="33.0116059" lon="35.1822792"><ele>184.1</ele><time>2022-01-04T13:31:14Z</time></trkpt>
<trkpt lat="33.0115035" lon="35.1824792"><ele>186.1</ele><time>2022-01-04T13:31:21Z</time></trkpt>
<trkpt lat="33.0114075" lon="35.182662"><ele>186.9</ele><time>2022-01-04T13:31:28Z</time></trkpt>
<trkpt lat="33.0113077" lon="35.1828543"><ele>187.4</ele><time>2022-01-04T13:31:35Z</time></trkpt>
<trkpt lat="33.011209" lon="35.183049"><ele>187.9</ele><time>2022-01-04T13:31:41Z</time></trkpt>
<trkpt lat="33.0110823" lon="35.1832548"><ele>188.7</ele><time>2022-01-04T13:31:47Z</time></trkpt>
<trkpt lat="33.0109569" lon="35.1834645"><ele>189.3</ele><time>2022-01-04T13:31:53Z</time></trkpt>
<trkpt lat="33.010856" lon="35.1836451"><ele>189.1</ele><time>2022-01-04T13:31:58Z</time></trkpt>
<trkpt lat="33.0107637" lon="35.1838386"><ele>188.8</ele><time>2022-01-04T13:32:03Z</time></trkpt>
<trkpt lat="33.0106752" lon="35.1840392"><ele>188.6</ele><time>2022-01-04T13:32:08Z</time></trkpt>
<trkpt lat="33.0105926" lon="35.1842431"><ele>188.6</ele><time>2022-01-04T13:32:13Z</time></trkpt>
<trkpt lat="33.0105068" lon="35.1844457"><ele>188.9</ele><time>2022-01-04T13:32:18Z</time></trkpt>
<trkpt lat="33.0104132" lon="35.1846554"><ele>189.1</ele><time>2022-01-04T13:32:23Z</time></trkpt>
<trkpt lat="33.0103095" lon="35.1848478"><ele>189.3</ele><time>2022-01-04T13:32:28Z</time></trkpt>
<trkpt lat="33.0102058" lon="35.1850538"><ele>189.4</ele><time>2022-01-04T13:32:34Z</time></trkpt>
<trkpt lat="33.0100909" lon="35.1852479"><ele>190.1</ele><time>2022-01-04T13:32:40Z</time></trkpt>
<trkpt lat="33.0099833" lon="35.1854419"><ele>190.6</ele><time>2022-01-04T13:32:46Z</time></trkpt>
<trkpt lat="33.0098759" lon="35.1856284"><ele>191.8</ele><time>2022-01-04T13:32:52Z</time></trkpt>
<trkpt lat="33.0097738" lon="35.1858081"><ele>192.8</ele><time>2022-01-04T13:32:59Z</time></trkpt>
<trkpt lat="33.0096404" lon="35.1859816"><ele>194.9</ele><time>2022-01-04T13:33:09Z</time></trkpt>
<trkpt lat="33.0095189" lon="35.1861649"><ele>197.0</ele><time>2022-01-04T13:33:20Z</time></trkpt>
<trkpt lat="33.009417" lon="35.1863623"><ele>198.7</ele><time>2022-01-04T13:33:30Z</time></trkpt>
<trkpt lat="33.009338" lon="35.1865584"><ele>200.1</ele><time>2022-01-04T13:33:39Z</time></trkpt>
<trkpt lat="33.009254" lon="35.1867679"><ele>201.9</ele><time>2022-01-04T13:33:49Z</time></trkpt>
<trkpt lat="33.0092045" lon="35.1869817"><ele>203.8</ele><time>2022-01-04T13:34:00Z</time></trkpt>
<trkpt lat="33.0091633" lon="35.1872022"><ele>205.5</ele><time>2022-01-04T13:34:10Z</time></trkpt>
<trkpt lat="33.0091316" lon="35.1874244"><ele>207.1</ele><time>2022-01-04T13:34:21Z</time></trkpt>
<trkpt lat="33.0091055" lon="35.1876437"><ele>208.8</ele><time>2022-01-04T13:34:31Z</time></trkpt>
<trkpt lat="33.0090749" lon="35.1878627"><ele>210.7</ele><time>2022-01-04T13:34:43Z</time></trkpt>
<trkpt lat="33.0090329" lon="35.1880906"><ele>212.8</ele><time>2022-01-04T13:34:55Z</time></trkpt>
<trkpt lat="33.0089713" lon="35.1883073"><ele>215.1</ele><time>2022-01-04T13:35:07Z</time></trkpt>
<trkpt lat="33.0089194" lon="35.1885305"><ele>217.0</ele><time>2022-01-04T13:35:20Z</time></trkpt>
<trkpt lat="33.008874" lon="35.1887493"><ele>218.8</ele><time>2022-01-04T13:35:32Z</time></trkpt>
<trkpt lat="33.0088496" lon="35.1889633"><ele>220.2</ele><time>2022-01-04T13:35:44Z</time></trkpt>
<trkpt lat="33.0088115" lon="35.1891771"><ele>221.8</ele><time>2022-01-04T13:35:55Z</time></trkpt>
<trkpt lat="33.0087683" lon="35.1893938"><ele>222.8</ele><time>2022-01-04T13:36:05Z</time></trkpt>
<trkpt lat="33.0087455" lon="35.1896105"><ele>223.6</ele><time>2022-01-04T13:36:15Z</time></trkpt>
<trkpt lat="33.0087023" lon="35.1898454"><ele>224.5</ele><time>2022-01-04T13:36:24Z</time></trkpt>
<trkpt lat="33.0086584" lon="35.1900603"><ele>225.3</ele><time>2022-01-04T13:36:33Z</time></trkpt>
<trkpt lat="33.0086223" lon="35.1902879"><ele>225.8</ele><time>2022-01-04T13:36:42Z</time></trkpt>
<trkpt lat="33.0085934" lon="35.1905226"><ele>226.2</ele><time>2022-01-04T13:36:50Z</time></trkpt>
<trkpt lat="33.00855" lon="35.1907613"><ele>226.8</ele><time>2022-01-04T13:36:58Z</time></trkpt>
<trkpt lat="33.0085189" lon="35.1909977"><ele>228.2</ele><time>2022-01-04T13:37:06Z</time></trkpt>
<trkpt lat="33.0084947" lon="35.1912139"><ele>229.9</ele><time>2022-01-04T13:37:14Z</time></trkpt>
<trkpt lat="33.008462" lon="35.1914406"><ele>231.8</ele><time>2022-01-04T13:37:22Z</time></trkpt>
<trkpt lat="33.0084338" lon="35.1916552"><ele>233.6</ele><time>2022-01-04T13:37:30Z</time></trkpt>
<trkpt lat="33.0084061" lon="35.1918802"><ele>234.9</ele><time>2022-01-04T13:37:38Z</time></trkpt>
<trkpt lat="33.0083694" lon="35.1920911"><ele>236.1</ele><time>2022-01-04T13:37:46Z</time></trkpt>
<trkpt lat="33.0083434" lon="35.1923291"><ele>237.2</ele><time>2022-01-04T13:37:54Z</time></trkpt>
<trkpt lat="33.0083339" lon="35.1925613"><ele>238.2</ele><time>2022-01-04T13:38:02Z</time></trkpt>
<trkpt lat="33.0083742" lon="35.192799"><ele>239.1</ele><time>2022-01-04T13:38:10Z</time></trkpt>
<trkpt lat="33.0084169" lon="35.1930147"><ele>239.9</ele><time>2022-01-04T13:38:18Z</time></trkpt>
<trkpt lat="33.0084562" lon="35.193228"><ele>240.8</ele><time>2022-01-04T13:38:27Z</time></trkpt>
<trkpt lat="33.0084893" lon="35.1934486"><ele>241.8</ele><time>2022-01-04T13:38:35Z</time></trkpt>
<trkpt lat="33.0085215" lon="35.1936716"><ele>242.8</ele><time>2022-01-04T13:38:43Z</time></trkpt>
<trkpt lat="33.0085587" lon="35.1938925"><ele>243.9</ele><time>2022-01-04T13:38:51Z</time></trkpt>
<trkpt lat="33.0085872" lon="35.1941094"><ele>245.0</ele><time>2022-01-04T13:38:59Z</time></trkpt>
<trkpt lat="33.0086432" lon="35.1943269"><ele>246.4</ele><time>2022-01-04T13:39:07Z</time></trkpt>
<trkpt lat="33.0087305" lon="35.1945373"><ele>247.9</ele><time>2022-01-04T13:39:17Z</time></trkpt>
<trkpt lat="33.0088289" lon="35.1947397"><ele>249.2</ele><time>2022-01-04T13:39:27Z</time></trkpt>
<trkpt lat="33.0089244" lon="35.1949347"><ele>250.3</ele><time>2022-01-04T13:39:36Z</time></trkpt>
<trkpt lat="33.0090214" lon="35.1951192"><ele>251.3</ele><time>2022-01-04T13:39:45Z</time></trkpt>
<trkpt lat="33.0091151" lon="35.1953281"><ele>252.5</ele><time>2022-01-04T13:39:55Z</time></trkpt>
<trkpt lat="33.0091773" lon="35.1955331"><ele>253.7</ele><time>2022-01-04T13:40:04Z</time></trkpt>
<trkpt lat="33.0092379" lon="35.1957364"><ele>254.7</ele><time>2022-01-04T13:40:13Z</time></trkpt>
<trkpt lat="33.0093022" lon="35.1959467"><ele>255.6</ele><time>2022-01-04T13:40:22Z</time></trkpt>
<trkpt lat="33.0093737" lon="35.1961635"><ele>256.3</ele><time>2022-01-04T13:40:31Z</time></trkpt>
<trkpt lat="33.0094371" lon="35.1963659"><ele>257.0</ele><time>2022-01-04T13:40:39Z</time></trkpt>
<trkpt lat="33.0094953" lon="35.196589"><ele>257.9</ele><time>2022-01-04T13:40:48Z</time></trkpt>
<trkpt lat="33.0095425" lon="35.1968022"><ele>259.1</ele><time>2022-01-04T13:40:56Z</time></trkpt>
<trkpt lat="33.0095817" lon="35.1970248"><ele>260.5</ele><time>2022-01-04T13:41:04Z</time></trkpt>
<trkpt lat="33.0096148" lon="35.1972445"><ele>261.9</ele><time>2022-01-04T13:41:13Z</time></trkpt>
<trkpt lat="33.0095955" lon="35.1974766"><ele>263.7</ele><time>2022-01-04T13:41:22Z</time></trkpt>
<trkpt lat="33.0095726" lon="35.1977055"><ele>265.3</ele><time>2022-01-04T13:41:31Z</time></trkpt>
<trkpt lat="33.0095471" lon="35.1979252"><ele>266.9</ele><time>2022-01-04T13:41:40Z</time></trkpt>
<trkpt lat="33.0095212" lon="35.1981463"><ele>268.5</ele><time>2022-01-04T13:41:48Z</time></trkpt>
<trkpt lat="33.0095018" lon="35.1983762"><ele>270.1</ele><time>2022-01-04T13:41:58Z</time></trkpt>
<trkpt lat="33.0094556" lon="35.1986026"><ele>271.1</ele><time>2022-01-04T13:42:08Z</time></trkpt>
<trkpt lat="33.0094043" lon="35.1988276"><ele>272.1</ele><time>2022-01-04T13:42:17Z</time></trkpt>
<trkpt lat="33.0093473" lon="35.199058"><ele>273.3</ele><time>2022-01-04T13:42:27Z</time></trkpt>
<trkpt lat="33.0092745" lon="35.1992823"><ele>274.3</ele><time>2022-01-04T13:42:36Z</time></trkpt>
<trkpt lat="33.0091881" lon="35.1995012"><ele>275.1</ele><time>2022-01-04T13:42:45Z</time></trkpt>
<trkpt lat="33.0090643" lon="35.1996661"><ele>275.9</ele><time>2022-01-04T13:42:52Z</time></trkpt>
<trkpt lat="33.0089286" lon="35.1998264"><ele>276.6</ele><time>2022-01-04T13:42:59Z</time></trkpt>
<trkpt lat="33.0087762" lon="35.199986"><ele>277.8</ele><time>2022-01-04T13:43:06Z</time></trkpt>
<trkpt lat="33.0086217" lon="35.200123"><ele>278.7</ele><time>2022-01-04T13:43:13Z</time></trkpt>
<trkpt lat="33.0084907" lon="35.2002704"><ele>279.7</ele><time>2022-01-04T13:43:19Z</time></trkpt>
<trkpt lat="33.0083322" lon="35.2004221"><ele>280.9</ele><time>2022-01-04T13:43:26Z</time></trkpt>
<trkpt lat="33.0081809" lon="35.200578"><ele>280.6</ele><time>2022-01-04T13:43:33Z</time></trkpt>
<trkpt lat="33.0080386" lon="35.2007302"><ele>280.3</ele><time>2022-01-04T13:43:40Z</time></trkpt>
<trkpt lat="33.0078945" lon="35.2009054"><ele>280.1</ele><time>2022-01-04T13:43:46Z</time></trkpt>
<trkpt lat="33.0077543" lon="35.2010635"><ele>280.1</ele><time>2022-01-04T13:43:52Z</time></trkpt>
<trkpt lat="33.0076093" lon="35.2012159"><ele>280.4</ele><time>2022-01-04T13:43:58Z</time></trkpt>
<trkpt lat="33.0074595" lon="35.2013779"><ele>281.1</ele><time>2022-01-04T13:44:04Z</time></trkpt>
<trkpt lat="33.0073035" lon="35.2015265"><ele>281.6</ele><time>2022-01-04T13:44:10Z</time></trkpt>
<trkpt lat="33.0071665" lon="35.2016848"><ele>282.3</ele><time>2022-01-04T13:44:16Z</time></trkpt>
<trkpt lat="33.0070231" lon="35.2018525"><ele>283.0</ele><time>2022-01-04T13:44:23Z</time></trkpt>
<trkpt lat="33.0068909" lon="35.2020449"><ele>283.9</ele><time>2022-01-04T13:44:30Z</time></trkpt>
<trkpt lat="33.0067683" lon="35.2022457"><ele>285.2</ele><time>2022-01-04T13:44:37Z</time></trkpt>
<trkpt lat="33.0066692" lon="35.2024295"><ele>286.4</ele><time>2022-01-04T13:44:43Z</time></trkpt>
<trkpt lat="33.0066034" lon="35.2026498"><ele>287.3</ele><time>2022-01-04T13:44:50Z</time></trkpt>
<trkpt lat="33.0065528" lon="35.2028834"><ele>288.1</ele><time>2022-01-04T13:44:57Z</time></trkpt>
<trkpt lat="33.0065071" lon="35.2030912"><ele>288.9</ele><time>2022-01-04T13:45:04Z</time></trkpt>
<trkpt lat="33.0064693" lon="35.2033182"><ele>289.9</ele><time>2022-01-04T13:45:11Z</time></trkpt>
<trkpt lat="33.006428" lon="35.2035415"><ele>291.1</ele><time>2022-01-04T13:45:18Z</time></trkpt>
<trkpt lat="33.0063918" lon="35.2037541"><ele>292.3</ele><time>2022-01-04T13:45:25Z</time></trkpt>
<trkpt lat="33.0063598" lon="35.2039756"><ele>293.5</ele><time>2022-01-04T13:45:32Z</time></trkpt>
<trkpt lat="33.0063328" lon="35.2041914"><ele>294.6</ele><time>2022-01-04T13:45:39Z</time></trkpt>
<trkpt lat="33.0063062" lon="35.2044064"><ele>295.6</ele><time>2022-01-04T13:45:46Z</time></trkpt>
<trkpt lat="33.0062702" lon="35.2046284"><ele>296.6</ele><time>2022-01-04T13:45:53Z</time></trkpt>
<trkpt lat="33.0062155" lon="35.204842"><ele>297.7</ele><time>2022-01-04T13:46:00Z</time></trkpt>
<trkpt lat="33.0061967" lon="35.2050785"><ele>298.9</ele><time>2022-01-04T13:46:08Z</time></trkpt>
<trkpt lat="33.0061663" lon="35.205316"><ele>299.9</ele><time>2022-01-04T13:46:16Z</time></trkpt>
<trkpt lat="33.0061458" lon="35.2055473"><ele>300.9</ele><time>2022-01-04T13:46:24Z</time></trkpt>
<trkpt lat="33.0060999" lon="35.2057609"><ele>302.0</ele><time>2022-01-04T13:46:32Z</time></trkpt>
<trkpt lat="33.0059024" lon="35.2058344"><ele>302.8</ele><time>2022-01-04T13:46:40Z</time></trkpt>
<trkpt lat="33.0057204" lon="35.2058877"><ele>302.9</ele><time>2022-01-04T13:46:46Z</time></trkpt>
<trkpt lat="33.0055541" lon="35.206008"><ele>302.8</ele><time>2022-01-04T13:46:52Z</time></trkpt>
<trkpt lat="33.0054156" lon="35.2061785"><ele>302.9</ele><time>2022-01-04T13:46:58Z</time></trkpt>
<trkpt lat="33.0053017" lon="35.206371"><ele>303.1</ele><time>2022-01-04T13:47:04Z</time></trkpt>
<trkpt lat="33.0051712" lon="35.2065581"><ele>302.9</ele><time>2022-01-04T13:47:10Z</time></trkpt>
<trkpt lat="33.0050437" lon="35.2067443"><ele>302.8</ele><time>2022-01-04T13:47:16Z</time></trkpt>
<trkpt lat="33.0049016" lon="35.2069242"><ele>303.5</ele><time>2022-01-04T13:47:22Z</time></trkpt>
<trkpt lat="33.0047691" lon="35.2071173"><ele>304.6</ele><time>2022-01-04T13:47:28Z</time></trkpt>
<trkpt lat="33.00463" lon="35.2072856"><ele>305.4</ele><time>2022-01-04T13:47:34Z</time></trkpt>
<trkpt lat="33.0044457" lon="35.2074185"><ele>305.9</ele><time>2022-01-04T13:47:40Z</time></trkpt>
<trkpt lat="33.0042676" lon="35.2075598"><ele>306.3</ele><time>2022-01-04T13:47:46Z</time></trkpt>
<trkpt lat="33.0040915" lon="35.2077055"><ele>306.2</ele><time>2022-01-04T13:47:52Z</time></trkpt>
<trkpt lat="33.0039218" lon="35.2078403"><ele>305.6</ele><time>2022-01-04T13:47:57Z</time></trkpt>
<trkpt lat="33.0037487" lon="35.2079982"><ele>304.9</ele><time>2022-01-04T13:48:02Z</time></trkpt>
<trkpt lat="33.0035807" lon="35.2081253"><ele>303.9</ele><time>2022-01-04T13:48:06Z</time></trkpt>
<trkpt lat="33.0033719" lon="35.2082792"><ele>302.5</ele><time>2022-01-04T13:48:10Z</time></trkpt>
<trkpt lat="33.0031776" lon="35.208385"><ele>300.9</ele><time>2022-01-04T13:48:13Z</time></trkpt>
<trkpt lat="33.0029387" lon="35.2084955"><ele>298.9</ele><time>2022-01-04T13:48:16Z</time></trkpt>
<trkpt lat="33.0027625" lon="35.2085796"><ele>297.3</ele><time>2022-01-04T13:48:18Z</time></trkpt>
<trkpt lat="33.0025672" lon="35.2086792"><ele>295.3</ele><time>2022-01-04T13:48:20Z</time></trkpt>
<trkpt lat="33.0023558" lon="35.2087759"><ele>292.7</ele><time>2022-01-04T13:48:22Z</time></trkpt>
<trkpt lat="33.0021387" lon="35.2088845"><ele>289.7</ele><time>2022-01-04T13:48:24Z</time></trkpt>
<trkpt lat="33.0019114" lon="35.2089859"><ele>286.5</ele><time>2022-01-04T13:48:26Z</time></trkpt>
<trkpt lat="33.0016785" lon="35.2090924"><ele>283.1</ele><time>2022-01-04T13:48:28Z</time></trkpt>
<trkpt lat="33.0014395" lon="35.2092055"><ele>281.5</ele><time>2022-01-04T13:48:30Z</time></trkpt>
<trkpt lat="33.0011929" lon="35.209321"><ele>280.7</ele><time>2022-01-04T13:48:32Z</time></trkpt>
<trkpt lat="33.000955" lon="35.2094416"><ele>280.2</ele><time>2022-01-04T13:48:34Z</time></trkpt>
<trkpt lat="33.0007516" lon="35.2095826"><ele>280.8</ele><time>2022-01-04T13:48:36Z</time></trkpt>
<trkpt lat="33.0005967" lon="35.2097296"><ele>283.0</ele><time>2022-01-04T13:48:38Z</time></trkpt>
<trkpt lat="33.0004677" lon="35.2099562"><ele>285.1</ele><time>2022-01-04T13:48:41Z</time></trkpt>
<trkpt lat="33.0003629" lon="35.2101602"><ele>287.3</ele><time>2022-01-04T13:48:46Z</time></trkpt>
<trkpt lat="33.0002647" lon="35.210342"><ele>289.2</ele><time>2022-01-04T13:48:56Z</time></trkpt>
<trkpt lat="33.0001654" lon="35.2105349"><ele>290.9</ele><time>2022-01-04T13:49:05Z</time></trkpt>
<trkpt lat="33.0000589" lon="35.2107289"><ele>292.3</ele><time>2022-01-04T13:49:14Z</time></trkpt>
<trkpt lat="32.9999523" lon="35.2109302"><ele>294.3</ele><time>2022-01-04T13:49:23Z</time></trkpt>
<trkpt lat="32.9998636" lon="35.211128"><ele>297.0</ele><time>2022-01-04T13:49:32Z</time></trkpt>
<trkpt lat="32.9997483" lon="35.2113193"><ele>299.8</ele><time>2022-01-04T13:49:41Z</time></trkpt>
<trkpt lat="32.999645" lon="35.2114956"><ele>302.0</ele><time>2022-01-04T13:49:50Z</time></trkpt>
<trkpt lat="32.9995418" lon="35.2116802"><ele>304.0</ele><time>2022-01-04T13:50:00Z</time></trkpt>
<trkpt lat="32.9994307" lon="35.2118689"><ele>305.8</ele><time>2022-01-04T13:50:10Z</time></trkpt>
<trkpt lat="32.9993231" lon="35.2120439"><ele>307.0</ele><time>2022-01-04T13:50:22Z</time></trkpt>
<trkpt lat="32.9992307" lon="35.21224"><ele>307.8</ele><time>2022-01-04T13:50:35Z</time></trkpt>
<trkpt lat="32.9991357" lon="35.2124345"><ele>308.4</ele><time>2022-01-04T13:50:48Z</time></trkpt>
<trkpt lat="32.9990271" lon="35.2126193"><ele>309.9</ele><time>2022-01-04T13:51:02Z</time></trkpt>
<trkpt lat="32.9989119" lon="35.212802"><ele>311.3</ele><time>2022-01-04T13:51:13Z</time></trkpt>
<trkpt lat="32.9988123" lon="35.2129973"><ele>312.5</ele><time>2022-01-04T13:51:26Z</time></trkpt>
<trkpt lat="32.9987095" lon="35.2131846"><ele>313.5</ele><time>2022-01-04T13:51:38Z</time></trkpt>
<trkpt lat="32.9986002" lon="35.2133612"><ele>314.5</ele><time>2022-01-04T13:51:50Z</time></trkpt>
<trkpt lat="32.9985073" lon="35.2135474"><ele>316.5</ele><time>2022-01-04T13:52:02Z</time></trkpt>
<trkpt lat="32.9983963" lon="35.2137331"><ele>318.4</ele><time>2022-01-04T13:52:15Z</time></trkpt>
<trkpt lat="32.9982953" lon="35.2139176"><ele>320.0</ele><time>2022-01-04T13:52:27Z</time></trkpt>
<trkpt lat="32.9982008" lon="35.2141042"><ele>321.4</ele><time>2022-01-04T13:52:39Z</time></trkpt>
<trkpt lat="32.9981078" lon="35.2142927"><ele>322.9</ele><time>2022-01-04T13:52:51Z</time></trkpt>
<trkpt lat="32.9980154" lon="35.214484"><ele>324.5</ele><time>2022-01-04T13:53:03Z</time></trkpt>
<trkpt lat="32.9979327" lon="35.214696"><ele>326.2</ele><time>2022-01-04T13:53:15Z</time></trkpt>
<trkpt lat="32.9978833" lon="35.2149034"><ele>327.7</ele><time>2022-01-04T13:53:26Z</time></trkpt>
<trkpt lat="32.9978359" lon="35.2151162"><ele>329.7</ele><time>2022-01-04T13:53:38Z</time></trkpt>
<trkpt lat="32.9978043" lon="35.215346"><ele>332.3</ele><time>2022-01-04T13:53:50Z</time></trkpt>
<trkpt lat="32.9977692" lon="35.2155751"><ele>334.9</ele><time>2022-01-04T13:54:02Z</time></trkpt>
<trkpt lat="32.9977354" lon="35.2157891"><ele>337.5</ele><time>2022-01-04T13:54:13Z</time></trkpt>
<trkpt lat="32.9977034" lon="35.2160063"><ele>338.8</ele><time>2022-01-04T13:54:24Z</time></trkpt>
<trkpt lat="32.997663" lon="35.2162357"><ele>339.8</ele><time>2022-01-04T13:54:35Z</time></trkpt>
<trkpt lat="32.9976096" lon="35.2164422"><ele>340.7</ele><time>2022-01-04T13:54:45Z</time></trkpt>
<trkpt lat="32.9975597" lon="35.2166594"><ele>341.6</ele><time>2022-01-04T13:54:55Z</time></trkpt>
<trkpt lat="32.9974948" lon="35.2168699"><ele>342.9</ele><time>2022-01-04T13:55:05Z</time></trkpt>
<trkpt lat="32.9973443" lon="35.2170101"><ele>344.2</ele><time>2022-01-04T13:55:18Z</time></trkpt>
<trkpt lat="32.997518" lon="35.2171009"><ele>344.1</ele><time>2022-01-04T13:55:30Z</time></trkpt>
<trkpt lat="32.9975547" lon="35.2168619"><ele>342.7</ele><time>2022-01-04T13:55:35Z</time></trkpt>
<trkpt lat="32.997601" lon="35.216643"><ele>341.5</ele><time>2022-01-04T13:55:39Z</time></trkpt>
<trkpt lat="32.9976576" lon="35.2163977"><ele>340.4</ele><time>2022-01-04T13:55:43Z</time></trkpt>
<trkpt lat="32.9976972" lon="35.2161821"><ele>339.5</ele><time>2022-01-04T13:55:46Z</time></trkpt>
<trkpt lat="32.9977457" lon="35.2159376"><ele>338.4</ele><time>2022-01-04T13:55:49Z</time></trkpt>
<trkpt lat="32.9977907" lon="35.2156641"><ele>336.2</ele><time>2022-01-04T13:55:52Z</time></trkpt>
<trkpt lat="32.9978391" lon="35.215374"><ele>332.9</ele><time>2022-01-04T13:55:55Z</time></trkpt>
<trkpt lat="32.9978858" lon="35.2150645"><ele>329.4</ele><time>2022-01-04T13:55:58Z</time></trkpt>
<trkpt lat="32.9979237" lon="35.2148475"><ele>327.5</ele><time>2022-01-04T13:56:00Z</time></trkpt>
<trkpt lat="32.9979895" lon="35.214623"><ele>325.8</ele><time>2022-01-04T13:56:02Z</time></trkpt>
<trkpt lat="32.99809" lon="35.2143972"><ele>324.0</ele><time>2022-01-04T13:56:04Z</time></trkpt>
<trkpt lat="32.9982118" lon="35.2141706"><ele>322.1</ele><time>2022-01-04T13:56:06Z</time></trkpt>
<trkpt lat="32.998342" lon="35.2139415"><ele>320.3</ele><time>2022-01-04T13:56:08Z</time></trkpt>
<trkpt lat="32.9984727" lon="35.2137022"><ele>318.1</ele><time>2022-01-04T13:56:10Z</time></trkpt>
<trkpt lat="32.9986117" lon="35.213458"><ele>315.6</ele><time>2022-01-04T13:56:12Z</time></trkpt>
<trkpt lat="32.9987537" lon="35.2132028"><ele>313.4</ele><time>2022-01-04T13:56:14Z</time></trkpt>
<trkpt lat="32.9989077" lon="35.212944"><ele>311.8</ele><time>2022-01-04T13:56:16Z</time></trkpt>
<trkpt lat="32.9990617" lon="35.2126768"><ele>309.9</ele><time>2022-01-04T13:56:18Z</time></trkpt>
<trkpt lat="32.9992125" lon="35.2123985"><ele>308.2</ele><time>2022-01-04T13:56:20Z</time></trkpt>
<trkpt lat="32.9993816" lon="35.2121392"><ele>306.9</ele><time>2022-01-04T13:56:22Z</time></trkpt>
<trkpt lat="32.9995424" lon="35.211861"><ele>305.0</ele><time>2022-01-04T13:56:24Z</time></trkpt>
<trkpt lat="32.9996923" lon="35.2115859"><ele>302.4</ele><time>2022-01-04T13:56:26Z</time></trkpt>
<trkpt lat="32.9998338" lon="35.2113085"><ele>299.2</ele><time>2022-01-04T13:56:28Z</time></trkpt>
<trkpt lat="32.9999843" lon="35.2110357"><ele>295.3</ele><time>2022-01-04T13:56:30Z</time></trkpt>
<trkpt lat="33.0001311" lon="35.210761"><ele>292.5</ele><time>2022-01-04T13:56:32Z</time></trkpt>
<trkpt lat="33.0002681" lon="35.2104938"><ele>290.4</ele><time>2022-01-04T13:56:34Z</time></trkpt>
<trkpt lat="33.0004052" lon="35.210231"><ele>287.9</ele><time>2022-01-04T13:56:36Z</time></trkpt>
<trkpt lat="33.0005511" lon="35.2099689"><ele>285.0</ele><time>2022-01-04T13:56:38Z</time></trkpt>
<trkpt lat="33.0007143" lon="35.2097192"><ele>282.4</ele><time>2022-01-04T13:56:40Z</time></trkpt>
<trkpt lat="33.0009261" lon="35.2095272"><ele>280.4</ele><time>2022-01-04T13:56:42Z</time></trkpt>
<trkpt lat="33.0011579" lon="35.2094014"><ele>280.6</ele><time>2022-01-04T13:56:44Z</time></trkpt>
<trkpt lat="33.0013583" lon="35.2093126"><ele>281.0</ele><time>2022-01-04T13:56:46Z</time></trkpt>
<trkpt lat="33.0015855" lon="35.2092178"><ele>281.7</ele><time>2022-01-04T13:56:49Z</time></trkpt>
<trkpt lat="33.001757" lon="35.2091404"><ele>283.1</ele><time>2022-01-04T13:56:53Z</time></trkpt>
<trkpt lat="33.0019268" lon="35.2090584"><ele>285.7</ele><time>2022-01-04T13:57:04Z</time></trkpt>
<trkpt lat="33.0021065" lon="35.2089667"><ele>288.3</ele><time>2022-01-04T13:57:14Z</time></trkpt>
<trkpt lat="33.0022759" lon="35.2088903"><ele>290.7</ele><time>2022-01-04T13:57:24Z</time></trkpt>
<trkpt lat="33.0024492" lon="35.2088038"><ele>293.1</ele><time>2022-01-04T13:57:34Z</time></trkpt>
<trkpt lat="33.0026259" lon="35.2087309"><ele>295.2</ele><time>2022-01-04T13:57:45Z</time></trkpt>
<trkpt lat="33.0027965" lon="35.2086356"><ele>297.1</ele><time>2022-01-04T13:57:58Z</time></trkpt>
<trkpt lat="33.0029753" lon="35.2085628"><ele>298.9</ele><time>2022-01-04T13:58:10Z</time></trkpt>
<trkpt lat="33.0031417" lon="35.2084645"><ele>300.4</ele><time>2022-01-04T13:58:21Z</time></trkpt>
<trkpt lat="33.0033185" lon="35.2083861"><ele>301.9</ele><time>2022-01-04T13:58:32Z</time></trkpt>
<trkpt lat="33.0034831" lon="35.2082929"><ele>303.1</ele><time>2022-01-04T13:58:43Z</time></trkpt>
<trkpt lat="33.0036393" lon="35.208166"><ele>304.1</ele><time>2022-01-04T13:58:54Z</time></trkpt>
<trkpt lat="33.0037906" lon="35.2080462"><ele>305.0</ele><time>2022-01-04T13:59:03Z</time></trkpt>
<trkpt lat="33.0039518" lon="35.2079299"><ele>305.8</ele><time>2022-01-04T13:59:11Z</time></trkpt>
<trkpt lat="33.0041164" lon="35.2077871"><ele>306.4</ele><time>2022-01-04T13:59:19Z</time></trkpt>
<trkpt lat="33.004284" lon="35.2076457"><ele>306.6</ele><time>2022-01-04T13:59:26Z</time></trkpt>
<trkpt lat="33.0044422" lon="35.2075057"><ele>306.4</ele><time>2022-01-04T13:59:32Z</time></trkpt>
<trkpt lat="33.004598" lon="35.2073836"><ele>306.0</ele><time>2022-01-04T13:59:37Z</time></trkpt>
<trkpt lat="33.004764" lon="35.2072444"><ele>305.4</ele><time>2022-01-04T13:59:42Z</time></trkpt>
<trkpt lat="33.0049105" lon="35.2070499"><ele>304.4</ele><time>2022-01-04T13:59:47Z</time></trkpt>
<trkpt lat="33.0050278" lon="35.2068618"><ele>303.4</ele><time>2022-01-04T13:59:51Z</time></trkpt>
<trkpt lat="33.0051545" lon="35.2066982"><ele>303.3</ele><time>2022-01-04T13:59:55Z</time></trkpt>
<trkpt lat="33.0052817" lon="35.2065041"><ele>303.4</ele><time>2022-01-04T13:59:59Z</time></trkpt>
<trkpt lat="33.0054182" lon="35.2063009"><ele>303.5</ele><time>2022-01-04T14:00:03Z</time></trkpt>
<trkpt lat="33.0055721" lon="35.2061122"><ele>303.4</ele><time>2022-01-04T14:00:07Z</time></trkpt>
<trkpt lat="33.0057481" lon="35.2059817"><ele>303.5</ele><time>2022-01-04T14:00:11Z</time></trkpt>
<trkpt lat="33.0059604" lon="35.2059284"><ele>303.3</ele><time>2022-01-04T14:00:16Z</time></trkpt>
<trkpt lat="33.0061389" lon="35.2059612"><ele>303.0</ele><time>2022-01-04T14:00:21Z</time></trkpt>
<trkpt lat="33.0061835" lon="35.2061821"><ele>304.2</ele><time>2022-01-04T14:00:28Z</time></trkpt>
<trkpt lat="33.006191" lon="35.206399"><ele>305.5</ele><time>2022-01-04T14:00:35Z</time></trkpt>
<trkpt lat="33.0062207" lon="35.2066278"><ele>306.8</ele><time>2022-01-04T14:00:44Z</time></trkpt>
<trkpt lat="33.0062338" lon="35.2068562"><ele>308.1</ele><time>2022-01-04T14:00:53Z</time></trkpt>
<trkpt lat="33.0062869" lon="35.2070764"><ele>309.3</ele><time>2022-01-04T14:01:01Z</time></trkpt>
<trkpt lat="33.006329" lon="35.2073036"><ele>310.6</ele><time>2022-01-04T14:01:10Z</time></trkpt>
<trkpt lat="33.0063556" lon="35.2075323"><ele>311.9</ele><time>2022-01-04T14:01:18Z</time></trkpt>
<trkpt lat="33.0063842" lon="35.2077458"><ele>313.0</ele><time>2022-01-04T14:01:26Z</time></trkpt>
<trkpt lat="33.0064137" lon="35.2079662"><ele>314.2</ele><time>2022-01-04T14:01:35Z</time></trkpt>
<trkpt lat="33.0064343" lon="35.2081875"><ele>315.4</ele><time>2022-01-04T14:01:45Z</time></trkpt>
<trkpt lat="33.0064805" lon="35.2084006"><ele>316.5</ele><time>2022-01-04T14:01:55Z</time></trkpt>
<trkpt lat="33.0065215" lon="35.2086297"><ele>317.3</ele><time>2022-01-04T14:02:05Z</time></trkpt>
<trkpt lat="33.0065384" lon="35.2088546"><ele>318.2</ele><time>2022-01-04T14:02:15Z</time></trkpt>
<trkpt lat="33.0065247" lon="35.2090787"><ele>319.1</ele><time>2022-01-04T14:02:25Z</time></trkpt>
<trkpt lat="33.0065153" lon="35.209302"><ele>320.0</ele><time>2022-01-04T14:02:35Z</time></trkpt>
<trkpt lat="33.0065258" lon="35.2095219"><ele>320.8</ele><time>2022-01-04T14:02:44Z</time></trkpt>
<trkpt lat="33.0065176" lon="35.2097402"><ele>321.6</ele><time>2022-01-04T14:02:55Z</time></trkpt>
<trkpt lat="33.0065359" lon="35.2099629"><ele>322.3</ele><time>2022-01-04T14:03:05Z</time></trkpt>
<trkpt lat="33.0065437" lon="35.2101781"><ele>323.6</ele><time>2022-01-04T14:03:14Z</time></trkpt>
<trkpt lat="33.0065301" lon="35.2103989"><ele>325.1</ele><time>2022-01-04T14:03:23Z</time></trkpt>
<trkpt lat="33.0065449" lon="35.2106139"><ele>326.5</ele><time>2022-01-04T14:03:32Z</time></trkpt>
<trkpt lat="33.0065504" lon="35.2108504"><ele>328.0</ele><time>2022-01-04T14:03:41Z</time></trkpt>
<trkpt lat="33.0065235" lon="35.2110675"><ele>329.5</ele><time>2022-01-04T14:03:50Z</time></trkpt>
<trkpt lat="33.0065001" lon="35.2112922"><ele>331.0</ele><time>2022-01-04T14:03:59Z</time></trkpt>
<trkpt lat="33.0064807" lon="35.21151"><ele>332.4</ele><time>2022-01-04T14:04:08Z</time></trkpt>
<trkpt lat="33.0064349" lon="35.211727"><ele>333.7</ele><time>2022-01-04T14:04:17Z</time></trkpt>
<trkpt lat="33.0064162" lon="35.2119534"><ele>334.7</ele><time>2022-01-04T14:04:27Z</time></trkpt>
<trkpt lat="33.0063874" lon="35.2121679"><ele>335.7</ele><time>2022-01-04T14:04:36Z</time></trkpt>
<trkpt lat="33.0062817" lon="35.212349"><ele>336.6</ele><time>2022-01-04T14:04:45Z</time></trkpt>
<trkpt lat="33.0061589" lon="35.212537"><ele>337.8</ele><time>2022-01-04T14:04:55Z</time></trkpt>
<trkpt lat="33.0060575" lon="35.212735"><ele>339.4</ele><time>2022-01-04T14:05:06Z</time></trkpt>
<trkpt lat="33.0059336" lon="35.212924"><ele>340.9</ele><time>2022-01-04T14:05:15Z</time></trkpt>
<trkpt lat="33.0058142" lon="35.2131056"><ele>342.2</ele><time>2022-01-04T14:05:24Z</time></trkpt>
<trkpt lat="33.0056627" lon="35.2132645"><ele>341.8</ele><time>2022-01-04T14:05:32Z</time></trkpt>
<trkpt lat="33.0055245" lon="35.2134047"><ele>341.0</ele><time>2022-01-04T14:05:38Z</time></trkpt>
<trkpt lat="33.0053564" lon="35.2135243"><ele>339.9</ele><time>2022-01-04T14:05:45Z</time></trkpt>
<trkpt lat="33.0052395" lon="35.213695"><ele>339.6</ele><time>2022-01-04T14:05:53Z</time></trkpt>
<trkpt lat="33.0052025" lon="35.2139191"><ele>340.7</ele><time>2022-01-04T14:06:00Z</time></trkpt>
<trkpt lat="33.005092" lon="35.2140945"><ele>341.0</ele><time>2022-01-04T14:06:06Z</time></trkpt>
<trkpt lat="33.0049547" lon="35.2142844"><ele>341.5</ele><time>2022-01-04T14:06:12Z</time></trkpt>
<trkpt lat="33.0048445" lon="35.214492"><ele>341.8</ele><time>2022-01-04T14:06:17Z</time></trkpt>
<trkpt lat="33.004743" lon="35.2147157"><ele>342.2</ele><time>2022-01-04T14:06:22Z</time></trkpt>
<trkpt lat="33.0046652" lon="35.2149562"><ele>342.8</ele><time>2022-01-04T14:06:27Z</time></trkpt>
<trkpt lat="33.0046041" lon="35.2151758"><ele>343.5</ele><time>2022-01-04T14:06:32Z</time></trkpt>
<trkpt lat="33.0045457" lon="35.2154161"><ele>344.4</ele><time>2022-01-04T14:06:38Z</time></trkpt>
<trkpt lat="33.0044943" lon="35.2156455"><ele>345.4</ele><time>2022-01-04T14:06:44Z</time></trkpt>
<trkpt lat="33.0044531" lon="35.2158688"><ele>346.6</ele><time>2022-01-04T14:06:50Z</time></trkpt>
<trkpt lat="33.0044316" lon="35.2160922"><ele>347.7</ele><time>2022-01-04T14:06:58Z</time></trkpt>
<trkpt lat="33.0044018" lon="35.2163225"><ele>348.7</ele><time>2022-01-04T14:07:06Z</time></trkpt>
<trkpt lat="33.0043749" lon="35.2165614"><ele>349.8</ele><time>2022-01-04T14:07:14Z</time></trkpt>
<trkpt lat="33.0043962" lon="35.216776"><ele>351.4</ele><time>2022-01-04T14:07:21Z</time></trkpt>
<trkpt lat="33.0045855" lon="35.2167747"><ele>353.5</ele><time>2022-01-04T14:07:35Z</time></trkpt>
<trkpt lat="33.0047537" lon="35.216684"><ele>355.1</ele><time>2022-01-04T14:07:43Z</time></trkpt>
<trkpt lat="33.0049342" lon="35.2166612"><ele>357.1</ele><time>2022-01-04T14:07:53Z</time></trkpt>
<trkpt lat="33.0051232" lon="35.2167057"><ele>358.6</ele><time>2022-01-04T14:08:02Z</time></trkpt>
<trkpt lat="33.0053096" lon="35.2167244"><ele>359.3</ele><time>2022-01-04T14:08:12Z</time></trkpt>
<trkpt lat="33.0054987" lon="35.2166515"><ele>359.8</ele><time>2022-01-04T14:08:25Z</time></trkpt>
<trkpt lat="33.0055104" lon="35.2164075"><ele>358.6</ele><time>2022-01-04T14:08:31Z</time></trkpt>
<trkpt lat="33.005498" lon="35.2161446"><ele>357.1</ele><time>2022-01-04T14:08:37Z</time></trkpt>
<trkpt lat="33.005445" lon="35.2159111"><ele>355.7</ele><time>2022-01-04T14:08:41Z</time></trkpt>
<trkpt lat="33.0054651" lon="35.2156954"><ele>354.4</ele><time>2022-01-04T14:08:45Z</time></trkpt>
<trkpt lat="33.0055206" lon="35.2154696"><ele>352.9</ele><time>2022-01-04T14:08:51Z</time></trkpt>
<trkpt lat="33.0053284" lon="35.2154417"><ele>351.9</ele><time>2022-01-04T14:08:58Z</time></trkpt>
<trkpt lat="33.0051628" lon="35.2155714"><ele>352.1</ele><time>2022-01-04T14:09:04Z</time></trkpt>
</trkseg></trk></gpx>