<?xml version="1.0" encoding="utf-8"?>
<gpx version="1.1"><trk><trkseg>
<trkpt lat="33.0054402" lon="35.2173218"><ele>362.4</ele><time>2023-09-13T02:52:41Z</time></trkpt>
<trkpt lat="33.0054398" lon="35.2173214"><ele>362.4</ele><time>2023-09-13T02:52:42Z</time></trkpt>
<trkpt lat="33.0054396" lon="35.2173213"><ele>362.4</ele><time>2023-09-13T02:52:43Z</time></trkpt>
<trkpt lat="33.0054396" lon="35.2173213"><ele>362.4</ele><time>2023-09-13T02:52:44Z</time></trkpt>
<trkpt lat="33.0054396" lon="35.2173213"><ele>362.4</ele><time>2023-09-13T02:52:45Z</time></trkpt>
<trkpt lat="33.0054395" lon="35.2173213"><ele>362.4</ele><time>2023-09-13T02:52:46Z</time></trkpt>
<trkpt lat="33.0054395" lon="35.2173213"><ele>362.4</ele><time>2023-09-13T02:52:47Z</time></trkpt>
<trkpt lat="33.0054395" lon="35.2173213"><ele>362.4</ele><time>2023-09-13T02:52:48Z</time></trkpt>
<trkpt lat="33.0054395" lon="35.2173213"><ele>362.4</ele><time>2023-09-13T02:52:49Z</time></trkpt>
<trkpt lat="33.0054394" lon="35.2173213"><ele>362.4</ele><time>2023-09-13T02:52:50Z</time></trkpt>
<trkpt lat="33.0054394" lon="35.2173213"><ele>362.4</ele><time>2023-09-13T02:52:51Z</time></trkpt>
<trkpt lat="33.0054394" lon="35.2173213"><ele>362.4</ele><time>2023-09-13T02:52:52Z</time></trkpt>
<trkpt lat="33.0054394" lon="35.2173213"><ele>362.4</ele><time>2023-09-13T02:52:53Z</time></trkpt>
<trkpt lat="33.0054394" lon="35.2173213"><ele>362.4</ele><time>2023-09-13T02:52:54Z</time></trkpt>
<trkpt lat="33.0054393" lon="35.2173214"><ele>362.4</ele><time>2023-09-13T02:52:55Z</time></trkpt>
<trkpt lat="33.0054393" lon="35.2173214"><ele>362.4</ele><time>2023-09-13T02:52:56Z</time></trkpt>
<trkpt lat="33.0054393" lon="35.2173214"><ele>362.4</ele><time>2023-09-13T02:52:57Z</time></trkpt>
<trkpt lat="33.0054393" lon="35.2173214"><ele>362.4</ele><time>2023-09-13T02:52:58Z</time></trkpt>
<trkpt lat="33.005441" lon="35.2173283"><ele>362.4</ele><time>2023-09-13T02:52:59Z</time></trkpt>
<trkpt lat="33.005442" lon="35.2173329"><ele>362.4</ele><time>2023-09-13T02:53:00Z</time></trkpt>
<trkpt lat="33.0054425" lon="35.2173362"><ele>362.4</ele><time>2023-09-13T02:53:01Z</time></trkpt>
<trkpt lat="33.0054429" lon="35.2173383"><ele>362.4</ele><time>2023-09-13T02:53:02Z</time></trkpt>
<trkpt lat="33.0054432" lon="35.2173397"><ele>362.5</ele><time>2023-09-13T02:53:03Z</time></trkpt>
<trkpt lat="33.0054432" lon="35.2173405"><ele>362.5</ele><time>2023-09-13T02:53:04Z</time></trkpt>
<trkpt lat="33.0054432" lon="35.2173412"><ele>362.5</ele><time>2023-09-13T02:53:05Z</time></trkpt>
<trkpt lat="33.0054433" lon="35.2173418"><ele>362.6</ele><time>2023-09-13T02:53:06Z</time></trkpt>
<trkpt lat="33.0054435" lon="35.2173426"><ele>362.6</ele><time>2023-09-13T02:53:07Z</time></trkpt>
<trkpt lat="33.0054437" lon="35.2173439"><ele>362.6</ele><time>2023-09-13T02:53:08Z</time></trkpt>
<trkpt lat="33.0054446" lon="35.2173488"><ele>362.7</ele><time>2023-09-13T02:53:09Z</time></trkpt>
<trkpt lat="33.0054458" lon="35.2173574"><ele>362.7</ele><time>2023-09-13T02:53:10Z</time></trkpt>
<trkpt lat="33.0054468" lon="35.2173657"><ele>362.7</ele><time>2023-09-13T02:53:11Z</time></trkpt>
<trkpt lat="33.0054471" lon="35.2173723"><ele>362.7</ele><time>2023-09-13T02:53:12Z</time></trkpt>
<trkpt lat="33.0054468" lon="35.2173769"><ele>362.8</ele><time>2023-09-13T02:53:13Z</time></trkpt>
<trkpt lat="33.005446" lon="35.2173796"><ele>362.8</ele><time>2023-09-13T02:53:14Z</time></trkpt>
<trkpt lat="33.0054453" lon="35.2173812"><ele>362.8</ele><time>2023-09-13T02:53:15Z</time></trkpt>
<trkpt lat="33.0054456" lon="35.2173826"><ele>362.8</ele><time>2023-09-13T02:53:16Z</time></trkpt>
<trkpt lat="33.0054462" lon="35.2173843"><ele>362.8</ele><time>2023-09-13T02:53:17Z</time></trkpt>
<trkpt lat="33.0054466" lon="35.2173867"><ele>362.8</ele><time>2023-09-13T02:53:18Z</time></trkpt>
<trkpt lat="33.0054468" lon="35.2173901"><ele>362.8</ele><time>2023-09-13T02:53:19Z</time></trkpt>
<trkpt lat="33.0054471" lon="35.2173951"><ele>362.8</ele><time>2023-09-13T02:53:20Z</time></trkpt>
<trkpt lat="33.0054473" lon="35.217401"><ele>362.8</ele><time>2023-09-13T02:53:21Z</time></trkpt>
<trkpt lat="33.0054476" lon="35.217406"><ele>362.8</ele><time>2023-09-13T02:53:22Z</time></trkpt>
<trkpt lat="33.005448" lon="35.2174089"><ele>362.8</ele><time>2023-09-13T02:53:23Z</time></trkpt>
<trkpt lat="33.0054483" lon="35.2174098"><ele>362.8</ele><time>2023-09-13T02:53:24Z</time></trkpt>
<trkpt lat="33.0054488" lon="35.2174093"><ele>362.8</ele><time>2023-09-13T02:53:25Z</time></trkpt>
<trkpt lat="33.0054493" lon="35.2174078"><ele>362.8</ele><time>2023-09-13T02:53:26Z</time></trkpt>
<trkpt lat="33.0054499" lon="35.2174057"><ele>362.8</ele><time>2023-09-13T02:53:27Z</time></trkpt>
<trkpt lat="33.0054504" lon="35.2174033"><ele>362.8</ele><time>2023-09-13T02:53:28Z</time></trkpt>
<trkpt lat="33.005451" lon="35.2174008"><ele>362.8</ele><time>2023-09-13T02:53:29Z</time></trkpt>
<trkpt lat="33.0054518" lon="35.2173982"><ele>362.8</ele><time>2023-09-13T02:53:30Z</time></trkpt>
<trkpt lat="33.0054527" lon="35.2173956"><ele>362.8</ele><time>2023-09-13T02:53:31Z</time></trkpt>
<trkpt lat="33.0054536" lon="35.2173931"><ele>362.8</ele><time>2023-09-13T02:53:32Z</time></trkpt>
<trkpt lat="33.0054546" lon="35.2173909"><ele>362.8</ele><time>2023-09-13T02:53:33Z</time></trkpt>
<trkpt lat="33.0054555" lon="35.2173889"><ele>362.8</ele><time>2023-09-13T02:53:34Z</time></trkpt>
<trkpt lat="33.0054565" lon="35.2173872"><ele>362.8</ele><time>2023-09-13T02:53:35Z</time></trkpt>
<trkpt lat="33.0054577" lon="35.2173859"><ele>362.8</ele><time>2023-09-13T02:53:36Z</time></trkpt>
<trkpt lat="33.005459" lon="35.2173852"><ele>362.8</ele><time>2023-09-13T02:53:37Z</time></trkpt>
<trkpt lat="33.0054603" lon="35.217385"><ele>362.8</ele><time>2023-09-13T02:53:38Z</time></trkpt>
<trkpt lat="33.0054616" lon="35.2173854"><ele>362.8</ele><time>2023-09-13T02:53:39Z</time></trkpt>
<trkpt lat="33.0054629" lon="35.2173862"><ele>362.8</ele><time>2023-09-13T02:53:40Z</time></trkpt>
<trkpt lat="33.0054641" lon="35.2173872"><ele>362.8</ele><time>2023-09-13T02:53:41Z</time></trkpt>
<trkpt lat="33.005465" lon="35.2173885"><ele>362.8</ele><time>2023-09-13T02:53:42Z</time></trkpt>
<trkpt lat="33.0054655" lon="35.21739"><ele>362.8</ele><time>2023-09-13T02:53:43Z</time></trkpt>
<trkpt lat="33.0054656" lon="35.2173916"><ele>362.8</ele><time>2023-09-13T02:53:44Z</time></trkpt>
<trkpt lat="33.0054654" lon="35.2173934"><ele>362.9</ele><time>2023-09-13T02:53:45Z</time></trkpt>
<trkpt lat="33.005465" lon="35.2173951"><ele>362.9</ele><time>2023-09-13T02:53:46Z</time></trkpt>
<trkpt lat="33.0054646" lon="35.2173964"><ele>362.9</ele><time>2023-09-13T02:53:47Z</time></trkpt>
<trkpt lat="33.0054645" lon="35.217397"><ele>362.9</ele><time>2023-09-13T02:53:48Z</time></trkpt>
<trkpt lat="33.0054643" lon="35.2173975"><ele>362.9</ele><time>2023-09-13T02:53:49Z</time></trkpt>
<trkpt lat="33.005464" lon="35.2173982"><ele>363.0</ele><time>2023-09-13T02:53:50Z</time></trkpt>
<trkpt lat="33.0054639" lon="35.2173991"><ele>363.0</ele><time>2023-09-13T02:53:51Z</time></trkpt>
<trkpt lat="33.0054645" lon="35.2173997"><ele>363.0</ele><time>2023-09-13T02:53:52Z</time></trkpt>
<trkpt lat="33.0054658" lon="35.2173996"><ele>363.0</ele><time>2023-09-13T02:53:53Z</time></trkpt>
<trkpt lat="33.0054682" lon="35.2173987"><ele>363.0</ele><time>2023-09-13T02:53:54Z</time></trkpt>
<trkpt lat="33.0054716" lon="35.217397"><ele>363.1</ele><time>2023-09-13T02:53:55Z</time></trkpt>
<trkpt lat="33.0054762" lon="35.2173948"><ele>363.1</ele><time>2023-09-13T02:53:56Z</time></trkpt>
<trkpt lat="33.0054814" lon="35.2173922"><ele>363.1</ele><time>2023-09-13T02:53:57Z</time></trkpt>
<trkpt lat="33.0054861" lon="35.2173901"><ele>363.2</ele><time>2023-09-13T02:53:58Z</time></trkpt>
<trkpt lat="33.0054903" lon="35.217389"><ele>363.2</ele><time>2023-09-13T02:53:59Z</time></trkpt>
<trkpt lat="33.0054943" lon="35.217389"><ele>363.2</ele><time>2023-09-13T02:54:00Z</time></trkpt>
<trkpt lat="33.005498" lon="35.2173901"><ele>363.3</ele><time>2023-09-13T02:54:01Z</time></trkpt>
<trkpt lat="33.005501" lon="35.2173925"><ele>363.3</ele><time>2023-09-13T02:54:02Z</time></trkpt>
<trkpt lat="33.0055038" lon="35.2173965"><ele>363.4</ele><time>2023-09-13T02:54:03Z</time></trkpt>
<trkpt lat="33.0055069" lon="35.2174024"><ele>363.4</ele><time>2023-09-13T02:54:04Z</time></trkpt>
<trkpt lat="33.0055098" lon="35.2174098"><ele>363.4</ele><time>2023-09-13T02:54:05Z</time></trkpt>
<trkpt lat="33.0055126" lon="35.2174179"><ele>363.5</ele><time>2023-09-13T02:54:06Z</time></trkpt>
<trkpt lat="33.005515" lon="35.2174261"><ele>363.5</ele><time>2023-09-13T02:54:07Z</time></trkpt>
<trkpt lat="33.0055169" lon="35.217433"><ele>363.6</ele><time>2023-09-13T02:54:08Z</time></trkpt>
<trkpt lat="33.0055183" lon="35.2174375"><ele>363.6</ele><time>2023-09-13T02:54:09Z</time></trkpt>
<trkpt lat="33.0055194" lon="35.21744"><ele>363.6</ele><time>2023-09-13T02:54:10Z</time></trkpt>
<trkpt lat="33.0055203" lon="35.2174414"><ele>363.6</ele><time>2023-09-13T02:54:11Z</time></trkpt>
<trkpt lat="33.0055211" lon="35.2174421"><ele>363.7</ele><time>2023-09-13T02:54:12Z</time></trkpt>
<trkpt lat="33.0055216" lon="35.2174425"><ele>363.7</ele><time>2023-09-13T02:54:13Z</time></trkpt>
<trkpt lat="33.0055219" lon="35.2174429"><ele>363.7</ele><time>2023-09-13T02:54:14Z</time></trkpt>
<trkpt lat="33.0055219" lon="35.2174432"><ele>363.7</ele><time>2023-09-13T02:54:15Z</time></trkpt>
<trkpt lat="33.0055216" lon="35.2174437"><ele>363.7</ele><time>2023-09-13T02:54:16Z</time></trkpt>
<trkpt lat="33.0055211" lon="35.2174444"><ele>363.7</ele><time>2023-09-13T02:54:17Z</time></trkpt>
<trkpt lat="33.0055204" lon="35.2174453"><ele>363.7</ele><time>2023-09-13T02:54:18Z</time></trkpt>
<trkpt lat="33.0055194" lon="35.217446"><ele>363.8</ele><time>2023-09-13T02:54:19Z</time></trkpt>
<trkpt lat="33.0055183" lon="35.2174468"><ele>363.8</ele><time>2023-09-13T02:54:20Z</time></trkpt>
<trkpt lat="33.0055171" lon="35.2174479"><ele>363.8</ele><time>2023-09-13T02:54:21Z</time></trkpt>
<trkpt lat="33.0055162" lon="35.2174493"><ele>363.8</ele><time>2023-09-13T02:54:22Z</time></trkpt>
<trkpt lat="33.0055154" lon="35.2174512"><ele>363.8</ele><time>2023-09-13T02:54:23Z</time></trkpt>
<trkpt lat="33.005515" lon="35.2174533"><ele>363.8</ele><time>2023-09-13T02:54:24Z</time></trkpt>
<trkpt lat="33.0055149" lon="35.2174552"><ele>363.8</ele><time>2023-09-13T02:54:25Z</time></trkpt>
<trkpt lat="33.005515" lon="35.2174566"><ele>363.8</ele><time>2023-09-13T02:54:26Z</time></trkpt>
<trkpt lat="33.0055151" lon="35.2174572"><ele>363.8</ele><time>2023-09-13T02:54:27Z</time></trkpt>
<trkpt lat="33.0055151" lon="35.2174571"><ele>363.8</ele><time>2023-09-13T02:54:28Z</time></trkpt>
<trkpt lat="33.0055149" lon="35.2174565"><ele>363.8</ele><time>2023-09-13T02:54:29Z</time></trkpt>
<trkpt lat="33.0055146" lon="35.2174556"><ele>363.8</ele><time>2023-09-13T02:54:30Z</time></trkpt>
<trkpt lat="33.0055143" lon="35.2174546"><ele>363.8</ele><time>2023-09-13T02:54:31Z</time></trkpt>
<trkpt lat="33.0055144" lon="35.2174537"><ele>363.8</ele><time>2023-09-13T02:54:32Z</time></trkpt>
<trkpt lat="33.0055149" lon="35.2174529"><ele>363.8</ele><time>2023-09-13T02:54:33Z</time></trkpt>
<trkpt lat="33.0055159" lon="35.2174522"><ele>363.9</ele><time>2023-09-13T02:54:34Z</time></trkpt>
<trkpt lat="33.0055172" lon="35.2174514"><ele>363.9</ele><time>2023-09-13T02:54:35Z</time></trkpt>
<trkpt lat="33.0055187" lon="35.2174507"><ele>363.9</ele><time>2023-09-13T02:54:36Z</time></trkpt>
<trkpt lat="33.0055204" lon="35.2174499"><ele>363.9</ele><time>2023-09-13T02:54:37Z</time></trkpt>
<trkpt lat="33.0055221" lon="35.2174492"><ele>363.9</ele><time>2023-09-13T02:54:38Z</time></trkpt>
<trkpt lat="33.0055241" lon="35.2174484"><ele>363.9</ele><time>2023-09-13T02:54:39Z</time></trkpt>
<trkpt lat="33.0055262" lon="35.2174476"><ele>363.9</ele><time>2023-09-13T02:54:40Z</time></trkpt>
<trkpt lat="33.0055284" lon="35.2174469"><ele>363.9</ele><time>2023-09-13T02:54:41Z</time></trkpt>
<trkpt lat="33.0055304" lon="35.2174463"><ele>363.9</ele><time>2023-09-13T02:54:42Z</time></trkpt>
<trkpt lat="33.005532" lon="35.2174461"><ele>363.9</ele><time>2023-09-13T02:54:43Z</time></trkpt>
<trkpt lat="33.0055334" lon="35.2174463"><ele>363.9</ele><time>2023-09-13T02:54:44Z</time></trkpt>
<trkpt lat="33.0055346" lon="35.2174465"><ele>363.9</ele><time>2023-09-13T02:54:45Z</time></trkpt>
<trkpt lat="33.0055356" lon="35.2174468"><ele>363.9</ele><time>2023-09-13T02:54:46Z</time></trkpt>
<trkpt lat="33.0055364" lon="35.2174469"><ele>363.9</ele><time>2023-09-13T02:54:47Z</time></trkpt>
<trkpt lat="33.0055371" lon="35.2174467"><ele>363.9</ele><time>2023-09-13T02:54:48Z</time></trkpt>
<trkpt lat="33.0055374" lon="35.217446"><ele>363.9</ele><time>2023-09-13T02:54:49Z</time></trkpt>
<trkpt lat="33.0055376" lon="35.2174451"><ele>363.9</ele><time>2023-09-13T02:54:50Z</time></trkpt>
<trkpt lat="33.0055378" lon="35.2174444"><ele>363.9</ele><time>2023-09-13T02:54:51Z</time></trkpt>
<trkpt lat="33.005538" lon="35.2174442"><ele>363.9</ele><time>2023-09-13T02:54:52Z</time></trkpt>
<trkpt lat="33.0055382" lon="35.2174444"><ele>363.9</ele><time>2023-09-13T02:54:53Z</time></trkpt>
<trkpt lat="33.0055383" lon="35.217445"><ele>363.9</ele><time>2023-09-13T02:54:54Z</time></trkpt>
<trkpt lat="33.0055381" lon="35.2174457"><ele>363.9</ele><time>2023-09-13T02:54:55Z</time></trkpt>
<trkpt lat="33.0055379" lon="35.2174466"><ele>363.9</ele><time>2023-09-13T02:54:56Z</time></trkpt>
<trkpt lat="33.0055376" lon="35.2174475"><ele>363.9</ele><time>2023-09-13T02:54:57Z</time></trkpt>
<trkpt lat="33.0055373" lon="35.2174483"><ele>363.9</ele><time>2023-09-13T02:54:58Z</time></trkpt>
<trkpt lat="33.0055367" lon="35.2174488"><ele>363.9</ele><time>2023-09-13T02:54:59Z</time></trkpt>
<trkpt lat="33.0055359" lon="35.217449"><ele>363.9</ele><time>2023-09-13T02:55:00Z</time></trkpt>
<trkpt lat="33.0055349" lon="35.2174489"><ele>363.9</ele><time>2023-09-13T02:55:01Z</time></trkpt>
<trkpt lat="33.0055337" lon="35.2174489"><ele>363.9</ele><time>2023-09-13T02:55:02Z</time></trkpt>
<trkpt lat="33.0055322" lon="35.2174492"><ele>363.9</ele><time>2023-09-13T02:55:03Z</time></trkpt>
<trkpt lat="33.0055306" lon="35.2174499"><ele>363.9</ele><time>2023-09-13T02:55:04Z</time></trkpt>
<trkpt lat="33.0055289" lon="35.2174509"><ele>363.9</ele><time>2023-09-13T02:55:05Z</time></trkpt>
<trkpt lat="33.0055272" lon="35.217452"><ele>363.9</ele><time>2023-09-13T02:55:06Z</time></trkpt>
<trkpt lat="33.0055254" lon="35.2174531"><ele>363.9</ele><time>2023-09-13T02:55:07Z</time></trkpt>
<trkpt lat="33.0055235" lon="35.2174545"><ele>363.9</ele><time>2023-09-13T02:55:08Z</time></trkpt>
<trkpt lat="33.0055215" lon="35.2174558"><ele>363.9</ele><time>2023-09-13T02:55:09Z</time></trkpt>
<trkpt lat="33.0055196" lon="35.217457"><ele>363.9</ele><time>2023-09-13T02:55:10Z</time></trkpt>
<trkpt lat="33.005518" lon="35.217458"><ele>363.9</ele><time>2023-09-13T02:55:11Z</time></trkpt>
<trkpt lat="33.0055166" lon="35.2174589"><ele>363.9</ele><time>2023-09-13T02:55:12Z</time></trkpt>
<trkpt lat="33.0055154" lon="35.2174594"><ele>363.9</ele><time>2023-09-13T02:55:13Z</time></trkpt>
<trkpt lat="33.0055143" lon="35.2174595"><ele>363.9</ele><time>2023-09-13T02:55:14Z</time></trkpt>
<trkpt lat="33.0055133" lon="35.217459"><ele>363.9</ele><time>2023-09-13T02:55:15Z</time></trkpt>
<trkpt lat="33.0055127" lon="35.2174581"><ele>363.9</ele><time>2023-09-13T02:55:16Z</time></trkpt>
<trkpt lat="33.0055124" lon="35.2174569"><ele>363.9</ele><time>2023-09-13T02:55:17Z</time></trkpt>
<trkpt lat="33.0055124" lon="35.2174554"><ele>363.8</ele><time>2023-09-13T02:55:18Z</time></trkpt>
<trkpt lat="33.0055128" lon="35.2174539"><ele>363.8</ele><time>2023-09-13T02:55:19Z</time></trkpt>
<trkpt lat="33.0055136" lon="35.2174525"><ele>363.8</ele><time>2023-09-13T02:55:20Z</time></trkpt>
<trkpt lat="33.0055146" lon="35.2174514"><ele>363.8</ele><time>2023-09-13T02:55:21Z</time></trkpt>
<trkpt lat="33.005516" lon="35.2174505"><ele>363.8</ele><time>2023-09-13T02:55:22Z</time></trkpt>
<trkpt lat="33.0055175" lon="35.2174498"><ele>363.8</ele><time>2023-09-13T02:55:23Z</time></trkpt>
<trkpt lat="33.0055192" lon="35.2174493"><ele>363.8</ele><time>2023-09-13T02:55:24Z</time></trkpt>
<trkpt lat="33.0055209" lon="35.2174489"><ele>363.8</ele><time>2023-09-13T02:55:25Z</time></trkpt>
<trkpt lat="33.0055225" lon="35.2174488"><ele>363.8</ele><time>2023-09-13T02:55:26Z</time></trkpt>
<trkpt lat="33.0055238" lon="35.2174485"><ele>363.8</ele><time>2023-09-13T02:55:27Z</time></trkpt>
<trkpt lat="33.0055247" lon="35.2174477"><ele>363.8</ele><time>2023-09-13T02:55:28Z</time></trkpt>
<trkpt lat="33.0055254" lon="35.2174466"><ele>363.8</ele><time>2023-09-13T02:55:29Z</time></trkpt>
<trkpt lat="33.0055259" lon="35.217445"><ele>363.8</ele><time>2023-09-13T02:55:30Z</time></trkpt>
<trkpt lat="33.0055264" lon="35.2174433"><ele>363.8</ele><time>2023-09-13T02:55:31Z</time></trkpt>
<trkpt lat="33.0055268" lon="35.2174417"><ele>363.8</ele><time>2023-09-13T02:55:32Z</time></trkpt>
<trkpt lat="33.0055271" lon="35.2174404"><ele>363.8</ele><time>2023-09-13T02:55:33Z</time></trkpt>
<trkpt lat="33.0055275" lon="35.2174395"><ele>363.8</ele><time>2023-09-13T02:55:34Z</time></trkpt>
<trkpt lat="33.0055281" lon="35.2174392"><ele>363.8</ele><time>2023-09-13T02:55:35Z</time></trkpt>
<trkpt lat="33.0055288" lon="35.2174397"><ele>363.8</ele><time>2023-09-13T02:55:36Z</time></trkpt>
<trkpt lat="33.0055296" lon="35.2174406"><ele>363.8</ele><time>2023-09-13T02:55:37Z</time></trkpt>
<trkpt lat="33.0055305" lon="35.2174416"><ele>363.8</ele><time>2023-09-13T02:55:38Z</time></trkpt>
<trkpt lat="33.0055314" lon="35.2174429"><ele>363.8</ele><time>2023-09-13T02:55:39Z</time></trkpt>
<trkpt lat="33.0055326" lon="35.2174449"><ele>363.8</ele><time>2023-09-13T02:55:40Z</time></trkpt>
<trkpt lat="33.0055341" lon="35.2174477"><ele>363.8</ele><time>2023-09-13T02:55:41Z</time></trkpt>
<trkpt lat="33.0055356" lon="35.2174503"><ele>363.8</ele><time>2023-09-13T02:55:42Z</time></trkpt>
<trkpt lat="33.0055366" lon="35.2174522"><ele>363.8</ele><time>2023-09-13T02:55:43Z</time></trkpt>
<trkpt lat="33.0055372" lon="35.2174533"><ele>363.8</ele><time>2023-09-13T02:55:44Z</time></trkpt>
<trkpt lat="33.0055375" lon="35.2174541"><ele>363.8</ele><time>2023-09-13T02:55:45Z</time></trkpt>
<trkpt lat="33.0055378" lon="35.2174547"><ele>363.8</ele><time>2023-09-13T02:55:46Z</time></trkpt>
<trkpt lat="33.0055381" lon="35.217455"><ele>363.8</ele><time>2023-09-13T02:55:47Z</time></trkpt>
<trkpt lat="33.0055381" lon="35.2174551"><ele>363.8</ele><time>2023-09-13T02:55:48Z</time></trkpt>
<trkpt lat="33.0055379" lon="35.217455"><ele>363.8</ele><time>2023-09-13T02:55:49Z</time></trkpt>
<trkpt lat="33.0055375" lon="35.2174546"><ele>363.8</ele><time>2023-09-13T02:55:50Z</time></trkpt>
<trkpt lat="33.0055368" lon="35.2174543"><ele>363.8</ele><time>2023-09-13T02:55:51Z</time></trkpt>
<trkpt lat="33.005536" lon="35.2174539"><ele>363.8</ele><time>2023-09-13T02:55:52Z</time></trkpt>
<trkpt lat="33.0055351" lon="35.2174537"><ele>363.8</ele><time>2023-09-13T02:55:53Z</time></trkpt>
<trkpt lat="33.0055341" lon="35.2174535"><ele>363.8</ele><time>2023-09-13T02:55:54Z</time></trkpt>
<trkpt lat="33.0055333" lon="35.2174534"><ele>363.8</ele><time>2023-09-13T02:55:55Z</time></trkpt>
<trkpt lat="33.0055328" lon="35.2174532"><ele>363.8</ele><time>2023-09-13T02:55:56Z</time></trkpt>
<trkpt lat="33.0055326" lon="35.2174529"><ele>363.8</ele><time>2023-09-13T02:55:57Z</time></trkpt>
<trkpt lat="33.0055326" lon="35.2174524"><ele>363.8</ele><time>2023-09-13T02:55:58Z</time></trkpt>
<trkpt lat="33.0055327" lon="35.2174516"><ele>363.8</ele><time>2023-09-13T02:55:59Z</time></trkpt>
<trkpt lat="33.005533" lon="35.2174506"><ele>363.8</ele><time>2023-09-13T02:56:00Z</time></trkpt>
<trkpt lat="33.0055334" lon="35.2174495"><ele>363.8</ele><time>2023-09-13T02:56:01Z</time></trkpt>
<trkpt lat="33.0055341" lon="35.2174485"><ele>363.8</ele><time>2023-09-13T02:56:02Z</time></trkpt>
<trkpt lat="33.0055351" lon="35.2174477"><ele>363.8</ele><time>2023-09-13T02:56:03Z</time></trkpt>
<trkpt lat="33.0055363" lon="35.2174471"><ele>363.8</ele><time>2023-09-13T02:56:04Z</time></trkpt>
<trkpt lat="33.0055375" lon="35.2174466"><ele>363.8</ele><time>2023-09-13T02:56:05Z</time></trkpt>
<trkpt lat="33.0055385" lon="35.2174461"><ele>363.8</ele><time>2023-09-13T02:56:06Z</time></trkpt>
<trkpt lat="33.0055391" lon="35.2174455"><ele>363.8</ele><time>2023-09-13T02:56:07Z</time></trkpt>
<trkpt lat="33.0055394" lon="35.2174448"><ele>363.8</ele><time>2023-09-13T02:56:08Z</time></trkpt>
<trkpt lat="33.0055393" lon="35.217444"><ele>363.9</ele><time>2023-09-13T02:56:09Z</time></trkpt>
<trkpt lat="33.005539" lon="35.2174432"><ele>363.9</ele><time>2023-09-13T02:56:10Z</time></trkpt>
<trkpt lat="33.0055383" lon="35.2174427"><ele>363.9</ele><time>2023-09-13T02:56:11Z</time></trkpt>
<trkpt lat="33.0055374" lon="35.2174426"><ele>363.9</ele><time>2023-09-13T02:56:12Z</time></trkpt>
<trkpt lat="33.0055363" lon="35.2174429"><ele>363.8</ele><time>2023-09-13T02:56:13Z</time></trkpt>
<trkpt lat="33.0055349" lon="35.2174436"><ele>363.8</ele><time>2023-09-13T02:56:14Z</time></trkpt>
<trkpt lat="33.0055332" lon="35.2174445"><ele>363.8</ele><time>2023-09-13T02:56:15Z</time></trkpt>
<trkpt lat="33.0055314" lon="35.2174456"><ele>363.8</ele><time>2023-09-13T02:56:16Z</time></trkpt>
<trkpt lat="33.0055298" lon="35.2174466"><ele>363.8</ele><time>2023-09-13T02:56:17Z</time></trkpt>
<trkpt lat="33.0055284" lon="35.2174475"><ele>363.8</ele><time>2023-09-13T02:56:18Z</time></trkpt>
<trkpt lat="33.0055274" lon="35.2174482"><ele>363.8</ele><time>2023-09-13T02:56:19Z</time></trkpt>
<trkpt lat="33.0055266" lon="35.2174488"><ele>363.8</ele><time>2023-09-13T02:56:20Z</time></trkpt>
<trkpt lat="33.005526" lon="35.2174493"><ele>363.8</ele><time>2023-09-13T02:56:21Z</time></trkpt>
<trkpt lat="33.0055254" lon="35.2174499"><ele>363.8</ele><time>2023-09-13T02:56:22Z</time></trkpt>
<trkpt lat="33.0055247" lon="35.2174505"><ele>363.8</ele><time>2023-09-13T02:56:23Z</time></trkpt>
<trkpt lat="33.0055238" lon="35.2174513"><ele>363.8</ele><time>2023-09-13T02:56:24Z</time></trkpt>
<trkpt lat="33.0055228" lon="35.2174522"><ele>363.8</ele><time>2023-09-13T02:56:25Z</time></trkpt>
<trkpt lat="33.0055217" lon="35.2174531"><ele>363.8</ele><time>2023-09-13T02:56:26Z</time></trkpt>
<trkpt lat="33.0055206" lon="35.2174539"><ele>363.8</ele><time>2023-09-13T02:56:27Z</time></trkpt>
<trkpt lat="33.0055197" lon="35.2174547"><ele>363.8</ele><time>2023-09-13T02:56:28Z</time></trkpt>
<trkpt lat="33.005519" lon="35.2174554"><ele>363.8</ele><time>2023-09-13T02:56:29Z</time></trkpt>
<trkpt lat="33.0055187" lon="35.2174559"><ele>363.8</ele><time>2023-09-13T02:56:30Z</time></trkpt>
<trkpt lat="33.0055186" lon="35.2174561"><ele>363.8</ele><time>2023-09-13T02:56:31Z</time></trkpt>
<trkpt lat="33.0055185" lon="35.2174561"><ele>363.8</ele><time>2023-09-13T02:56:32Z</time></trkpt>
<trkpt lat="33.0055183" lon="35.2174559"><ele>363.8</ele><time>2023-09-13T02:56:33Z</time></trkpt>
<trkpt lat="33.0055179" lon="35.2174555"><ele>363.8</ele><time>2023-09-13T02:56:34Z</time></trkpt>
<trkpt lat="33.0055174" lon="35.2174549"><ele>363.8</ele><time>2023-09-13T02:56:35Z</time></trkpt>
<trkpt lat="33.0055168" lon="35.2174543"><ele>363.8</ele><time>2023-09-13T02:56:36Z</time></trkpt>
<trkpt lat="33.0055165" lon="35.2174535"><ele>363.8</ele><time>2023-09-13T02:56:37Z</time></trkpt>
<trkpt lat="33.0055166" lon="35.2174526"><ele>363.8</ele><time>2023-09-13T02:56:38Z</time></trkpt>
<trkpt lat="33.0055171" lon="35.2174517"><ele>363.8</ele><time>2023-09-13T02:56:39Z</time></trkpt>
<trkpt lat="33.0055181" lon="35.2174508"><ele>363.8</ele><time>2023-09-13T02:56:40Z</time></trkpt>
<trkpt lat="33.0055194" lon="35.2174498"><ele>363.8</ele><time>2023-09-13T02:56:41Z</time></trkpt>
<trkpt lat="33.005521" lon="35.2174488"><ele>363.8</ele><time>2023-09-13T02:56:42Z</time></trkpt>
<trkpt lat="33.0055227" lon="35.2174481"><ele>363.8</ele><time>2023-09-13T02:56:43Z</time></trkpt>
<trkpt lat="33.0055245" lon="35.2174477"><ele>363.8</ele><time>2023-09-13T02:56:44Z</time></trkpt>
<trkpt lat="33.0055263" lon="35.2174477"><ele>363.8</ele><time>2023-09-13T02:56:45Z</time></trkpt>
<trkpt lat="33.0055279" lon="35.2174478"><ele>363.8</ele><time>2023-09-13T02:56:46Z</time></trkpt>
<trkpt lat="33.0055293" lon="35.217448"><ele>363.8</ele><time>2023-09-13T02:56:47Z</time></trkpt>
<trkpt lat="33.0055305" lon="35.2174482"><ele>363.7</ele><time>2023-09-13T02:56:48Z</time></trkpt>
<trkpt lat="33.0055314" lon="35.2174483"><ele>363.7</ele><time>2023-09-13T02:56:49Z</time></trkpt>
<trkpt lat="33.0055321" lon="35.2174484"><ele>363.7</ele><time>2023-09-13T02:56:50Z</time></trkpt>
<trkpt lat="33.0055324" lon="35.2174486"><ele>363.7</ele><time>2023-09-13T02:56:51Z</time></trkpt>
<trkpt lat="33.0055322" lon="35.217449"><ele>363.7</ele><time>2023-09-13T02:56:52Z</time></trkpt>
<trkpt lat="33.0055316" lon="35.2174497"><ele>363.7</ele><time>2023-09-13T02:56:53Z</time></trkpt>
<trkpt lat="33.0055306" lon="35.2174508"><ele>363.7</ele><time>2023-09-13T02:56:54Z</time></trkpt>
<trkpt lat="33.0055294" lon="35.2174519"><ele>363.7</ele><time>2023-09-13T02:56:55Z</time></trkpt>
<trkpt lat="33.0055281" lon="35.2174528"><ele>363.7</ele><time>2023-09-13T02:56:56Z</time></trkpt>
<trkpt lat="33.005527" lon="35.2174537"><ele>363.7</ele><time>2023-09-13T02:56:57Z</time></trkpt>
<trkpt lat="33.0055259" lon="35.2174544"><ele>363.7</ele><time>2023-09-13T02:56:58Z</time></trkpt>
<trkpt lat="33.0055248" lon="35.2174552"><ele>363.7</ele><time>2023-09-13T02:56:59Z</time></trkpt>
<trkpt lat="33.0055238" lon="35.2174558"><ele>363.7</ele><time>2023-09-13T02:57:00Z</time></trkpt>
<trkpt lat="33.005523" lon="35.2174564"><ele>363.8</ele><time>2023-09-13T02:57:01Z</time></trkpt>
<trkpt lat="33.0055223" lon="35.217457"><ele>363.8</ele><time>2023-09-13T02:57:02Z</time></trkpt>
<trkpt lat="33.0055217" lon="35.2174576"><ele>363.8</ele><time>2023-09-13T02:57:03Z</time></trkpt>
<trkpt lat="33.0055212" lon="35.2174583"><ele>363.8</ele><time>2023-09-13T02:57:04Z</time></trkpt>
<trkpt lat="33.0055208" lon="35.2174592"><ele>363.8</ele><time>2023-09-13T02:57:05Z</time></trkpt>
<trkpt lat="33.0055206" lon="35.2174605"><ele>363.8</ele><time>2023-09-13T02:57:06Z</time></trkpt>
<trkpt lat="33.0055205" lon="35.217462"><ele>363.8</ele><time>2023-09-13T02:57:07Z</time></trkpt>
<trkpt lat="33.0055206" lon="35.2174636"><ele>363.8</ele><time>2023-09-13T02:57:08Z</time></trkpt>
<trkpt lat="33.0055208" lon="35.217465"><ele>363.8</ele><time>2023-09-13T02:57:09Z</time></trkpt>
<trkpt lat="33.0055208" lon="35.217466"><ele>363.8</ele><time>2023-09-13T02:57:10Z</time></trkpt>
<trkpt lat="33.0055209" lon="35.2174666"><ele>363.8</ele><time>2023-09-13T02:57:11Z</time></trkpt>
<trkpt lat="33.0055211" lon="35.2174667"><ele>363.9</ele><time>2023-09-13T02:57:12Z</time></trkpt>
<trkpt lat="33.0055215" lon="35.2174665"><ele>363.9</ele><time>2023-09-13T02:57:13Z</time></trkpt>
<trkpt lat="33.005522" lon="35.217466"><ele>363.9</ele><time>2023-09-13T02:57:14Z</time></trkpt>
<trkpt lat="33.0055227" lon="35.2174652"><ele>363.9</ele><time>2023-09-13T02:57:15Z</time></trkpt>
<trkpt lat="33.0055233" lon="35.2174644"><ele>363.9</ele><time>2023-09-13T02:57:16Z</time></trkpt>
<trkpt lat="33.0055239" lon="35.2174637"><ele>363.9</ele><time>2023-09-13T02:57:17Z</time></trkpt>
<trkpt lat="33.0055242" lon="35.2174631"><ele>363.9</ele><time>2023-09-13T02:57:18Z</time></trkpt>
<trkpt lat="33.0055245" lon="35.2174626"><ele>363.9</ele><time>2023-09-13T02:57:19Z</time></trkpt>
<trkpt lat="33.0055247" lon="35.2174622"><ele>363.9</ele><time>2023-09-13T02:57:20Z</time></trkpt>
<trkpt lat="33.0055249" lon="35.2174617"><ele>363.9</ele><time>2023-09-13T02:57:21Z</time></trkpt>
<trkpt lat="33.005525" lon="35.217461"><ele>363.9</ele><time>2023-09-13T02:57:22Z</time></trkpt>
<trkpt lat="33.0055251" lon="35.2174601"><ele>363.9</ele><time>2023-09-13T02:57:23Z</time></trkpt>
<trkpt lat="33.005525" lon="35.2174589"><ele>363.9</ele><time>2023-09-13T02:57:24Z</time></trkpt>
<trkpt lat="33.0055248" lon="35.2174577"><ele>363.9</ele><time>2023-09-13T02:57:25Z</time></trkpt>
<trkpt lat="33.0055245" lon="35.2174567"><ele>363.9</ele><time>2023-09-13T02:57:26Z</time></trkpt>
<trkpt lat="33.0055243" lon="35.2174561"><ele>363.9</ele><time>2023-09-13T02:57:27Z</time></trkpt>
<trkpt lat="33.0055241" lon="35.2174557"><ele>363.8</ele><time>2023-09-13T02:57:28Z</time></trkpt>
<trkpt lat="33.0055242" lon="35.2174554"><ele>363.8</ele><time>2023-09-13T02:57:29Z</time></trkpt>
<trkpt lat="33.0055245" lon="35.2174552"><ele>363.8</ele><time>2023-09-13T02:57:30Z</time></trkpt>
<trkpt lat="33.0055252" lon="35.2174548"><ele>363.8</ele><time>2023-09-13T02:57:31Z</time></trkpt>
<trkpt lat="33.0055259" lon="35.2174543"><ele>363.8</ele><time>2023-09-13T02:57:32Z</time></trkpt>
<trkpt lat="33.0055264" lon="35.2174538"><ele>363.8</ele><time>2023-09-13T02:57:33Z</time></trkpt>
<trkpt lat="33.0055265" lon="35.2174533"><ele>363.8</ele><time>2023-09-13T02:57:34Z</time></trkpt>
<trkpt lat="33.0055261" lon="35.2174532"><ele>363.8</ele><time>2023-09-13T02:57:35Z</time></trkpt>
<trkpt lat="33.0055252" lon="35.2174534"><ele>363.8</ele><time>2023-09-13T02:57:36Z</time></trkpt>
<trkpt lat="33.0055241" lon="35.2174541"><ele>363.8</ele><time>2023-09-13T02:57:37Z</time></trkpt>
<trkpt lat="33.0055229" lon="35.2174551"><ele>363.8</ele><time>2023-09-13T02:57:38Z</time></trkpt>
<trkpt lat="33.0055218" lon="35.2174563"><ele>363.8</ele><time>2023-09-13T02:57:39Z</time></trkpt>
<trkpt lat="33.0055209" lon="35.2174574"><ele>363.8</ele><time>2023-09-13T02:57:40Z</time></trkpt>
<trkpt lat="33.0055201" lon="35.2174584"><ele>363.8</ele><time>2023-09-13T02:57:41Z</time></trkpt>
<trkpt lat="33.0055192" lon="35.2174593"><ele>363.8</ele><time>2023-09-13T02:57:42Z</time></trkpt>
<trkpt lat="33.0055183" lon="35.2174601"><ele>363.9</ele><time>2023-09-13T02:57:43Z</time></trkpt>
<trkpt lat="33.0055173" lon="35.2174607"><ele>363.9</ele><time>2023-09-13T02:57:44Z</time></trkpt>
<trkpt lat="33.0055162" lon="35.2174612"><ele>363.9</ele><time>2023-09-13T02:57:45Z</time></trkpt>
<trkpt lat="33.0055151" lon="35.2174618"><ele>363.9</ele><time>2023-09-13T02:57:46Z</time></trkpt>
<trkpt lat="33.0055141" lon="35.2174622"><ele>363.9</ele><time>2023-09-13T02:57:47Z</time></trkpt>
<trkpt lat="33.0055133" lon="35.2174626"><ele>363.9</ele><time>2023-09-13T02:57:48Z</time></trkpt>
<trkpt lat="33.0055127" lon="35.217463"><ele>363.9</ele><time>2023-09-13T02:57:49Z</time></trkpt>
<trkpt lat="33.0055124" lon="35.2174634"><ele>363.8</ele><time>2023-09-13T02:57:50Z</time></trkpt>
<trkpt lat="33.0055123" lon="35.2174638"><ele>363.8</ele><time>2023-09-13T02:57:51Z</time></trkpt>
<trkpt lat="33.0055123" lon="35.2174642"><ele>363.8</ele><time>2023-09-13T02:57:52Z</time></trkpt>
<trkpt lat="33.0055122" lon="35.2174649"><ele>363.8</ele><time>2023-09-13T02:57:53Z</time></trkpt>
<trkpt lat="33.0055119" lon="35.2174658"><ele>363.8</ele><time>2023-09-13T02:57:54Z</time></trkpt>
<trkpt lat="33.0055116" lon="35.2174669"><ele>363.8</ele><time>2023-09-13T02:57:55Z</time></trkpt>
<trkpt lat="33.0055113" lon="35.2174681"><ele>363.8</ele><time>2023-09-13T02:57:56Z</time></trkpt>
<trkpt lat="33.0055113" lon="35.2174691"><ele>363.8</ele><time>2023-09-13T02:57:57Z</time></trkpt>
<trkpt lat="33.0055119" lon="35.2174695"><ele>363.8</ele><time>2023-09-13T02:57:58Z</time></trkpt>
<trkpt lat="33.0055132" lon="35.217469"><ele>363.8</ele><time>2023-09-13T02:57:59Z</time></trkpt>
<trkpt lat="33.0055148" lon="35.2174679"><ele>363.8</ele><time>2023-09-13T02:58:00Z</time></trkpt>
<trkpt lat="33.0055167" lon="35.2174662"><ele>363.7</ele><time>2023-09-13T02:58:01Z</time></trkpt>
<trkpt lat="33.0055186" lon="35.2174643"><ele>363.7</ele><time>2023-09-13T02:58:02Z</time></trkpt>
<trkpt lat="33.0055204" lon="35.2174623"><ele>363.7</ele><time>2023-09-13T02:58:03Z</time></trkpt>
<trkpt lat="33.0055219" lon="35.2174607"><ele>363.7</ele><time>2023-09-13T02:58:04Z</time></trkpt>
<trkpt lat="33.005523" lon="35.2174596"><ele>363.7</ele><time>2023-09-13T02:58:05Z</time></trkpt>
<trkpt lat="33.0055236" lon="35.2174588"><ele>363.7</ele><time>2023-09-13T02:58:06Z</time></trkpt>
<trkpt lat="33.0055238" lon="35.2174584"><ele>363.7</ele><time>2023-09-13T02:58:07Z</time></trkpt>
<trkpt lat="33.0055234" lon="35.2174582"><ele>363.7</ele><time>2023-09-13T02:58:08Z</time></trkpt>
<trkpt lat="33.0055229" lon="35.217458"><ele>363.7</ele><time>2023-09-13T02:58:09Z</time></trkpt>
<trkpt lat="33.0055225" lon="35.2174576"><ele>363.7</ele><time>2023-09-13T02:58:10Z</time></trkpt>
<trkpt lat="33.005522" lon="35.217457"><ele>363.7</ele><time>2023-09-13T02:58:11Z</time></trkpt>
<trkpt lat="33.0055213" lon="35.2174563"><ele>363.7</ele><time>2023-09-13T02:58:12Z</time></trkpt>
<trkpt lat="33.0055204" lon="35.2174556"><ele>363.7</ele><time>2023-09-13T02:58:13Z</time></trkpt>
<trkpt lat="33.0055194" lon="35.2174553"><ele>363.7</ele><time>2023-09-13T02:58:14Z</time></trkpt>
<trkpt lat="33.0055184" lon="35.2174554"><ele>363.7</ele><time>2023-09-13T02:58:15Z</time></trkpt>
<trkpt lat="33.0055175" lon="35.2174561"><ele>363.7</ele><time>2023-09-13T02:58:16Z</time></trkpt>
<trkpt lat="33.005517" lon="35.2174572"><ele>363.7</ele><time>2023-09-13T02:58:17Z</time></trkpt>
<trkpt lat="33.0055169" lon="35.2174588"><ele>363.7</ele><time>2023-09-13T02:58:18Z</time></trkpt>
<trkpt lat="33.0055172" lon="35.2174605"><ele>363.8</ele><time>2023-09-13T02:58:19Z</time></trkpt>
<trkpt lat="33.0055177" lon="35.2174624"><ele>363.8</ele><time>2023-09-13T02:58:20Z</time></trkpt>
<trkpt lat="33.0055183" lon="35.2174644"><ele>363.8</ele><time>2023-09-13T02:58:21Z</time></trkpt>
<trkpt lat="33.0055191" lon="35.217466"><ele>363.8</ele><time>2023-09-13T02:58:22Z</time></trkpt>
<trkpt lat="33.00552" lon="35.2174673"><ele>363.8</ele><time>2023-09-13T02:58:23Z</time></trkpt>
<trkpt lat="33.0055211" lon="35.217468"><ele>363.8</ele><time>2023-09-13T02:58:24Z</time></trkpt>
<trkpt lat="33.0055221" lon="35.2174683"><ele>363.8</ele><time>2023-09-13T02:58:25Z</time></trkpt>
<trkpt lat="33.0055231" lon="35.2174684"><ele>363.8</ele><time>2023-09-13T02:58:26Z</time></trkpt>
<trkpt lat="33.0055241" lon="35.2174683"><ele>363.8</ele><time>2023-09-13T02:58:27Z</time></trkpt>
<trkpt lat="33.005525" lon="35.2174684"><ele>363.8</ele><time>2023-09-13T02:58:28Z</time></trkpt>
<trkpt lat="33.0055263" lon="35.2174684"><ele>363.9</ele><time>2023-09-13T02:58:29Z</time></trkpt>
<trkpt lat="33.0055277" lon="35.2174684"><ele>363.9</ele><time>2023-09-13T02:58:30Z</time></trkpt>
<trkpt lat="33.0055291" lon="35.2174684"><ele>363.9</ele><time>2023-09-13T02:58:31Z</time></trkpt>
<trkpt lat="33.0055304" lon="35.2174686"><ele>363.9</ele><time>2023-09-13T02:58:32Z</time></trkpt>
<trkpt lat="33.0055317" lon="35.2174689"><ele>363.9</ele><time>2023-09-13T02:58:33Z</time></trkpt>
<trkpt lat="33.0055329" lon="35.2174691"><ele>363.9</ele><time>2023-09-13T02:58:34Z</time></trkpt>
<trkpt lat="33.0055341" lon="35.2174694"><ele>363.9</ele><time>2023-09-13T02:58:35Z</time></trkpt>
<trkpt lat="33.0055354" lon="35.2174695"><ele>363.9</ele><time>2023-09-13T02:58:36Z</time></trkpt>
<trkpt lat="33.0055366" lon="35.2174694"><ele>363.9</ele><time>2023-09-13T02:58:37Z</time></trkpt>
<trkpt lat="33.0055377" lon="35.2174689"><ele>363.9</ele><time>2023-09-13T02:58:38Z</time></trkpt>
<trkpt lat="33.0055387" lon="35.217468"><ele>363.9</ele><time>2023-09-13T02:58:39Z</time></trkpt>
<trkpt lat="33.0055397" lon="35.2174664"><ele>363.9</ele><time>2023-09-13T02:58:40Z</time></trkpt>
<trkpt lat="33.0055401" lon="35.2174648"><ele>363.9</ele><time>2023-09-13T02:58:41Z</time></trkpt>
<trkpt lat="33.0055401" lon="35.2174634"><ele>363.9</ele><time>2023-09-13T02:58:42Z</time></trkpt>
<trkpt lat="33.0055396" lon="35.2174618"><ele>363.9</ele><time>2023-09-13T02:58:43Z</time></trkpt>
<trkpt lat="33.0055389" lon="35.21746"><ele>363.9</ele><time>2023-09-13T02:58:44Z</time></trkpt>
<trkpt lat="33.0055382" lon="35.2174582"><ele>363.9</ele><time>2023-09-13T02:58:45Z</time></trkpt>
<trkpt lat="33.0055378" lon="35.2174566"><ele>363.9</ele><time>2023-09-13T02:58:46Z</time></trkpt>
<trkpt lat="33.0055375" lon="35.2174555"><ele>363.9</ele><time>2023-09-13T02:58:47Z</time></trkpt>
<trkpt lat="33.0055372" lon="35.2174548"><ele>363.9</ele><time>2023-09-13T02:58:48Z</time></trkpt>
<trkpt lat="33.0055366" lon="35.2174548"><ele>363.9</ele><time>2023-09-13T02:58:49Z</time></trkpt>
<trkpt lat="33.0055359" lon="35.2174554"><ele>363.9</ele><time>2023-09-13T02:58:50Z</time></trkpt>
<trkpt lat="33.005535" lon="35.2174561"><ele>363.9</ele><time>2023-09-13T02:58:51Z</time></trkpt>
<trkpt lat="33.005534" lon="35.2174564"><ele>363.9</ele><time>2023-09-13T02:58:52Z</time></trkpt>
<trkpt lat="33.0055328" lon="35.2174564"><ele>363.9</ele><time>2023-09-13T02:58:53Z</time></trkpt>
<trkpt lat="33.0055311" lon="35.2174565"><ele>363.8</ele><time>2023-09-13T02:58:54Z</time></trkpt>
<trkpt lat="33.0055288" lon="35.2174567"><ele>363.8</ele><time>2023-09-13T02:58:55Z</time></trkpt>
<trkpt lat="33.0055264" lon="35.217457"><ele>363.8</ele><time>2023-09-13T02:58:56Z</time></trkpt>
<trkpt lat="33.0055242" lon="35.217457"><ele>363.8</ele><time>2023-09-13T02:58:57Z</time></trkpt>
<trkpt lat="33.0055226" lon="35.2174568"><ele>363.7</ele><time>2023-09-13T02:58:58Z</time></trkpt>
<trkpt lat="33.0055217" lon="35.2174564"><ele>363.7</ele><time>2023-09-13T02:58:59Z</time></trkpt>
<trkpt lat="33.0055211" lon="35.2174559"><ele>363.7</ele><time>2023-09-13T02:59:00Z</time></trkpt>
<trkpt lat="33.0055204" lon="35.2174554"><ele>363.7</ele><time>2023-09-13T02:59:01Z</time></trkpt>
<trkpt lat="33.0055196" lon="35.217455"><ele>363.7</ele><time>2023-09-13T02:59:02Z</time></trkpt>
<trkpt lat="33.0055188" lon="35.2174545"><ele>363.7</ele><time>2023-09-13T02:59:03Z</time></trkpt>
<trkpt lat="33.0055178" lon="35.217454"><ele>363.7</ele><time>2023-09-13T02:59:04Z</time></trkpt>
<trkpt lat="33.0055168" lon="35.2174531"><ele>363.7</ele><time>2023-09-13T02:59:05Z</time></trkpt>
<trkpt lat="33.0055158" lon="35.2174519"><ele>363.7</ele><time>2023-09-13T02:59:06Z</time></trkpt>
<trkpt lat="33.005515" lon="35.2174503"><ele>363.7</ele><time>2023-09-13T02:59:07Z</time></trkpt>
<trkpt lat="33.0055142" lon="35.2174485"><ele>363.7</ele><time>2023-09-13T02:59:08Z</time></trkpt>
<trkpt lat="33.0055136" lon="35.2174468"><ele>363.7</ele><time>2023-09-13T02:59:09Z</time></trkpt>
<trkpt lat="33.0055129" lon="35.2174453"><ele>363.7</ele><time>2023-09-13T02:59:10Z</time></trkpt>
<trkpt lat="33.0055122" lon="35.2174441"><ele>363.7</ele><time>2023-09-13T02:59:11Z</time></trkpt>
<trkpt lat="33.0055113" lon="35.217443"><ele>363.7</ele><time>2023-09-13T02:59:12Z</time></trkpt>
<trkpt lat="33.0055104" lon="35.2174421"><ele>363.7</ele><time>2023-09-13T02:59:13Z</time></trkpt>
<trkpt lat="33.0055095" lon="35.2174415"><ele>363.7</ele><time>2023-09-13T02:59:14Z</time></trkpt>
<trkpt lat="33.0055088" lon="35.2174412"><ele>363.7</ele><time>2023-09-13T02:59:15Z</time></trkpt>
<trkpt lat="33.0055082" lon="35.2174412"><ele>363.6</ele><time>2023-09-13T02:59:16Z</time></trkpt>
<trkpt lat="33.0055077" lon="35.2174415"><ele>363.6</ele><time>2023-09-13T02:59:17Z</time></trkpt>
<trkpt lat="33.0055074" lon="35.2174418"><ele>363.6</ele><time>2023-09-13T02:59:18Z</time></trkpt>
<trkpt lat="33.0055076" lon="35.2174422"><ele>363.6</ele><time>2023-09-13T02:59:19Z</time></trkpt>
<trkpt lat="33.0055083" lon="35.2174426"><ele>363.6</ele><time>2023-09-13T02:59:20Z</time></trkpt>
<trkpt lat="33.0055095" lon="35.217443"><ele>363.6</ele><time>2023-09-13T02:59:21Z</time></trkpt>
<trkpt lat="33.0055109" lon="35.2174436"><ele>363.6</ele><time>2023-09-13T02:59:22Z</time></trkpt>
<trkpt lat="33.0055125" lon="35.2174443"><ele>363.6</ele><time>2023-09-13T02:59:23Z</time></trkpt>
<trkpt lat="33.0055143" lon="35.2174453"><ele>363.6</ele><time>2023-09-13T02:59:24Z</time></trkpt>
<trkpt lat="33.0055161" lon="35.2174466"><ele>363.6</ele><time>2023-09-13T02:59:25Z</time></trkpt>
<trkpt lat="33.0055181" lon="35.2174481"><ele>363.6</ele><time>2023-09-13T02:59:26Z</time></trkpt>
<trkpt lat="33.0055202" lon="35.2174495"><ele>363.6</ele><time>2023-09-13T02:59:27Z</time></trkpt>
<trkpt lat="33.0055225" lon="35.2174507"><ele>363.6</ele><time>2023-09-13T02:59:28Z</time></trkpt>
<trkpt lat="33.0055248" lon="35.2174517"><ele>363.7</ele><time>2023-09-13T02:59:29Z</time></trkpt>
<trkpt lat="33.0055271" lon="35.2174525"><ele>363.7</ele><time>2023-09-13T02:59:30Z</time></trkpt>
<trkpt lat="33.0055292" lon="35.217453"><ele>363.7</ele><time>2023-09-13T02:59:31Z</time></trkpt>
<trkpt lat="33.0055312" lon="35.2174532"><ele>363.7</ele><time>2023-09-13T02:59:32Z</time></trkpt>
<trkpt lat="33.005533" lon="35.2174534"><ele>363.8</ele><time>2023-09-13T02:59:33Z</time></trkpt>
<trkpt lat="33.0055345" lon="35.2174537"><ele>363.8</ele><time>2023-09-13T02:59:34Z</time></trkpt>
<trkpt lat="33.0055356" lon="35.2174541"><ele>363.8</ele><time>2023-09-13T02:59:35Z</time></trkpt>
<trkpt lat="33.0055365" lon="35.2174544"><ele>363.9</ele><time>2023-09-13T02:59:36Z</time></trkpt>
<trkpt lat="33.0055372" lon="35.2174545"><ele>363.9</ele><time>2023-09-13T02:59:37Z</time></trkpt>
<trkpt lat="33.0055378" lon="35.2174543"><ele>363.9</ele><time>2023-09-13T02:59:38Z</time></trkpt>
<trkpt lat="33.0055383" lon="35.2174542"><ele>364.0</ele><time>2023-09-13T02:59:39Z</time></trkpt>
<trkpt lat="33.0055386" lon="35.217454"><ele>364.0</ele><time>2023-09-13T02:59:40Z</time></trkpt>
<trkpt lat="33.0055389" lon="35.217454"><ele>364.0</ele><time>2023-09-13T02:59:41Z</time></trkpt>
<trkpt lat="33.0055391" lon="35.2174538"><ele>364.0</ele><time>2023-09-13T02:59:42Z</time></trkpt>
<trkpt lat="33.0055393" lon="35.2174536"><ele>364.0</ele><time>2023-09-13T02:59:43Z</time></trkpt>
<trkpt lat="33.0055395" lon="35.2174534"><ele>364.0</ele><time>2023-09-13T02:59:44Z</time></trkpt>
<trkpt lat="33.0055397" lon="35.2174532"><ele>364.0</ele><time>2023-09-13T02:59:45Z</time></trkpt>
<trkpt lat="33.0055399" lon="35.217453"><ele>364.0</ele><time>2023-09-13T02:59:46Z</time></trkpt>
<trkpt lat="33.0055401" lon="35.2174528"><ele>364.0</ele><time>2023-09-13T02:59:47Z</time></trkpt>
<trkpt lat="33.0055402" lon="35.2174525"><ele>364.0</ele><time>2023-09-13T02:59:48Z</time></trkpt>
<trkpt lat="33.0055403" lon="35.2174521"><ele>364.0</ele><time>2023-09-13T02:59:49Z</time></trkpt>
<trkpt lat="33.00554" lon="35.2174517"><ele>364.0</ele><time>2023-09-13T02:59:50Z</time></trkpt>
<trkpt lat="33.0055394" lon="35.2174512"><ele>364.0</ele><time>2023-09-13T02:59:51Z</time></trkpt>
<trkpt lat="33.0055386" lon="35.2174506"><ele>364.0</ele><time>2023-09-13T02:59:52Z</time></trkpt>
<trkpt lat="33.0055379" lon="35.21745"><ele>363.9</ele><time>2023-09-13T02:59:53Z</time></trkpt>
<trkpt lat="33.0055372" lon="35.2174493"><ele>363.9</ele><time>2023-09-13T02:59:54Z</time></trkpt>
<trkpt lat="33.0055368" lon="35.2174484"><ele>363.9</ele><time>2023-09-13T02:59:55Z</time></trkpt>
<trkpt lat="33.0055368" lon="35.2174474"><ele>363.9</ele><time>2023-09-13T02:59:56Z</time></trkpt>
<trkpt lat="33.0055372" lon="35.2174463"><ele>363.9</ele><time>2023-09-13T02:59:57Z</time></trkpt>
<trkpt lat="33.005538" lon="35.2174448"><ele>363.9</ele><time>2023-09-13T02:59:58Z</time></trkpt>
<trkpt lat="33.0055387" lon="35.2174434"><ele>363.9</ele><time>2023-09-13T02:59:59Z</time></trkpt>
<trkpt lat="33.0055393" lon="35.2174421"><ele>363.9</ele><time>2023-09-13T03:00:00Z</time></trkpt>
<trkpt lat="33.0055399" lon="35.2174411"><ele>363.9</ele><time>2023-09-13T03:00:01Z</time></trkpt>
<trkpt lat="33.0055404" lon="35.2174404"><ele>363.9</ele><time>2023-09-13T03:00:02Z</time></trkpt>
<trkpt lat="33.0055407" lon="35.2174398"><ele>363.9</ele><time>2023-09-13T03:00:03Z</time></trkpt>
<trkpt lat="33.0055411" lon="35.2174392"><ele>363.9</ele><time>2023-09-13T03:00:04Z</time></trkpt>
<trkpt lat="33.0055412" lon="35.2174385"><ele>363.9</ele><time>2023-09-13T03:00:05Z</time></trkpt>
<trkpt lat="33.005541" lon="35.2174377"><ele>363.9</ele><time>2023-09-13T03:00:06Z</time></trkpt>
<trkpt lat="33.0055404" lon="35.2174369"><ele>363.9</ele><time>2023-09-13T03:00:07Z</time></trkpt>
<trkpt lat="33.0055397" lon="35.2174362"><ele>363.9</ele><time>2023-09-13T03:00:08Z</time></trkpt>
<trkpt lat="33.0055389" lon="35.217436"><ele>363.9</ele><time>2023-09-13T03:00:09Z</time></trkpt>
<trkpt lat="33.0055381" lon="35.2174363"><ele>363.9</ele><time>2023-09-13T03:00:10Z</time></trkpt>
<trkpt lat="33.0055375" lon="35.217437"><ele>363.9</ele><time>2023-09-13T03:00:11Z</time></trkpt>
<trkpt lat="33.0055372" lon="35.217438"><ele>363.8</ele><time>2023-09-13T03:00:12Z</time></trkpt>
<trkpt lat="33.0055372" lon="35.2174392"><ele>363.8</ele><time>2023-09-13T03:00:13Z</time></trkpt>
<trkpt lat="33.0055375" lon="35.2174402"><ele>363.8</ele><time>2023-09-13T03:00:14Z</time></trkpt>
<trkpt lat="33.005538" lon="35.2174409"><ele>363.8</ele><time>2023-09-13T03:00:15Z</time></trkpt>
<trkpt lat="33.0055384" lon="35.2174413"><ele>363.8</ele><time>2023-09-13T03:00:16Z</time></trkpt>
<trkpt lat="33.0055384" lon="35.2174415"><ele>363.8</ele><time>2023-09-13T03:00:17Z</time></trkpt>
<trkpt lat="33.0055382" lon="35.2174417"><ele>363.7</ele><time>2023-09-13T03:00:18Z</time></trkpt>
<trkpt lat="33.0055374" lon="35.2174419"><ele>363.7</ele><time>2023-09-13T03:00:19Z</time></trkpt>
<trkpt lat="33.0055362" lon="35.2174421"><ele>363.7</ele><time>2023-09-13T03:00:20Z</time></trkpt>
<trkpt lat="33.0055348" lon="35.2174422"><ele>363.7</ele><time>2023-09-13T03:00:21Z</time></trkpt>
<trkpt lat="33.0055331" lon="35.217442"><ele>363.7</ele><time>2023-09-13T03:00:22Z</time></trkpt>
<trkpt lat="33.0055314" lon="35.2174417"><ele>363.7</ele><time>2023-09-13T03:00:23Z</time></trkpt>
<trkpt lat="33.0055298" lon="35.2174411"><ele>363.7</ele><time>2023-09-13T03:00:24Z</time></trkpt>
<trkpt lat="33.0055288" lon="35.2174403"><ele>363.7</ele><time>2023-09-13T03:00:25Z</time></trkpt>
<trkpt lat="33.0055278" lon="35.2174395"><ele>363.8</ele><time>2023-09-13T03:00:26Z</time></trkpt>
<trkpt lat="33.0055269" lon="35.2174387"><ele>363.8</ele><time>2023-09-13T03:00:27Z</time></trkpt>
<trkpt lat="33.0055261" lon="35.2174383"><ele>363.8</ele><time>2023-09-13T03:00:28Z</time></trkpt>
<trkpt lat="33.0055253" lon="35.2174382"><ele>363.8</ele><time>2023-09-13T03:00:29Z</time></trkpt>
<trkpt lat="33.0055246" lon="35.2174383"><ele>363.8</ele><time>2023-09-13T03:00:30Z</time></trkpt>
<trkpt lat="33.0055239" lon="35.2174386"><ele>363.8</ele><time>2023-09-13T03:00:31Z</time></trkpt>
<trkpt lat="33.005523" lon="35.2174391"><ele>363.9</ele><time>2023-09-13T03:00:32Z</time></trkpt>
<trkpt lat="33.0055224" lon="35.2174397"><ele>363.9</ele><time>2023-09-13T03:00:33Z</time></trkpt>
<trkpt lat="33.0055219" lon="35.2174404"><ele>363.9</ele><time>2023-09-13T03:00:34Z</time></trkpt>
<trkpt lat="33.0055215" lon="35.2174413"><ele>363.9</ele><time>2023-09-13T03:00:35Z</time></trkpt>
<trkpt lat="33.0055213" lon="35.2174425"><ele>363.9</ele><time>2023-09-13T03:00:36Z</time></trkpt>
<trkpt lat="33.0055211" lon="35.217444"><ele>363.9</ele><time>2023-09-13T03:00:37Z</time></trkpt>
<trkpt lat="33.005521" lon="35.2174457"><ele>363.9</ele><time>2023-09-13T03:00:38Z</time></trkpt>
<trkpt lat="33.0055211" lon="35.2174473"><ele>363.9</ele><time>2023-09-13T03:00:39Z</time></trkpt>
<trkpt lat="33.0055212" lon="35.2174488"><ele>363.9</ele><time>2023-09-13T03:00:40Z</time></trkpt>
<trkpt lat="33.0055212" lon="35.2174502"><ele>363.9</ele><time>2023-09-13T03:00:41Z</time></trkpt>
<trkpt lat="33.0055213" lon="35.2174514"><ele>363.8</ele><time>2023-09-13T03:00:42Z</time></trkpt>
<trkpt lat="33.0055214" lon="35.2174522"><ele>363.8</ele><time>2023-09-13T03:00:43Z</time></trkpt>
<trkpt lat="33.0055214" lon="35.2174527"><ele>363.8</ele><time>2023-09-13T03:00:44Z</time></trkpt>
<trkpt lat="33.0055213" lon="35.217453"><ele>363.8</ele><time>2023-09-13T03:00:45Z</time></trkpt>
<trkpt lat="33.0055211" lon="35.2174532"><ele>363.8</ele><time>2023-09-13T03:00:46Z</time></trkpt>
<trkpt lat="33.0055207" lon="35.2174535"><ele>363.8</ele><time>2023-09-13T03:00:47Z</time></trkpt>
<trkpt lat="33.0055203" lon="35.2174537"><ele>363.8</ele><time>2023-09-13T03:00:48Z</time></trkpt>
<trkpt lat="33.0055199" lon="35.2174539"><ele>363.8</ele><time>2023-09-13T03:00:49Z</time></trkpt>
<trkpt lat="33.0055198" lon="35.217454"><ele>363.9</ele><time>2023-09-13T03:00:50Z</time></trkpt>
<trkpt lat="33.0055198" lon="35.217454"><ele>363.9</ele><time>2023-09-13T03:00:51Z</time></trkpt>
<trkpt lat="33.0055199" lon="35.217454"><ele>363.9</ele><time>2023-09-13T03:00:52Z</time></trkpt>
<trkpt lat="33.0055199" lon="35.2174539"><ele>363.9</ele><time>2023-09-13T03:00:53Z</time></trkpt>
<trkpt lat="33.00552" lon="35.2174535"><ele>363.9</ele><time>2023-09-13T03:00:54Z</time></trkpt>
<trkpt lat="33.0055201" lon="35.2174529"><ele>363.9</ele><time>2023-09-13T03:00:55Z</time></trkpt>
<trkpt lat="33.0055201" lon="35.2174523"><ele>363.9</ele><time>2023-09-13T03:00:56Z</time></trkpt>
<trkpt lat="33.0055202" lon="35.2174516"><ele>363.9</ele><time>2023-09-13T03:00:57Z</time></trkpt>
<trkpt lat="33.0055203" lon="35.2174509"><ele>363.9</ele><time>2023-09-13T03:00:58Z</time></trkpt>
<trkpt lat="33.0055206" lon="35.2174503"><ele>363.9</ele><time>2023-09-13T03:00:59Z</time></trkpt>
<trkpt lat="33.005521" lon="35.2174498"><ele>363.9</ele><time>2023-09-13T03:01:00Z</time></trkpt>
<trkpt lat="33.0055215" lon="35.2174496"><ele>363.9</ele><time>2023-09-13T03:01:01Z</time></trkpt>
<trkpt lat="33.0055221" lon="35.2174495"><ele>363.9</ele><time>2023-09-13T03:01:02Z</time></trkpt>
<trkpt lat="33.0055225" lon="35.2174495"><ele>363.9</ele><time>2023-09-13T03:01:03Z</time></trkpt>
<trkpt lat="33.0055228" lon="35.2174496"><ele>363.8</ele><time>2023-09-13T03:01:04Z</time></trkpt>
<trkpt lat="33.0055229" lon="35.2174498"><ele>363.8</ele><time>2023-09-13T03:01:05Z</time></trkpt>
<trkpt lat="33.0055228" lon="35.21745"><ele>363.8</ele><time>2023-09-13T03:01:06Z</time></trkpt>
<trkpt lat="33.0055225" lon="35.2174501"><ele>363.8</ele><time>2023-09-13T03:01:07Z</time></trkpt>
<trkpt lat="33.0055218" lon="35.2174503"><ele>363.8</ele><time>2023-09-13T03:01:08Z</time></trkpt>
<trkpt lat="33.005521" lon="35.2174506"><ele>363.8</ele><time>2023-09-13T03:01:09Z</time></trkpt>
<trkpt lat="33.0055204" lon="35.2174506"><ele>363.8</ele><time>2023-09-13T03:01:10Z</time></trkpt>
<trkpt lat="33.0055201" lon="35.2174506"><ele>363.8</ele><time>2023-09-13T03:01:11Z</time></trkpt>
<trkpt lat="33.00552" lon="35.2174504"><ele>363.8</ele><time>2023-09-13T03:01:12Z</time></trkpt>
<trkpt lat="33.0055199" lon="35.2174501"><ele>363.8</ele><time>2023-09-13T03:01:13Z</time></trkpt>
<trkpt lat="33.0055199" lon="35.2174497"><ele>363.8</ele><time>2023-09-13T03:01:14Z</time></trkpt>
<trkpt lat="33.00552" lon="35.2174492"><ele>363.8</ele><time>2023-09-13T03:01:15Z</time></trkpt>
<trkpt lat="33.0055201" lon="35.217449"><ele>363.8</ele><time>2023-09-13T03:01:16Z</time></trkpt>
<trkpt lat="33.0055204" lon="35.2174489"><ele>363.8</ele><time>2023-09-13T03:01:17Z</time></trkpt>
<trkpt lat="33.0055207" lon="35.217449"><ele>363.8</ele><time>2023-09-13T03:01:18Z</time></trkpt>
<trkpt lat="33.0055211" lon="35.2174492"><ele>363.8</ele><time>2023-09-13T03:01:19Z</time></trkpt>
<trkpt lat="33.0055216" lon="35.2174495"><ele>363.8</ele><time>2023-09-13T03:01:20Z</time></trkpt>
<trkpt lat="33.0055221" lon="35.21745"><ele>363.8</ele><time>2023-09-13T03:01:21Z</time></trkpt>
<trkpt lat="33.0055225" lon="35.2174507"><ele>363.8</ele><time>2023-09-13T03:01:22Z</time></trkpt>
<trkpt lat="33.0055229" lon="35.2174513"><ele>363.8</ele><time>2023-09-13T03:01:23Z</time></trkpt>
<trkpt lat="33.0055231" lon="35.2174516"><ele>363.8</ele><time>2023-09-13T03:01:24Z</time></trkpt>
<trkpt lat="33.0055233" lon="35.2174517"><ele>363.8</ele><time>2023-09-13T03:01:25Z</time></trkpt>
<trkpt lat="33.0055235" lon="35.2174517"><ele>363.8</ele><time>2023-09-13T03:01:26Z</time></trkpt>
<trkpt lat="33.0055239" lon="35.2174515"><ele>363.8</ele><time>2023-09-13T03:01:27Z</time></trkpt>
<trkpt lat="33.0055243" lon="35.2174514"><ele>363.8</ele><time>2023-09-13T03:01:28Z</time></trkpt>
<trkpt lat="33.0055247" lon="35.2174513"><ele>363.8</ele><time>2023-09-13T03:01:29Z</time></trkpt>
<trkpt lat="33.0055249" lon="35.2174513"><ele>363.8</ele><time>2023-09-13T03:01:30Z</time></trkpt>
<trkpt lat="33.0055251" lon="35.2174514"><ele>363.8</ele><time>2023-09-13T03:01:31Z</time></trkpt>
<trkpt lat="33.0055252" lon="35.2174516"><ele>363.8</ele><time>2023-09-13T03:01:32Z</time></trkpt>
<trkpt lat="33.0055254" lon="35.2174518"><ele>363.8</ele><time>2023-09-13T03:01:33Z</time></trkpt>
<trkpt lat="33.0055255" lon="35.2174519"><ele>363.8</ele><time>2023-09-13T03:01:34Z</time></trkpt>
<trkpt lat="33.0055256" lon="35.2174519"><ele>363.8</ele><time>2023-09-13T03:01:35Z</time></trkpt>
<trkpt lat="33.0055256" lon="35.2174518"><ele>363.8</ele><time>2023-09-13T03:01:36Z</time></trkpt>
<trkpt lat="33.0055254" lon="35.2174515"><ele>363.8</ele><time>2023-09-13T03:01:37Z</time></trkpt>
<trkpt lat="33.0055252" lon="35.2174513"><ele>363.8</ele><time>2023-09-13T03:01:38Z</time></trkpt>
<trkpt lat="33.0055247" lon="35.2174509"><ele>363.8</ele><time>2023-09-13T03:01:39Z</time></trkpt>
<trkpt lat="33.005524" lon="35.2174506"><ele>363.8</ele><time>2023-09-13T03:01:40Z</time></trkpt>
<trkpt lat="33.0055233" lon="35.2174502"><ele>363.8</ele><time>2023-09-13T03:01:41Z</time></trkpt>
<trkpt lat="33.0055227" lon="35.2174497"><ele>363.8</ele><time>2023-09-13T03:01:42Z</time></trkpt>
<trkpt lat="33.0055221" lon="35.2174492"><ele>363.8</ele><time>2023-09-13T03:01:43Z</time></trkpt>
<trkpt lat="33.0055215" lon="35.2174485"><ele>363.8</ele><time>2023-09-13T03:01:44Z</time></trkpt>
<trkpt lat="33.0055209" lon="35.2174478"><ele>363.8</ele><time>2023-09-13T03:01:45Z</time></trkpt>
<trkpt lat="33.0055202" lon="35.2174469"><ele>363.8</ele><time>2023-09-13T03:01:46Z</time></trkpt>
<trkpt lat="33.0055195" lon="35.2174457"><ele>363.8</ele><time>2023-09-13T03:01:47Z</time></trkpt>
<trkpt lat="33.0055189" lon="35.2174445"><ele>363.8</ele><time>2023-09-13T03:01:48Z</time></trkpt>
<trkpt lat="33.0055184" lon="35.2174435"><ele>363.8</ele><time>2023-09-13T03:01:49Z</time></trkpt>
<trkpt lat="33.0055182" lon="35.2174426"><ele>363.8</ele><time>2023-09-13T03:01:50Z</time></trkpt>
<trkpt lat="33.005518" lon="35.2174419"><ele>363.8</ele><time>2023-09-13T03:01:51Z</time></trkpt>
<trkpt lat="33.0055178" lon="35.2174412"><ele>363.8</ele><time>2023-09-13T03:01:52Z</time></trkpt>
<trkpt lat="33.0055177" lon="35.2174407"><ele>363.8</ele><time>2023-09-13T03:01:53Z</time></trkpt>
<trkpt lat="33.0055176" lon="35.2174403"><ele>363.8</ele><time>2023-09-13T03:01:54Z</time></trkpt>
<trkpt lat="33.0055175" lon="35.21744"><ele>363.8</ele><time>2023-09-13T03:01:55Z</time></trkpt>
<trkpt lat="33.0055175" lon="35.2174397"><ele>363.8</ele><time>2023-09-13T03:01:56Z</time></trkpt>
<trkpt lat="33.0055174" lon="35.2174395"><ele>363.8</ele><time>2023-09-13T03:01:57Z</time></trkpt>
<trkpt lat="33.0055174" lon="35.2174394"><ele>363.8</ele><time>2023-09-13T03:01:58Z</time></trkpt>
<trkpt lat="33.0055174" lon="35.2174392"><ele>363.8</ele><time>2023-09-13T03:01:59Z</time></trkpt>
<trkpt lat="33.0055174" lon="35.2174392"><ele>363.8</ele><time>2023-09-13T03:02:00Z</time></trkpt>
<trkpt lat="33.0055174" lon="35.2174391"><ele>363.8</ele><time>2023-09-13T03:02:01Z</time></trkpt>
<trkpt lat="33.0055173" lon="35.2174391"><ele>363.8</ele><time>2023-09-13T03:02:02Z</time></trkpt>
<trkpt lat="33.0055173" lon="35.217439"><ele>363.8</ele><time>2023-09-13T03:02:03Z</time></trkpt>
<trkpt lat="33.0055173" lon="35.217439"><ele>363.8</ele><time>2023-09-13T03:02:04Z</time></trkpt>
<trkpt lat="33.0055173" lon="35.217439"><ele>363.8</ele><time>2023-09-13T03:02:05Z</time></trkpt>
<trkpt lat="33.0055173" lon="35.2174389"><ele>363.8</ele><time>2023-09-13T03:02:06Z</time></trkpt>
<trkpt lat="33.0055173" lon="35.2174389"><ele>363.8</ele><time>2023-09-13T03:02:07Z</time></trkpt>
<trkpt lat="33.0055173" lon="35.2174389"><ele>363.8</ele><time>2023-09-13T03:02:08Z</time></trkpt>
<trkpt lat="33.0055173" lon="35.2174389"><ele>363.8</ele><time>2023-09-13T03:02:09Z</time></trkpt>
<trkpt lat="33.005517" lon="35.2174391"><ele>363.8</ele><time>2023-09-13T03:02:10Z</time></trkpt>
<trkpt lat="33.0055167" lon="35.2174394"><ele>363.8</ele><time>2023-09-13T03:02:11Z</time></trkpt>
<trkpt lat="33.0055163" lon="35.2174397"><ele>363.8</ele><time>2023-09-13T03:02:12Z</time></trkpt>
<trkpt lat="33.0055158" lon="35.2174401"><ele>363.8</ele><time>2023-09-13T03:02:13Z</time></trkpt>
<trkpt lat="33.0055154" lon="35.2174404"><ele>363.8</ele><time>2023-09-13T03:02:14Z</time></trkpt>
<trkpt lat="33.0055148" lon="35.2174408"><ele>363.8</ele><time>2023-09-13T03:02:15Z</time></trkpt>
<trkpt lat="33.0055142" lon="35.2174412"><ele>363.8</ele><time>2023-09-13T03:02:16Z</time></trkpt>
<trkpt lat="33.0055134" lon="35.2174418"><ele>363.8</ele><time>2023-09-13T03:02:17Z</time></trkpt>
<trkpt lat="33.0055124" lon="35.2174425"><ele>363.8</ele><time>2023-09-13T03:02:18Z</time></trkpt>
<trkpt lat="33.0055111" lon="35.2174434"><ele>363.7</ele><time>2023-09-13T03:02:19Z</time></trkpt>
<trkpt lat="33.0055095" lon="35.2174445"><ele>363.7</ele><time>2023-09-13T03:02:20Z</time></trkpt>
<trkpt lat="33.0055074" lon="35.2174458"><ele>363.7</ele><time>2023-09-13T03:02:21Z</time></trkpt>
<trkpt lat="33.0055054" lon="35.2174467"><ele>363.7</ele><time>2023-09-13T03:02:22Z</time></trkpt>
<trkpt lat="33.0055042" lon="35.2174471"><ele>363.7</ele><time>2023-09-13T03:02:23Z</time></trkpt>
<trkpt lat="33.0055037" lon="35.2174471"><ele>363.7</ele><time>2023-09-13T03:02:24Z</time></trkpt>
<trkpt lat="33.0055032" lon="35.2174468"><ele>363.7</ele><time>2023-09-13T03:02:25Z</time></trkpt>
<trkpt lat="33.0055028" lon="35.2174466"><ele>363.7</ele><time>2023-09-13T03:02:26Z</time></trkpt>
<trkpt lat="33.0055026" lon="35.2174463"><ele>363.7</ele><time>2023-09-13T03:02:27Z</time></trkpt>
<trkpt lat="33.0055025" lon="35.2174461"><ele>363.7</ele><time>2023-09-13T03:02:28Z</time></trkpt>
<trkpt lat="33.0055025" lon="35.217446"><ele>363.7</ele><time>2023-09-13T03:02:29Z</time></trkpt>
<trkpt lat="33.0055025" lon="35.2174458"><ele>363.7</ele><time>2023-09-13T03:02:30Z</time></trkpt>
<trkpt lat="33.0055025" lon="35.2174457"><ele>363.7</ele><time>2023-09-13T03:02:31Z</time></trkpt>
<trkpt lat="33.0055025" lon="35.2174457"><ele>363.7</ele><time>2023-09-13T03:02:32Z</time></trkpt>
<trkpt lat="33.0055025" lon="35.2174456"><ele>363.7</ele><time>2023-09-13T03:02:33Z</time></trkpt>
<trkpt lat="33.0055025" lon="35.2174456"><ele>363.7</ele><time>2023-09-13T03:02:34Z</time></trkpt>
<trkpt lat="33.0055025" lon="35.2174456"><ele>363.7</ele><time>2023-09-13T03:02:35Z</time></trkpt>
<trkpt lat="33.0055025" lon="35.2174455"><ele>363.7</ele><time>2023-09-13T03:02:36Z</time></trkpt>
<trkpt lat="33.0055025" lon="35.2174455"><ele>363.7</ele><time>2023-09-13T03:02:37Z</time></trkpt>
<trkpt lat="33.0055025" lon="35.2174455"><ele>363.7</ele><time>2023-09-13T03:02:38Z</time></trkpt>
<trkpt lat="33.0055025" lon="35.2174455"><ele>363.7</ele><time>2023-09-13T03:02:39Z</time></trkpt>
<trkpt lat="33.0055025" lon="35.2174455"><ele>363.7</ele><time>2023-09-13T03:02:40Z</time></trkpt>
<trkpt lat="33.0055025" lon="35.2174455"><ele>363.7</ele><time>2023-09-13T03:02:41Z</time></trkpt>
<trkpt lat="33.0055026" lon="35.2174455"><ele>363.7</ele><time>2023-09-13T03:02:42Z</time></trkpt>
<trkpt lat="33.0055027" lon="35.2174454"><ele>363.7</ele><time>2023-09-13T03:02:43Z</time></trkpt>
<trkpt lat="33.0055028" lon="35.2174454"><ele>363.7</ele><time>2023-09-13T03:02:44Z</time></trkpt>
<trkpt lat="33.0055029" lon="35.2174454"><ele>363.7</ele><time>2023-09-13T03:02:45Z</time></trkpt>
<trkpt lat="33.0055031" lon="35.2174454"><ele>363.7</ele><time>2023-09-13T03:02:46Z</time></trkpt>
<trkpt lat="33.0055034" lon="35.2174455"><ele>363.7</ele><time>2023-09-13T03:02:47Z</time></trkpt>
<trkpt lat="33.0055037" lon="35.2174455"><ele>363.7</ele><time>2023-09-13T03:02:48Z</time></trkpt>
<trkpt lat="33.0055041" lon="35.2174456"><ele>363.7</ele><time>2023-09-13T03:02:49Z</time></trkpt>
<trkpt lat="33.0055045" lon="35.2174456"><ele>363.7</ele><time>2023-09-13T03:02:50Z</time></trkpt>
<trkpt lat="33.005505" lon="35.2174456"><ele>363.7</ele><time>2023-09-13T03:02:51Z</time></trkpt>
<trkpt lat="33.0055055" lon="35.2174457"><ele>363.7</ele><time>2023-09-13T03:02:52Z</time></trkpt>
<trkpt lat="33.0055061" lon="35.2174458"><ele>363.7</ele><time>2023-09-13T03:02:53Z</time></trkpt>
<trkpt lat="33.0055066" lon="35.217446"><ele>363.7</ele><time>2023-09-13T03:02:54Z</time></trkpt>
<trkpt lat="33.0055072" lon="35.2174462"><ele>363.7</ele><time>2023-09-13T03:02:55Z</time></trkpt>
<trkpt lat="33.0055078" lon="35.2174464"><ele>363.7</ele><time>2023-09-13T03:02:56Z</time></trkpt>
<trkpt lat="33.0055083" lon="35.2174469"><ele>363.7</ele><time>2023-09-13T03:02:57Z</time></trkpt>
<trkpt lat="33.0055088" lon="35.2174472"><ele>363.7</ele><time>2023-09-13T03:02:58Z</time></trkpt>
<trkpt lat="33.0055091" lon="35.2174475"><ele>363.7</ele><time>2023-09-13T03:02:59Z</time></trkpt>
<trkpt lat="33.0055094" lon="35.2174479"><ele>363.7</ele><time>2023-09-13T03:03:00Z</time></trkpt>
<trkpt lat="33.0055096" lon="35.2174482"><ele>363.7</ele><time>2023-09-13T03:03:01Z</time></trkpt>
<trkpt lat="33.0055098" lon="35.2174487"><ele>363.7</ele><time>2023-09-13T03:03:02Z</time></trkpt>
<trkpt lat="33.00551" lon="35.2174492"><ele>363.7</ele><time>2023-09-13T03:03:03Z</time></trkpt>
<trkpt lat="33.0055102" lon="35.2174498"><ele>363.7</ele><time>2023-09-13T03:03:04Z</time></trkpt>
<trkpt lat="33.0055104" lon="35.2174505"><ele>363.7</ele><time>2023-09-13T03:03:05Z</time></trkpt>
<trkpt lat="33.0055107" lon="35.2174515"><ele>363.7</ele><time>2023-09-13T03:03:06Z</time></trkpt>
<trkpt lat="33.005511" lon="35.2174527"><ele>363.7</ele><time>2023-09-13T03:03:07Z</time></trkpt>
<trkpt lat="33.0055114" lon="35.217454"><ele>363.7</ele><time>2023-09-13T03:03:08Z</time></trkpt>
<trkpt lat="33.0055118" lon="35.2174552"><ele>363.7</ele><time>2023-09-13T03:03:09Z</time></trkpt>
<trkpt lat="33.0055121" lon="35.2174559"><ele>363.7</ele><time>2023-09-13T03:03:10Z</time></trkpt>
<trkpt lat="33.0055124" lon="35.2174563"><ele>363.7</ele><time>2023-09-13T03:03:11Z</time></trkpt>
<trkpt lat="33.0055126" lon="35.2174565"><ele>363.7</ele><time>2023-09-13T03:03:12Z</time></trkpt>
<trkpt lat="33.0055127" lon="35.2174567"><ele>363.7</ele><time>2023-09-13T03:03:13Z</time></trkpt>
<trkpt lat="33.0055126" lon="35.2174571"><ele>363.7</ele><time>2023-09-13T03:03:14Z</time></trkpt>
<trkpt lat="33.0055124" lon="35.2174575"><ele>363.8</ele><time>2023-09-13T03:03:15Z</time></trkpt>
<trkpt lat="33.0055121" lon="35.217458"><ele>363.8</ele><time>2023-09-13T03:03:16Z</time></trkpt>
<trkpt lat="33.0055118" lon="35.2174586"><ele>363.8</ele><time>2023-09-13T03:03:17Z</time></trkpt>
<trkpt lat="33.0055113" lon="35.2174592"><ele>363.8</ele><time>2023-09-13T03:03:18Z</time></trkpt>
<trkpt lat="33.0055107" lon="35.21746"><ele>363.8</ele><time>2023-09-13T03:03:19Z</time></trkpt>
<trkpt lat="33.00551" lon="35.2174609"><ele>363.8</ele><time>2023-09-13T03:03:20Z</time></trkpt>
<trkpt lat="33.005509" lon="35.2174621"><ele>363.8</ele><time>2023-09-13T03:03:21Z</time></trkpt>
<trkpt lat="33.0055078" lon="35.2174634"><ele>363.8</ele><time>2023-09-13T03:03:22Z</time></trkpt>
<trkpt lat="33.0055064" lon="35.217465"><ele>363.8</ele><time>2023-09-13T03:03:23Z</time></trkpt>
<trkpt lat="33.0055049" lon="35.2174668"><ele>363.8</ele><time>2023-09-13T03:03:24Z</time></trkpt>
<trkpt lat="33.0055033" lon="35.2174686"><ele>363.8</ele><time>2023-09-13T03:03:25Z</time></trkpt>
<trkpt lat="33.0055021" lon="35.21747"><ele>363.8</ele><time>2023-09-13T03:03:26Z</time></trkpt>
<trkpt lat="33.005501" lon="35.2174712"><ele>363.8</ele><time>2023-09-13T03:03:27Z</time></trkpt>
<trkpt lat="33.0055002" lon="35.2174721"><ele>363.8</ele><time>2023-09-13T03:03:28Z</time></trkpt>
<trkpt lat="33.0054996" lon="35.2174728"><ele>363.8</ele><time>2023-09-13T03:03:29Z</time></trkpt>
<trkpt lat="33.0054991" lon="35.2174733"><ele>363.8</ele><time>2023-09-13T03:03:30Z</time></trkpt>
<trkpt lat="33.0054987" lon="35.2174737"><ele>363.8</ele><time>2023-09-13T03:03:31Z</time></trkpt>
<trkpt lat="33.0054982" lon="35.2174741"><ele>363.8</ele><time>2023-09-13T03:03:32Z</time></trkpt>
<trkpt lat="33.0054978" lon="35.2174743"><ele>363.8</ele><time>2023-09-13T03:03:33Z</time></trkpt>
<trkpt lat="33.0054974" lon="35.2174745"><ele>363.8</ele><time>2023-09-13T03:03:34Z</time></trkpt>
<trkpt lat="33.0054971" lon="35.2174746"><ele>363.8</ele><time>2023-09-13T03:03:35Z</time></trkpt>
<trkpt lat="33.0054967" lon="35.2174747"><ele>363.8</ele><time>2023-09-13T03:03:36Z</time></trkpt>
<trkpt lat="33.0054963" lon="35.2174748"><ele>363.8</ele><time>2023-09-13T03:03:37Z</time></trkpt>
<trkpt lat="33.0054959" lon="35.2174749"><ele>363.8</ele><time>2023-09-13T03:03:38Z</time></trkpt>
<trkpt lat="33.0054954" lon="35.2174749"><ele>363.8</ele><time>2023-09-13T03:03:39Z</time></trkpt>
<trkpt lat="33.0054948" lon="35.217475"><ele>363.8</ele><time>2023-09-13T03:03:40Z</time></trkpt>
<trkpt lat="33.0054943" lon="35.217475"><ele>363.8</ele><time>2023-09-13T03:03:41Z</time></trkpt>
<trkpt lat="33.0054937" lon="35.2174751"><ele>363.8</ele><time>2023-09-13T03:03:42Z</time></trkpt>
<trkpt lat="33.0054931" lon="35.2174752"><ele>363.8</ele><time>2023-09-13T03:03:43Z</time></trkpt>
<trkpt lat="33.0054926" lon="35.2174752"><ele>363.8</ele><time>2023-09-13T03:03:44Z</time></trkpt>
<trkpt lat="33.0054922" lon="35.2174753"><ele>363.9</ele><time>2023-09-13T03:03:45Z</time></trkpt>
<trkpt lat="33.0054919" lon="35.2174753"><ele>363.9</ele><time>2023-09-13T03:03:46Z</time></trkpt>
<trkpt lat="33.0054917" lon="35.2174753"><ele>363.9</ele><time>2023-09-13T03:03:47Z</time></trkpt>
<trkpt lat="33.0054915" lon="35.2174754"><ele>363.9</ele><time>2023-09-13T03:03:48Z</time></trkpt>
<trkpt lat="33.0054914" lon="35.2174754"><ele>363.9</ele><time>2023-09-13T03:03:49Z</time></trkpt>
<trkpt lat="33.0054913" lon="35.2174754"><ele>363.9</ele><time>2023-09-13T03:03:50Z</time></trkpt>
<trkpt lat="33.0054912" lon="35.2174754"><ele>363.9</ele><time>2023-09-13T03:03:51Z</time></trkpt>
<trkpt lat="33.0054911" lon="35.2174754"><ele>363.9</ele><time>2023-09-13T03:03:52Z</time></trkpt>
<trkpt lat="33.0054911" lon="35.2174754"><ele>363.9</ele><time>2023-09-13T03:03:53Z</time></trkpt>
<trkpt lat="33.0054911" lon="35.2174754"><ele>363.9</ele><time>2023-09-13T03:03:54Z</time></trkpt>
<trkpt lat="33.005491" lon="35.2174754"><ele>363.9</ele><time>2023-09-13T03:03:55Z</time></trkpt>
<trkpt lat="33.005491" lon="35.2174754"><ele>363.9</ele><time>2023-09-13T03:03:56Z</time></trkpt>
<trkpt lat="33.005491" lon="35.2174754"><ele>363.9</ele><time>2023-09-13T03:03:57Z</time></trkpt>
<trkpt lat="33.0054909" lon="35.2174754"><ele>363.9</ele><time>2023-09-13T03:03:58Z</time></trkpt>
<trkpt lat="33.0054909" lon="35.2174754"><ele>363.9</ele><time>2023-09-13T03:03:59Z</time></trkpt>
<trkpt lat="33.0054909" lon="35.2174754"><ele>363.9</ele><time>2023-09-13T03:04:00Z</time></trkpt>
<trkpt lat="33.0054909" lon="35.2174754"><ele>363.9</ele><time>2023-09-13T03:04:01Z</time></trkpt>
<trkpt lat="33.0054909" lon="35.2174754"><ele>363.9</ele><time>2023-09-13T03:04:02Z</time></trkpt>
<trkpt lat="33.0054913" lon="35.2174753"><ele>363.9</ele><time>2023-09-13T03:04:03Z</time></trkpt>
<trkpt lat="33.0054917" lon="35.2174753"><ele>363.9</ele><time>2023-09-13T03:04:04Z</time></trkpt>
<trkpt lat="33.0054922" lon="35.2174752"><ele>363.9</ele><time>2023-09-13T03:04:05Z</time></trkpt>
<trkpt lat="33.0054926" lon="35.2174751"><ele>363.9</ele><time>2023-09-13T03:04:06Z</time></trkpt>
<trkpt lat="33.005493" lon="35.217475"><ele>363.9</ele><time>2023-09-13T03:04:07Z</time></trkpt>
<trkpt lat="33.0054935" lon="35.2174749"><ele>363.9</ele><time>2023-09-13T03:04:08Z</time></trkpt>
<trkpt lat="33.005494" lon="35.2174748"><ele>363.9</ele><time>2023-09-13T03:04:09Z</time></trkpt>
<trkpt lat="33.005495" lon="35.2174746"><ele>363.8</ele><time>2023-09-13T03:04:10Z</time></trkpt>
<trkpt lat="33.0054963" lon="35.2174743"><ele>363.8</ele><time>2023-09-13T03:04:11Z</time></trkpt>
<trkpt lat="33.005498" lon="35.217474"><ele>363.8</ele><time>2023-09-13T03:04:12Z</time></trkpt>
<trkpt lat="33.0054999" lon="35.2174736"><ele>363.8</ele><time>2023-09-13T03:04:13Z</time></trkpt>
<trkpt lat="33.0055015" lon="35.2174733"><ele>363.8</ele><time>2023-09-13T03:04:14Z</time></trkpt>
<trkpt lat="33.0055029" lon="35.217473"><ele>363.8</ele><time>2023-09-13T03:04:15Z</time></trkpt>
<trkpt lat="33.005504" lon="35.2174728"><ele>363.8</ele><time>2023-09-13T03:04:16Z</time></trkpt>
<trkpt lat="33.0055049" lon="35.2174726"><ele>363.8</ele><time>2023-09-13T03:04:17Z</time></trkpt>
<trkpt lat="33.0055056" lon="35.2174725"><ele>363.8</ele><time>2023-09-13T03:04:18Z</time></trkpt>
<trkpt lat="33.0055061" lon="35.2174724"><ele>363.8</ele><time>2023-09-13T03:04:19Z</time></trkpt>
<trkpt lat="33.0055065" lon="35.2174723"><ele>363.8</ele><time>2023-09-13T03:04:20Z</time></trkpt>
<trkpt lat="33.0055068" lon="35.2174722"><ele>363.8</ele><time>2023-09-13T03:04:21Z</time></trkpt>
<trkpt lat="33.005507" lon="35.2174722"><ele>363.8</ele><time>2023-09-13T03:04:22Z</time></trkpt>
<trkpt lat="33.0055072" lon="35.2174722"><ele>363.8</ele><time>2023-09-13T03:04:23Z</time></trkpt>
<trkpt lat="33.0055073" lon="35.2174721"><ele>363.8</ele><time>2023-09-13T03:04:24Z</time></trkpt>
<trkpt lat="33.0055074" lon="35.2174721"><ele>363.8</ele><time>2023-09-13T03:04:25Z</time></trkpt>
<trkpt lat="33.0055075" lon="35.2174721"><ele>363.8</ele><time>2023-09-13T03:04:26Z</time></trkpt>
<trkpt lat="33.0055076" lon="35.2174721"><ele>363.8</ele><time>2023-09-13T03:04:27Z</time></trkpt>
<trkpt lat="33.0055076" lon="35.2174721"><ele>363.8</ele><time>2023-09-13T03:04:28Z</time></trkpt>
<trkpt lat="33.0055076" lon="35.2174721"><ele>363.8</ele><time>2023-09-13T03:04:29Z</time></trkpt>
<trkpt lat="33.0055077" lon="35.2174721"><ele>363.8</ele><time>2023-09-13T03:04:30Z</time></trkpt>
<trkpt lat="33.0055077" lon="35.2174721"><ele>363.8</ele><time>2023-09-13T03:04:31Z</time></trkpt>
<trkpt lat="33.0055077" lon="35.2174721"><ele>363.8</ele><time>2023-09-13T03:04:32Z</time></trkpt>
<trkpt lat="33.0055077" lon="35.2174721"><ele>363.8</ele><time>2023-09-13T03:04:33Z</time></trkpt>
<trkpt lat="33.0055077" lon="35.2174721"><ele>363.8</ele><time>2023-09-13T03:04:34Z</time></trkpt>
<trkpt lat="33.0055078" lon="35.2174719"><ele>363.8</ele><time>2023-09-13T03:04:35Z</time></trkpt>
<trkpt lat="33.0055079" lon="35.2174718"><ele>363.8</ele><time>2023-09-13T03:04:36Z</time></trkpt>
<trkpt lat="33.0055081" lon="35.2174716"><ele>363.8</ele><time>2023-09-13T03:04:37Z</time></trkpt>
<trkpt lat="33.0055082" lon="35.2174714"><ele>363.8</ele><time>2023-09-13T03:04:38Z</time></trkpt>
<trkpt lat="33.0055084" lon="35.2174711"><ele>363.8</ele><time>2023-09-13T03:04:39Z</time></trkpt>
<trkpt lat="33.0055087" lon="35.2174708"><ele>363.8</ele><time>2023-09-13T03:04:40Z</time></trkpt>
<trkpt lat="33.005509" lon="35.2174704"><ele>363.8</ele><time>2023-09-13T03:04:41Z</time></trkpt>
<trkpt lat="33.0055094" lon="35.2174699"><ele>363.8</ele><time>2023-09-13T03:04:42Z</time></trkpt>
<trkpt lat="33.0055098" lon="35.2174692"><ele>363.8</ele><time>2023-09-13T03:04:43Z</time></trkpt>
<trkpt lat="33.0055104" lon="35.2174685"><ele>363.8</ele><time>2023-09-13T03:04:44Z</time></trkpt>
<trkpt lat="33.0055109" lon="35.2174677"><ele>363.8</ele><time>2023-09-13T03:04:45Z</time></trkpt>
<trkpt lat="33.0055113" lon="35.217467"><ele>363.8</ele><time>2023-09-13T03:04:46Z</time></trkpt>
<trkpt lat="33.0055116" lon="35.2174665"><ele>363.8</ele><time>2023-09-13T03:04:47Z</time></trkpt>
<trkpt lat="33.0055118" lon="35.217466"><ele>363.8</ele><time>2023-09-13T03:04:48Z</time></trkpt>
<trkpt lat="33.005512" lon="35.2174656"><ele>363.8</ele><time>2023-09-13T03:04:49Z</time></trkpt>
<trkpt lat="33.0055121" lon="35.2174654"><ele>363.8</ele><time>2023-09-13T03:04:50Z</time></trkpt>
<trkpt lat="33.0055122" lon="35.2174651"><ele>363.8</ele><time>2023-09-13T03:04:51Z</time></trkpt>
<trkpt lat="33.0055123" lon="35.2174649"><ele>363.8</ele><time>2023-09-13T03:04:52Z</time></trkpt>
<trkpt lat="33.0055122" lon="35.2174646"><ele>363.8</ele><time>2023-09-13T03:04:53Z</time></trkpt>
<trkpt lat="33.0055122" lon="35.2174644"><ele>363.8</ele><time>2023-09-13T03:04:54Z</time></trkpt>
<trkpt lat="33.005512" lon="35.217464"><ele>363.8</ele><time>2023-09-13T03:04:55Z</time></trkpt>
<trkpt lat="33.0055118" lon="35.2174631"><ele>363.8</ele><time>2023-09-13T03:04:56Z</time></trkpt>
<trkpt lat="33.0055115" lon="35.2174616"><ele>363.8</ele><time>2023-09-13T03:04:57Z</time></trkpt>
<trkpt lat="33.0055115" lon="35.2174598"><ele>363.8</ele><time>2023-09-13T03:04:58Z</time></trkpt>
<trkpt lat="33.0055117" lon="35.2174574"><ele>363.8</ele><time>2023-09-13T03:04:59Z</time></trkpt>
<trkpt lat="33.0055121" lon="35.2174541"><ele>363.8</ele><time>2023-09-13T03:05:00Z</time></trkpt>
<trkpt lat="33.0055122" lon="35.2174496"><ele>363.8</ele><time>2023-09-13T03:05:01Z</time></trkpt>
<trkpt lat="33.0055121" lon="35.217444"><ele>363.8</ele><time>2023-09-13T03:05:02Z</time></trkpt>
<trkpt lat="33.0055115" lon="35.2174378"><ele>363.7</ele><time>2023-09-13T03:05:03Z</time></trkpt>
<trkpt lat="33.0055103" lon="35.2174311"><ele>363.7</ele><time>2023-09-13T03:05:04Z</time></trkpt>
<trkpt lat="33.0055081" lon="35.2174237"><ele>363.6</ele><time>2023-09-13T03:05:05Z</time></trkpt>
<trkpt lat="33.005505" lon="35.2174165"><ele>363.6</ele><time>2023-09-13T03:05:06Z</time></trkpt>
<trkpt lat="33.0055012" lon="35.2174104"><ele>363.5</ele><time>2023-09-13T03:05:07Z</time></trkpt>
<trkpt lat="33.0054962" lon="35.2174054"><ele>363.5</ele><time>2023-09-13T03:05:08Z</time></trkpt>
<trkpt lat="33.0054899" lon="35.2174014"><ele>363.4</ele><time>2023-09-13T03:05:09Z</time></trkpt>
<trkpt lat="33.0054827" lon="35.2173989"><ele>363.4</ele><time>2023-09-13T03:05:10Z</time></trkpt>
<trkpt lat="33.0054757" lon="35.2173983"><ele>363.3</ele><time>2023-09-13T03:05:11Z</time></trkpt>
<trkpt lat="33.0054697" lon="35.2173996"><ele>363.3</ele><time>2023-09-13T03:05:12Z</time></trkpt>
<trkpt lat="33.0054642" lon="35.2174028"><ele>363.3</ele><time>2023-09-13T03:05:13Z</time></trkpt>
<trkpt lat="33.0054589" lon="35.2174071"><ele>363.2</ele><time>2023-09-13T03:05:14Z</time></trkpt>
<trkpt lat="33.0054542" lon="35.2174118"><ele>363.2</ele><time>2023-09-13T03:05:15Z</time></trkpt>
<trkpt lat="33.0054504" lon="35.2174162"><ele>363.2</ele><time>2023-09-13T03:05:16Z</time></trkpt>
<trkpt lat="33.0054474" lon="35.2174195"><ele>363.1</ele><time>2023-09-13T03:05:17Z</time></trkpt>
<trkpt lat="33.0054448" lon="35.2174216"><ele>363.1</ele><time>2023-09-13T03:05:18Z</time></trkpt>
<trkpt lat="33.0054423" lon="35.2174223"><ele>363.1</ele><time>2023-09-13T03:05:19Z</time></trkpt>
<trkpt lat="33.0054399" lon="35.2174219"><ele>363.1</ele><time>2023-09-13T03:05:20Z</time></trkpt>
<trkpt lat="33.0054376" lon="35.2174207"><ele>363.0</ele><time>2023-09-13T03:05:21Z</time></trkpt>
<trkpt lat="33.0054353" lon="35.2174189"><ele>363.0</ele><time>2023-09-13T03:05:22Z</time></trkpt>
<trkpt lat="33.0054331" lon="35.2174168"><ele>363.0</ele><time>2023-09-13T03:05:23Z</time></trkpt>
<trkpt lat="33.005431" lon="35.2174147"><ele>362.9</ele><time>2023-09-13T03:05:24Z</time></trkpt>
<trkpt lat="33.0054293" lon="35.2174128"><ele>362.9</ele><time>2023-09-13T03:05:25Z</time></trkpt>
<trkpt lat="33.0054284" lon="35.2174111"><ele>362.9</ele><time>2023-09-13T03:05:26Z</time></trkpt>
<trkpt lat="33.0054285" lon="35.2174096"><ele>362.9</ele><time>2023-09-13T03:05:27Z</time></trkpt>
<trkpt lat="33.0054294" lon="35.2174084"><ele>362.8</ele><time>2023-09-13T03:05:28Z</time></trkpt>
<trkpt lat="33.0054306" lon="35.2174074"><ele>362.8</ele><time>2023-09-13T03:05:29Z</time></trkpt>
<trkpt lat="33.0054318" lon="35.2174066"><ele>362.8</ele><time>2023-09-13T03:05:30Z</time></trkpt>
<trkpt lat="33.005433" lon="35.2174061"><ele>362.7</ele><time>2023-09-13T03:05:31Z</time></trkpt>
<trkpt lat="33.0054342" lon="35.2174058"><ele>362.7</ele><time>2023-09-13T03:05:32Z</time></trkpt>
<trkpt lat="33.0054355" lon="35.2174056"><ele>362.7</ele><time>2023-09-13T03:05:33Z</time></trkpt>
<trkpt lat="33.0054369" lon="35.2174055"><ele>362.7</ele><time>2023-09-13T03:05:34Z</time></trkpt>
<trkpt lat="33.0054382" lon="35.2174055"><ele>362.7</ele><time>2023-09-13T03:05:35Z</time></trkpt>
<trkpt lat="33.0054394" lon="35.2174055"><ele>362.7</ele><time>2023-09-13T03:05:36Z</time></trkpt>
<trkpt lat="33.0054405" lon="35.2174056"><ele>362.7</ele><time>2023-09-13T03:05:37Z</time></trkpt>
<trkpt lat="33.0054415" lon="35.2174055"><ele>362.7</ele><time>2023-09-13T03:05:38Z</time></trkpt>
<trkpt lat="33.0054425" lon="35.2174053"><ele>362.7</ele><time>2023-09-13T03:05:39Z</time></trkpt>
<trkpt lat="33.0054436" lon="35.2174049"><ele>362.7</ele><time>2023-09-13T03:05:40Z</time></trkpt>
<trkpt lat="33.0054447" lon="35.2174044"><ele>362.7</ele><time>2023-09-13T03:05:41Z</time></trkpt>
<trkpt lat="33.0054461" lon="35.2174038"><ele>362.7</ele><time>2023-09-13T03:05:42Z</time></trkpt>
<trkpt lat="33.0054474" lon="35.2174032"><ele>362.7</ele><time>2023-09-13T03:05:43Z</time></trkpt>
<trkpt lat="33.0054484" lon="35.2174027"><ele>362.7</ele><time>2023-09-13T03:05:44Z</time></trkpt>
<trkpt lat="33.0054493" lon="35.2174023"><ele>362.7</ele><time>2023-09-13T03:05:45Z</time></trkpt>
<trkpt lat="33.0054501" lon="35.2174021"><ele>362.8</ele><time>2023-09-13T03:05:46Z</time></trkpt>
<trkpt lat="33.0054507" lon="35.217402"><ele>362.8</ele><time>2023-09-13T03:05:47Z</time></trkpt>
<trkpt lat="33.0054514" lon="35.2174019"><ele>362.8</ele><time>2023-09-13T03:05:48Z</time></trkpt>
<trkpt lat="33.0054522" lon="35.2174019"><ele>362.8</ele><time>2023-09-13T03:05:49Z</time></trkpt>
<trkpt lat="33.0054535" lon="35.2174018"><ele>362.7</ele><time>2023-09-13T03:05:50Z</time></trkpt>
<trkpt lat="33.0054553" lon="35.2174017"><ele>362.7</ele><time>2023-09-13T03:05:51Z</time></trkpt>
<trkpt lat="33.0054572" lon="35.2174015"><ele>362.7</ele><time>2023-09-13T03:05:52Z</time></trkpt>
<trkpt lat="33.005459" lon="35.2174014"><ele>362.7</ele><time>2023-09-13T03:05:53Z</time></trkpt>
<trkpt lat="33.0054604" lon="35.2174012"><ele>362.7</ele><time>2023-09-13T03:05:54Z</time></trkpt>
<trkpt lat="33.0054614" lon="35.2174012"><ele>362.7</ele><time>2023-09-13T03:05:55Z</time></trkpt>
<trkpt lat="33.0054621" lon="35.2174011"><ele>362.7</ele><time>2023-09-13T03:05:56Z</time></trkpt>
<trkpt lat="33.0054626" lon="35.217401"><ele>362.7</ele><time>2023-09-13T03:05:57Z</time></trkpt>
<trkpt lat="33.0054628" lon="35.2174008"><ele>362.7</ele><time>2023-09-13T03:05:58Z</time></trkpt>
<trkpt lat="33.0054629" lon="35.2174006"><ele>362.7</ele><time>2023-09-13T03:05:59Z</time></trkpt>
<trkpt lat="33.0054629" lon="35.2174004"><ele>362.7</ele><time>2023-09-13T03:06:00Z</time></trkpt>
<trkpt lat="33.0054628" lon="35.2174001"><ele>362.7</ele><time>2023-09-13T03:06:01Z</time></trkpt>
<trkpt lat="33.0054626" lon="35.2173997"><ele>362.7</ele><time>2023-09-13T03:06:02Z</time></trkpt>
<trkpt lat="33.0054623" lon="35.2173991"><ele>362.8</ele><time>2023-09-13T03:06:03Z</time></trkpt>
<trkpt lat="33.0054618" lon="35.2173981"><ele>362.8</ele><time>2023-09-13T03:06:04Z</time></trkpt>
<trkpt lat="33.0054609" lon="35.2173966"><ele>362.8</ele><time>2023-09-13T03:06:05Z</time></trkpt>
<trkpt lat="33.0054596" lon="35.2173944"><ele>362.8</ele><time>2023-09-13T03:06:06Z</time></trkpt>
<trkpt lat="33.0054581" lon="35.2173916"><ele>362.8</ele><time>2023-09-13T03:06:07Z</time></trkpt>
<trkpt lat="33.0054565" lon="35.2173886"><ele>362.8</ele><time>2023-09-13T03:06:08Z</time></trkpt>
<trkpt lat="33.0054551" lon="35.2173859"><ele>362.8</ele><time>2023-09-13T03:06:09Z</time></trkpt>
<trkpt lat="33.0054544" lon="35.2173837"><ele>362.8</ele><time>2023-09-13T03:06:10Z</time></trkpt>
<trkpt lat="33.0054542" lon="35.217382"><ele>362.8</ele><time>2023-09-13T03:06:11Z</time></trkpt>
<trkpt lat="33.0054546" lon="35.2173808"><ele>362.8</ele><time>2023-09-13T03:06:12Z</time></trkpt>
<trkpt lat="33.0054556" lon="35.2173799"><ele>362.8</ele><time>2023-09-13T03:06:13Z</time></trkpt>
<trkpt lat="33.0054569" lon="35.2173791"><ele>362.8</ele><time>2023-09-13T03:06:14Z</time></trkpt>
<trkpt lat="33.0054585" lon="35.2173783"><ele>362.8</ele><time>2023-09-13T03:06:15Z</time></trkpt>
<trkpt lat="33.0054599" lon="35.2173775"><ele>362.8</ele><time>2023-09-13T03:06:16Z</time></trkpt>
<trkpt lat="33.0054611" lon="35.2173767"><ele>362.8</ele><time>2023-09-13T03:06:17Z</time></trkpt>
<trkpt lat="33.005462" lon="35.2173759"><ele>362.8</ele><time>2023-09-13T03:06:18Z</time></trkpt>
<trkpt lat="33.0054624" lon="35.2173755"><ele>362.8</ele><time>2023-09-13T03:06:19Z</time></trkpt>
<trkpt lat="33.0054623" lon="35.2173755"><ele>362.8</ele><time>2023-09-13T03:06:20Z</time></trkpt>
<trkpt lat="33.0054618" lon="35.2173758"><ele>362.8</ele><time>2023-09-13T03:06:21Z</time></trkpt>
<trkpt lat="33.0054609" lon="35.2173764"><ele>362.8</ele><time>2023-09-13T03:06:22Z</time></trkpt>
<trkpt lat="33.0054599" lon="35.2173768"><ele>362.8</ele><time>2023-09-13T03:06:23Z</time></trkpt>
<trkpt lat="33.0054591" lon="35.2173766"><ele>362.8</ele><time>2023-09-13T03:06:24Z</time></trkpt>
<trkpt lat="33.0054585" lon="35.2173758"><ele>362.8</ele><time>2023-09-13T03:06:25Z</time></trkpt>
<trkpt lat="33.005458" lon="35.2173743"><ele>362.8</ele><time>2023-09-13T03:06:26Z</time></trkpt>
<trkpt lat="33.0054576" lon="35.2173724"><ele>362.8</ele><time>2023-09-13T03:06:27Z</time></trkpt>
<trkpt lat="33.0054574" lon="35.2173703"><ele>362.8</ele><time>2023-09-13T03:06:28Z</time></trkpt>
<trkpt lat="33.0054573" lon="35.2173683"><ele>362.8</ele><time>2023-09-13T03:06:29Z</time></trkpt>
<trkpt lat="33.0054575" lon="35.2173666"><ele>362.8</ele><time>2023-09-13T03:06:30Z</time></trkpt>
<trkpt lat="33.0054579" lon="35.2173652"><ele>362.7</ele><time>2023-09-13T03:06:31Z</time></trkpt>
<trkpt lat="33.0054584" lon="35.2173642"><ele>362.7</ele><time>2023-09-13T03:06:32Z</time></trkpt>
<trkpt lat="33.0054592" lon="35.2173636"><ele>362.7</ele><time>2023-09-13T03:06:33Z</time></trkpt>
<trkpt lat="33.00546" lon="35.2173635"><ele>362.7</ele><time>2023-09-13T03:06:34Z</time></trkpt>
<trkpt lat="33.0054609" lon="35.2173641"><ele>362.7</ele><time>2023-09-13T03:06:35Z</time></trkpt>
<trkpt lat="33.0054617" lon="35.2173653"><ele>362.7</ele><time>2023-09-13T03:06:36Z</time></trkpt>
<trkpt lat="33.0054624" lon="35.217367"><ele>362.7</ele><time>2023-09-13T03:06:37Z</time></trkpt>
<trkpt lat="33.005463" lon="35.217369"><ele>362.7</ele><time>2023-09-13T03:06:38Z</time></trkpt>
<trkpt lat="33.0054633" lon="35.2173711"><ele>362.7</ele><time>2023-09-13T03:06:39Z</time></trkpt>
<trkpt lat="33.0054635" lon="35.217373"><ele>362.7</ele><time>2023-09-13T03:06:40Z</time></trkpt>
<trkpt lat="33.0054636" lon="35.2173747"><ele>362.8</ele><time>2023-09-13T03:06:41Z</time></trkpt>
<trkpt lat="33.0054637" lon="35.2173762"><ele>362.8</ele><time>2023-09-13T03:06:42Z</time></trkpt>
<trkpt lat="33.0054637" lon="35.2173773"><ele>362.8</ele><time>2023-09-13T03:06:43Z</time></trkpt>
<trkpt lat="33.0054638" lon="35.2173775"><ele>362.8</ele><time>2023-09-13T03:06:44Z</time></trkpt>
<trkpt lat="33.0054639" lon="35.217377"><ele>362.8</ele><time>2023-09-13T03:06:45Z</time></trkpt>
<trkpt lat="33.0054639" lon="35.2173759"><ele>362.8</ele><time>2023-09-13T03:06:46Z</time></trkpt>
<trkpt lat="33.0054639" lon="35.2173746"><ele>362.8</ele><time>2023-09-13T03:06:47Z</time></trkpt>
<trkpt lat="33.0054636" lon="35.2173731"><ele>362.8</ele><time>2023-09-13T03:06:48Z</time></trkpt>
<trkpt lat="33.0054633" lon="35.2173716"><ele>362.8</ele><time>2023-09-13T03:06:49Z</time></trkpt>
<trkpt lat="33.0054632" lon="35.2173702"><ele>362.8</ele><time>2023-09-13T03:06:50Z</time></trkpt>
<trkpt lat="33.0054631" lon="35.2173685"><ele>362.8</ele><time>2023-09-13T03:06:51Z</time></trkpt>
<trkpt lat="33.0054632" lon="35.2173666"><ele>362.8</ele><time>2023-09-13T03:06:52Z</time></trkpt>
<trkpt lat="33.0054633" lon="35.2173644"><ele>362.8</ele><time>2023-09-13T03:06:53Z</time></trkpt>
<trkpt lat="33.0054636" lon="35.2173622"><ele>362.8</ele><time>2023-09-13T03:06:54Z</time></trkpt>
<trkpt lat="33.0054638" lon="35.2173602"><ele>362.8</ele><time>2023-09-13T03:06:55Z</time></trkpt>
<trkpt lat="33.005464" lon="35.2173588"><ele>362.8</ele><time>2023-09-13T03:06:56Z</time></trkpt>
<trkpt lat="33.0054641" lon="35.2173577"><ele>362.8</ele><time>2023-09-13T03:06:57Z</time></trkpt>
<trkpt lat="33.0054642" lon="35.217357"><ele>362.8</ele><time>2023-09-13T03:06:58Z</time></trkpt>
</trkseg></trk></gpx>