<?xml version="1.0" encoding="UTF-8" standalone="no" ?>
<gpx xmlns="http://www.topografix.com/GPX/1/1" creator="OruxMaps v.10.1.9 GP" version="1.1" xmlns:gpxtpx="http://www.garmin.com/xmlschemas/TrackPointExtension/v2" xmlns:xsi="http://www.w3.org/2001/XMLSchema-instance" xmlns:om="http://www.oruxmaps.com/oruxmapsextensions/1/0" xsi:schemaLocation="http://www.topografix.com/GPX/1/1 http://www.topografix.com/GPX/1/1/gpx.xsd">
<!-- owner: 4cd85a9e434039 -->
<metadata>
<name><![CDATA[2023-10-14 08:00:41]]></name>
<link href="https://www.oruxmaps.com">
<text>OruxMaps GP</text>
</link>
<time>2023-10-14T05:00:41.254Z</time><bounds maxlat="33.0086689" maxlon="35.2210252" minlat="33.0040627" minlon="35.2098060"/>
</metadata>
<trk>
<name><![CDATA[2023-10-14 08:00:41]]></name>
<desc><![CDATA[<p>Type: Mountain biking<br/>Start time: 08:04 Oct 14, 2023<br/>Finish time: 08:44 Oct 14, 2023<br/>Distance: 5.3 km (00:39)<br/>Moving time: 00:39<br/>Average speed: 8.04 km/h<br/>Avg. Speed Mov: 8.04 km/h<br/>Max. speed: 27.30 km/h<br/>Minimum altitude: 321 m<br/>Maximum altitude: 376 m<br/>Ascent speed: 495.5 m/h<br/>Descent speed: 358.1 m/h<br/>Elevation gain: 116 m<br/>Elevation loss: 67 m<br/>Ascent time: 00:14<br/>Descent time: 00:11<br/>Min. HRM: 73<br/>Max. HRM: 142<br/>Avg. HRM: 122<br/>Calories: 502<br/></p><hr align="center" width="480" style="height: 2px; width: 517px"/>]]></desc>
<type>Mountain biking</type>
<extensions>
<om:oruxmapsextensions>
<om:ext type="TYPE" subtype="0">6</om:ext>
<om:ext type="DIFFICULTY">0</om:ext>
</om:oruxmapsextensions>
</extensions>
<trkseg>
<trkpt lat="33.0072637" lon="35.2107493">
<ele>305.94</ele>
<time>2023-10-14T05:04:56.652Z</time>
<extensions>
<gpxtpx:TrackPointExtension>
<gpxtpx:hr>73</gpxtpx:hr>
</gpxtpx:TrackPointExtension>
</extensions>
</trkpt>
<trkpt lat="33.0073760" lon="35.2109778">
<ele>322.12</ele>
<time>2023-10-14T05:05:02.277Z</time>
<extensions>
<gpxtpx:TrackPointExtension>
<gpxtpx:hr>77</gpxtpx:hr>
</gpxtpx:TrackPointExtension>
</extensions>
</trkpt>
<trkpt lat="33.0074870" lon="35.2111497">
<ele>322.40</ele>
<time>2023-10-14T05:05:07.277Z</time>
<extensions>
<gpxtpx:TrackPointExtension>
<gpxtpx:hr>80</gpxtpx:hr>
</gpxtpx:TrackPointExtension>
</extensions>
</trkpt>
<trkpt lat="33.0076101" lon="35.2113226">
<ele>322.26</ele>
<time>2023-10-14T05:05:12.275Z</time>
<extensions>
<gpxtpx:TrackPointExtension>
<gpxtpx:hr>83</gpxtpx:hr>
</gpxtpx:TrackPointExtension>
</extensions>
</trkpt>
<trkpt lat="33.0076851" lon="35.2115228">
<ele>322.86</ele>
<time>2023-10-14T05:05:17.275Z</time>
<extensions>
<gpxtpx:TrackPointExtension>
<gpxtpx:hr>85</gpxtpx:hr>
</gpxtpx:TrackPointExtension>
</extensions>
</trkpt>
<trkpt lat="33.0077555" lon="35.2117343">
<ele>323.64</ele>
<time>2023-10-14T05:05:22.271Z</time>
<extensions>
<gpxtpx:TrackPointExtension>
<gpxtpx:hr>90</gpxtpx:hr>
</gpxtpx:TrackPointExtension>
</extensions>
</trkpt>
<trkpt lat="33.0077898" lon="35.2119600">
<ele>324.91</ele>
<time>2023-10-14T05:05:28.271Z</time>
<extensions>
<gpxtpx:TrackPointExtension>
<gpxtpx:hr>96</gpxtpx:hr>
</gpxtpx:TrackPointExtension>
</extensions>
</trkpt>
<trkpt lat="33.0078143" lon="35.2121852">
<ele>326.34</ele>
<time>2023-10-14T05:05:35.273Z</time>
<extensions>
<gpxtpx:TrackPointExtension>
<gpxtpx:hr>100</gpxtpx:hr>
</gpxtpx:TrackPointExtension>
</extensions>
</trkpt>
<trkpt lat="33.0078817" lon="35.2123956">
<ele>327.39</ele>
<time>2023-10-14T05:05:42.272Z</time>
<extensions>
<gpxtpx:TrackPointExtension>
<gpxtpx:hr>101</gpxtpx:hr>
</gpxtpx:TrackPointExtension>
</extensions>
</trkpt>
<trkpt lat="33.0079282" lon="35.2126151">
<ele>328.54</ele>
<time>2023-10-14T05:05:50.282Z</time>
<extensions>
<gpxtpx:TrackPointExtension>
<gpxtpx:hr>105</gpxtpx:hr>
</gpxtpx:TrackPointExtension>
</extensions>
</trkpt>
<trkpt lat="33.0079468" lon="35.2128361">
<ele>329.69</ele>
<time>2023-10-14T05:05:58.275Z</time>
<extensions>
<gpxtpx:TrackPointExtension>
<gpxtpx:hr>106</gpxtpx:hr>
</gpxtpx:TrackPointExtension>
</extensions>
</trkpt>
<trkpt lat="33.0079780" lon="35.2130697">
<ele>330.72</ele>
<time>2023-10-14T05:06:06.273Z</time>
<extensions>
<gpxtpx:TrackPointExtension>
<gpxtpx:hr>108</gpxtpx:hr>
</gpxtpx:TrackPointExtension>
</extensions>
</trkpt>
<trkpt lat="33.0079760" lon="35.2133127">
<ele>332.10</ele>
<time>2023-10-14T05:06:15.272Z</time>
<extensions>
<gpxtpx:TrackPointExtension>
<gpxtpx:hr>111</gpxtpx:hr>
</gpxtpx:TrackPointExtension>
</extensions>
</trkpt>
<trkpt lat="33.0079806" lon="35.2135491">
<ele>333.29</ele>
<time>2023-10-14T05:06:23.272Z</time>
<extensions>
<gpxtpx:TrackPointExtension>
<gpxtpx:hr>113</gpxtpx:hr>
</gpxtpx:TrackPointExtension>
</extensions>
</trkpt>
<trkpt lat="33.0080007" lon="35.2137899">
<ele>334.37</ele>
<time>2023-10-14T05:06:31.278Z</time>
<extensions>
<gpxtpx:TrackPointExtension>
<gpxtpx:hr>116</gpxtpx:hr>
</gpxtpx:TrackPointExtension>
</extensions>
</trkpt>
<trkpt lat="33.0080476" lon="35.2140180">
<ele>334.96</ele>
<time>2023-10-14T05:06:39.276Z</time>
<extensions>
<gpxtpx:TrackPointExtension>
<gpxtpx:hr>118</gpxtpx:hr>
</gpxtpx:TrackPointExtension>
</extensions>
</trkpt>
<trkpt lat="33.0080830" lon="35.2142595">
<ele>335.77</ele>
<time>2023-10-14T05:06:47.274Z</time>
<extensions>
<gpxtpx:TrackPointExtension>
<gpxtpx:hr>118</gpxtpx:hr>
</gpxtpx:TrackPointExtension>
</extensions>
</trkpt>
<trkpt lat="33.0081326" lon="35.2144690">
<ele>336.45</ele>
<time>2023-10-14T05:06:53.273Z</time>
<extensions>
<gpxtpx:TrackPointExtension>
<gpxtpx:hr>118</gpxtpx:hr>
</gpxtpx:TrackPointExtension>
</extensions>
</trkpt>
<trkpt lat="33.0081450" lon="35.2146945">
<ele>337.62</ele>
<time>2023-10-14T05:07:00.273Z</time>
<extensions>
<gpxtpx:TrackPointExtension>
<gpxtpx:hr>118</gpxtpx:hr>
</gpxtpx:TrackPointExtension>
</extensions>
</trkpt>
<trkpt lat="33.0081809" lon="35.2149119">
<ele>338.69</ele>
<time>2023-10-14T05:07:09.272Z</time>
<extensions>
<gpxtpx:TrackPointExtension>
<gpxtpx:hr>118</gpxtpx:hr>
</gpxtpx:TrackPointExtension>
</extensions>
</trkpt>
<trkpt lat="33.0081813" lon="35.2151449">
<ele>340.39</ele>
<time>2023-10-14T05:07:20.276Z</time>
<extensions>
<gpxtpx:TrackPointExtension>
<gpxtpx:hr>119</gpxtpx:hr>
</gpxtpx:TrackPointExtension>
</extensions>
</trkpt>
<trkpt lat="33.0082453" lon="35.2153604">
<ele>341.66</ele>
<time>2023-10-14T05:07:30.267Z</time>
<extensions>
<gpxtpx:TrackPointExtension>
<gpxtpx:hr>121</gpxtpx:hr>
</gpxtpx:TrackPointExtension>
</extensions>
</trkpt>
<trkpt lat="33.0082803" lon="35.2155769">
<ele>343.19</ele>
<time>2023-10-14T05:07:40.269Z</time>
<extensions>
<gpxtpx:TrackPointExtension>
<gpxtpx:hr>124</gpxtpx:hr>
</gpxtpx:TrackPointExtension>
</extensions>
</trkpt>
<trkpt lat="33.0083516" lon="35.2157752">
<ele>344.41</ele>
<time>2023-10-14T05:07:50.277Z</time>
<extensions>
<gpxtpx:TrackPointExtension>
<gpxtpx:hr>124</gpxtpx:hr>
</gpxtpx:TrackPointExtension>
</extensions>
</trkpt>
<trkpt lat="33.0083626" lon="35.2159963">
<ele>346.04</ele>
<time>2023-10-14T05:08:02.278Z</time>
<extensions>
<gpxtpx:TrackPointExtension>
<gpxtpx:hr>127</gpxtpx:hr>
</gpxtpx:TrackPointExtension>
</extensions>
</trkpt>
<trkpt lat="33.0083775" lon="35.2162121">
<ele>347.55</ele>
<time>2023-10-14T05:08:14.275Z</time>
<extensions>
<gpxtpx:TrackPointExtension>
<gpxtpx:hr>128</gpxtpx:hr>
</gpxtpx:TrackPointExtension>
</extensions>
</trkpt>
<trkpt lat="33.0084158" lon="35.2164305">
<ele>348.98</ele>
<time>2023-10-14T05:08:27.277Z</time>
<extensions>
<gpxtpx:TrackPointExtension>
<gpxtpx:hr>130</gpxtpx:hr>
</gpxtpx:TrackPointExtension>
</extensions>
</trkpt>
<trkpt lat="33.0084247" lon="35.2166636">
<ele>350.59</ele>
<time>2023-10-14T05:08:39.272Z</time>
<extensions>
<gpxtpx:TrackPointExtension>
<gpxtpx:hr>130</gpxtpx:hr>
</gpxtpx:TrackPointExtension>
</extensions>
</trkpt>
<trkpt lat="33.0084140" lon="35.2168944">
<ele>351.76</ele>
<time>2023-10-14T05:08:50.275Z</time>
<extensions>
<gpxtpx:TrackPointExtension>
<gpxtpx:hr>131</gpxtpx:hr>
</gpxtpx:TrackPointExtension>
</extensions>
</trkpt>
<trkpt lat="33.0083883" lon="35.2171280">
<ele>352.97</ele>
<time>2023-10-14T05:09:01.279Z</time>
<extensions>
<gpxtpx:TrackPointExtension>
<gpxtpx:hr>131</gpxtpx:hr>
</gpxtpx:TrackPointExtension>
</extensions>
</trkpt>
<trkpt lat="33.0083387" lon="35.2173390">
<ele>354.17</ele>
<time>2023-10-14T05:09:12.275Z</time>
<extensions>
<gpxtpx:TrackPointExtension>
<gpxtpx:hr>131</gpxtpx:hr>
</gpxtpx:TrackPointExtension>
</extensions>
</trkpt>
<trkpt lat="33.0083108" lon="35.2175529">
<ele>355.46</ele>
<time>2023-10-14T05:09:24.277Z</time>
<extensions>
<gpxtpx:TrackPointExtension>
<gpxtpx:hr>133</gpxtpx:hr>
</gpxtpx:TrackPointExtension>
</extensions>
</trkpt>
<trkpt lat="33.0082178" lon="35.2177399">
<ele>357.26</ele>
<time>2023-10-14T05:09:35.278Z</time>
<extensions>
<gpxtpx:TrackPointExtension>
<gpxtpx:hr>134</gpxtpx:hr>
</gpxtpx:TrackPointExtension>
</extensions>
</trkpt>
<trkpt lat="33.0083732" lon="35.2178966">
<ele>357.70</ele>
<time>2023-10-14T05:09:47.276Z</time>
<extensions>
<gpxtpx:TrackPointExtension>
<gpxtpx:hr>133</gpxtpx:hr>
</gpxtpx:TrackPointExtension>
</extensions>
</trkpt>
<trkpt lat="33.0085445" lon="35.2180136">
<ele>357.76</ele>
<time>2023-10-14T05:09:54.275Z</time>
<extensions>
<gpxtpx:TrackPointExtension>
<gpxtpx:hr>133</gpxtpx:hr>
</gpxtpx:TrackPointExtension>
</extensions>
</trkpt>
<trkpt lat="33.0086300" lon="35.2182304">
<ele>358.81</ele>
<time>2023-10-14T05:10:04.273Z</time>
<extensions>
<gpxtpx:TrackPointExtension>
<gpxtpx:hr>132</gpxtpx:hr>
</gpxtpx:TrackPointExtension>
</extensions>
</trkpt>
<trkpt lat="33.0085583" lon="35.2184377">
<ele>360.37</ele>
<time>2023-10-14T05:10:13.279Z</time>
<extensions>
<gpxtpx:TrackPointExtension>
<gpxtpx:hr>130</gpxtpx:hr>
</gpxtpx:TrackPointExtension>
</extensions>
</trkpt>
<trkpt lat="33.0085440" lon="35.2186609">
<ele>361.61</ele>
<time>2023-10-14T05:10:22.277Z</time>
<extensions>
<gpxtpx:TrackPointExtension>
<gpxtpx:hr>130</gpxtpx:hr>
</gpxtpx:TrackPointExtension>
</extensions>
</trkpt>
<trkpt lat="33.0085508" lon="35.2188924">
<ele>362.73</ele>
<time>2023-10-14T05:10:31.275Z</time>
<extensions>
<gpxtpx:TrackPointExtension>
<gpxtpx:hr>128</gpxtpx:hr>
</gpxtpx:TrackPointExtension>
</extensions>
</trkpt>
<trkpt lat="33.0085807" lon="35.2191073">
<ele>363.59</ele>
<time>2023-10-14T05:10:40.271Z</time>
<extensions>
<gpxtpx:TrackPointExtension>
<gpxtpx:hr>128</gpxtpx:hr>
</gpxtpx:TrackPointExtension>
</extensions>
</trkpt>
<trkpt lat="33.0086273" lon="35.2193339">
<ele>364.23</ele>
<time>2023-10-14T05:10:49.273Z</time>
<extensions>
<gpxtpx:TrackPointExtension>
<gpxtpx:hr>128</gpxtpx:hr>
</gpxtpx:TrackPointExtension>
</extensions>
</trkpt>
<trkpt lat="33.0085825" lon="35.2195604">
<ele>365.54</ele>
<time>2023-10-14T05:10:59.274Z</time>
<extensions>
<gpxtpx:TrackPointExtension>
<gpxtpx:hr>127</gpxtpx:hr>
</gpxtpx:TrackPointExtension>
</extensions>
</trkpt>
<trkpt lat="33.0085675" lon="35.2197895">
<ele>366.64</ele>
<time>2023-10-14T05:11:09.273Z</time>
<extensions>
<gpxtpx:TrackPointExtension>
<gpxtpx:hr>127</gpxtpx:hr>
</gpxtpx:TrackPointExtension>
</extensions>
</trkpt>
<trkpt lat="33.0086093" lon="35.2200200">
<ele>367.41</ele>
<time>2023-10-14T05:11:19.278Z</time>
<extensions>
<gpxtpx:TrackPointExtension>
<gpxtpx:hr>127</gpxtpx:hr>
</gpxtpx:TrackPointExtension>
</extensions>
</trkpt>
<trkpt lat="33.0086131" lon="35.2202510">
<ele>368.56</ele>
<time>2023-10-14T05:11:29.275Z</time>
<extensions>
<gpxtpx:TrackPointExtension>
<gpxtpx:hr>127</gpxtpx:hr>
</gpxtpx:TrackPointExtension>
</extensions>
</trkpt>
<trkpt lat="33.0086011" lon="35.2204815">
<ele>369.85</ele>
<time>2023-10-14T05:11:39.276Z</time>
<extensions>
<gpxtpx:TrackPointExtension>
<gpxtpx:hr>128</gpxtpx:hr>
</gpxtpx:TrackPointExtension>
</extensions>
</trkpt>
<trkpt lat="33.0085843" lon="35.2207030">
<ele>371.14</ele>
<time>2023-10-14T05:11:48.278Z</time>
<extensions>
<gpxtpx:TrackPointExtension>
<gpxtpx:hr>128</gpxtpx:hr>
</gpxtpx:TrackPointExtension>
</extensions>
</trkpt>
<trkpt lat="33.0085001" lon="35.2209021">
<ele>372.97</ele>
<time>2023-10-14T05:12:00.272Z</time>
<extensions>
<gpxtpx:TrackPointExtension>
<gpxtpx:hr>128</gpxtpx:hr>
</gpxtpx:TrackPointExtension>
</extensions>
</trkpt>
<trkpt lat="33.0083056" lon="35.2208997">
<ele>374.44</ele>
<time>2023-10-14T05:12:10.272Z</time>
<extensions>
<gpxtpx:TrackPointExtension>
<gpxtpx:hr>129</gpxtpx:hr>
</gpxtpx:TrackPointExtension>
</extensions>
</trkpt>
<trkpt lat="33.0081154" lon="35.2209295">
<ele>375.29</ele>
<time>2023-10-14T05:12:19.273Z</time>
<extensions>
<gpxtpx:TrackPointExtension>
<gpxtpx:hr>130</gpxtpx:hr>
</gpxtpx:TrackPointExtension>
</extensions>
</trkpt>
<trkpt lat="33.0079160" lon="35.2209284">
<ele>375.97</ele>
<time>2023-10-14T05:12:30.274Z</time>
<extensions>
<gpxtpx:TrackPointExtension>
<gpxtpx:hr>129</gpxtpx:hr>
</gpxtpx:TrackPointExtension>
</extensions>
</trkpt>
<trkpt lat="33.0077161" lon="35.2209623">
<ele>376.82</ele>
<time>2023-10-14T05:12:37.279Z</time>
<extensions>
<gpxtpx:TrackPointExtension>
<gpxtpx:hr>128</gpxtpx:hr>
</gpxtpx:TrackPointExtension>
</extensions>
</trkpt>
<trkpt lat="33.0075277" lon="35.2209968">
<ele>377.63</ele>
<time>2023-10-14T05:12:42.276Z</time>
<extensions>
<gpxtpx:TrackPointExtension>
<gpxtpx:hr>128</gpxtpx:hr>
</gpxtpx:TrackPointExtension>
</extensions>
</trkpt>
<trkpt lat="33.0073388" lon="35.2210252">
<ele>377.79</ele>
<time>2023-10-14T05:12:53.266Z</time>
<extensions>
<gpxtpx:TrackPointExtension>
<gpxtpx:hr>127</gpxtpx:hr>
</gpxtpx:TrackPointExtension>
</extensions>
</trkpt>
<trkpt lat="33.0071509" lon="35.2209820">
<ele>377.50</ele>
<time>2023-10-14T05:13:02.275Z</time>
<extensions>
<gpxtpx:TrackPointExtension>
<gpxtpx:hr>126</gpxtpx:hr>
</gpxtpx:TrackPointExtension>
</extensions>
</trkpt>
<trkpt lat="33.0069521" lon="35.2209687">
<ele>377.34</ele>
<time>2023-10-14T05:13:11.273Z</time>
<extensions>
<gpxtpx:TrackPointExtension>
<gpxtpx:hr>124</gpxtpx:hr>
</gpxtpx:TrackPointExtension>
</extensions>
</trkpt>
<trkpt lat="33.0067561" lon="35.2209873">
<ele>377.25</ele>
<time>2023-10-14T05:13:18.275Z</time>
<extensions>
<gpxtpx:TrackPointExtension>
<gpxtpx:hr>123</gpxtpx:hr>
</gpxtpx:TrackPointExtension>
</extensions>
</trkpt>
<trkpt lat="33.0065744" lon="35.2209988">
<ele>376.74</ele>
<time>2023-10-14T05:13:23.273Z</time>
<extensions>
<gpxtpx:TrackPointExtension>
<gpxtpx:hr>122</gpxtpx:hr>
</gpxtpx:TrackPointExtension>
</extensions>
</trkpt>
<trkpt lat="33.0063528" lon="35.2209319">
<ele>375.37</ele>
<time>2023-10-14T05:13:28.267Z</time>
<extensions>
<gpxtpx:TrackPointExtension>
<gpxtpx:hr>119</gpxtpx:hr>
</gpxtpx:TrackPointExtension>
</extensions>
</trkpt>
<trkpt lat="33.0061794" lon="35.2208604">
<ele>374.22</ele>
<time>2023-10-14T05:13:32.278Z</time>
<extensions>
<gpxtpx:TrackPointExtension>
<gpxtpx:hr>116</gpxtpx:hr>
</gpxtpx:TrackPointExtension>
</extensions>
</trkpt>
<trkpt lat="33.0059868" lon="35.2207891">
<ele>373.02</ele>
<time>2023-10-14T05:13:37.595Z</time>
<extensions>
<gpxtpx:TrackPointExtension>
<gpxtpx:hr>114</gpxtpx:hr>
</gpxtpx:TrackPointExtension>
</extensions>
</trkpt>
<trkpt lat="33.0048806" lon="35.2201255">
<ele>362.79</ele>
<time>2023-10-14T05:14:16.271Z</time>
<extensions>
<gpxtpx:TrackPointExtension>
<gpxtpx:hr>101</gpxtpx:hr>
</gpxtpx:TrackPointExtension>
</extensions>
</trkpt>
<trkpt lat="33.0047429" lon="35.2199768">
<ele>361.09</ele>
<time>2023-10-14T05:14:19.272Z</time>
<extensions>
<gpxtpx:TrackPointExtension>
<gpxtpx:hr>101</gpxtpx:hr>
</gpxtpx:TrackPointExtension>
</extensions>
</trkpt>
<trkpt lat="33.0045200" lon="35.2197768">
<ele>358.05</ele>
<time>2023-10-14T05:14:22.272Z</time>
<extensions>
<gpxtpx:TrackPointExtension>
<gpxtpx:hr>102</gpxtpx:hr>
</gpxtpx:TrackPointExtension>
</extensions>
</trkpt>
<trkpt lat="33.0043592" lon="35.2196234">
<ele>356.11</ele>
<time>2023-10-14T05:14:25.265Z</time>
<extensions>
<gpxtpx:TrackPointExtension>
<gpxtpx:hr>101</gpxtpx:hr>
</gpxtpx:TrackPointExtension>
</extensions>
</trkpt>
<trkpt lat="33.0042131" lon="35.2194346">
<ele>354.86</ele>
<time>2023-10-14T05:14:29.266Z</time>
<extensions>
<gpxtpx:TrackPointExtension>
<gpxtpx:hr>100</gpxtpx:hr>
</gpxtpx:TrackPointExtension>
</extensions>
</trkpt>
<trkpt lat="33.0041272" lon="35.2192280">
<ele>354.58</ele>
<time>2023-10-14T05:14:32.271Z</time>
<extensions>
<gpxtpx:TrackPointExtension>
<gpxtpx:hr>98</gpxtpx:hr>
</gpxtpx:TrackPointExtension>
</extensions>
</trkpt>
<trkpt lat="33.0040627" lon="35.2189802">
<ele>353.62</ele>
<time>2023-10-14T05:14:35.267Z</time>
<extensions>
<gpxtpx:TrackPointExtension>
<gpxtpx:hr>96</gpxtpx:hr>
</gpxtpx:TrackPointExtension>
</extensions>
</trkpt>
<trkpt lat="33.0059090" lon="35.2105915">
<ele>323.10</ele>
<time>2023-10-14T05:18:05.259Z</time>
<extensions>
<gpxtpx:TrackPointExtension>
<gpxtpx:hr>111</gpxtpx:hr>
</gpxtpx:TrackPointExtension>
</extensions>
</trkpt>
<trkpt lat="33.0060346" lon="35.2103846">
<ele>326.07</ele>
<time>2023-10-14T05:18:14.270Z</time>
<extensions>
<gpxtpx:TrackPointExtension>
<gpxtpx:hr>111</gpxtpx:hr>
</gpxtpx:TrackPointExtension>
</extensions>
</trkpt>
<trkpt lat="33.0061784" lon="35.2101989">
<ele>324.89</ele>
<time>2023-10-14T05:18:18.261Z</time>
<extensions>
<gpxtpx:TrackPointExtension>
<gpxtpx:hr>112</gpxtpx:hr>
</gpxtpx:TrackPointExtension>
</extensions>
</trkpt>
<trkpt lat="33.0064101" lon="35.2102125">
<ele>324.30</ele>
<time>2023-10-14T05:18:21.264Z</time>
<extensions>
<gpxtpx:TrackPointExtension>
<gpxtpx:hr>111</gpxtpx:hr>
</gpxtpx:TrackPointExtension>
</extensions>
</trkpt>
<trkpt lat="33.0065508" lon="35.2100258">
<ele>322.73</ele>
<time>2023-10-14T05:18:27.264Z</time>
<extensions>
<gpxtpx:TrackPointExtension>
<gpxtpx:hr>108</gpxtpx:hr>
</gpxtpx:TrackPointExtension>
</extensions>
</trkpt>
<trkpt lat="33.0065744" lon="35.2098060">
<ele>321.70</ele>
<time>2023-10-14T05:18:32.263Z</time>
<extensions>
<gpxtpx:TrackPointExtension>
<gpxtpx:hr>106</gpxtpx:hr>
</gpxtpx:TrackPointExtension>
</extensions>
</trkpt>
<trkpt lat="33.0067991" lon="35.2098337">
<ele>320.63</ele>
<time>2023-10-14T05:18:40.264Z</time>
<extensions>
<gpxtpx:TrackPointExtension>
<gpxtpx:hr>102</gpxtpx:hr>
</gpxtpx:TrackPointExtension>
</extensions>
</trkpt>
<trkpt lat="33.0069933" lon="35.2100047">
<ele>320.13</ele>
<time>2023-10-14T05:18:43.264Z</time>
<extensions>
<gpxtpx:TrackPointExtension>
<gpxtpx:hr>99</gpxtpx:hr>
</gpxtpx:TrackPointExtension>
</extensions>
</trkpt>
<trkpt lat="33.0071148" lon="35.2101896">
<ele>320.25</ele>
<time>2023-10-14T05:18:46.267Z</time>
<extensions>
<gpxtpx:TrackPointExtension>
<gpxtpx:hr>98</gpxtpx:hr>
</gpxtpx:TrackPointExtension>
</extensions>
</trkpt>
<trkpt lat="33.0071962" lon="35.2103827">
<ele>320.64</ele>
<time>2023-10-14T05:18:49.266Z</time>
<extensions>
<gpxtpx:TrackPointExtension>
<gpxtpx:hr>99</gpxtpx:hr>
</gpxtpx:TrackPointExtension>
</extensions>
</trkpt>
<trkpt lat="33.0072717" lon="35.2106130">
<ele>321.14</ele>
<time>2023-10-14T05:18:54.264Z</time>
<extensions>
<gpxtpx:TrackPointExtension>
<gpxtpx:hr>101</gpxtpx:hr>
</gpxtpx:TrackPointExtension>
</extensions>
</trkpt>
<trkpt lat="33.0073406" lon="35.2108122">
<ele>321.43</ele>
<time>2023-10-14T05:18:59.270Z</time>
<extensions>
<gpxtpx:TrackPointExtension>
<gpxtpx:hr>99</gpxtpx:hr>
</gpxtpx:TrackPointExtension>
</extensions>
</trkpt>
<trkpt lat="33.0074181" lon="35.2110296">
<ele>322.19</ele>
<time>2023-10-14T05:19:05.264Z</time>
<extensions>
<gpxtpx:TrackPointExtension>
<gpxtpx:hr>101</gpxtpx:hr>
</gpxtpx:TrackPointExtension>
</extensions>
</trkpt>
<trkpt lat="33.0075510" lon="35.2112308">
<ele>322.32</ele>
<time>2023-10-14T05:19:11.268Z</time>
<extensions>
<gpxtpx:TrackPointExtension>
<gpxtpx:hr>102</gpxtpx:hr>
</gpxtpx:TrackPointExtension>
</extensions>
</trkpt>
<trkpt lat="33.0076760" lon="35.2114352">
<ele>322.32</ele>
<time>2023-10-14T05:19:17.269Z</time>
<extensions>
<gpxtpx:TrackPointExtension>
<gpxtpx:hr>103</gpxtpx:hr>
</gpxtpx:TrackPointExtension>
</extensions>
</trkpt>
<trkpt lat="33.0077694" lon="35.2116538">
<ele>322.95</ele>
<time>2023-10-14T05:19:23.263Z</time>
<extensions>
<gpxtpx:TrackPointExtension>
<gpxtpx:hr>106</gpxtpx:hr>
</gpxtpx:TrackPointExtension>
</extensions>
</trkpt>
<trkpt lat="33.0077705" lon="35.2118755">
<ele>324.47</ele>
<time>2023-10-14T05:19:30.271Z</time>
<extensions>
<gpxtpx:TrackPointExtension>
<gpxtpx:hr>108</gpxtpx:hr>
</gpxtpx:TrackPointExtension>
</extensions>
</trkpt>
<trkpt lat="33.0077911" lon="35.2121111">
<ele>326.00</ele>
<time>2023-10-14T05:19:37.267Z</time>
<extensions>
<gpxtpx:TrackPointExtension>
<gpxtpx:hr>110</gpxtpx:hr>
</gpxtpx:TrackPointExtension>
</extensions>
</trkpt>
<trkpt lat="33.0078596" lon="35.2123313">
<ele>327.07</ele>
<time>2023-10-14T05:19:44.268Z</time>
<extensions>
<gpxtpx:TrackPointExtension>
<gpxtpx:hr>113</gpxtpx:hr>
</gpxtpx:TrackPointExtension>
</extensions>
</trkpt>
<trkpt lat="33.0079259" lon="35.2125392">
<ele>328.11</ele>
<time>2023-10-14T05:19:52.271Z</time>
<extensions>
<gpxtpx:TrackPointExtension>
<gpxtpx:hr>116</gpxtpx:hr>
</gpxtpx:TrackPointExtension>
</extensions>
</trkpt>
<trkpt lat="33.0079313" lon="35.2127743">
<ele>329.46</ele>
<time>2023-10-14T05:20:00.268Z</time>
<extensions>
<gpxtpx:TrackPointExtension>
<gpxtpx:hr>119</gpxtpx:hr>
</gpxtpx:TrackPointExtension>
</extensions>
</trkpt>
<trkpt lat="33.0079596" lon="35.2129893">
<ele>330.45</ele>
<time>2023-10-14T05:20:07.265Z</time>
<extensions>
<gpxtpx:TrackPointExtension>
<gpxtpx:hr>122</gpxtpx:hr>
</gpxtpx:TrackPointExtension>
</extensions>
</trkpt>
<trkpt lat="33.0080051" lon="35.2132174">
<ele>331.27</ele>
<time>2023-10-14T05:20:14.271Z</time>
<extensions>
<gpxtpx:TrackPointExtension>
<gpxtpx:hr>124</gpxtpx:hr>
</gpxtpx:TrackPointExtension>
</extensions>
</trkpt>
<trkpt lat="33.0079648" lon="35.2134549">
<ele>332.94</ele>
<time>2023-10-14T05:20:21.266Z</time>
<extensions>
<gpxtpx:TrackPointExtension>
<gpxtpx:hr>127</gpxtpx:hr>
</gpxtpx:TrackPointExtension>
</extensions>
</trkpt>
<trkpt lat="33.0079246" lon="35.2136803">
<ele>334.72</ele>
<time>2023-10-14T05:20:29.260Z</time>
<extensions>
<gpxtpx:TrackPointExtension>
<gpxtpx:hr>129</gpxtpx:hr>
</gpxtpx:TrackPointExtension>
</extensions>
</trkpt>
<trkpt lat="33.0079988" lon="35.2138801">
<ele>334.89</ele>
<time>2023-10-14T05:20:37.260Z</time>
<extensions>
<gpxtpx:TrackPointExtension>
<gpxtpx:hr>131</gpxtpx:hr>
</gpxtpx:TrackPointExtension>
</extensions>
</trkpt>
<trkpt lat="33.0080426" lon="35.2141172">
<ele>335.54</ele>
<time>2023-10-14T05:20:46.262Z</time>
<extensions>
<gpxtpx:TrackPointExtension>
<gpxtpx:hr>131</gpxtpx:hr>
</gpxtpx:TrackPointExtension>
</extensions>
</trkpt>
<trkpt lat="33.0080836" lon="35.2143355">
<ele>336.22</ele>
<time>2023-10-14T05:20:53.268Z</time>
<extensions>
<gpxtpx:TrackPointExtension>
<gpxtpx:hr>130</gpxtpx:hr>
</gpxtpx:TrackPointExtension>
</extensions>
</trkpt>
<trkpt lat="33.0081238" lon="35.2145664">
<ele>337.14</ele>
<time>2023-10-14T05:21:00.266Z</time>
<extensions>
<gpxtpx:TrackPointExtension>
<gpxtpx:hr>130</gpxtpx:hr>
</gpxtpx:TrackPointExtension>
</extensions>
</trkpt>
<trkpt lat="33.0081399" lon="35.2147841">
<ele>338.25</ele>
<time>2023-10-14T05:21:07.273Z</time>
<extensions>
<gpxtpx:TrackPointExtension>
<gpxtpx:hr>130</gpxtpx:hr>
</gpxtpx:TrackPointExtension>
</extensions>
</trkpt>
<trkpt lat="33.0081670" lon="35.2150060">
<ele>339.39</ele>
<time>2023-10-14T05:21:16.270Z</time>
<extensions>
<gpxtpx:TrackPointExtension>
<gpxtpx:hr>130</gpxtpx:hr>
</gpxtpx:TrackPointExtension>
</extensions>
</trkpt>
<trkpt lat="33.0081903" lon="35.2152238">
<ele>340.98</ele>
<time>2023-10-14T05:21:27.265Z</time>
<extensions>
<gpxtpx:TrackPointExtension>
<gpxtpx:hr>130</gpxtpx:hr>
</gpxtpx:TrackPointExtension>
</extensions>
</trkpt>
<trkpt lat="33.0082095" lon="35.2154515">
<ele>342.67</ele>
<time>2023-10-14T05:21:39.267Z</time>
<extensions>
<gpxtpx:TrackPointExtension>
<gpxtpx:hr>132</gpxtpx:hr>
</gpxtpx:TrackPointExtension>
</extensions>
</trkpt>
<trkpt lat="33.0083283" lon="35.2156286">
<ele>343.29</ele>
<time>2023-10-14T05:21:51.264Z</time>
<extensions>
<gpxtpx:TrackPointExtension>
<gpxtpx:hr>134</gpxtpx:hr>
</gpxtpx:TrackPointExtension>
</extensions>
</trkpt>
<trkpt lat="33.0083065" lon="35.2158524">
<ele>345.28</ele>
<time>2023-10-14T05:22:02.272Z</time>
<extensions>
<gpxtpx:TrackPointExtension>
<gpxtpx:hr>134</gpxtpx:hr>
</gpxtpx:TrackPointExtension>
</extensions>
</trkpt>
<trkpt lat="33.0083647" lon="35.2160809">
<ele>346.63</ele>
<time>2023-10-14T05:22:12.266Z</time>
<extensions>
<gpxtpx:TrackPointExtension>
<gpxtpx:hr>135</gpxtpx:hr>
</gpxtpx:TrackPointExtension>
</extensions>
</trkpt>
<trkpt lat="33.0083973" lon="35.2162929">
<ele>348.05</ele>
<time>2023-10-14T05:22:23.268Z</time>
<extensions>
<gpxtpx:TrackPointExtension>
<gpxtpx:hr>136</gpxtpx:hr>
</gpxtpx:TrackPointExtension>
</extensions>
</trkpt>
<trkpt lat="33.0083638" lon="35.2165194">
<ele>349.78</ele>
<time>2023-10-14T05:22:36.270Z</time>
<extensions>
<gpxtpx:TrackPointExtension>
<gpxtpx:hr>137</gpxtpx:hr>
</gpxtpx:TrackPointExtension>
</extensions>
</trkpt>
<trkpt lat="33.0083623" lon="35.2167361">
<ele>351.19</ele>
<time>2023-10-14T05:22:47.266Z</time>
<extensions>
<gpxtpx:TrackPointExtension>
<gpxtpx:hr>137</gpxtpx:hr>
</gpxtpx:TrackPointExtension>
</extensions>
</trkpt>
<trkpt lat="33.0084003" lon="35.2169622">
<ele>352.14</ele>
<time>2023-10-14T05:22:59.266Z</time>
<extensions>
<gpxtpx:TrackPointExtension>
<gpxtpx:hr>138</gpxtpx:hr>
</gpxtpx:TrackPointExtension>
</extensions>
</trkpt>
<trkpt lat="33.0083850" lon="35.2171933">
<ele>353.30</ele>
<time>2023-10-14T05:23:12.269Z</time>
<extensions>
<gpxtpx:TrackPointExtension>
<gpxtpx:hr>138</gpxtpx:hr>
</gpxtpx:TrackPointExtension>
</extensions>
</trkpt>
<trkpt lat="33.0083199" lon="35.2174065">
<ele>354.58</ele>
<time>2023-10-14T05:23:24.271Z</time>
<extensions>
<gpxtpx:TrackPointExtension>
<gpxtpx:hr>138</gpxtpx:hr>
</gpxtpx:TrackPointExtension>
</extensions>
</trkpt>
<trkpt lat="33.0082488" lon="35.2176058">
<ele>356.18</ele>
<time>2023-10-14T05:23:36.262Z</time>
<extensions>
<gpxtpx:TrackPointExtension>
<gpxtpx:hr>138</gpxtpx:hr>
</gpxtpx:TrackPointExtension>
</extensions>
</trkpt>
<trkpt lat="33.0081986" lon="35.2178134">
<ele>357.88</ele>
<time>2023-10-14T05:23:47.268Z</time>
<extensions>
<gpxtpx:TrackPointExtension>
<gpxtpx:hr>138</gpxtpx:hr>
</gpxtpx:TrackPointExtension>
</extensions>
</trkpt>
<trkpt lat="33.0083604" lon="35.2179489">
<ele>358.15</ele>
<time>2023-10-14T05:23:58.262Z</time>
<extensions>
<gpxtpx:TrackPointExtension>
<gpxtpx:hr>137</gpxtpx:hr>
</gpxtpx:TrackPointExtension>
</extensions>
</trkpt>
<trkpt lat="33.0085464" lon="35.2180434">
<ele>357.97</ele>
<time>2023-10-14T05:24:05.262Z</time>
<extensions>
<gpxtpx:TrackPointExtension>
<gpxtpx:hr>137</gpxtpx:hr>
</gpxtpx:TrackPointExtension>
</extensions>
</trkpt>
<trkpt lat="33.0086071" lon="35.2182520">
<ele>359.06</ele>
<time>2023-10-14T05:24:13.267Z</time>
<extensions>
<gpxtpx:TrackPointExtension>
<gpxtpx:hr>138</gpxtpx:hr>
</gpxtpx:TrackPointExtension>
</extensions>
</trkpt>
<trkpt lat="33.0085960" lon="35.2184693">
<ele>360.35</ele>
<time>2023-10-14T05:24:22.264Z</time>
<extensions>
<gpxtpx:TrackPointExtension>
<gpxtpx:hr>136</gpxtpx:hr>
</gpxtpx:TrackPointExtension>
</extensions>
</trkpt>
<trkpt lat="33.0086113" lon="35.2187011">
<ele>361.39</ele>
<time>2023-10-14T05:24:31.266Z</time>
<extensions>
<gpxtpx:TrackPointExtension>
<gpxtpx:hr>135</gpxtpx:hr>
</gpxtpx:TrackPointExtension>
</extensions>
</trkpt>
<trkpt lat="33.0086045" lon="35.2189252">
<ele>362.47</ele>
<time>2023-10-14T05:24:40.266Z</time>
<extensions>
<gpxtpx:TrackPointExtension>
<gpxtpx:hr>134</gpxtpx:hr>
</gpxtpx:TrackPointExtension>
</extensions>
</trkpt>
<trkpt lat="33.0085184" lon="35.2191436">
<ele>364.24</ele>
<time>2023-10-14T05:24:48.266Z</time>
<extensions>
<gpxtpx:TrackPointExtension>
<gpxtpx:hr>134</gpxtpx:hr>
</gpxtpx:TrackPointExtension>
</extensions>
</trkpt>
<trkpt lat="33.0085189" lon="35.2193741">
<ele>365.29</ele>
<time>2023-10-14T05:24:58.266Z</time>
<extensions>
<gpxtpx:TrackPointExtension>
<gpxtpx:hr>134</gpxtpx:hr>
</gpxtpx:TrackPointExtension>
</extensions>
</trkpt>
<trkpt lat="33.0085605" lon="35.2196031">
<ele>365.88</ele>
<time>2023-10-14T05:25:08.269Z</time>
<extensions>
<gpxtpx:TrackPointExtension>
<gpxtpx:hr>132</gpxtpx:hr>
</gpxtpx:TrackPointExtension>
</extensions>
</trkpt>
<trkpt lat="33.0085751" lon="35.2198366">
<ele>366.82</ele>
<time>2023-10-14T05:25:19.273Z</time>
<extensions>
<gpxtpx:TrackPointExtension>
<gpxtpx:hr>133</gpxtpx:hr>
</gpxtpx:TrackPointExtension>
</extensions>
</trkpt>
<trkpt lat="33.0085932" lon="35.2200658">
<ele>367.74</ele>
<time>2023-10-14T05:25:30.266Z</time>
<extensions>
<gpxtpx:TrackPointExtension>
<gpxtpx:hr>133</gpxtpx:hr>
</gpxtpx:TrackPointExtension>
</extensions>
</trkpt>
<trkpt lat="33.0085953" lon="35.2202882">
<ele>368.90</ele>
<time>2023-10-14T05:25:40.263Z</time>
<extensions>
<gpxtpx:TrackPointExtension>
<gpxtpx:hr>133</gpxtpx:hr>
</gpxtpx:TrackPointExtension>
</extensions>
</trkpt>
<trkpt lat="33.0085726" lon="35.2205059">
<ele>370.21</ele>
<time>2023-10-14T05:25:50.263Z</time>
<extensions>
<gpxtpx:TrackPointExtension>
<gpxtpx:hr>133</gpxtpx:hr>
</gpxtpx:TrackPointExtension>
</extensions>
</trkpt>
<trkpt lat="33.0085846" lon="35.2207200">
<ele>371.24</ele>
<time>2023-10-14T05:26:00.263Z</time>
<extensions>
<gpxtpx:TrackPointExtension>
<gpxtpx:hr>134</gpxtpx:hr>
</gpxtpx:TrackPointExtension>
</extensions>
</trkpt>
<trkpt lat="33.0085315" lon="35.2209338">
<ele>372.90</ele>
<time>2023-10-14T05:26:10.265Z</time>
<extensions>
<gpxtpx:TrackPointExtension>
<gpxtpx:hr>135</gpxtpx:hr>
</gpxtpx:TrackPointExtension>
</extensions>
</trkpt>
<trkpt lat="33.0083395" lon="35.2209331">
<ele>374.50</ele>
<time>2023-10-14T05:26:20.267Z</time>
<extensions>
<gpxtpx:TrackPointExtension>
<gpxtpx:hr>135</gpxtpx:hr>
</gpxtpx:TrackPointExtension>
</extensions>
</trkpt>
<trkpt lat="33.0081551" lon="35.2209623">
<ele>375.36</ele>
<time>2023-10-14T05:26:28.269Z</time>
<extensions>
<gpxtpx:TrackPointExtension>
<gpxtpx:hr>137</gpxtpx:hr>
</gpxtpx:TrackPointExtension>
</extensions>
</trkpt>
<trkpt lat="33.0079690" lon="35.2208860">
<ele>375.58</ele>
<time>2023-10-14T05:26:37.264Z</time>
<extensions>
<gpxtpx:TrackPointExtension>
<gpxtpx:hr>138</gpxtpx:hr>
</gpxtpx:TrackPointExtension>
</extensions>
</trkpt>
<trkpt lat="33.0077923" lon="35.2209272">
<ele>376.41</ele>
<time>2023-10-14T05:26:46.266Z</time>
<extensions>
<gpxtpx:TrackPointExtension>
<gpxtpx:hr>138</gpxtpx:hr>
</gpxtpx:TrackPointExtension>
</extensions>
</trkpt>
<trkpt lat="33.0076064" lon="35.2209196">
<ele>377.02</ele>
<time>2023-10-14T05:26:54.263Z</time>
<extensions>
<gpxtpx:TrackPointExtension>
<gpxtpx:hr>136</gpxtpx:hr>
</gpxtpx:TrackPointExtension>
</extensions>
</trkpt>
<trkpt lat="33.0074138" lon="35.2209838">
<ele>377.62</ele>
<time>2023-10-14T05:27:02.264Z</time>
<extensions>
<gpxtpx:TrackPointExtension>
<gpxtpx:hr>136</gpxtpx:hr>
</gpxtpx:TrackPointExtension>
</extensions>
</trkpt>
<trkpt lat="33.0072255" lon="35.2210248">
<ele>377.70</ele>
<time>2023-10-14T05:27:09.263Z</time>
<extensions>
<gpxtpx:TrackPointExtension>
<gpxtpx:hr>135</gpxtpx:hr>
</gpxtpx:TrackPointExtension>
</extensions>
</trkpt>
<trkpt lat="33.0070260" lon="35.2209744">
<ele>377.40</ele>
<time>2023-10-14T05:27:16.261Z</time>
<extensions>
<gpxtpx:TrackPointExtension>
<gpxtpx:hr>134</gpxtpx:hr>
</gpxtpx:TrackPointExtension>
</extensions>
</trkpt>
<trkpt lat="33.0068459" lon="35.2209681">
<ele>377.28</ele>
<time>2023-10-14T05:27:24.262Z</time>
<extensions>
<gpxtpx:TrackPointExtension>
<gpxtpx:hr>132</gpxtpx:hr>
</gpxtpx:TrackPointExtension>
</extensions>
</trkpt>
<trkpt lat="33.0066413" lon="35.2210148">
<ele>377.11</ele>
<time>2023-10-14T05:27:30.261Z</time>
<extensions>
<gpxtpx:TrackPointExtension>
<gpxtpx:hr>130</gpxtpx:hr>
</gpxtpx:TrackPointExtension>
</extensions>
</trkpt>
<trkpt lat="33.0060844" lon="35.2208676">
<ele>374.35</ele>
<time>2023-10-14T05:27:42.653Z</time>
<extensions>
<gpxtpx:TrackPointExtension>
<gpxtpx:hr>126</gpxtpx:hr>
</gpxtpx:TrackPointExtension>
</extensions>
</trkpt>
<trkpt lat="33.0086689" lon="35.2196905">
<ele>372.89</ele>
<time>2023-10-14T05:39:38.591Z</time>
<extensions>
<gpxtpx:TrackPointExtension>
<gpxtpx:hr>137</gpxtpx:hr>
</gpxtpx:TrackPointExtension>
</extensions>
</trkpt>
<trkpt lat="33.0084768" lon="35.2197472">
<ele>367.32</ele>
<time>2023-10-14T05:39:41.585Z</time>
<extensions>
<gpxtpx:TrackPointExtension>
<gpxtpx:hr>137</gpxtpx:hr>
</gpxtpx:TrackPointExtension>
</extensions>
</trkpt>
<trkpt lat="33.0085915" lon="35.2199252">
<ele>367.09</ele>
<time>2023-10-14T05:39:52.271Z</time>
<extensions>
<gpxtpx:TrackPointExtension>
<gpxtpx:hr>136</gpxtpx:hr>
</gpxtpx:TrackPointExtension>
</extensions>
</trkpt>
<trkpt lat="33.0086174" lon="35.2201411">
<ele>367.99</ele>
<time>2023-10-14T05:40:02.267Z</time>
<extensions>
<gpxtpx:TrackPointExtension>
<gpxtpx:hr>136</gpxtpx:hr>
</gpxtpx:TrackPointExtension>
</extensions>
</trkpt>
<trkpt lat="33.0086262" lon="35.2203605">
<ele>369.05</ele>
<time>2023-10-14T05:40:12.271Z</time>
<extensions>
<gpxtpx:TrackPointExtension>
<gpxtpx:hr>136</gpxtpx:hr>
</gpxtpx:TrackPointExtension>
</extensions>
</trkpt>
<trkpt lat="33.0086232" lon="35.2205905">
<ele>370.26</ele>
<time>2023-10-14T05:40:23.267Z</time>
<extensions>
<gpxtpx:TrackPointExtension>
<gpxtpx:hr>136</gpxtpx:hr>
</gpxtpx:TrackPointExtension>
</extensions>
</trkpt>
<trkpt lat="33.0086043" lon="35.2208075">
<ele>371.53</ele>
<time>2023-10-14T05:40:33.266Z</time>
<extensions>
<gpxtpx:TrackPointExtension>
<gpxtpx:hr>138</gpxtpx:hr>
</gpxtpx:TrackPointExtension>
</extensions>
</trkpt>
<trkpt lat="33.0084506" lon="35.2209213">
<ele>373.49</ele>
<time>2023-10-14T05:40:43.268Z</time>
<extensions>
<gpxtpx:TrackPointExtension>
<gpxtpx:hr>139</gpxtpx:hr>
</gpxtpx:TrackPointExtension>
</extensions>
</trkpt>
<trkpt lat="33.0082641" lon="35.2209196">
<ele>374.73</ele>
<time>2023-10-14T05:40:52.264Z</time>
<extensions>
<gpxtpx:TrackPointExtension>
<gpxtpx:hr>140</gpxtpx:hr>
</gpxtpx:TrackPointExtension>
</extensions>
</trkpt>
<trkpt lat="33.0080790" lon="35.2209238">
<ele>375.40</ele>
<time>2023-10-14T05:41:01.270Z</time>
<extensions>
<gpxtpx:TrackPointExtension>
<gpxtpx:hr>141</gpxtpx:hr>
</gpxtpx:TrackPointExtension>
</extensions>
</trkpt>
<trkpt lat="33.0078892" lon="35.2208746">
<ele>375.83</ele>
<time>2023-10-14T05:41:10.265Z</time>
<extensions>
<gpxtpx:TrackPointExtension>
<gpxtpx:hr>142</gpxtpx:hr>
</gpxtpx:TrackPointExtension>
</extensions>
</trkpt>
<trkpt lat="33.0078378" lon="35.2206479">
<ele>374.91</ele>
<time>2023-10-14T05:41:16.273Z</time>
<extensions>
<gpxtpx:TrackPointExtension>
<gpxtpx:hr>140</gpxtpx:hr>
</gpxtpx:TrackPointExtension>
</extensions>
</trkpt>
<trkpt lat="33.0078816" lon="35.2204083">
<ele>373.51</ele>
<time>2023-10-14T05:41:20.264Z</time>
<extensions>
<gpxtpx:TrackPointExtension>
<gpxtpx:hr>140</gpxtpx:hr>
</gpxtpx:TrackPointExtension>
</extensions>
</trkpt>
<trkpt lat="33.0078718" lon="35.2201689">
<ele>372.30</ele>
<time>2023-10-14T05:41:23.268Z</time>
<extensions>
<gpxtpx:TrackPointExtension>
<gpxtpx:hr>140</gpxtpx:hr>
</gpxtpx:TrackPointExtension>
</extensions>
</trkpt>
<trkpt lat="33.0078844" lon="35.2199168">
<ele>370.95</ele>
<time>2023-10-14T05:41:26.271Z</time>
<extensions>
<gpxtpx:TrackPointExtension>
<gpxtpx:hr>139</gpxtpx:hr>
</gpxtpx:TrackPointExtension>
</extensions>
</trkpt>
<trkpt lat="33.0078913" lon="35.2196459">
<ele>369.59</ele>
<time>2023-10-14T05:41:29.265Z</time>
<extensions>
<gpxtpx:TrackPointExtension>
<gpxtpx:hr>138</gpxtpx:hr>
</gpxtpx:TrackPointExtension>
</extensions>
</trkpt>
<trkpt lat="33.0078767" lon="35.2194057">
<ele>368.43</ele>
<time>2023-10-14T05:41:32.269Z</time>
<extensions>
<gpxtpx:TrackPointExtension>
<gpxtpx:hr>138</gpxtpx:hr>
</gpxtpx:TrackPointExtension>
</extensions>
</trkpt>
<trkpt lat="33.0078815" lon="35.2191771">
<ele>367.29</ele>
<time>2023-10-14T05:41:35.269Z</time>
<extensions>
<gpxtpx:TrackPointExtension>
<gpxtpx:hr>137</gpxtpx:hr>
</gpxtpx:TrackPointExtension>
</extensions>
</trkpt>
<trkpt lat="33.0077661" lon="35.2190050">
<ele>366.51</ele>
<time>2023-10-14T05:41:41.268Z</time>
<extensions>
<gpxtpx:TrackPointExtension>
<gpxtpx:hr>133</gpxtpx:hr>
</gpxtpx:TrackPointExtension>
</extensions>
</trkpt>
<trkpt lat="33.0075918" lon="35.2190667">
<ele>367.25</ele>
<time>2023-10-14T05:41:50.269Z</time>
<extensions>
<gpxtpx:TrackPointExtension>
<gpxtpx:hr>130</gpxtpx:hr>
</gpxtpx:TrackPointExtension>
</extensions>
</trkpt>
<trkpt lat="33.0074078" lon="35.2189996">
<ele>367.49</ele>
<time>2023-10-14T05:41:59.268Z</time>
<extensions>
<gpxtpx:TrackPointExtension>
<gpxtpx:hr>129</gpxtpx:hr>
</gpxtpx:TrackPointExtension>
</extensions>
</trkpt>
<trkpt lat="33.0072355" lon="35.2188882">
<ele>367.58</ele>
<time>2023-10-14T05:42:06.267Z</time>
<extensions>
<gpxtpx:TrackPointExtension>
<gpxtpx:hr>129</gpxtpx:hr>
</gpxtpx:TrackPointExtension>
</extensions>
</trkpt>
<trkpt lat="33.0070448" lon="35.2188814">
<ele>368.24</ele>
<time>2023-10-14T05:42:12.273Z</time>
<extensions>
<gpxtpx:TrackPointExtension>
<gpxtpx:hr>130</gpxtpx:hr>
</gpxtpx:TrackPointExtension>
</extensions>
</trkpt>
<trkpt lat="33.0068633" lon="35.2188323">
<ele>368.82</ele>
<time>2023-10-14T05:42:20.268Z</time>
<extensions>
<gpxtpx:TrackPointExtension>
<gpxtpx:hr>131</gpxtpx:hr>
</gpxtpx:TrackPointExtension>
</extensions>
</trkpt>
<trkpt lat="33.0068776" lon="35.2185977">
<ele>368.35</ele>
<time>2023-10-14T05:42:27.268Z</time>
<extensions>
<gpxtpx:TrackPointExtension>
<gpxtpx:hr>129</gpxtpx:hr>
</gpxtpx:TrackPointExtension>
</extensions>
</trkpt>
<trkpt lat="33.0068343" lon="35.2183759">
<ele>368.05</ele>
<time>2023-10-14T05:42:33.273Z</time>
<extensions>
<gpxtpx:TrackPointExtension>
<gpxtpx:hr>128</gpxtpx:hr>
</gpxtpx:TrackPointExtension>
</extensions>
</trkpt>
<trkpt lat="33.0066547" lon="35.2182488">
<ele>368.36</ele>
<time>2023-10-14T05:42:38.271Z</time>
<extensions>
<gpxtpx:TrackPointExtension>
<gpxtpx:hr>125</gpxtpx:hr>
</gpxtpx:TrackPointExtension>
</extensions>
</trkpt>
<trkpt lat="33.0064515" lon="35.2181653">
<ele>367.74</ele>
<time>2023-10-14T05:42:44.271Z</time>
<extensions>
<gpxtpx:TrackPointExtension>
<gpxtpx:hr>123</gpxtpx:hr>
</gpxtpx:TrackPointExtension>
</extensions>
</trkpt>
<trkpt lat="33.0062792" lon="35.2180700">
<ele>367.15</ele>
<time>2023-10-14T05:42:49.278Z</time>
<extensions>
<gpxtpx:TrackPointExtension>
<gpxtpx:hr>122</gpxtpx:hr>
</gpxtpx:TrackPointExtension>
</extensions>
</trkpt>
<trkpt lat="33.0061452" lon="35.2178810">
<ele>366.21</ele>
<time>2023-10-14T05:42:54.269Z</time>
<extensions>
<gpxtpx:TrackPointExtension>
<gpxtpx:hr>118</gpxtpx:hr>
</gpxtpx:TrackPointExtension>
</extensions>
</trkpt>
<trkpt lat="33.0060544" lon="35.2176788">
<ele>365.38</ele>
<time>2023-10-14T05:42:58.276Z</time>
<extensions>
<gpxtpx:TrackPointExtension>
<gpxtpx:hr>117</gpxtpx:hr>
</gpxtpx:TrackPointExtension>
</extensions>
</trkpt>
<trkpt lat="33.0059174" lon="35.2174762">
<ele>364.73</ele>
<time>2023-10-14T05:43:02.272Z</time>
<extensions>
<gpxtpx:TrackPointExtension>
<gpxtpx:hr>115</gpxtpx:hr>
</gpxtpx:TrackPointExtension>
</extensions>
</trkpt>
<trkpt lat="33.0057361" lon="35.2173259">
<ele>363.86</ele>
<time>2023-10-14T05:43:06.268Z</time>
<extensions>
<gpxtpx:TrackPointExtension>
<gpxtpx:hr>116</gpxtpx:hr>
</gpxtpx:TrackPointExtension>
</extensions>
</trkpt>
<trkpt lat="33.0055515" lon="35.2173124">
<ele>362.95</ele>
<time>2023-10-14T05:43:09.274Z</time>
<extensions>
<gpxtpx:TrackPointExtension>
<gpxtpx:hr>115</gpxtpx:hr>
</gpxtpx:TrackPointExtension>
</extensions>
</trkpt>
<trkpt lat="33.0053575" lon="35.2172224">
<ele>361.68</ele>
<time>2023-10-14T05:43:14.274Z</time>
<extensions>
<gpxtpx:TrackPointExtension>
<gpxtpx:hr>111</gpxtpx:hr>
</gpxtpx:TrackPointExtension>
</extensions>
</trkpt>
<trkpt lat="33.0054164" lon="35.2170161">
<ele>361.03</ele>
<time>2023-10-14T05:43:18.270Z</time>
<extensions>
<gpxtpx:TrackPointExtension>
<gpxtpx:hr>110</gpxtpx:hr>
</gpxtpx:TrackPointExtension>
</extensions>
</trkpt>
<trkpt lat="33.0054910" lon="35.2167536">
<ele>360.24</ele>
<time>2023-10-14T05:43:22.269Z</time>
<extensions>
<gpxtpx:TrackPointExtension>
<gpxtpx:hr>110</gpxtpx:hr>
</gpxtpx:TrackPointExtension>
</extensions>
</trkpt>
<trkpt lat="33.0055104" lon="35.2164677">
<ele>358.96</ele>
<time>2023-10-14T05:43:26.269Z</time>
<extensions>
<gpxtpx:TrackPointExtension>
<gpxtpx:hr>111</gpxtpx:hr>
</gpxtpx:TrackPointExtension>
</extensions>
</trkpt>
<trkpt lat="33.0055012" lon="35.2162132">
<ele>357.61</ele>
<time>2023-10-14T05:43:29.273Z</time>
<extensions>
<gpxtpx:TrackPointExtension>
<gpxtpx:hr>109</gpxtpx:hr>
</gpxtpx:TrackPointExtension>
</extensions>
</trkpt>
<trkpt lat="33.0054834" lon="35.2159816">
<ele>356.29</ele>
<time>2023-10-14T05:43:32.272Z</time>
<extensions>
<gpxtpx:TrackPointExtension>
<gpxtpx:hr>108</gpxtpx:hr>
</gpxtpx:TrackPointExtension>
</extensions>
</trkpt>
<trkpt lat="33.0054721" lon="35.2157086">
<ele>354.53</ele>
<time>2023-10-14T05:43:36.267Z</time>
<extensions>
<gpxtpx:TrackPointExtension>
<gpxtpx:hr>107</gpxtpx:hr>
</gpxtpx:TrackPointExtension>
</extensions>
</trkpt>
<trkpt lat="33.0055437" lon="35.2155013">
<ele>353.19</ele>
<time>2023-10-14T05:43:40.270Z</time>
<extensions>
<gpxtpx:TrackPointExtension>
<gpxtpx:hr>105</gpxtpx:hr>
</gpxtpx:TrackPointExtension>
</extensions>
</trkpt>
<trkpt lat="33.0053746" lon="35.2154120">
<ele>351.84</ele>
<time>2023-10-14T05:43:48.271Z</time>
<extensions>
<gpxtpx:TrackPointExtension>
<gpxtpx:hr>106</gpxtpx:hr>
</gpxtpx:TrackPointExtension>
</extensions>
</trkpt>
<trkpt lat="33.0052149" lon="35.2155649">
<ele>352.20</ele>
<time>2023-10-14T05:43:54.261Z</time>
<extensions>
<gpxtpx:TrackPointExtension>
<gpxtpx:hr>102</gpxtpx:hr>
</gpxtpx:TrackPointExtension>
</extensions>
</trkpt>
<trkpt lat="33.0049824" lon="35.2155470">
<ele>351.16</ele>
<time>2023-10-14T05:44:13.265Z</time>
<extensions>
<gpxtpx:TrackPointExtension>
<gpxtpx:hr>105</gpxtpx:hr>
</gpxtpx:TrackPointExtension>
</extensions>
</trkpt>
<trkpt lat="33.0047462" lon="35.2156753">
<ele>349.17</ele>
<time>2023-10-14T05:44:16.271Z</time>
<extensions>
<gpxtpx:TrackPointExtension>
<gpxtpx:hr>105</gpxtpx:hr>
</gpxtpx:TrackPointExtension>
</extensions>
</trkpt>
<trkpt lat="33.0045724" lon="35.2158768">
<ele>348.19</ele>
<time>2023-10-14T05:44:19.268Z</time>
<extensions>
<gpxtpx:TrackPointExtension>
<gpxtpx:hr>107</gpxtpx:hr>
</gpxtpx:TrackPointExtension>
</extensions>
</trkpt>
<trkpt lat="33.0044089" lon="35.2160910">
<ele>347.58</ele>
<time>2023-10-14T05:44:22.264Z</time>
<extensions>
<gpxtpx:TrackPointExtension>
<gpxtpx:hr>108</gpxtpx:hr>
</gpxtpx:TrackPointExtension>
</extensions>
</trkpt>
</trkseg>
</trk>
</gpx>
