<?xml version="1.0" encoding="UTF-8" standalone="no" ?>
<gpx xmlns="http://www.topografix.com/GPX/1/1" creator="OruxMaps v.10.5.0 GP" version="1.1" xmlns:gpxtpx="http://www.garmin.com/xmlschemas/TrackPointExtension/v2" xmlns:xsi="http://www.w3.org/2001/XMLSchema-instance" xmlns:om="http://www.oruxmaps.com/oruxmapsextensions/1/0" xsi:schemaLocation="http://www.topografix.com/GPX/1/1 http://www.topografix.com/GPX/1/1/gpx.xsd">
<!-- owner: 4cd85a9e434039 -->
<metadata>
<name><![CDATA[2023-11-29 13:03:10]]></name>
<link href="https://www.oruxmaps.com">
<text>OruxMaps GP</text>
</link>
<time>2023-11-29T11:03:10.844Z</time><bounds maxlat="33.8182572" maxlon="35.4908039" minlat="33.0050362" minlon="35.1847649"/>
</metadata>
<trk>
<name><![CDATA[2023-11-29 13:03:10]]></name>
<desc><![CDATA[<p>Type: Mountain biking<br/>Start time: 13:03 Nov 29, 2023<br/>Finish time: 14:06 Nov 29, 2023<br/>Distance: 98.7 km (01:02)<br/>Moving time: 00:46<br/>Average speed: 94.29 km/h<br/>Avg. Speed Mov: 128.38 km/h<br/>Max. speed: 196.24 km/h<br/>Minimum altitude: 185 m<br/>Maximum altitude: 372 m<br/>Ascent speed: 374.5 m/h<br/>Descent speed: 194.8 m/h<br/>Elevation gain: 366 m<br/>Elevation loss: 10 m<br/>Ascent time: 00:58<br/>Descent time: 00:03<br/>Min. HRM: 72<br/>Max. HRM: 156<br/>Avg. HRM: 142<br/>Calories: 729<br/></p><hr align="center" width="480" style="height: 2px; width: 517px"/>]]></desc>
<type>Mountain biking</type>
<extensions>
<om:oruxmapsextensions>
<om:ext type="TYPE" subtype="0">6</om:ext>
<om:ext type="DIFFICULTY">0</om:ext>
</om:oruxmapsextensions>
</extensions>
<trkseg>
<trkpt lat="33.8182572" lon="35.4908039">
<ele>3.32</ele>
<time>2023-11-29T11:03:10.889Z</time>
<extensions>
<gpxtpx:TrackPointExtension>
<gpxtpx:hr>72</gpxtpx:hr>
</gpxtpx:TrackPointExtension>
</extensions>
</trkpt>
<trkpt lat="33.0102907" lon="35.1847649">
<ele>134.06</ele>
<time>2023-11-29T11:31:54.883Z</time>
<extensions>
<gpxtpx:TrackPointExtension>
<gpxtpx:hr>127</gpxtpx:hr>
</gpxtpx:TrackPointExtension>
</extensions>
</trkpt>
<trkpt lat="33.0101394" lon="35.1849028">
<ele>190.84</ele>
<time>2023-11-29T11:31:59.891Z</time>
<extensions>
<gpxtpx:TrackPointExtension>
<gpxtpx:hr>126</gpxtpx:hr>
</gpxtpx:TrackPointExtension>
</extensions>
</trkpt>
<trkpt lat="33.0101191" lon="35.1851363">
<ele>190.23</ele>
<time>2023-11-29T11:32:08.890Z</time>
<extensions>
<gpxtpx:TrackPointExtension>
<gpxtpx:hr>125</gpxtpx:hr>
</gpxtpx:TrackPointExtension>
</extensions>
</trkpt>
<trkpt lat="33.0100589" lon="35.1853649">
<ele>190.13</ele>
<time>2023-11-29T11:32:17.889Z</time>
<extensions>
<gpxtpx:TrackPointExtension>
<gpxtpx:hr>125</gpxtpx:hr>
</gpxtpx:TrackPointExtension>
</extensions>
</trkpt>
<trkpt lat="33.0099900" lon="35.1855680">
<ele>190.09</ele>
<time>2023-11-29T11:32:25.888Z</time>
<extensions>
<gpxtpx:TrackPointExtension>
<gpxtpx:hr>127</gpxtpx:hr>
</gpxtpx:TrackPointExtension>
</extensions>
</trkpt>
<trkpt lat="33.0098619" lon="35.1857400">
<ele>191.63</ele>
<time>2023-11-29T11:32:35.890Z</time>
<extensions>
<gpxtpx:TrackPointExtension>
<gpxtpx:hr>129</gpxtpx:hr>
</gpxtpx:TrackPointExtension>
</extensions>
</trkpt>
<trkpt lat="33.0097353" lon="35.1859152">
<ele>193.38</ele>
<time>2023-11-29T11:32:47.892Z</time>
<extensions>
<gpxtpx:TrackPointExtension>
<gpxtpx:hr>131</gpxtpx:hr>
</gpxtpx:TrackPointExtension>
</extensions>
</trkpt>
<trkpt lat="33.0096162" lon="35.1860820">
<ele>195.37</ele>
<time>2023-11-29T11:32:58.888Z</time>
<extensions>
<gpxtpx:TrackPointExtension>
<gpxtpx:hr>136</gpxtpx:hr>
</gpxtpx:TrackPointExtension>
</extensions>
</trkpt>
<trkpt lat="33.0095028" lon="35.1862512">
<ele>197.28</ele>
<time>2023-11-29T11:33:10.893Z</time>
<extensions>
<gpxtpx:TrackPointExtension>
<gpxtpx:hr>142</gpxtpx:hr>
</gpxtpx:TrackPointExtension>
</extensions>
</trkpt>
<trkpt lat="33.0094185" lon="35.1864411">
<ele>198.72</ele>
<time>2023-11-29T11:33:23.895Z</time>
<extensions>
<gpxtpx:TrackPointExtension>
<gpxtpx:hr>145</gpxtpx:hr>
</gpxtpx:TrackPointExtension>
</extensions>
</trkpt>
<trkpt lat="33.0093408" lon="35.1866489">
<ele>200.03</ele>
<time>2023-11-29T11:33:36.892Z</time>
<extensions>
<gpxtpx:TrackPointExtension>
<gpxtpx:hr>146</gpxtpx:hr>
</gpxtpx:TrackPointExtension>
</extensions>
</trkpt>
<trkpt lat="33.0092475" lon="35.1868421">
<ele>202.38</ele>
<time>2023-11-29T11:33:48.895Z</time>
<extensions>
<gpxtpx:TrackPointExtension>
<gpxtpx:hr>146</gpxtpx:hr>
</gpxtpx:TrackPointExtension>
</extensions>
</trkpt>
<trkpt lat="33.0091866" lon="35.1870452">
<ele>204.44</ele>
<time>2023-11-29T11:34:01.895Z</time>
<extensions>
<gpxtpx:TrackPointExtension>
<gpxtpx:hr>147</gpxtpx:hr>
</gpxtpx:TrackPointExtension>
</extensions>
</trkpt>
<trkpt lat="33.0091744" lon="35.1872703">
<ele>205.72</ele>
<time>2023-11-29T11:34:15.896Z</time>
<extensions>
<gpxtpx:TrackPointExtension>
<gpxtpx:hr>149</gpxtpx:hr>
</gpxtpx:TrackPointExtension>
</extensions>
</trkpt>
<trkpt lat="33.0091515" lon="35.1874840">
<ele>207.10</ele>
<time>2023-11-29T11:34:29.890Z</time>
<extensions>
<gpxtpx:TrackPointExtension>
<gpxtpx:hr>149</gpxtpx:hr>
</gpxtpx:TrackPointExtension>
</extensions>
</trkpt>
<trkpt lat="33.0091318" lon="35.1877061">
<ele>208.86</ele>
<time>2023-11-29T11:34:41.893Z</time>
<extensions>
<gpxtpx:TrackPointExtension>
<gpxtpx:hr>150</gpxtpx:hr>
</gpxtpx:TrackPointExtension>
</extensions>
</trkpt>
<trkpt lat="33.0090591" lon="35.1879185">
<ele>211.29</ele>
<time>2023-11-29T11:34:55.893Z</time>
<extensions>
<gpxtpx:TrackPointExtension>
<gpxtpx:hr>151</gpxtpx:hr>
</gpxtpx:TrackPointExtension>
</extensions>
</trkpt>
<trkpt lat="33.0090404" lon="35.1881357">
<ele>213.07</ele>
<time>2023-11-29T11:35:08.889Z</time>
<extensions>
<gpxtpx:TrackPointExtension>
<gpxtpx:hr>153</gpxtpx:hr>
</gpxtpx:TrackPointExtension>
</extensions>
</trkpt>
<trkpt lat="33.0089891" lon="35.1883431">
<ele>215.12</ele>
<time>2023-11-29T11:35:22.888Z</time>
<extensions>
<gpxtpx:TrackPointExtension>
<gpxtpx:hr>155</gpxtpx:hr>
</gpxtpx:TrackPointExtension>
</extensions>
</trkpt>
<trkpt lat="33.0089562" lon="35.1885658">
<ele>216.80</ele>
<time>2023-11-29T11:35:36.897Z</time>
<extensions>
<gpxtpx:TrackPointExtension>
<gpxtpx:hr>154</gpxtpx:hr>
</gpxtpx:TrackPointExtension>
</extensions>
</trkpt>
<trkpt lat="33.0089364" lon="35.1887947">
<ele>218.33</ele>
<time>2023-11-29T11:35:50.884Z</time>
<extensions>
<gpxtpx:TrackPointExtension>
<gpxtpx:hr>154</gpxtpx:hr>
</gpxtpx:TrackPointExtension>
</extensions>
</trkpt>
<trkpt lat="33.0088682" lon="35.1889963">
<ele>220.21</ele>
<time>2023-11-29T11:36:02.898Z</time>
<extensions>
<gpxtpx:TrackPointExtension>
<gpxtpx:hr>152</gpxtpx:hr>
</gpxtpx:TrackPointExtension>
</extensions>
</trkpt>
<trkpt lat="33.0088208" lon="35.1892094">
<ele>221.82</ele>
<time>2023-11-29T11:36:16.901Z</time>
<extensions>
<gpxtpx:TrackPointExtension>
<gpxtpx:hr>151</gpxtpx:hr>
</gpxtpx:TrackPointExtension>
</extensions>
</trkpt>
<trkpt lat="33.0087687" lon="35.1894291">
<ele>222.92</ele>
<time>2023-11-29T11:36:28.894Z</time>
<extensions>
<gpxtpx:TrackPointExtension>
<gpxtpx:hr>149</gpxtpx:hr>
</gpxtpx:TrackPointExtension>
</extensions>
</trkpt>
<trkpt lat="33.0087340" lon="35.1896419">
<ele>223.77</ele>
<time>2023-11-29T11:36:39.890Z</time>
<extensions>
<gpxtpx:TrackPointExtension>
<gpxtpx:hr>147</gpxtpx:hr>
</gpxtpx:TrackPointExtension>
</extensions>
</trkpt>
<trkpt lat="33.0087353" lon="35.1898747">
<ele>224.30</ele>
<time>2023-11-29T11:36:51.905Z</time>
<extensions>
<gpxtpx:TrackPointExtension>
<gpxtpx:hr>145</gpxtpx:hr>
</gpxtpx:TrackPointExtension>
</extensions>
</trkpt>
<trkpt lat="33.0086975" lon="35.1900848">
<ele>224.99</ele>
<time>2023-11-29T11:37:01.902Z</time>
<extensions>
<gpxtpx:TrackPointExtension>
<gpxtpx:hr>144</gpxtpx:hr>
</gpxtpx:TrackPointExtension>
</extensions>
</trkpt>
<trkpt lat="33.0086637" lon="35.1903058">
<ele>225.42</ele>
<time>2023-11-29T11:37:11.893Z</time>
<extensions>
<gpxtpx:TrackPointExtension>
<gpxtpx:hr>144</gpxtpx:hr>
</gpxtpx:TrackPointExtension>
</extensions>
</trkpt>
<trkpt lat="33.0086220" lon="35.1905330">
<ele>225.99</ele>
<time>2023-11-29T11:37:22.894Z</time>
<extensions>
<gpxtpx:TrackPointExtension>
<gpxtpx:hr>142</gpxtpx:hr>
</gpxtpx:TrackPointExtension>
</extensions>
</trkpt>
<trkpt lat="33.0085604" lon="35.1907466">
<ele>226.69</ele>
<time>2023-11-29T11:37:33.896Z</time>
<extensions>
<gpxtpx:TrackPointExtension>
<gpxtpx:hr>140</gpxtpx:hr>
</gpxtpx:TrackPointExtension>
</extensions>
</trkpt>
<trkpt lat="33.0085372" lon="35.1909623">
<ele>227.83</ele>
<time>2023-11-29T11:37:43.896Z</time>
<extensions>
<gpxtpx:TrackPointExtension>
<gpxtpx:hr>139</gpxtpx:hr>
</gpxtpx:TrackPointExtension>
</extensions>
</trkpt>
<trkpt lat="33.0085117" lon="35.1911886">
<ele>229.60</ele>
<time>2023-11-29T11:37:54.897Z</time>
<extensions>
<gpxtpx:TrackPointExtension>
<gpxtpx:hr>137</gpxtpx:hr>
</gpxtpx:TrackPointExtension>
</extensions>
</trkpt>
<trkpt lat="33.0084879" lon="35.1914096">
<ele>231.33</ele>
<time>2023-11-29T11:38:04.896Z</time>
<extensions>
<gpxtpx:TrackPointExtension>
<gpxtpx:hr>136</gpxtpx:hr>
</gpxtpx:TrackPointExtension>
</extensions>
</trkpt>
<trkpt lat="33.0084211" lon="35.1916156">
<ele>233.50</ele>
<time>2023-11-29T11:38:14.884Z</time>
<extensions>
<gpxtpx:TrackPointExtension>
<gpxtpx:hr>135</gpxtpx:hr>
</gpxtpx:TrackPointExtension>
</extensions>
</trkpt>
<trkpt lat="33.0083788" lon="35.1918265">
<ele>235.01</ele>
<time>2023-11-29T11:38:24.884Z</time>
<extensions>
<gpxtpx:TrackPointExtension>
<gpxtpx:hr>135</gpxtpx:hr>
</gpxtpx:TrackPointExtension>
</extensions>
</trkpt>
<trkpt lat="33.0083823" lon="35.1920553">
<ele>235.84</ele>
<time>2023-11-29T11:38:35.895Z</time>
<extensions>
<gpxtpx:TrackPointExtension>
<gpxtpx:hr>133</gpxtpx:hr>
</gpxtpx:TrackPointExtension>
</extensions>
</trkpt>
<trkpt lat="33.0083681" lon="35.1922708">
<ele>236.79</ele>
<time>2023-11-29T11:38:45.891Z</time>
<extensions>
<gpxtpx:TrackPointExtension>
<gpxtpx:hr>134</gpxtpx:hr>
</gpxtpx:TrackPointExtension>
</extensions>
</trkpt>
<trkpt lat="33.0083905" lon="35.1924887">
<ele>237.39</ele>
<time>2023-11-29T11:38:56.891Z</time>
<extensions>
<gpxtpx:TrackPointExtension>
<gpxtpx:hr>136</gpxtpx:hr>
</gpxtpx:TrackPointExtension>
</extensions>
</trkpt>
<trkpt lat="33.0083895" lon="35.1927132">
<ele>238.52</ele>
<time>2023-11-29T11:39:07.888Z</time>
<extensions>
<gpxtpx:TrackPointExtension>
<gpxtpx:hr>138</gpxtpx:hr>
</gpxtpx:TrackPointExtension>
</extensions>
</trkpt>
<trkpt lat="33.0084380" lon="35.1929220">
<ele>239.24</ele>
<time>2023-11-29T11:39:18.898Z</time>
<extensions>
<gpxtpx:TrackPointExtension>
<gpxtpx:hr>138</gpxtpx:hr>
</gpxtpx:TrackPointExtension>
</extensions>
</trkpt>
<trkpt lat="33.0084842" lon="35.1931339">
<ele>240.11</ele>
<time>2023-11-29T11:39:29.906Z</time>
<extensions>
<gpxtpx:TrackPointExtension>
<gpxtpx:hr>139</gpxtpx:hr>
</gpxtpx:TrackPointExtension>
</extensions>
</trkpt>
<trkpt lat="33.0085150" lon="35.1933469">
<ele>241.15</ele>
<time>2023-11-29T11:39:39.901Z</time>
<extensions>
<gpxtpx:TrackPointExtension>
<gpxtpx:hr>138</gpxtpx:hr>
</gpxtpx:TrackPointExtension>
</extensions>
</trkpt>
<trkpt lat="33.0085488" lon="35.1935677">
<ele>242.20</ele>
<time>2023-11-29T11:39:50.895Z</time>
<extensions>
<gpxtpx:TrackPointExtension>
<gpxtpx:hr>138</gpxtpx:hr>
</gpxtpx:TrackPointExtension>
</extensions>
</trkpt>
<trkpt lat="33.0085638" lon="35.1937935">
<ele>243.36</ele>
<time>2023-11-29T11:40:02.890Z</time>
<extensions>
<gpxtpx:TrackPointExtension>
<gpxtpx:hr>136</gpxtpx:hr>
</gpxtpx:TrackPointExtension>
</extensions>
</trkpt>
<trkpt lat="33.0085860" lon="35.1940177">
<ele>244.53</ele>
<time>2023-11-29T11:40:13.891Z</time>
<extensions>
<gpxtpx:TrackPointExtension>
<gpxtpx:hr>137</gpxtpx:hr>
</gpxtpx:TrackPointExtension>
</extensions>
</trkpt>
<trkpt lat="33.0086397" lon="35.1942386">
<ele>245.78</ele>
<time>2023-11-29T11:40:25.887Z</time>
<extensions>
<gpxtpx:TrackPointExtension>
<gpxtpx:hr>138</gpxtpx:hr>
</gpxtpx:TrackPointExtension>
</extensions>
</trkpt>
<trkpt lat="33.0087084" lon="35.1944536">
<ele>247.30</ele>
<time>2023-11-29T11:40:37.894Z</time>
<extensions>
<gpxtpx:TrackPointExtension>
<gpxtpx:hr>138</gpxtpx:hr>
</gpxtpx:TrackPointExtension>
</extensions>
</trkpt>
<trkpt lat="33.0088056" lon="35.1946417">
<ele>248.49</ele>
<time>2023-11-29T11:40:49.893Z</time>
<extensions>
<gpxtpx:TrackPointExtension>
<gpxtpx:hr>139</gpxtpx:hr>
</gpxtpx:TrackPointExtension>
</extensions>
</trkpt>
<trkpt lat="33.0089136" lon="35.1948158">
<ele>249.48</ele>
<time>2023-11-29T11:41:00.890Z</time>
<extensions>
<gpxtpx:TrackPointExtension>
<gpxtpx:hr>140</gpxtpx:hr>
</gpxtpx:TrackPointExtension>
</extensions>
</trkpt>
<trkpt lat="33.0090116" lon="35.1950010">
<ele>250.51</ele>
<time>2023-11-29T11:41:11.898Z</time>
<extensions>
<gpxtpx:TrackPointExtension>
<gpxtpx:hr>140</gpxtpx:hr>
</gpxtpx:TrackPointExtension>
</extensions>
</trkpt>
<trkpt lat="33.0090715" lon="35.1952050">
<ele>251.75</ele>
<time>2023-11-29T11:41:22.903Z</time>
<extensions>
<gpxtpx:TrackPointExtension>
<gpxtpx:hr>143</gpxtpx:hr>
</gpxtpx:TrackPointExtension>
</extensions>
</trkpt>
<trkpt lat="33.0091468" lon="35.1954066">
<ele>252.94</ele>
<time>2023-11-29T11:41:33.887Z</time>
<extensions>
<gpxtpx:TrackPointExtension>
<gpxtpx:hr>143</gpxtpx:hr>
</gpxtpx:TrackPointExtension>
</extensions>
</trkpt>
<trkpt lat="33.0092278" lon="35.1956181">
<ele>253.96</ele>
<time>2023-11-29T11:41:44.888Z</time>
<extensions>
<gpxtpx:TrackPointExtension>
<gpxtpx:hr>144</gpxtpx:hr>
</gpxtpx:TrackPointExtension>
</extensions>
</trkpt>
<trkpt lat="33.0093025" lon="35.1958277">
<ele>254.95</ele>
<time>2023-11-29T11:41:55.889Z</time>
<extensions>
<gpxtpx:TrackPointExtension>
<gpxtpx:hr>144</gpxtpx:hr>
</gpxtpx:TrackPointExtension>
</extensions>
</trkpt>
<trkpt lat="33.0093576" lon="35.1960369">
<ele>255.69</ele>
<time>2023-11-29T11:42:06.892Z</time>
<extensions>
<gpxtpx:TrackPointExtension>
<gpxtpx:hr>144</gpxtpx:hr>
</gpxtpx:TrackPointExtension>
</extensions>
</trkpt>
<trkpt lat="33.0094289" lon="35.1962441">
<ele>256.36</ele>
<time>2023-11-29T11:42:17.890Z</time>
<extensions>
<gpxtpx:TrackPointExtension>
<gpxtpx:hr>145</gpxtpx:hr>
</gpxtpx:TrackPointExtension>
</extensions>
</trkpt>
<trkpt lat="33.0094817" lon="35.1964633">
<ele>257.29</ele>
<time>2023-11-29T11:42:28.897Z</time>
<extensions>
<gpxtpx:TrackPointExtension>
<gpxtpx:hr>145</gpxtpx:hr>
</gpxtpx:TrackPointExtension>
</extensions>
</trkpt>
<trkpt lat="33.0095248" lon="35.1966873">
<ele>258.37</ele>
<time>2023-11-29T11:42:39.895Z</time>
<extensions>
<gpxtpx:TrackPointExtension>
<gpxtpx:hr>144</gpxtpx:hr>
</gpxtpx:TrackPointExtension>
</extensions>
</trkpt>
<trkpt lat="33.0095863" lon="35.1968931">
<ele>259.58</ele>
<time>2023-11-29T11:42:50.897Z</time>
<extensions>
<gpxtpx:TrackPointExtension>
<gpxtpx:hr>145</gpxtpx:hr>
</gpxtpx:TrackPointExtension>
</extensions>
</trkpt>
<trkpt lat="33.0096251" lon="35.1971035">
<ele>260.89</ele>
<time>2023-11-29T11:43:01.899Z</time>
<extensions>
<gpxtpx:TrackPointExtension>
<gpxtpx:hr>144</gpxtpx:hr>
</gpxtpx:TrackPointExtension>
</extensions>
</trkpt>
<trkpt lat="33.0096340" lon="35.1973180">
<ele>262.38</ele>
<time>2023-11-29T11:43:12.895Z</time>
<extensions>
<gpxtpx:TrackPointExtension>
<gpxtpx:hr>143</gpxtpx:hr>
</gpxtpx:TrackPointExtension>
</extensions>
</trkpt>
<trkpt lat="33.0096205" lon="35.1975507">
<ele>264.10</ele>
<time>2023-11-29T11:43:24.897Z</time>
<extensions>
<gpxtpx:TrackPointExtension>
<gpxtpx:hr>143</gpxtpx:hr>
</gpxtpx:TrackPointExtension>
</extensions>
</trkpt>
<trkpt lat="33.0095701" lon="35.1977701">
<ele>265.79</ele>
<time>2023-11-29T11:43:35.894Z</time>
<extensions>
<gpxtpx:TrackPointExtension>
<gpxtpx:hr>143</gpxtpx:hr>
</gpxtpx:TrackPointExtension>
</extensions>
</trkpt>
<trkpt lat="33.0095501" lon="35.1979914">
<ele>267.37</ele>
<time>2023-11-29T11:43:47.894Z</time>
<extensions>
<gpxtpx:TrackPointExtension>
<gpxtpx:hr>146</gpxtpx:hr>
</gpxtpx:TrackPointExtension>
</extensions>
</trkpt>
<trkpt lat="33.0095459" lon="35.1982214">
<ele>268.93</ele>
<time>2023-11-29T11:43:59.893Z</time>
<extensions>
<gpxtpx:TrackPointExtension>
<gpxtpx:hr>146</gpxtpx:hr>
</gpxtpx:TrackPointExtension>
</extensions>
</trkpt>
<trkpt lat="33.0095455" lon="35.1984512">
<ele>270.06</ele>
<time>2023-11-29T11:44:10.889Z</time>
<extensions>
<gpxtpx:TrackPointExtension>
<gpxtpx:hr>146</gpxtpx:hr>
</gpxtpx:TrackPointExtension>
</extensions>
</trkpt>
<trkpt lat="33.0094955" lon="35.1986589">
<ele>271.00</ele>
<time>2023-11-29T11:44:21.900Z</time>
<extensions>
<gpxtpx:TrackPointExtension>
<gpxtpx:hr>146</gpxtpx:hr>
</gpxtpx:TrackPointExtension>
</extensions>
</trkpt>
<trkpt lat="33.0094117" lon="35.1988574">
<ele>272.19</ele>
<time>2023-11-29T11:44:32.895Z</time>
<extensions>
<gpxtpx:TrackPointExtension>
<gpxtpx:hr>147</gpxtpx:hr>
</gpxtpx:TrackPointExtension>
</extensions>
</trkpt>
<trkpt lat="33.0093423" lon="35.1990558">
<ele>273.32</ele>
<time>2023-11-29T11:44:42.896Z</time>
<extensions>
<gpxtpx:TrackPointExtension>
<gpxtpx:hr>147</gpxtpx:hr>
</gpxtpx:TrackPointExtension>
</extensions>
</trkpt>
<trkpt lat="33.0092967" lon="35.1992782">
<ele>274.11</ele>
<time>2023-11-29T11:44:55.893Z</time>
<extensions>
<gpxtpx:TrackPointExtension>
<gpxtpx:hr>146</gpxtpx:hr>
</gpxtpx:TrackPointExtension>
</extensions>
</trkpt>
<trkpt lat="33.0092172" lon="35.1994928">
<ele>274.89</ele>
<time>2023-11-29T11:45:05.885Z</time>
<extensions>
<gpxtpx:TrackPointExtension>
<gpxtpx:hr>145</gpxtpx:hr>
</gpxtpx:TrackPointExtension>
</extensions>
</trkpt>
<trkpt lat="33.0090829" lon="35.1996522">
<ele>275.79</ele>
<time>2023-11-29T11:45:14.888Z</time>
<extensions>
<gpxtpx:TrackPointExtension>
<gpxtpx:hr>144</gpxtpx:hr>
</gpxtpx:TrackPointExtension>
</extensions>
</trkpt>
<trkpt lat="33.0089529" lon="35.1998030">
<ele>276.51</ele>
<time>2023-11-29T11:45:24.891Z</time>
<extensions>
<gpxtpx:TrackPointExtension>
<gpxtpx:hr>144</gpxtpx:hr>
</gpxtpx:TrackPointExtension>
</extensions>
</trkpt>
<trkpt lat="33.0088372" lon="35.1999806">
<ele>277.49</ele>
<time>2023-11-29T11:45:35.893Z</time>
<extensions>
<gpxtpx:TrackPointExtension>
<gpxtpx:hr>144</gpxtpx:hr>
</gpxtpx:TrackPointExtension>
</extensions>
</trkpt>
<trkpt lat="33.0086440" lon="35.2000888">
<ele>278.56</ele>
<time>2023-11-29T11:45:44.886Z</time>
<extensions>
<gpxtpx:TrackPointExtension>
<gpxtpx:hr>143</gpxtpx:hr>
</gpxtpx:TrackPointExtension>
</extensions>
</trkpt>
<trkpt lat="33.0085094" lon="35.2002619">
<ele>279.59</ele>
<time>2023-11-29T11:45:52.892Z</time>
<extensions>
<gpxtpx:TrackPointExtension>
<gpxtpx:hr>143</gpxtpx:hr>
</gpxtpx:TrackPointExtension>
</extensions>
</trkpt>
<trkpt lat="33.0083840" lon="35.2004329">
<ele>280.68</ele>
<time>2023-11-29T11:46:01.889Z</time>
<extensions>
<gpxtpx:TrackPointExtension>
<gpxtpx:hr>143</gpxtpx:hr>
</gpxtpx:TrackPointExtension>
</extensions>
</trkpt>
<trkpt lat="33.0082403" lon="35.2005798">
<ele>280.93</ele>
<time>2023-11-29T11:46:10.891Z</time>
<extensions>
<gpxtpx:TrackPointExtension>
<gpxtpx:hr>142</gpxtpx:hr>
</gpxtpx:TrackPointExtension>
</extensions>
</trkpt>
<trkpt lat="33.0080975" lon="35.2007159">
<ele>280.57</ele>
<time>2023-11-29T11:46:18.888Z</time>
<extensions>
<gpxtpx:TrackPointExtension>
<gpxtpx:hr>141</gpxtpx:hr>
</gpxtpx:TrackPointExtension>
</extensions>
</trkpt>
<trkpt lat="33.0079492" lon="35.2008747">
<ele>280.26</ele>
<time>2023-11-29T11:46:25.889Z</time>
<extensions>
<gpxtpx:TrackPointExtension>
<gpxtpx:hr>140</gpxtpx:hr>
</gpxtpx:TrackPointExtension>
</extensions>
</trkpt>
<trkpt lat="33.0078181" lon="35.2010329">
<ele>280.17</ele>
<time>2023-11-29T11:46:32.883Z</time>
<extensions>
<gpxtpx:TrackPointExtension>
<gpxtpx:hr>140</gpxtpx:hr>
</gpxtpx:TrackPointExtension>
</extensions>
</trkpt>
<trkpt lat="33.0076620" lon="35.2011832">
<ele>280.36</ele>
<time>2023-11-29T11:46:39.891Z</time>
<extensions>
<gpxtpx:TrackPointExtension>
<gpxtpx:hr>139</gpxtpx:hr>
</gpxtpx:TrackPointExtension>
</extensions>
</trkpt>
<trkpt lat="33.0075200" lon="35.2013426">
<ele>281.01</ele>
<time>2023-11-29T11:46:46.895Z</time>
<extensions>
<gpxtpx:TrackPointExtension>
<gpxtpx:hr>139</gpxtpx:hr>
</gpxtpx:TrackPointExtension>
</extensions>
</trkpt>
<trkpt lat="33.0073734" lon="35.2014948">
<ele>281.61</ele>
<time>2023-11-29T11:46:53.892Z</time>
<extensions>
<gpxtpx:TrackPointExtension>
<gpxtpx:hr>138</gpxtpx:hr>
</gpxtpx:TrackPointExtension>
</extensions>
</trkpt>
<trkpt lat="33.0072330" lon="35.2016438">
<ele>282.18</ele>
<time>2023-11-29T11:47:00.887Z</time>
<extensions>
<gpxtpx:TrackPointExtension>
<gpxtpx:hr>136</gpxtpx:hr>
</gpxtpx:TrackPointExtension>
</extensions>
</trkpt>
<trkpt lat="33.0071119" lon="35.2018078">
<ele>282.85</ele>
<time>2023-11-29T11:47:07.891Z</time>
<extensions>
<gpxtpx:TrackPointExtension>
<gpxtpx:hr>136</gpxtpx:hr>
</gpxtpx:TrackPointExtension>
</extensions>
</trkpt>
<trkpt lat="33.0069802" lon="35.2019856">
<ele>283.71</ele>
<time>2023-11-29T11:47:14.897Z</time>
<extensions>
<gpxtpx:TrackPointExtension>
<gpxtpx:hr>134</gpxtpx:hr>
</gpxtpx:TrackPointExtension>
</extensions>
</trkpt>
<trkpt lat="33.0068567" lon="35.2021625">
<ele>284.69</ele>
<time>2023-11-29T11:47:22.893Z</time>
<extensions>
<gpxtpx:TrackPointExtension>
<gpxtpx:hr>134</gpxtpx:hr>
</gpxtpx:TrackPointExtension>
</extensions>
</trkpt>
<trkpt lat="33.0067377" lon="35.2023556">
<ele>285.93</ele>
<time>2023-11-29T11:47:31.890Z</time>
<extensions>
<gpxtpx:TrackPointExtension>
<gpxtpx:hr>134</gpxtpx:hr>
</gpxtpx:TrackPointExtension>
</extensions>
</trkpt>
<trkpt lat="33.0066810" lon="35.2025630">
<ele>287.19</ele>
<time>2023-11-29T11:47:40.888Z</time>
<extensions>
<gpxtpx:TrackPointExtension>
<gpxtpx:hr>134</gpxtpx:hr>
</gpxtpx:TrackPointExtension>
</extensions>
</trkpt>
<trkpt lat="33.0066206" lon="35.2027697">
<ele>287.83</ele>
<time>2023-11-29T11:47:49.884Z</time>
<extensions>
<gpxtpx:TrackPointExtension>
<gpxtpx:hr>136</gpxtpx:hr>
</gpxtpx:TrackPointExtension>
</extensions>
</trkpt>
<trkpt lat="33.0065710" lon="35.2029973">
<ele>288.62</ele>
<time>2023-11-29T11:47:59.892Z</time>
<extensions>
<gpxtpx:TrackPointExtension>
<gpxtpx:hr>139</gpxtpx:hr>
</gpxtpx:TrackPointExtension>
</extensions>
</trkpt>
<trkpt lat="33.0064096" lon="35.2031453">
<ele>289.08</ele>
<time>2023-11-29T11:48:06.886Z</time>
<extensions>
<gpxtpx:TrackPointExtension>
<gpxtpx:hr>141</gpxtpx:hr>
</gpxtpx:TrackPointExtension>
</extensions>
</trkpt>
<trkpt lat="33.0063800" lon="35.2033611">
<ele>290.11</ele>
<time>2023-11-29T11:48:16.888Z</time>
<extensions>
<gpxtpx:TrackPointExtension>
<gpxtpx:hr>141</gpxtpx:hr>
</gpxtpx:TrackPointExtension>
</extensions>
</trkpt>
<trkpt lat="33.0064125" lon="35.2035742">
<ele>291.31</ele>
<time>2023-11-29T11:48:25.888Z</time>
<extensions>
<gpxtpx:TrackPointExtension>
<gpxtpx:hr>142</gpxtpx:hr>
</gpxtpx:TrackPointExtension>
</extensions>
</trkpt>
<trkpt lat="33.0063996" lon="35.2037929">
<ele>292.53</ele>
<time>2023-11-29T11:48:35.883Z</time>
<extensions>
<gpxtpx:TrackPointExtension>
<gpxtpx:hr>143</gpxtpx:hr>
</gpxtpx:TrackPointExtension>
</extensions>
</trkpt>
<trkpt lat="33.0064206" lon="35.2040082">
<ele>293.77</ele>
<time>2023-11-29T11:48:45.891Z</time>
<extensions>
<gpxtpx:TrackPointExtension>
<gpxtpx:hr>145</gpxtpx:hr>
</gpxtpx:TrackPointExtension>
</extensions>
</trkpt>
<trkpt lat="33.0063197" lon="35.2042231">
<ele>294.79</ele>
<time>2023-11-29T11:48:55.889Z</time>
<extensions>
<gpxtpx:TrackPointExtension>
<gpxtpx:hr>145</gpxtpx:hr>
</gpxtpx:TrackPointExtension>
</extensions>
</trkpt>
<trkpt lat="33.0062581" lon="35.2044274">
<ele>295.70</ele>
<time>2023-11-29T11:49:04.889Z</time>
<extensions>
<gpxtpx:TrackPointExtension>
<gpxtpx:hr>145</gpxtpx:hr>
</gpxtpx:TrackPointExtension>
</extensions>
</trkpt>
<trkpt lat="33.0062440" lon="35.2046550">
<ele>296.81</ele>
<time>2023-11-29T11:49:14.887Z</time>
<extensions>
<gpxtpx:TrackPointExtension>
<gpxtpx:hr>146</gpxtpx:hr>
</gpxtpx:TrackPointExtension>
</extensions>
</trkpt>
<trkpt lat="33.0062596" lon="35.2048803">
<ele>297.87</ele>
<time>2023-11-29T11:49:26.887Z</time>
<extensions>
<gpxtpx:TrackPointExtension>
<gpxtpx:hr>147</gpxtpx:hr>
</gpxtpx:TrackPointExtension>
</extensions>
</trkpt>
<trkpt lat="33.0062548" lon="35.2051089">
<ele>298.92</ele>
<time>2023-11-29T11:49:37.894Z</time>
<extensions>
<gpxtpx:TrackPointExtension>
<gpxtpx:hr>148</gpxtpx:hr>
</gpxtpx:TrackPointExtension>
</extensions>
</trkpt>
<trkpt lat="33.0062372" lon="35.2053333">
<ele>299.88</ele>
<time>2023-11-29T11:49:47.890Z</time>
<extensions>
<gpxtpx:TrackPointExtension>
<gpxtpx:hr>148</gpxtpx:hr>
</gpxtpx:TrackPointExtension>
</extensions>
</trkpt>
<trkpt lat="33.0062251" lon="35.2055546">
<ele>300.84</ele>
<time>2023-11-29T11:49:56.893Z</time>
<extensions>
<gpxtpx:TrackPointExtension>
<gpxtpx:hr>148</gpxtpx:hr>
</gpxtpx:TrackPointExtension>
</extensions>
</trkpt>
<trkpt lat="33.0061949" lon="35.2057670">
<ele>301.80</ele>
<time>2023-11-29T11:50:05.892Z</time>
<extensions>
<gpxtpx:TrackPointExtension>
<gpxtpx:hr>147</gpxtpx:hr>
</gpxtpx:TrackPointExtension>
</extensions>
</trkpt>
<trkpt lat="33.0061626" lon="35.2059807">
<ele>303.04</ele>
<time>2023-11-29T11:50:12.896Z</time>
<extensions>
<gpxtpx:TrackPointExtension>
<gpxtpx:hr>147</gpxtpx:hr>
</gpxtpx:TrackPointExtension>
</extensions>
</trkpt>
<trkpt lat="33.0061767" lon="35.2062147">
<ele>304.42</ele>
<time>2023-11-29T11:50:26.883Z</time>
<extensions>
<gpxtpx:TrackPointExtension>
<gpxtpx:hr>148</gpxtpx:hr>
</gpxtpx:TrackPointExtension>
</extensions>
</trkpt>
<trkpt lat="33.0062001" lon="35.2064488">
<ele>305.76</ele>
<time>2023-11-29T11:50:37.890Z</time>
<extensions>
<gpxtpx:TrackPointExtension>
<gpxtpx:hr>146</gpxtpx:hr>
</gpxtpx:TrackPointExtension>
</extensions>
</trkpt>
<trkpt lat="33.0062265" lon="35.2066741">
<ele>307.06</ele>
<time>2023-11-29T11:50:48.895Z</time>
<extensions>
<gpxtpx:TrackPointExtension>
<gpxtpx:hr>146</gpxtpx:hr>
</gpxtpx:TrackPointExtension>
</extensions>
</trkpt>
<trkpt lat="33.0062936" lon="35.2068855">
<ele>308.16</ele>
<time>2023-11-29T11:51:00.888Z</time>
<extensions>
<gpxtpx:TrackPointExtension>
<gpxtpx:hr>147</gpxtpx:hr>
</gpxtpx:TrackPointExtension>
</extensions>
</trkpt>
<trkpt lat="33.0063232" lon="35.2071148">
<ele>309.46</ele>
<time>2023-11-29T11:51:11.891Z</time>
<extensions>
<gpxtpx:TrackPointExtension>
<gpxtpx:hr>147</gpxtpx:hr>
</gpxtpx:TrackPointExtension>
</extensions>
</trkpt>
<trkpt lat="33.0063516" lon="35.2073441">
<ele>310.77</ele>
<time>2023-11-29T11:51:22.887Z</time>
<extensions>
<gpxtpx:TrackPointExtension>
<gpxtpx:hr>147</gpxtpx:hr>
</gpxtpx:TrackPointExtension>
</extensions>
</trkpt>
<trkpt lat="33.0064000" lon="35.2075562">
<ele>311.92</ele>
<time>2023-11-29T11:51:35.892Z</time>
<extensions>
<gpxtpx:TrackPointExtension>
<gpxtpx:hr>148</gpxtpx:hr>
</gpxtpx:TrackPointExtension>
</extensions>
</trkpt>
<trkpt lat="33.0063572" lon="35.2077829">
<ele>313.25</ele>
<time>2023-11-29T11:51:43.885Z</time>
<extensions>
<gpxtpx:TrackPointExtension>
<gpxtpx:hr>148</gpxtpx:hr>
</gpxtpx:TrackPointExtension>
</extensions>
</trkpt>
<trkpt lat="33.0063518" lon="35.2080118">
<ele>314.52</ele>
<time>2023-11-29T11:51:54.886Z</time>
<extensions>
<gpxtpx:TrackPointExtension>
<gpxtpx:hr>149</gpxtpx:hr>
</gpxtpx:TrackPointExtension>
</extensions>
</trkpt>
<trkpt lat="33.0064900" lon="35.2081909">
<ele>315.31</ele>
<time>2023-11-29T11:52:01.892Z</time>
<extensions>
<gpxtpx:TrackPointExtension>
<gpxtpx:hr>149</gpxtpx:hr>
</gpxtpx:TrackPointExtension>
</extensions>
</trkpt>
<trkpt lat="33.0065257" lon="35.2084071">
<ele>316.29</ele>
<time>2023-11-29T11:52:04.886Z</time>
<extensions>
<gpxtpx:TrackPointExtension>
<gpxtpx:hr>150</gpxtpx:hr>
</gpxtpx:TrackPointExtension>
</extensions>
</trkpt>
<trkpt lat="33.0065351" lon="35.2086257">
<ele>317.31</ele>
<time>2023-11-29T11:52:31.886Z</time>
<extensions>
<gpxtpx:TrackPointExtension>
<gpxtpx:hr>150</gpxtpx:hr>
</gpxtpx:TrackPointExtension>
</extensions>
</trkpt>
<trkpt lat="33.0065567" lon="35.2088617">
<ele>318.15</ele>
<time>2023-11-29T11:52:40.891Z</time>
<extensions>
<gpxtpx:TrackPointExtension>
<gpxtpx:hr>149</gpxtpx:hr>
</gpxtpx:TrackPointExtension>
</extensions>
</trkpt>
<trkpt lat="33.0065252" lon="35.2090823">
<ele>319.13</ele>
<time>2023-11-29T11:52:50.887Z</time>
<extensions>
<gpxtpx:TrackPointExtension>
<gpxtpx:hr>148</gpxtpx:hr>
</gpxtpx:TrackPointExtension>
</extensions>
</trkpt>
<trkpt lat="33.0065308" lon="35.2093024">
<ele>319.95</ele>
<time>2023-11-29T11:53:01.891Z</time>
<extensions>
<gpxtpx:TrackPointExtension>
<gpxtpx:hr>148</gpxtpx:hr>
</gpxtpx:TrackPointExtension>
</extensions>
</trkpt>
<trkpt lat="33.0064594" lon="35.2095237">
<ele>320.97</ele>
<time>2023-11-29T11:53:11.888Z</time>
<extensions>
<gpxtpx:TrackPointExtension>
<gpxtpx:hr>148</gpxtpx:hr>
</gpxtpx:TrackPointExtension>
</extensions>
</trkpt>
<trkpt lat="33.0065154" lon="35.2097362">
<ele>321.59</ele>
<time>2023-11-29T11:53:23.892Z</time>
<extensions>
<gpxtpx:TrackPointExtension>
<gpxtpx:hr>148</gpxtpx:hr>
</gpxtpx:TrackPointExtension>
</extensions>
</trkpt>
<trkpt lat="33.0067047" lon="35.2098805">
<ele>321.43</ele>
<time>2023-11-29T11:53:32.888Z</time>
<extensions>
<gpxtpx:TrackPointExtension>
<gpxtpx:hr>147</gpxtpx:hr>
</gpxtpx:TrackPointExtension>
</extensions>
</trkpt>
<trkpt lat="33.0068980" lon="35.2099936">
<ele>320.69</ele>
<time>2023-11-29T11:53:35.881Z</time>
<extensions>
<gpxtpx:TrackPointExtension>
<gpxtpx:hr>147</gpxtpx:hr>
</gpxtpx:TrackPointExtension>
</extensions>
</trkpt>
<trkpt lat="33.0070569" lon="35.2101319">
<ele>320.40</ele>
<time>2023-11-29T11:53:38.886Z</time>
<extensions>
<gpxtpx:TrackPointExtension>
<gpxtpx:hr>147</gpxtpx:hr>
</gpxtpx:TrackPointExtension>
</extensions>
</trkpt>
<trkpt lat="33.0071831" lon="35.2103326">
<ele>320.53</ele>
<time>2023-11-29T11:53:42.890Z</time>
<extensions>
<gpxtpx:TrackPointExtension>
<gpxtpx:hr>147</gpxtpx:hr>
</gpxtpx:TrackPointExtension>
</extensions>
</trkpt>
<trkpt lat="33.0072617" lon="35.2105492">
<ele>320.94</ele>
<time>2023-11-29T11:53:48.893Z</time>
<extensions>
<gpxtpx:TrackPointExtension>
<gpxtpx:hr>145</gpxtpx:hr>
</gpxtpx:TrackPointExtension>
</extensions>
</trkpt>
<trkpt lat="33.0073515" lon="35.2107466">
<ele>321.05</ele>
<time>2023-11-29T11:53:56.889Z</time>
<extensions>
<gpxtpx:TrackPointExtension>
<gpxtpx:hr>141</gpxtpx:hr>
</gpxtpx:TrackPointExtension>
</extensions>
</trkpt>
<trkpt lat="33.0074316" lon="35.2109529">
<ele>321.50</ele>
<time>2023-11-29T11:54:04.894Z</time>
<extensions>
<gpxtpx:TrackPointExtension>
<gpxtpx:hr>140</gpxtpx:hr>
</gpxtpx:TrackPointExtension>
</extensions>
</trkpt>
<trkpt lat="33.0075384" lon="35.2111414">
<ele>321.75</ele>
<time>2023-11-29T11:54:12.893Z</time>
<extensions>
<gpxtpx:TrackPointExtension>
<gpxtpx:hr>139</gpxtpx:hr>
</gpxtpx:TrackPointExtension>
</extensions>
</trkpt>
<trkpt lat="33.0076187" lon="35.2113502">
<ele>322.36</ele>
<time>2023-11-29T11:54:20.891Z</time>
<extensions>
<gpxtpx:TrackPointExtension>
<gpxtpx:hr>137</gpxtpx:hr>
</gpxtpx:TrackPointExtension>
</extensions>
</trkpt>
<trkpt lat="33.0077229" lon="35.2115263">
<ele>322.52</ele>
<time>2023-11-29T11:54:27.894Z</time>
<extensions>
<gpxtpx:TrackPointExtension>
<gpxtpx:hr>137</gpxtpx:hr>
</gpxtpx:TrackPointExtension>
</extensions>
</trkpt>
<trkpt lat="33.0077951" lon="35.2117398">
<ele>323.29</ele>
<time>2023-11-29T11:54:35.888Z</time>
<extensions>
<gpxtpx:TrackPointExtension>
<gpxtpx:hr>136</gpxtpx:hr>
</gpxtpx:TrackPointExtension>
</extensions>
</trkpt>
<trkpt lat="33.0078521" lon="35.2119524">
<ele>324.29</ele>
<time>2023-11-29T11:54:43.887Z</time>
<extensions>
<gpxtpx:TrackPointExtension>
<gpxtpx:hr>135</gpxtpx:hr>
</gpxtpx:TrackPointExtension>
</extensions>
</trkpt>
<trkpt lat="33.0078821" lon="35.2121895">
<ele>325.81</ele>
<time>2023-11-29T11:54:53.893Z</time>
<extensions>
<gpxtpx:TrackPointExtension>
<gpxtpx:hr>135</gpxtpx:hr>
</gpxtpx:TrackPointExtension>
</extensions>
</trkpt>
<trkpt lat="33.0078967" lon="35.2124176">
<ele>327.45</ele>
<time>2023-11-29T11:55:03.885Z</time>
<extensions>
<gpxtpx:TrackPointExtension>
<gpxtpx:hr>136</gpxtpx:hr>
</gpxtpx:TrackPointExtension>
</extensions>
</trkpt>
<trkpt lat="33.0079378" lon="35.2126296">
<ele>328.58</ele>
<time>2023-11-29T11:55:12.889Z</time>
<extensions>
<gpxtpx:TrackPointExtension>
<gpxtpx:hr>139</gpxtpx:hr>
</gpxtpx:TrackPointExtension>
</extensions>
</trkpt>
<trkpt lat="33.0079603" lon="35.2128473">
<ele>329.63</ele>
<time>2023-11-29T11:55:22.887Z</time>
<extensions>
<gpxtpx:TrackPointExtension>
<gpxtpx:hr>141</gpxtpx:hr>
</gpxtpx:TrackPointExtension>
</extensions>
</trkpt>
<trkpt lat="33.0079898" lon="35.2130805">
<ele>330.67</ele>
<time>2023-11-29T11:55:32.899Z</time>
<extensions>
<gpxtpx:TrackPointExtension>
<gpxtpx:hr>144</gpxtpx:hr>
</gpxtpx:TrackPointExtension>
</extensions>
</trkpt>
<trkpt lat="33.0080035" lon="35.2133088">
<ele>331.79</ele>
<time>2023-11-29T11:55:43.890Z</time>
<extensions>
<gpxtpx:TrackPointExtension>
<gpxtpx:hr>145</gpxtpx:hr>
</gpxtpx:TrackPointExtension>
</extensions>
</trkpt>
<trkpt lat="33.0080077" lon="35.2135331">
<ele>332.87</ele>
<time>2023-11-29T11:55:52.887Z</time>
<extensions>
<gpxtpx:TrackPointExtension>
<gpxtpx:hr>144</gpxtpx:hr>
</gpxtpx:TrackPointExtension>
</extensions>
</trkpt>
<trkpt lat="33.0080313" lon="35.2137615">
<ele>333.83</ele>
<time>2023-11-29T11:56:03.887Z</time>
<extensions>
<gpxtpx:TrackPointExtension>
<gpxtpx:hr>146</gpxtpx:hr>
</gpxtpx:TrackPointExtension>
</extensions>
</trkpt>
<trkpt lat="33.0080503" lon="35.2139801">
<ele>334.72</ele>
<time>2023-11-29T11:56:13.899Z</time>
<extensions>
<gpxtpx:TrackPointExtension>
<gpxtpx:hr>147</gpxtpx:hr>
</gpxtpx:TrackPointExtension>
</extensions>
</trkpt>
<trkpt lat="33.0080745" lon="35.2142135">
<ele>335.63</ele>
<time>2023-11-29T11:56:22.898Z</time>
<extensions>
<gpxtpx:TrackPointExtension>
<gpxtpx:hr>146</gpxtpx:hr>
</gpxtpx:TrackPointExtension>
</extensions>
</trkpt>
<trkpt lat="33.0081182" lon="35.2144460">
<ele>336.46</ele>
<time>2023-11-29T11:56:30.882Z</time>
<extensions>
<gpxtpx:TrackPointExtension>
<gpxtpx:hr>146</gpxtpx:hr>
</gpxtpx:TrackPointExtension>
</extensions>
</trkpt>
<trkpt lat="33.0081474" lon="35.2146752">
<ele>337.52</ele>
<time>2023-11-29T11:56:38.891Z</time>
<extensions>
<gpxtpx:TrackPointExtension>
<gpxtpx:hr>147</gpxtpx:hr>
</gpxtpx:TrackPointExtension>
</extensions>
</trkpt>
<trkpt lat="33.0081781" lon="35.2148959">
<ele>338.61</ele>
<time>2023-11-29T11:56:48.894Z</time>
<extensions>
<gpxtpx:TrackPointExtension>
<gpxtpx:hr>145</gpxtpx:hr>
</gpxtpx:TrackPointExtension>
</extensions>
</trkpt>
<trkpt lat="33.0082237" lon="35.2151211">
<ele>339.86</ele>
<time>2023-11-29T11:57:00.891Z</time>
<extensions>
<gpxtpx:TrackPointExtension>
<gpxtpx:hr>144</gpxtpx:hr>
</gpxtpx:TrackPointExtension>
</extensions>
</trkpt>
<trkpt lat="33.0082495" lon="35.2153406">
<ele>341.47</ele>
<time>2023-11-29T11:57:13.892Z</time>
<extensions>
<gpxtpx:TrackPointExtension>
<gpxtpx:hr>145</gpxtpx:hr>
</gpxtpx:TrackPointExtension>
</extensions>
</trkpt>
<trkpt lat="33.0082976" lon="35.2155650">
<ele>342.96</ele>
<time>2023-11-29T11:57:26.886Z</time>
<extensions>
<gpxtpx:TrackPointExtension>
<gpxtpx:hr>148</gpxtpx:hr>
</gpxtpx:TrackPointExtension>
</extensions>
</trkpt>
<trkpt lat="33.0083518" lon="35.2157869">
<ele>344.51</ele>
<time>2023-11-29T11:57:39.888Z</time>
<extensions>
<gpxtpx:TrackPointExtension>
<gpxtpx:hr>148</gpxtpx:hr>
</gpxtpx:TrackPointExtension>
</extensions>
</trkpt>
<trkpt lat="33.0083872" lon="35.2160072">
<ele>346.06</ele>
<time>2023-11-29T11:57:51.891Z</time>
<extensions>
<gpxtpx:TrackPointExtension>
<gpxtpx:hr>149</gpxtpx:hr>
</gpxtpx:TrackPointExtension>
</extensions>
</trkpt>
<trkpt lat="33.0084104" lon="35.2162251">
<ele>347.55</ele>
<time>2023-11-29T11:58:03.894Z</time>
<extensions>
<gpxtpx:TrackPointExtension>
<gpxtpx:hr>151</gpxtpx:hr>
</gpxtpx:TrackPointExtension>
</extensions>
</trkpt>
<trkpt lat="33.0084204" lon="35.2164516">
<ele>349.11</ele>
<time>2023-11-29T11:58:15.886Z</time>
<extensions>
<gpxtpx:TrackPointExtension>
<gpxtpx:hr>153</gpxtpx:hr>
</gpxtpx:TrackPointExtension>
</extensions>
</trkpt>
<trkpt lat="33.0084194" lon="35.2166683">
<ele>350.65</ele>
<time>2023-11-29T11:58:27.899Z</time>
<extensions>
<gpxtpx:TrackPointExtension>
<gpxtpx:hr>154</gpxtpx:hr>
</gpxtpx:TrackPointExtension>
</extensions>
</trkpt>
<trkpt lat="33.0084153" lon="35.2168856">
<ele>351.73</ele>
<time>2023-11-29T11:58:41.891Z</time>
<extensions>
<gpxtpx:TrackPointExtension>
<gpxtpx:hr>155</gpxtpx:hr>
</gpxtpx:TrackPointExtension>
</extensions>
</trkpt>
<trkpt lat="33.0084174" lon="35.2171063">
<ele>352.77</ele>
<time>2023-11-29T11:58:54.901Z</time>
<extensions>
<gpxtpx:TrackPointExtension>
<gpxtpx:hr>155</gpxtpx:hr>
</gpxtpx:TrackPointExtension>
</extensions>
</trkpt>
<trkpt lat="33.0083936" lon="35.2173239">
<ele>353.89</ele>
<time>2023-11-29T11:59:06.891Z</time>
<extensions>
<gpxtpx:TrackPointExtension>
<gpxtpx:hr>156</gpxtpx:hr>
</gpxtpx:TrackPointExtension>
</extensions>
</trkpt>
<trkpt lat="33.0083540" lon="35.2175364">
<ele>355.13</ele>
<time>2023-11-29T11:59:18.886Z</time>
<extensions>
<gpxtpx:TrackPointExtension>
<gpxtpx:hr>156</gpxtpx:hr>
</gpxtpx:TrackPointExtension>
</extensions>
</trkpt>
<trkpt lat="33.0082905" lon="35.2177373">
<ele>356.87</ele>
<time>2023-11-29T11:59:30.902Z</time>
<extensions>
<gpxtpx:TrackPointExtension>
<gpxtpx:hr>156</gpxtpx:hr>
</gpxtpx:TrackPointExtension>
</extensions>
</trkpt>
<trkpt lat="33.0084012" lon="35.2179075">
<ele>357.66</ele>
<time>2023-11-29T11:59:44.889Z</time>
<extensions>
<gpxtpx:TrackPointExtension>
<gpxtpx:hr>156</gpxtpx:hr>
</gpxtpx:TrackPointExtension>
</extensions>
</trkpt>
<trkpt lat="33.0085760" lon="35.2180171">
<ele>357.64</ele>
<time>2023-11-29T11:59:53.897Z</time>
<extensions>
<gpxtpx:TrackPointExtension>
<gpxtpx:hr>155</gpxtpx:hr>
</gpxtpx:TrackPointExtension>
</extensions>
</trkpt>
<trkpt lat="33.0086097" lon="35.2182439">
<ele>359.01</ele>
<time>2023-11-29T12:00:04.886Z</time>
<extensions>
<gpxtpx:TrackPointExtension>
<gpxtpx:hr>154</gpxtpx:hr>
</gpxtpx:TrackPointExtension>
</extensions>
</trkpt>
<trkpt lat="33.0086244" lon="35.2184594">
<ele>360.15</ele>
<time>2023-11-29T12:00:13.881Z</time>
<extensions>
<gpxtpx:TrackPointExtension>
<gpxtpx:hr>153</gpxtpx:hr>
</gpxtpx:TrackPointExtension>
</extensions>
</trkpt>
<trkpt lat="33.0086206" lon="35.2186801">
<ele>361.23</ele>
<time>2023-11-29T12:00:23.891Z</time>
<extensions>
<gpxtpx:TrackPointExtension>
<gpxtpx:hr>150</gpxtpx:hr>
</gpxtpx:TrackPointExtension>
</extensions>
</trkpt>
<trkpt lat="33.0086251" lon="35.2189066">
<ele>362.28</ele>
<time>2023-11-29T12:00:35.893Z</time>
<extensions>
<gpxtpx:TrackPointExtension>
<gpxtpx:hr>150</gpxtpx:hr>
</gpxtpx:TrackPointExtension>
</extensions>
</trkpt>
<trkpt lat="33.0086304" lon="35.2191274">
<ele>363.26</ele>
<time>2023-11-29T12:00:45.882Z</time>
<extensions>
<gpxtpx:TrackPointExtension>
<gpxtpx:hr>149</gpxtpx:hr>
</gpxtpx:TrackPointExtension>
</extensions>
</trkpt>
<trkpt lat="33.0086140" lon="35.2193585">
<ele>364.45</ele>
<time>2023-11-29T12:00:57.899Z</time>
<extensions>
<gpxtpx:TrackPointExtension>
<gpxtpx:hr>147</gpxtpx:hr>
</gpxtpx:TrackPointExtension>
</extensions>
</trkpt>
<trkpt lat="33.0086138" lon="35.2195899">
<ele>365.47</ele>
<time>2023-11-29T12:01:09.896Z</time>
<extensions>
<gpxtpx:TrackPointExtension>
<gpxtpx:hr>147</gpxtpx:hr>
</gpxtpx:TrackPointExtension>
</extensions>
</trkpt>
<trkpt lat="33.0086202" lon="35.2198091">
<ele>366.40</ele>
<time>2023-11-29T12:01:20.893Z</time>
<extensions>
<gpxtpx:TrackPointExtension>
<gpxtpx:hr>147</gpxtpx:hr>
</gpxtpx:TrackPointExtension>
</extensions>
</trkpt>
<trkpt lat="33.0086184" lon="35.2200322">
<ele>367.41</ele>
<time>2023-11-29T12:01:31.883Z</time>
<extensions>
<gpxtpx:TrackPointExtension>
<gpxtpx:hr>147</gpxtpx:hr>
</gpxtpx:TrackPointExtension>
</extensions>
</trkpt>
<trkpt lat="33.0086424" lon="35.2202464">
<ele>368.37</ele>
<time>2023-11-29T12:01:42.884Z</time>
<extensions>
<gpxtpx:TrackPointExtension>
<gpxtpx:hr>147</gpxtpx:hr>
</gpxtpx:TrackPointExtension>
</extensions>
</trkpt>
<trkpt lat="33.0086428" lon="35.2204683">
<ele>369.49</ele>
<time>2023-11-29T12:01:53.888Z</time>
<extensions>
<gpxtpx:TrackPointExtension>
<gpxtpx:hr>148</gpxtpx:hr>
</gpxtpx:TrackPointExtension>
</extensions>
</trkpt>
<trkpt lat="33.0086550" lon="35.2206921">
<ele>370.53</ele>
<time>2023-11-29T12:02:04.894Z</time>
<extensions>
<gpxtpx:TrackPointExtension>
<gpxtpx:hr>151</gpxtpx:hr>
</gpxtpx:TrackPointExtension>
</extensions>
</trkpt>
<trkpt lat="33.0085922" lon="35.2208965">
<ele>372.17</ele>
<time>2023-11-29T12:02:15.884Z</time>
<extensions>
<gpxtpx:TrackPointExtension>
<gpxtpx:hr>152</gpxtpx:hr>
</gpxtpx:TrackPointExtension>
</extensions>
</trkpt>
<trkpt lat="33.0083999" lon="35.2209153">
<ele>373.86</ele>
<time>2023-11-29T12:02:24.887Z</time>
<extensions>
<gpxtpx:TrackPointExtension>
<gpxtpx:hr>152</gpxtpx:hr>
</gpxtpx:TrackPointExtension>
</extensions>
</trkpt>
<trkpt lat="33.0082006" lon="35.2209153">
<ele>374.93</ele>
<time>2023-11-29T12:02:35.899Z</time>
<extensions>
<gpxtpx:TrackPointExtension>
<gpxtpx:hr>153</gpxtpx:hr>
</gpxtpx:TrackPointExtension>
</extensions>
</trkpt>
<trkpt lat="33.0080134" lon="35.2209116">
<ele>375.57</ele>
<time>2023-11-29T12:02:46.888Z</time>
<extensions>
<gpxtpx:TrackPointExtension>
<gpxtpx:hr>152</gpxtpx:hr>
</gpxtpx:TrackPointExtension>
</extensions>
</trkpt>
<trkpt lat="33.0078794" lon="35.2207639">
<ele>375.32</ele>
<time>2023-11-29T12:02:54.890Z</time>
<extensions>
<gpxtpx:TrackPointExtension>
<gpxtpx:hr>152</gpxtpx:hr>
</gpxtpx:TrackPointExtension>
</extensions>
</trkpt>
<trkpt lat="33.0079058" lon="35.2204941">
<ele>373.87</ele>
<time>2023-11-29T12:02:59.889Z</time>
<extensions>
<gpxtpx:TrackPointExtension>
<gpxtpx:hr>150</gpxtpx:hr>
</gpxtpx:TrackPointExtension>
</extensions>
</trkpt>
<trkpt lat="33.0079068" lon="35.2202230">
<ele>372.37</ele>
<time>2023-11-29T12:03:04.890Z</time>
<extensions>
<gpxtpx:TrackPointExtension>
<gpxtpx:hr>149</gpxtpx:hr>
</gpxtpx:TrackPointExtension>
</extensions>
</trkpt>
<trkpt lat="33.0079059" lon="35.2199334">
<ele>370.89</ele>
<time>2023-11-29T12:03:08.889Z</time>
<extensions>
<gpxtpx:TrackPointExtension>
<gpxtpx:hr>149</gpxtpx:hr>
</gpxtpx:TrackPointExtension>
</extensions>
</trkpt>
<trkpt lat="33.0079107" lon="35.2197180">
<ele>369.83</ele>
<time>2023-11-29T12:03:11.888Z</time>
<extensions>
<gpxtpx:TrackPointExtension>
<gpxtpx:hr>148</gpxtpx:hr>
</gpxtpx:TrackPointExtension>
</extensions>
</trkpt>
<trkpt lat="33.0079222" lon="35.2194388">
<ele>368.43</ele>
<time>2023-11-29T12:03:15.888Z</time>
<extensions>
<gpxtpx:TrackPointExtension>
<gpxtpx:hr>147</gpxtpx:hr>
</gpxtpx:TrackPointExtension>
</extensions>
</trkpt>
<trkpt lat="33.0079258" lon="35.2191879">
<ele>367.20</ele>
<time>2023-11-29T12:03:19.888Z</time>
<extensions>
<gpxtpx:TrackPointExtension>
<gpxtpx:hr>146</gpxtpx:hr>
</gpxtpx:TrackPointExtension>
</extensions>
</trkpt>
<trkpt lat="33.0077721" lon="35.2190398">
<ele>366.68</ele>
<time>2023-11-29T12:03:27.892Z</time>
<extensions>
<gpxtpx:TrackPointExtension>
<gpxtpx:hr>143</gpxtpx:hr>
</gpxtpx:TrackPointExtension>
</extensions>
</trkpt>
<trkpt lat="33.0075891" lon="35.2190846">
<ele>367.36</ele>
<time>2023-11-29T12:03:37.892Z</time>
<extensions>
<gpxtpx:TrackPointExtension>
<gpxtpx:hr>142</gpxtpx:hr>
</gpxtpx:TrackPointExtension>
</extensions>
</trkpt>
<trkpt lat="33.0074018" lon="35.2190112">
<ele>367.57</ele>
<time>2023-11-29T12:03:46.898Z</time>
<extensions>
<gpxtpx:TrackPointExtension>
<gpxtpx:hr>141</gpxtpx:hr>
</gpxtpx:TrackPointExtension>
</extensions>
</trkpt>
<trkpt lat="33.0072273" lon="35.2189039">
<ele>367.68</ele>
<time>2023-11-29T12:03:55.898Z</time>
<extensions>
<gpxtpx:TrackPointExtension>
<gpxtpx:hr>142</gpxtpx:hr>
</gpxtpx:TrackPointExtension>
</extensions>
</trkpt>
<trkpt lat="33.0070272" lon="35.2188881">
<ele>368.34</ele>
<time>2023-11-29T12:04:03.883Z</time>
<extensions>
<gpxtpx:TrackPointExtension>
<gpxtpx:hr>143</gpxtpx:hr>
</gpxtpx:TrackPointExtension>
</extensions>
</trkpt>
<trkpt lat="33.0068845" lon="35.2187549">
<ele>368.62</ele>
<time>2023-11-29T12:04:12.899Z</time>
<extensions>
<gpxtpx:TrackPointExtension>
<gpxtpx:hr>143</gpxtpx:hr>
</gpxtpx:TrackPointExtension>
</extensions>
</trkpt>
<trkpt lat="33.0069485" lon="35.2185420">
<ele>367.86</ele>
<time>2023-11-29T12:04:18.892Z</time>
<extensions>
<gpxtpx:TrackPointExtension>
<gpxtpx:hr>143</gpxtpx:hr>
</gpxtpx:TrackPointExtension>
</extensions>
</trkpt>
<trkpt lat="33.0068111" lon="35.2183847">
<ele>368.16</ele>
<time>2023-11-29T12:04:22.880Z</time>
<extensions>
<gpxtpx:TrackPointExtension>
<gpxtpx:hr>141</gpxtpx:hr>
</gpxtpx:TrackPointExtension>
</extensions>
</trkpt>
<trkpt lat="33.0066298" lon="35.2182830">
<ele>368.63</ele>
<time>2023-11-29T12:04:27.889Z</time>
<extensions>
<gpxtpx:TrackPointExtension>
<gpxtpx:hr>140</gpxtpx:hr>
</gpxtpx:TrackPointExtension>
</extensions>
</trkpt>
<trkpt lat="33.0064648" lon="35.2181559">
<ele>367.72</ele>
<time>2023-11-29T12:04:32.890Z</time>
<extensions>
<gpxtpx:TrackPointExtension>
<gpxtpx:hr>139</gpxtpx:hr>
</gpxtpx:TrackPointExtension>
</extensions>
</trkpt>
<trkpt lat="33.0063062" lon="35.2180470">
<ele>367.02</ele>
<time>2023-11-29T12:04:37.901Z</time>
<extensions>
<gpxtpx:TrackPointExtension>
<gpxtpx:hr>138</gpxtpx:hr>
</gpxtpx:TrackPointExtension>
</extensions>
</trkpt>
<trkpt lat="33.0061590" lon="35.2178635">
<ele>366.12</ele>
<time>2023-11-29T12:04:42.893Z</time>
<extensions>
<gpxtpx:TrackPointExtension>
<gpxtpx:hr>137</gpxtpx:hr>
</gpxtpx:TrackPointExtension>
</extensions>
</trkpt>
<trkpt lat="33.0060708" lon="35.2176594">
<ele>365.25</ele>
<time>2023-11-29T12:04:46.881Z</time>
<extensions>
<gpxtpx:TrackPointExtension>
<gpxtpx:hr>134</gpxtpx:hr>
</gpxtpx:TrackPointExtension>
</extensions>
</trkpt>
<trkpt lat="33.0059286" lon="35.2174865">
<ele>364.73</ele>
<time>2023-11-29T12:04:50.881Z</time>
<extensions>
<gpxtpx:TrackPointExtension>
<gpxtpx:hr>133</gpxtpx:hr>
</gpxtpx:TrackPointExtension>
</extensions>
</trkpt>
<trkpt lat="33.0057620" lon="35.2173963">
<ele>364.30</ele>
<time>2023-11-29T12:04:53.895Z</time>
<extensions>
<gpxtpx:TrackPointExtension>
<gpxtpx:hr>132</gpxtpx:hr>
</gpxtpx:TrackPointExtension>
</extensions>
</trkpt>
<trkpt lat="33.0055878" lon="35.2173192">
<ele>363.16</ele>
<time>2023-11-29T12:04:56.881Z</time>
<extensions>
<gpxtpx:TrackPointExtension>
<gpxtpx:hr>132</gpxtpx:hr>
</gpxtpx:TrackPointExtension>
</extensions>
</trkpt>
<trkpt lat="33.0053744" lon="35.2172795">
<ele>361.99</ele>
<time>2023-11-29T12:05:01.886Z</time>
<extensions>
<gpxtpx:TrackPointExtension>
<gpxtpx:hr>129</gpxtpx:hr>
</gpxtpx:TrackPointExtension>
</extensions>
</trkpt>
<trkpt lat="33.0054696" lon="35.2170279">
<ele>361.28</ele>
<time>2023-11-29T12:05:06.886Z</time>
<extensions>
<gpxtpx:TrackPointExtension>
<gpxtpx:hr>127</gpxtpx:hr>
</gpxtpx:TrackPointExtension>
</extensions>
</trkpt>
<trkpt lat="33.0055191" lon="35.2167907">
<ele>360.51</ele>
<time>2023-11-29T12:05:10.881Z</time>
<extensions>
<gpxtpx:TrackPointExtension>
<gpxtpx:hr>126</gpxtpx:hr>
</gpxtpx:TrackPointExtension>
</extensions>
</trkpt>
<trkpt lat="33.0055685" lon="35.2165244">
<ele>359.43</ele>
<time>2023-11-29T12:05:14.888Z</time>
<extensions>
<gpxtpx:TrackPointExtension>
<gpxtpx:hr>126</gpxtpx:hr>
</gpxtpx:TrackPointExtension>
</extensions>
</trkpt>
<trkpt lat="33.0055662" lon="35.2162849">
<ele>358.25</ele>
<time>2023-11-29T12:05:17.892Z</time>
<extensions>
<gpxtpx:TrackPointExtension>
<gpxtpx:hr>126</gpxtpx:hr>
</gpxtpx:TrackPointExtension>
</extensions>
</trkpt>
<trkpt lat="33.0055369" lon="35.2160512">
<ele>356.91</ele>
<time>2023-11-29T12:05:20.882Z</time>
<extensions>
<gpxtpx:TrackPointExtension>
<gpxtpx:hr>126</gpxtpx:hr>
</gpxtpx:TrackPointExtension>
</extensions>
</trkpt>
<trkpt lat="33.0055062" lon="35.2158207">
<ele>355.53</ele>
<time>2023-11-29T12:05:23.887Z</time>
<extensions>
<gpxtpx:TrackPointExtension>
<gpxtpx:hr>124</gpxtpx:hr>
</gpxtpx:TrackPointExtension>
</extensions>
</trkpt>
<trkpt lat="33.0055187" lon="35.2155750">
<ele>353.71</ele>
<time>2023-11-29T12:05:27.878Z</time>
<extensions>
<gpxtpx:TrackPointExtension>
<gpxtpx:hr>122</gpxtpx:hr>
</gpxtpx:TrackPointExtension>
</extensions>
</trkpt>
<trkpt lat="33.0054006" lon="35.2153908">
<ele>351.81</ele>
<time>2023-11-29T12:05:37.885Z</time>
<extensions>
<gpxtpx:TrackPointExtension>
<gpxtpx:hr>123</gpxtpx:hr>
</gpxtpx:TrackPointExtension>
</extensions>
</trkpt>
<trkpt lat="33.0052071" lon="35.2154640">
<ele>351.57</ele>
<time>2023-11-29T12:05:42.888Z</time>
<extensions>
<gpxtpx:TrackPointExtension>
<gpxtpx:hr>122</gpxtpx:hr>
</gpxtpx:TrackPointExtension>
</extensions>
</trkpt>
<trkpt lat="33.0050362" lon="35.2153895">
<ele>350.50</ele>
<time>2023-11-29T12:06:00.878Z</time>
<extensions>
<gpxtpx:TrackPointExtension>
<gpxtpx:hr>118</gpxtpx:hr>
</gpxtpx:TrackPointExtension>
</extensions>
</trkpt>
</trkseg>
</trk>
</gpx>
