<?xml version="1.0" encoding="UTF-8" standalone="no" ?>
<gpx xmlns="http://www.topografix.com/GPX/1/1" creator="OruxMaps v.10.5.0 GP" version="1.1" xmlns:gpxtpx="http://www.garmin.com/xmlschemas/TrackPointExtension/v2" xmlns:xsi="http://www.w3.org/2001/XMLSchema-instance" xmlns:om="http://www.oruxmaps.com/oruxmapsextensions/1/0" xsi:schemaLocation="http://www.topografix.com/GPX/1/1 http://www.topografix.com/GPX/1/1/gpx.xsd">
<!-- owner: 4cd85a9e434039 -->
<metadata>
<name><![CDATA[2023-12-19 11:33:52]]></name>
<link href="https://www.oruxmaps.com">
<text>OruxMaps GP</text>
</link>
<time>2023-12-19T09:33:52.498Z</time><bounds maxlat="33.0134472" maxlon="35.2211414" minlat="33.0038969" minlon="35.1745200"/>
</metadata>
<trk>
<name><![CDATA[2023-12-19 11:33:52]]></name>
<desc><![CDATA[<p>Type: Mountain biking<br/>Start time: 11:33 Dec 19, 2023<br/>Finish time: 12:44 Dec 19, 2023<br/>Distance: 12.3 km (01:10)<br/>Moving time: 01:03<br/>Average speed: 10.46 km/h<br/>Avg. Speed Mov: 11.56 km/h<br/>Max. speed: 115.98 km/h<br/>Minimum altitude: 146 m<br/>Maximum altitude: 376 m<br/>Ascent speed: 298.6 m/h<br/>Descent speed: 820.7 m/h<br/>Elevation gain: 242 m<br/>Elevation loss: 249 m<br/>Ascent time: 00:48<br/>Descent time: 00:18<br/>Min. HRM: 71<br/>Max. HRM: 160<br/>Avg. HRM: 122<br/>Calories: 817<br/></p><hr align="center" width="480" style="height: 2px; width: 517px"/>]]></desc>
<type>Mountain biking</type>
<extensions>
<om:oruxmapsextensions>
<om:ext type="TYPE" subtype="0">6</om:ext>
<om:ext type="DIFFICULTY">0</om:ext>
</om:oruxmapsextensions>
</extensions>
<trkseg>
<trkpt lat="33.0050965" lon="35.2155973">
<ele>351.99</ele>
<time>2023-12-19T09:33:59.103Z</time>
<extensions>
</extensions>
</trkpt>
<trkpt lat="33.0053934" lon="35.2155410">
<ele>352.70</ele>
<time>2023-12-19T09:39:55.860Z</time>
<extensions>
<gpxtpx:TrackPointExtension>
<gpxtpx:hr>80</gpxtpx:hr>
</gpxtpx:TrackPointExtension>
</extensions>
</trkpt>
<trkpt lat="33.0055893" lon="35.2153832">
<ele>352.47</ele>
<time>2023-12-19T09:40:00.771Z</time>
<extensions>
<gpxtpx:TrackPointExtension>
<gpxtpx:hr>82</gpxtpx:hr>
</gpxtpx:TrackPointExtension>
</extensions>
</trkpt>
<trkpt lat="33.0060724" lon="35.2153910">
<ele>352.81</ele>
<time>2023-12-19T09:40:15.963Z</time>
<extensions>
<gpxtpx:TrackPointExtension>
<gpxtpx:hr>84</gpxtpx:hr>
</gpxtpx:TrackPointExtension>
</extensions>
</trkpt>
<trkpt lat="33.0060590" lon="35.2146956">
<ele>350.15</ele>
<time>2023-12-19T09:40:30.964Z</time>
<extensions>
<gpxtpx:TrackPointExtension>
<gpxtpx:hr>78</gpxtpx:hr>
</gpxtpx:TrackPointExtension>
</extensions>
</trkpt>
<trkpt lat="33.0058983" lon="35.2143244">
<ele>347.83</ele>
<time>2023-12-19T09:40:35.990Z</time>
<extensions>
<gpxtpx:TrackPointExtension>
<gpxtpx:hr>78</gpxtpx:hr>
</gpxtpx:TrackPointExtension>
</extensions>
</trkpt>
<trkpt lat="33.0056270" lon="35.2141227">
<ele>345.30</ele>
<time>2023-12-19T09:40:46.048Z</time>
<extensions>
<gpxtpx:TrackPointExtension>
<gpxtpx:hr>74</gpxtpx:hr>
</gpxtpx:TrackPointExtension>
</extensions>
</trkpt>
<trkpt lat="33.0065205" lon="35.2124532">
<ele>339.00</ele>
<time>2023-12-19T09:40:57.692Z</time>
<extensions>
<gpxtpx:TrackPointExtension>
<gpxtpx:hr>71</gpxtpx:hr>
</gpxtpx:TrackPointExtension>
</extensions>
</trkpt>
<trkpt lat="33.0067298" lon="35.2114652">
<ele>333.45</ele>
<time>2023-12-19T09:41:09.144Z</time>
<extensions>
<gpxtpx:TrackPointExtension>
<gpxtpx:hr>71</gpxtpx:hr>
</gpxtpx:TrackPointExtension>
</extensions>
</trkpt>
<trkpt lat="33.0065450" lon="35.2122180">
<ele>335.22</ele>
<time>2023-12-19T09:41:14.228Z</time>
<extensions>
<gpxtpx:TrackPointExtension>
<gpxtpx:hr>72</gpxtpx:hr>
</gpxtpx:TrackPointExtension>
</extensions>
</trkpt>
<trkpt lat="33.0067461" lon="35.2116300">
<ele>333.65</ele>
<time>2023-12-19T09:41:19.250Z</time>
<extensions>
<gpxtpx:TrackPointExtension>
<gpxtpx:hr>73</gpxtpx:hr>
</gpxtpx:TrackPointExtension>
</extensions>
</trkpt>
<trkpt lat="33.0067236" lon="35.2111664">
<ele>330.99</ele>
<time>2023-12-19T09:41:24.161Z</time>
<extensions>
<gpxtpx:TrackPointExtension>
<gpxtpx:hr>73</gpxtpx:hr>
</gpxtpx:TrackPointExtension>
</extensions>
</trkpt>
<trkpt lat="33.0065756" lon="35.2098470">
<ele>324.54</ele>
<time>2023-12-19T09:41:29.218Z</time>
<extensions>
<gpxtpx:TrackPointExtension>
<gpxtpx:hr>72</gpxtpx:hr>
</gpxtpx:TrackPointExtension>
</extensions>
</trkpt>
<trkpt lat="33.0071360" lon="35.2105356">
<ele>322.05</ele>
<time>2023-12-19T09:41:44.452Z</time>
<extensions>
<gpxtpx:TrackPointExtension>
<gpxtpx:hr>72</gpxtpx:hr>
</gpxtpx:TrackPointExtension>
</extensions>
</trkpt>
<trkpt lat="33.0072267" lon="35.2107592">
<ele>322.20</ele>
<time>2023-12-19T09:41:49.290Z</time>
<extensions>
<gpxtpx:TrackPointExtension>
<gpxtpx:hr>74</gpxtpx:hr>
</gpxtpx:TrackPointExtension>
</extensions>
</trkpt>
<trkpt lat="33.0071685" lon="35.2111733">
<ele>324.60</ele>
<time>2023-12-19T09:41:54.552Z</time>
<extensions>
<gpxtpx:TrackPointExtension>
<gpxtpx:hr>77</gpxtpx:hr>
</gpxtpx:TrackPointExtension>
</extensions>
</trkpt>
<trkpt lat="33.0072823" lon="35.2114973">
<ele>326.58</ele>
<time>2023-12-19T09:42:14.541Z</time>
<extensions>
<gpxtpx:TrackPointExtension>
<gpxtpx:hr>89</gpxtpx:hr>
</gpxtpx:TrackPointExtension>
</extensions>
</trkpt>
<trkpt lat="33.0075745" lon="35.2121481">
<ele>327.70</ele>
<time>2023-12-19T09:42:24.591Z</time>
<extensions>
<gpxtpx:TrackPointExtension>
<gpxtpx:hr>95</gpxtpx:hr>
</gpxtpx:TrackPointExtension>
</extensions>
</trkpt>
<trkpt lat="33.0075935" lon="35.2124619">
<ele>329.37</ele>
<time>2023-12-19T09:42:29.383Z</time>
<extensions>
<gpxtpx:TrackPointExtension>
<gpxtpx:hr>100</gpxtpx:hr>
</gpxtpx:TrackPointExtension>
</extensions>
</trkpt>
<trkpt lat="33.0076157" lon="35.2126766">
<ele>331.40</ele>
<time>2023-12-19T09:42:52.202Z</time>
<extensions>
<gpxtpx:TrackPointExtension>
<gpxtpx:hr>117</gpxtpx:hr>
</gpxtpx:TrackPointExtension>
</extensions>
</trkpt>
<trkpt lat="33.0076807" lon="35.2128768">
<ele>332.34</ele>
<time>2023-12-19T09:43:21.449Z</time>
<extensions>
<gpxtpx:TrackPointExtension>
<gpxtpx:hr>123</gpxtpx:hr>
</gpxtpx:TrackPointExtension>
</extensions>
</trkpt>
<trkpt lat="33.0077190" lon="35.2136935">
<ele>335.93</ele>
<time>2023-12-19T09:43:32.488Z</time>
<extensions>
<gpxtpx:TrackPointExtension>
<gpxtpx:hr>124</gpxtpx:hr>
</gpxtpx:TrackPointExtension>
</extensions>
</trkpt>
<trkpt lat="33.0077347" lon="35.2139276">
<ele>338.08</ele>
<time>2023-12-19T09:43:38.829Z</time>
<extensions>
<gpxtpx:TrackPointExtension>
<gpxtpx:hr>124</gpxtpx:hr>
</gpxtpx:TrackPointExtension>
</extensions>
</trkpt>
<trkpt lat="33.0078217" lon="35.2146113">
<ele>339.61</ele>
<time>2023-12-19T09:43:57.196Z</time>
<extensions>
<gpxtpx:TrackPointExtension>
<gpxtpx:hr>124</gpxtpx:hr>
</gpxtpx:TrackPointExtension>
</extensions>
</trkpt>
<trkpt lat="33.0078866" lon="35.2148268">
<ele>340.94</ele>
<time>2023-12-19T09:44:05.197Z</time>
<extensions>
<gpxtpx:TrackPointExtension>
<gpxtpx:hr>124</gpxtpx:hr>
</gpxtpx:TrackPointExtension>
</extensions>
</trkpt>
<trkpt lat="33.0079092" lon="35.2151077">
<ele>342.05</ele>
<time>2023-12-19T09:44:21.493Z</time>
<extensions>
<gpxtpx:TrackPointExtension>
<gpxtpx:hr>124</gpxtpx:hr>
</gpxtpx:TrackPointExtension>
</extensions>
</trkpt>
<trkpt lat="33.0079620" lon="35.2153422">
<ele>343.26</ele>
<time>2023-12-19T09:44:31.601Z</time>
<extensions>
<gpxtpx:TrackPointExtension>
<gpxtpx:hr>126</gpxtpx:hr>
</gpxtpx:TrackPointExtension>
</extensions>
</trkpt>
<trkpt lat="33.0081066" lon="35.2154974">
<ele>343.79</ele>
<time>2023-12-19T09:44:46.081Z</time>
<extensions>
<gpxtpx:TrackPointExtension>
<gpxtpx:hr>129</gpxtpx:hr>
</gpxtpx:TrackPointExtension>
</extensions>
</trkpt>
<trkpt lat="33.0081244" lon="35.2157204">
<ele>345.54</ele>
<time>2023-12-19T09:44:52.073Z</time>
<extensions>
<gpxtpx:TrackPointExtension>
<gpxtpx:hr>130</gpxtpx:hr>
</gpxtpx:TrackPointExtension>
</extensions>
</trkpt>
<trkpt lat="33.0082137" lon="35.2159125">
<ele>346.34</ele>
<time>2023-12-19T09:45:04.078Z</time>
<extensions>
<gpxtpx:TrackPointExtension>
<gpxtpx:hr>133</gpxtpx:hr>
</gpxtpx:TrackPointExtension>
</extensions>
</trkpt>
<trkpt lat="33.0082136" lon="35.2161389">
<ele>347.94</ele>
<time>2023-12-19T09:45:13.076Z</time>
<extensions>
<gpxtpx:TrackPointExtension>
<gpxtpx:hr>134</gpxtpx:hr>
</gpxtpx:TrackPointExtension>
</extensions>
</trkpt>
<trkpt lat="33.0082342" lon="35.2163635">
<ele>349.41</ele>
<time>2023-12-19T09:45:25.081Z</time>
<extensions>
<gpxtpx:TrackPointExtension>
<gpxtpx:hr>135</gpxtpx:hr>
</gpxtpx:TrackPointExtension>
</extensions>
</trkpt>
<trkpt lat="33.0082945" lon="35.2165688">
<ele>350.49</ele>
<time>2023-12-19T09:45:37.067Z</time>
<extensions>
<gpxtpx:TrackPointExtension>
<gpxtpx:hr>138</gpxtpx:hr>
</gpxtpx:TrackPointExtension>
</extensions>
</trkpt>
<trkpt lat="33.0082876" lon="35.2167955">
<ele>351.86</ele>
<time>2023-12-19T09:45:49.070Z</time>
<extensions>
<gpxtpx:TrackPointExtension>
<gpxtpx:hr>138</gpxtpx:hr>
</gpxtpx:TrackPointExtension>
</extensions>
</trkpt>
<trkpt lat="33.0082742" lon="35.2170128">
<ele>352.97</ele>
<time>2023-12-19T09:46:01.072Z</time>
<extensions>
<gpxtpx:TrackPointExtension>
<gpxtpx:hr>139</gpxtpx:hr>
</gpxtpx:TrackPointExtension>
</extensions>
</trkpt>
<trkpt lat="33.0083044" lon="35.2172249">
<ele>353.83</ele>
<time>2023-12-19T09:46:15.073Z</time>
<extensions>
<gpxtpx:TrackPointExtension>
<gpxtpx:hr>140</gpxtpx:hr>
</gpxtpx:TrackPointExtension>
</extensions>
</trkpt>
<trkpt lat="33.0082935" lon="35.2174505">
<ele>354.94</ele>
<time>2023-12-19T09:46:27.077Z</time>
<extensions>
<gpxtpx:TrackPointExtension>
<gpxtpx:hr>140</gpxtpx:hr>
</gpxtpx:TrackPointExtension>
</extensions>
</trkpt>
<trkpt lat="33.0082596" lon="35.2176649">
<ele>356.57</ele>
<time>2023-12-19T09:46:42.076Z</time>
<extensions>
<gpxtpx:TrackPointExtension>
<gpxtpx:hr>142</gpxtpx:hr>
</gpxtpx:TrackPointExtension>
</extensions>
</trkpt>
<trkpt lat="33.0084013" lon="35.2178269">
<ele>357.09</ele>
<time>2023-12-19T09:46:57.075Z</time>
<extensions>
<gpxtpx:TrackPointExtension>
<gpxtpx:hr>141</gpxtpx:hr>
</gpxtpx:TrackPointExtension>
</extensions>
</trkpt>
<trkpt lat="33.0085761" lon="35.2179303">
<ele>357.07</ele>
<time>2023-12-19T09:47:05.074Z</time>
<extensions>
<gpxtpx:TrackPointExtension>
<gpxtpx:hr>142</gpxtpx:hr>
</gpxtpx:TrackPointExtension>
</extensions>
</trkpt>
<trkpt lat="33.0086829" lon="35.2181209">
<ele>357.84</ele>
<time>2023-12-19T09:47:14.070Z</time>
<extensions>
<gpxtpx:TrackPointExtension>
<gpxtpx:hr>138</gpxtpx:hr>
</gpxtpx:TrackPointExtension>
</extensions>
</trkpt>
<trkpt lat="33.0086878" lon="35.2183560">
<ele>359.35</ele>
<time>2023-12-19T09:47:25.076Z</time>
<extensions>
<gpxtpx:TrackPointExtension>
<gpxtpx:hr>136</gpxtpx:hr>
</gpxtpx:TrackPointExtension>
</extensions>
</trkpt>
<trkpt lat="33.0086542" lon="35.2185835">
<ele>360.56</ele>
<time>2023-12-19T09:47:34.082Z</time>
<extensions>
<gpxtpx:TrackPointExtension>
<gpxtpx:hr>135</gpxtpx:hr>
</gpxtpx:TrackPointExtension>
</extensions>
</trkpt>
<trkpt lat="33.0086349" lon="35.2188134">
<ele>361.76</ele>
<time>2023-12-19T09:47:44.069Z</time>
<extensions>
<gpxtpx:TrackPointExtension>
<gpxtpx:hr>134</gpxtpx:hr>
</gpxtpx:TrackPointExtension>
</extensions>
</trkpt>
<trkpt lat="33.0086616" lon="35.2190421">
<ele>362.62</ele>
<time>2023-12-19T09:47:55.080Z</time>
<extensions>
<gpxtpx:TrackPointExtension>
<gpxtpx:hr>133</gpxtpx:hr>
</gpxtpx:TrackPointExtension>
</extensions>
</trkpt>
<trkpt lat="33.0086577" lon="35.2192685">
<ele>363.68</ele>
<time>2023-12-19T09:48:05.067Z</time>
<extensions>
<gpxtpx:TrackPointExtension>
<gpxtpx:hr>132</gpxtpx:hr>
</gpxtpx:TrackPointExtension>
</extensions>
</trkpt>
<trkpt lat="33.0086763" lon="35.2195023">
<ele>364.60</ele>
<time>2023-12-19T09:48:16.068Z</time>
<extensions>
<gpxtpx:TrackPointExtension>
<gpxtpx:hr>132</gpxtpx:hr>
</gpxtpx:TrackPointExtension>
</extensions>
</trkpt>
<trkpt lat="33.0086661" lon="35.2197244">
<ele>365.70</ele>
<time>2023-12-19T09:48:25.077Z</time>
<extensions>
<gpxtpx:TrackPointExtension>
<gpxtpx:hr>133</gpxtpx:hr>
</gpxtpx:TrackPointExtension>
</extensions>
</trkpt>
<trkpt lat="33.0086890" lon="35.2199464">
<ele>366.59</ele>
<time>2023-12-19T09:48:35.072Z</time>
<extensions>
<gpxtpx:TrackPointExtension>
<gpxtpx:hr>132</gpxtpx:hr>
</gpxtpx:TrackPointExtension>
</extensions>
</trkpt>
<trkpt lat="33.0086871" lon="35.2201785">
<ele>367.71</ele>
<time>2023-12-19T09:48:48.069Z</time>
<extensions>
<gpxtpx:TrackPointExtension>
<gpxtpx:hr>133</gpxtpx:hr>
</gpxtpx:TrackPointExtension>
</extensions>
</trkpt>
<trkpt lat="33.0086811" lon="35.2204069">
<ele>368.90</ele>
<time>2023-12-19T09:49:01.070Z</time>
<extensions>
<gpxtpx:TrackPointExtension>
<gpxtpx:hr>135</gpxtpx:hr>
</gpxtpx:TrackPointExtension>
</extensions>
</trkpt>
<trkpt lat="33.0086675" lon="35.2206428">
<ele>370.15</ele>
<time>2023-12-19T09:49:11.069Z</time>
<extensions>
<gpxtpx:TrackPointExtension>
<gpxtpx:hr>136</gpxtpx:hr>
</gpxtpx:TrackPointExtension>
</extensions>
</trkpt>
<trkpt lat="33.0085960" lon="35.2208557">
<ele>371.84</ele>
<time>2023-12-19T09:49:19.070Z</time>
<extensions>
<gpxtpx:TrackPointExtension>
<gpxtpx:hr>137</gpxtpx:hr>
</gpxtpx:TrackPointExtension>
</extensions>
</trkpt>
<trkpt lat="33.0084065" lon="35.2207977">
<ele>373.10</ele>
<time>2023-12-19T09:49:26.067Z</time>
<extensions>
<gpxtpx:TrackPointExtension>
<gpxtpx:hr>138</gpxtpx:hr>
</gpxtpx:TrackPointExtension>
</extensions>
</trkpt>
<trkpt lat="33.0082357" lon="35.2207166">
<ele>373.65</ele>
<time>2023-12-19T09:49:43.076Z</time>
<extensions>
<gpxtpx:TrackPointExtension>
<gpxtpx:hr>139</gpxtpx:hr>
</gpxtpx:TrackPointExtension>
</extensions>
</trkpt>
<trkpt lat="33.0080324" lon="35.2207651">
<ele>374.62</ele>
<time>2023-12-19T09:49:52.065Z</time>
<extensions>
<gpxtpx:TrackPointExtension>
<gpxtpx:hr>137</gpxtpx:hr>
</gpxtpx:TrackPointExtension>
</extensions>
</trkpt>
<trkpt lat="33.0078332" lon="35.2207861">
<ele>375.50</ele>
<time>2023-12-19T09:50:00.066Z</time>
<extensions>
<gpxtpx:TrackPointExtension>
<gpxtpx:hr>137</gpxtpx:hr>
</gpxtpx:TrackPointExtension>
</extensions>
</trkpt>
<trkpt lat="33.0076389" lon="35.2208251">
<ele>376.42</ele>
<time>2023-12-19T09:50:09.063Z</time>
<extensions>
<gpxtpx:TrackPointExtension>
<gpxtpx:hr>134</gpxtpx:hr>
</gpxtpx:TrackPointExtension>
</extensions>
</trkpt>
<trkpt lat="33.0074504" lon="35.2208527">
<ele>377.09</ele>
<time>2023-12-19T09:50:19.074Z</time>
<extensions>
<gpxtpx:TrackPointExtension>
<gpxtpx:hr>133</gpxtpx:hr>
</gpxtpx:TrackPointExtension>
</extensions>
</trkpt>
<trkpt lat="33.0072532" lon="35.2208139">
<ele>376.91</ele>
<time>2023-12-19T09:50:29.071Z</time>
<extensions>
<gpxtpx:TrackPointExtension>
<gpxtpx:hr>131</gpxtpx:hr>
</gpxtpx:TrackPointExtension>
</extensions>
</trkpt>
<trkpt lat="33.0070554" lon="35.2208018">
<ele>376.89</ele>
<time>2023-12-19T09:50:38.068Z</time>
<extensions>
<gpxtpx:TrackPointExtension>
<gpxtpx:hr>130</gpxtpx:hr>
</gpxtpx:TrackPointExtension>
</extensions>
</trkpt>
<trkpt lat="33.0068653" lon="35.2207475">
<ele>376.68</ele>
<time>2023-12-19T09:50:45.061Z</time>
<extensions>
<gpxtpx:TrackPointExtension>
<gpxtpx:hr>129</gpxtpx:hr>
</gpxtpx:TrackPointExtension>
</extensions>
</trkpt>
<trkpt lat="33.0066803" lon="35.2207048">
<ele>376.55</ele>
<time>2023-12-19T09:50:51.060Z</time>
<extensions>
<gpxtpx:TrackPointExtension>
<gpxtpx:hr>127</gpxtpx:hr>
</gpxtpx:TrackPointExtension>
</extensions>
</trkpt>
<trkpt lat="33.0065020" lon="35.2206482">
<ele>375.60</ele>
<time>2023-12-19T09:50:55.070Z</time>
<extensions>
<gpxtpx:TrackPointExtension>
<gpxtpx:hr>125</gpxtpx:hr>
</gpxtpx:TrackPointExtension>
</extensions>
</trkpt>
<trkpt lat="33.0062977" lon="35.2206082">
<ele>374.45</ele>
<time>2023-12-19T09:50:59.070Z</time>
<extensions>
<gpxtpx:TrackPointExtension>
<gpxtpx:hr>123</gpxtpx:hr>
</gpxtpx:TrackPointExtension>
</extensions>
</trkpt>
<trkpt lat="33.0061007" lon="35.2205786">
<ele>373.38</ele>
<time>2023-12-19T09:51:04.071Z</time>
<extensions>
<gpxtpx:TrackPointExtension>
<gpxtpx:hr>119</gpxtpx:hr>
</gpxtpx:TrackPointExtension>
</extensions>
</trkpt>
<trkpt lat="33.0059681" lon="35.2207387">
<ele>372.78</ele>
<time>2023-12-19T09:51:09.074Z</time>
<extensions>
<gpxtpx:TrackPointExtension>
<gpxtpx:hr>117</gpxtpx:hr>
</gpxtpx:TrackPointExtension>
</extensions>
</trkpt>
<trkpt lat="33.0058989" lon="35.2209369">
<ele>372.53</ele>
<time>2023-12-19T09:51:14.078Z</time>
<extensions>
<gpxtpx:TrackPointExtension>
<gpxtpx:hr>116</gpxtpx:hr>
</gpxtpx:TrackPointExtension>
</extensions>
</trkpt>
<trkpt lat="33.0058065" lon="35.2211414">
<ele>372.12</ele>
<time>2023-12-19T09:51:19.071Z</time>
<extensions>
<gpxtpx:TrackPointExtension>
<gpxtpx:hr>118</gpxtpx:hr>
</gpxtpx:TrackPointExtension>
</extensions>
</trkpt>
<trkpt lat="33.0055984" lon="35.2211266">
<ele>369.71</ele>
<time>2023-12-19T09:51:24.081Z</time>
<extensions>
<gpxtpx:TrackPointExtension>
<gpxtpx:hr>115</gpxtpx:hr>
</gpxtpx:TrackPointExtension>
</extensions>
</trkpt>
<trkpt lat="33.0054295" lon="35.2209905">
<ele>367.58</ele>
<time>2023-12-19T09:51:27.072Z</time>
<extensions>
<gpxtpx:TrackPointExtension>
<gpxtpx:hr>113</gpxtpx:hr>
</gpxtpx:TrackPointExtension>
</extensions>
</trkpt>
<trkpt lat="33.0052400" lon="35.2208719">
<ele>365.22</ele>
<time>2023-12-19T09:51:30.071Z</time>
<extensions>
<gpxtpx:TrackPointExtension>
<gpxtpx:hr>113</gpxtpx:hr>
</gpxtpx:TrackPointExtension>
</extensions>
</trkpt>
<trkpt lat="33.0051017" lon="35.2207088">
<ele>363.73</ele>
<time>2023-12-19T09:51:33.074Z</time>
<extensions>
<gpxtpx:TrackPointExtension>
<gpxtpx:hr>113</gpxtpx:hr>
</gpxtpx:TrackPointExtension>
</extensions>
</trkpt>
<trkpt lat="33.0050958" lon="35.2204616">
<ele>364.20</ele>
<time>2023-12-19T09:51:36.071Z</time>
<extensions>
<gpxtpx:TrackPointExtension>
<gpxtpx:hr>113</gpxtpx:hr>
</gpxtpx:TrackPointExtension>
</extensions>
</trkpt>
<trkpt lat="33.0050858" lon="35.2202032">
<ele>364.99</ele>
<time>2023-12-19T09:51:39.077Z</time>
<extensions>
<gpxtpx:TrackPointExtension>
<gpxtpx:hr>113</gpxtpx:hr>
</gpxtpx:TrackPointExtension>
</extensions>
</trkpt>
<trkpt lat="33.0049549" lon="35.2199992">
<ele>364.45</ele>
<time>2023-12-19T09:51:42.066Z</time>
<extensions>
<gpxtpx:TrackPointExtension>
<gpxtpx:hr>110</gpxtpx:hr>
</gpxtpx:TrackPointExtension>
</extensions>
</trkpt>
<trkpt lat="33.0047486" lon="35.2199053">
<ele>361.38</ele>
<time>2023-12-19T09:51:45.067Z</time>
<extensions>
<gpxtpx:TrackPointExtension>
<gpxtpx:hr>109</gpxtpx:hr>
</gpxtpx:TrackPointExtension>
</extensions>
</trkpt>
<trkpt lat="33.0045460" lon="35.2197883">
<ele>358.39</ele>
<time>2023-12-19T09:51:48.075Z</time>
<extensions>
<gpxtpx:TrackPointExtension>
<gpxtpx:hr>108</gpxtpx:hr>
</gpxtpx:TrackPointExtension>
</extensions>
</trkpt>
<trkpt lat="33.0043756" lon="35.2196612">
<ele>356.14</ele>
<time>2023-12-19T09:51:51.070Z</time>
<extensions>
<gpxtpx:TrackPointExtension>
<gpxtpx:hr>106</gpxtpx:hr>
</gpxtpx:TrackPointExtension>
</extensions>
</trkpt>
<trkpt lat="33.0042586" lon="35.2194625">
<ele>355.39</ele>
<time>2023-12-19T09:51:54.076Z</time>
<extensions>
<gpxtpx:TrackPointExtension>
<gpxtpx:hr>105</gpxtpx:hr>
</gpxtpx:TrackPointExtension>
</extensions>
</trkpt>
<trkpt lat="33.0041659" lon="35.2192129">
<ele>355.57</ele>
<time>2023-12-19T09:51:57.077Z</time>
<extensions>
<gpxtpx:TrackPointExtension>
<gpxtpx:hr>106</gpxtpx:hr>
</gpxtpx:TrackPointExtension>
</extensions>
</trkpt>
<trkpt lat="33.0040960" lon="35.2189288">
<ele>354.56</ele>
<time>2023-12-19T09:52:00.068Z</time>
<extensions>
<gpxtpx:TrackPointExtension>
<gpxtpx:hr>105</gpxtpx:hr>
</gpxtpx:TrackPointExtension>
</extensions>
</trkpt>
<trkpt lat="33.0040119" lon="35.2186787">
<ele>352.72</ele>
<time>2023-12-19T09:52:03.075Z</time>
<extensions>
<gpxtpx:TrackPointExtension>
<gpxtpx:hr>103</gpxtpx:hr>
</gpxtpx:TrackPointExtension>
</extensions>
</trkpt>
<trkpt lat="33.0039589" lon="35.2184213">
<ele>351.28</ele>
<time>2023-12-19T09:52:06.080Z</time>
<extensions>
<gpxtpx:TrackPointExtension>
<gpxtpx:hr>104</gpxtpx:hr>
</gpxtpx:TrackPointExtension>
</extensions>
</trkpt>
<trkpt lat="33.0039349" lon="35.2181365">
<ele>350.10</ele>
<time>2023-12-19T09:52:09.079Z</time>
<extensions>
<gpxtpx:TrackPointExtension>
<gpxtpx:hr>105</gpxtpx:hr>
</gpxtpx:TrackPointExtension>
</extensions>
</trkpt>
<trkpt lat="33.0039083" lon="35.2178709">
<ele>348.43</ele>
<time>2023-12-19T09:52:12.072Z</time>
<extensions>
<gpxtpx:TrackPointExtension>
<gpxtpx:hr>103</gpxtpx:hr>
</gpxtpx:TrackPointExtension>
</extensions>
</trkpt>
<trkpt lat="33.0038969" lon="35.2176083">
<ele>347.06</ele>
<time>2023-12-19T09:52:15.079Z</time>
<extensions>
<gpxtpx:TrackPointExtension>
<gpxtpx:hr>102</gpxtpx:hr>
</gpxtpx:TrackPointExtension>
</extensions>
</trkpt>
<trkpt lat="33.0040548" lon="35.2174841">
<ele>350.39</ele>
<time>2023-12-19T09:52:20.072Z</time>
<extensions>
<gpxtpx:TrackPointExtension>
<gpxtpx:hr>102</gpxtpx:hr>
</gpxtpx:TrackPointExtension>
</extensions>
</trkpt>
<trkpt lat="33.0042374" lon="35.2174441">
<ele>354.17</ele>
<time>2023-12-19T09:52:32.070Z</time>
<extensions>
<gpxtpx:TrackPointExtension>
<gpxtpx:hr>114</gpxtpx:hr>
</gpxtpx:TrackPointExtension>
</extensions>
</trkpt>
<trkpt lat="33.0043586" lon="35.2172727">
<ele>354.16</ele>
<time>2023-12-19T09:52:44.073Z</time>
<extensions>
<gpxtpx:TrackPointExtension>
<gpxtpx:hr>123</gpxtpx:hr>
</gpxtpx:TrackPointExtension>
</extensions>
</trkpt>
<trkpt lat="33.0044630" lon="35.2170609">
<ele>353.94</ele>
<time>2023-12-19T09:52:51.073Z</time>
<extensions>
<gpxtpx:TrackPointExtension>
<gpxtpx:hr>125</gpxtpx:hr>
</gpxtpx:TrackPointExtension>
</extensions>
</trkpt>
<trkpt lat="33.0045171" lon="35.2168212">
<ele>353.16</ele>
<time>2023-12-19T09:52:56.080Z</time>
<extensions>
<gpxtpx:TrackPointExtension>
<gpxtpx:hr>126</gpxtpx:hr>
</gpxtpx:TrackPointExtension>
</extensions>
</trkpt>
<trkpt lat="33.0045199" lon="35.2165798">
<ele>351.86</ele>
<time>2023-12-19T09:53:01.072Z</time>
<extensions>
<gpxtpx:TrackPointExtension>
<gpxtpx:hr>125</gpxtpx:hr>
</gpxtpx:TrackPointExtension>
</extensions>
</trkpt>
<trkpt lat="33.0044066" lon="35.2162763">
<ele>349.01</ele>
<time>2023-12-19T09:53:05.158Z</time>
<extensions>
<gpxtpx:TrackPointExtension>
<gpxtpx:hr>124</gpxtpx:hr>
</gpxtpx:TrackPointExtension>
</extensions>
</trkpt>
<trkpt lat="33.0043251" lon="35.2160214">
<ele>346.92</ele>
<time>2023-12-19T09:53:12.363Z</time>
<extensions>
<gpxtpx:TrackPointExtension>
<gpxtpx:hr>124</gpxtpx:hr>
</gpxtpx:TrackPointExtension>
</extensions>
</trkpt>
<trkpt lat="33.0048744" lon="35.2159367">
<ele>350.56</ele>
<time>2023-12-19T09:53:17.193Z</time>
<extensions>
<gpxtpx:TrackPointExtension>
<gpxtpx:hr>122</gpxtpx:hr>
</gpxtpx:TrackPointExtension>
</extensions>
</trkpt>
<trkpt lat="33.0054901" lon="35.2108779">
<ele>335.02</ele>
<time>2023-12-19T09:54:05.028Z</time>
<extensions>
<gpxtpx:TrackPointExtension>
<gpxtpx:hr>102</gpxtpx:hr>
</gpxtpx:TrackPointExtension>
</extensions>
</trkpt>
<trkpt lat="33.0055816" lon="35.2102872">
<ele>325.76</ele>
<time>2023-12-19T09:54:21.381Z</time>
<extensions>
<gpxtpx:TrackPointExtension>
<gpxtpx:hr>109</gpxtpx:hr>
</gpxtpx:TrackPointExtension>
</extensions>
</trkpt>
<trkpt lat="33.0052015" lon="35.2103833">
<ele>324.64</ele>
<time>2023-12-19T09:54:26.679Z</time>
<extensions>
<gpxtpx:TrackPointExtension>
<gpxtpx:hr>112</gpxtpx:hr>
</gpxtpx:TrackPointExtension>
</extensions>
</trkpt>
<trkpt lat="33.0053686" lon="35.2100916">
<ele>324.07</ele>
<time>2023-12-19T09:54:36.551Z</time>
<extensions>
<gpxtpx:TrackPointExtension>
<gpxtpx:hr>112</gpxtpx:hr>
</gpxtpx:TrackPointExtension>
</extensions>
</trkpt>
<trkpt lat="33.0055831" lon="35.2099097">
<ele>324.03</ele>
<time>2023-12-19T09:54:41.530Z</time>
<extensions>
<gpxtpx:TrackPointExtension>
<gpxtpx:hr>113</gpxtpx:hr>
</gpxtpx:TrackPointExtension>
</extensions>
</trkpt>
<trkpt lat="33.0058486" lon="35.2097430">
<ele>323.91</ele>
<time>2023-12-19T09:55:11.874Z</time>
<extensions>
<gpxtpx:TrackPointExtension>
<gpxtpx:hr>113</gpxtpx:hr>
</gpxtpx:TrackPointExtension>
</extensions>
</trkpt>
<trkpt lat="33.0062016" lon="35.2097451">
<ele>323.07</ele>
<time>2023-12-19T09:55:21.860Z</time>
<extensions>
<gpxtpx:TrackPointExtension>
<gpxtpx:hr>114</gpxtpx:hr>
</gpxtpx:TrackPointExtension>
</extensions>
</trkpt>
<trkpt lat="33.0065170" lon="35.2096879">
<ele>321.91</ele>
<time>2023-12-19T09:55:26.912Z</time>
<extensions>
<gpxtpx:TrackPointExtension>
<gpxtpx:hr>113</gpxtpx:hr>
</gpxtpx:TrackPointExtension>
</extensions>
</trkpt>
<trkpt lat="33.0061437" lon="35.2098546">
<ele>322.69</ele>
<time>2023-12-19T09:55:46.857Z</time>
<extensions>
<gpxtpx:TrackPointExtension>
<gpxtpx:hr>112</gpxtpx:hr>
</gpxtpx:TrackPointExtension>
</extensions>
</trkpt>
<trkpt lat="33.0056739" lon="35.2098713">
<ele>323.67</ele>
<time>2023-12-19T09:55:51.848Z</time>
<extensions>
<gpxtpx:TrackPointExtension>
<gpxtpx:hr>112</gpxtpx:hr>
</gpxtpx:TrackPointExtension>
</extensions>
</trkpt>
<trkpt lat="33.0061873" lon="35.2096981">
<ele>322.90</ele>
<time>2023-12-19T09:56:01.908Z</time>
<extensions>
<gpxtpx:TrackPointExtension>
<gpxtpx:hr>107</gpxtpx:hr>
</gpxtpx:TrackPointExtension>
</extensions>
</trkpt>
<trkpt lat="33.0064732" lon="35.2047736">
<ele>304.40</ele>
<time>2023-12-19T09:56:16.196Z</time>
<extensions>
<gpxtpx:TrackPointExtension>
<gpxtpx:hr>102</gpxtpx:hr>
</gpxtpx:TrackPointExtension>
</extensions>
</trkpt>
<trkpt lat="33.0070301" lon="35.2022399">
<ele>287.54</ele>
<time>2023-12-19T09:56:33.070Z</time>
<extensions>
<gpxtpx:TrackPointExtension>
<gpxtpx:hr>98</gpxtpx:hr>
</gpxtpx:TrackPointExtension>
</extensions>
</trkpt>
<trkpt lat="33.0071269" lon="35.2018122">
<ele>283.88</ele>
<time>2023-12-19T09:56:35.068Z</time>
<extensions>
<gpxtpx:TrackPointExtension>
<gpxtpx:hr>96</gpxtpx:hr>
</gpxtpx:TrackPointExtension>
</extensions>
</trkpt>
<trkpt lat="33.0072781" lon="35.2016639">
<ele>282.61</ele>
<time>2023-12-19T09:56:37.075Z</time>
<extensions>
<gpxtpx:TrackPointExtension>
<gpxtpx:hr>96</gpxtpx:hr>
</gpxtpx:TrackPointExtension>
</extensions>
</trkpt>
<trkpt lat="33.0074250" lon="35.2015329">
<ele>282.12</ele>
<time>2023-12-19T09:56:39.069Z</time>
<extensions>
<gpxtpx:TrackPointExtension>
<gpxtpx:hr>97</gpxtpx:hr>
</gpxtpx:TrackPointExtension>
</extensions>
</trkpt>
<trkpt lat="33.0075760" lon="35.2013603">
<ele>281.37</ele>
<time>2023-12-19T09:56:41.075Z</time>
<extensions>
<gpxtpx:TrackPointExtension>
<gpxtpx:hr>99</gpxtpx:hr>
</gpxtpx:TrackPointExtension>
</extensions>
</trkpt>
<trkpt lat="33.0077799" lon="35.2011508">
<ele>280.55</ele>
<time>2023-12-19T09:56:44.070Z</time>
<extensions>
<gpxtpx:TrackPointExtension>
<gpxtpx:hr>99</gpxtpx:hr>
</gpxtpx:TrackPointExtension>
</extensions>
</trkpt>
<trkpt lat="33.0079794" lon="35.2009368">
<ele>280.47</ele>
<time>2023-12-19T09:56:47.067Z</time>
<extensions>
<gpxtpx:TrackPointExtension>
<gpxtpx:hr>99</gpxtpx:hr>
</gpxtpx:TrackPointExtension>
</extensions>
</trkpt>
<trkpt lat="33.0081604" lon="35.2007487">
<ele>280.89</ele>
<time>2023-12-19T09:56:50.068Z</time>
<extensions>
<gpxtpx:TrackPointExtension>
<gpxtpx:hr>100</gpxtpx:hr>
</gpxtpx:TrackPointExtension>
</extensions>
</trkpt>
<trkpt lat="33.0083518" lon="35.2005725">
<ele>281.24</ele>
<time>2023-12-19T09:56:53.077Z</time>
<extensions>
<gpxtpx:TrackPointExtension>
<gpxtpx:hr>102</gpxtpx:hr>
</gpxtpx:TrackPointExtension>
</extensions>
</trkpt>
<trkpt lat="33.0085274" lon="35.2003932">
<ele>279.98</ele>
<time>2023-12-19T09:56:56.070Z</time>
<extensions>
<gpxtpx:TrackPointExtension>
<gpxtpx:hr>102</gpxtpx:hr>
</gpxtpx:TrackPointExtension>
</extensions>
</trkpt>
<trkpt lat="33.0086871" lon="35.2002170">
<ele>278.77</ele>
<time>2023-12-19T09:56:59.075Z</time>
<extensions>
<gpxtpx:TrackPointExtension>
<gpxtpx:hr>101</gpxtpx:hr>
</gpxtpx:TrackPointExtension>
</extensions>
</trkpt>
<trkpt lat="33.0088489" lon="35.2000440">
<ele>277.71</ele>
<time>2023-12-19T09:57:02.067Z</time>
<extensions>
<gpxtpx:TrackPointExtension>
<gpxtpx:hr>99</gpxtpx:hr>
</gpxtpx:TrackPointExtension>
</extensions>
</trkpt>
<trkpt lat="33.0090125" lon="35.1998404">
<ele>276.57</ele>
<time>2023-12-19T09:57:05.064Z</time>
<extensions>
<gpxtpx:TrackPointExtension>
<gpxtpx:hr>101</gpxtpx:hr>
</gpxtpx:TrackPointExtension>
</extensions>
</trkpt>
<trkpt lat="33.0091784" lon="35.1996356">
<ele>275.59</ele>
<time>2023-12-19T09:57:08.071Z</time>
<extensions>
<gpxtpx:TrackPointExtension>
<gpxtpx:hr>102</gpxtpx:hr>
</gpxtpx:TrackPointExtension>
</extensions>
</trkpt>
<trkpt lat="33.0093129" lon="35.1994129">
<ele>274.22</ele>
<time>2023-12-19T09:57:11.072Z</time>
<extensions>
<gpxtpx:TrackPointExtension>
<gpxtpx:hr>100</gpxtpx:hr>
</gpxtpx:TrackPointExtension>
</extensions>
</trkpt>
<trkpt lat="33.0094190" lon="35.1991675">
<ele>273.30</ele>
<time>2023-12-19T09:57:14.070Z</time>
<extensions>
<gpxtpx:TrackPointExtension>
<gpxtpx:hr>99</gpxtpx:hr>
</gpxtpx:TrackPointExtension>
</extensions>
</trkpt>
<trkpt lat="33.0094992" lon="35.1988848">
<ele>271.92</ele>
<time>2023-12-19T09:57:17.074Z</time>
<extensions>
<gpxtpx:TrackPointExtension>
<gpxtpx:hr>102</gpxtpx:hr>
</gpxtpx:TrackPointExtension>
</extensions>
</trkpt>
<trkpt lat="33.0095681" lon="35.1985896">
<ele>270.57</ele>
<time>2023-12-19T09:57:20.080Z</time>
<extensions>
<gpxtpx:TrackPointExtension>
<gpxtpx:hr>102</gpxtpx:hr>
</gpxtpx:TrackPointExtension>
</extensions>
</trkpt>
<trkpt lat="33.0096204" lon="35.1983735">
<ele>269.61</ele>
<time>2023-12-19T09:57:22.075Z</time>
<extensions>
<gpxtpx:TrackPointExtension>
<gpxtpx:hr>102</gpxtpx:hr>
</gpxtpx:TrackPointExtension>
</extensions>
</trkpt>
<trkpt lat="33.0096668" lon="35.1981149">
<ele>267.98</ele>
<time>2023-12-19T09:57:24.078Z</time>
<extensions>
<gpxtpx:TrackPointExtension>
<gpxtpx:hr>101</gpxtpx:hr>
</gpxtpx:TrackPointExtension>
</extensions>
</trkpt>
<trkpt lat="33.0097042" lon="35.1978601">
<ele>266.13</ele>
<time>2023-12-19T09:57:26.076Z</time>
<extensions>
<gpxtpx:TrackPointExtension>
<gpxtpx:hr>101</gpxtpx:hr>
</gpxtpx:TrackPointExtension>
</extensions>
</trkpt>
<trkpt lat="33.0096905" lon="35.1975626">
<ele>264.28</ele>
<time>2023-12-19T09:57:28.083Z</time>
<extensions>
<gpxtpx:TrackPointExtension>
<gpxtpx:hr>96</gpxtpx:hr>
</gpxtpx:TrackPointExtension>
</extensions>
</trkpt>
<trkpt lat="33.0096924" lon="35.1972755">
<ele>262.31</ele>
<time>2023-12-19T09:57:30.077Z</time>
<extensions>
<gpxtpx:TrackPointExtension>
<gpxtpx:hr>94</gpxtpx:hr>
</gpxtpx:TrackPointExtension>
</extensions>
</trkpt>
<trkpt lat="33.0096758" lon="35.1969791">
<ele>260.24</ele>
<time>2023-12-19T09:57:32.080Z</time>
<extensions>
<gpxtpx:TrackPointExtension>
<gpxtpx:hr>94</gpxtpx:hr>
</gpxtpx:TrackPointExtension>
</extensions>
</trkpt>
<trkpt lat="33.0096175" lon="35.1966865">
<ele>258.37</ele>
<time>2023-12-19T09:57:34.073Z</time>
<extensions>
<gpxtpx:TrackPointExtension>
<gpxtpx:hr>96</gpxtpx:hr>
</gpxtpx:TrackPointExtension>
</extensions>
</trkpt>
<trkpt lat="33.0095384" lon="35.1964059">
<ele>256.96</ele>
<time>2023-12-19T09:57:36.069Z</time>
<extensions>
<gpxtpx:TrackPointExtension>
<gpxtpx:hr>97</gpxtpx:hr>
</gpxtpx:TrackPointExtension>
</extensions>
</trkpt>
<trkpt lat="33.0094433" lon="35.1961250">
<ele>255.87</ele>
<time>2023-12-19T09:57:38.073Z</time>
<extensions>
<gpxtpx:TrackPointExtension>
<gpxtpx:hr>98</gpxtpx:hr>
</gpxtpx:TrackPointExtension>
</extensions>
</trkpt>
<trkpt lat="33.0093564" lon="35.1958529">
<ele>254.93</ele>
<time>2023-12-19T09:57:40.075Z</time>
<extensions>
<gpxtpx:TrackPointExtension>
<gpxtpx:hr>96</gpxtpx:hr>
</gpxtpx:TrackPointExtension>
</extensions>
</trkpt>
<trkpt lat="33.0092767" lon="35.1955827">
<ele>253.65</ele>
<time>2023-12-19T09:57:42.080Z</time>
<extensions>
<gpxtpx:TrackPointExtension>
<gpxtpx:hr>95</gpxtpx:hr>
</gpxtpx:TrackPointExtension>
</extensions>
</trkpt>
<trkpt lat="33.0091909" lon="35.1953093">
<ele>252.32</ele>
<time>2023-12-19T09:57:44.077Z</time>
<extensions>
<gpxtpx:TrackPointExtension>
<gpxtpx:hr>95</gpxtpx:hr>
</gpxtpx:TrackPointExtension>
</extensions>
</trkpt>
<trkpt lat="33.0090838" lon="35.1950349">
<ele>250.87</ele>
<time>2023-12-19T09:57:46.074Z</time>
<extensions>
<gpxtpx:TrackPointExtension>
<gpxtpx:hr>95</gpxtpx:hr>
</gpxtpx:TrackPointExtension>
</extensions>
</trkpt>
<trkpt lat="33.0089485" lon="35.1947845">
<ele>249.46</ele>
<time>2023-12-19T09:57:48.079Z</time>
<extensions>
<gpxtpx:TrackPointExtension>
<gpxtpx:hr>95</gpxtpx:hr>
</gpxtpx:TrackPointExtension>
</extensions>
</trkpt>
<trkpt lat="33.0088167" lon="35.1945343">
<ele>248.00</ele>
<time>2023-12-19T09:57:50.079Z</time>
<extensions>
<gpxtpx:TrackPointExtension>
<gpxtpx:hr>96</gpxtpx:hr>
</gpxtpx:TrackPointExtension>
</extensions>
</trkpt>
<trkpt lat="33.0086957" lon="35.1942740">
<ele>246.35</ele>
<time>2023-12-19T09:57:52.078Z</time>
<extensions>
<gpxtpx:TrackPointExtension>
<gpxtpx:hr>96</gpxtpx:hr>
</gpxtpx:TrackPointExtension>
</extensions>
</trkpt>
<trkpt lat="33.0086206" lon="35.1939959">
<ele>244.68</ele>
<time>2023-12-19T09:57:54.081Z</time>
<extensions>
<gpxtpx:TrackPointExtension>
<gpxtpx:hr>95</gpxtpx:hr>
</gpxtpx:TrackPointExtension>
</extensions>
</trkpt>
<trkpt lat="33.0085579" lon="35.1936839">
<ele>243.16</ele>
<time>2023-12-19T09:57:56.078Z</time>
<extensions>
<gpxtpx:TrackPointExtension>
<gpxtpx:hr>92</gpxtpx:hr>
</gpxtpx:TrackPointExtension>
</extensions>
</trkpt>
<trkpt lat="33.0085259" lon="35.1933803">
<ele>241.65</ele>
<time>2023-12-19T09:57:58.074Z</time>
<extensions>
<gpxtpx:TrackPointExtension>
<gpxtpx:hr>92</gpxtpx:hr>
</gpxtpx:TrackPointExtension>
</extensions>
</trkpt>
<trkpt lat="33.0084861" lon="35.1930832">
<ele>240.16</ele>
<time>2023-12-19T09:58:00.071Z</time>
<extensions>
<gpxtpx:TrackPointExtension>
<gpxtpx:hr>92</gpxtpx:hr>
</gpxtpx:TrackPointExtension>
</extensions>
</trkpt>
<trkpt lat="33.0084367" lon="35.1927811">
<ele>238.81</ele>
<time>2023-12-19T09:58:02.084Z</time>
<extensions>
<gpxtpx:TrackPointExtension>
<gpxtpx:hr>95</gpxtpx:hr>
</gpxtpx:TrackPointExtension>
</extensions>
</trkpt>
<trkpt lat="33.0084020" lon="35.1924891">
<ele>237.56</ele>
<time>2023-12-19T09:58:04.083Z</time>
<extensions>
<gpxtpx:TrackPointExtension>
<gpxtpx:hr>97</gpxtpx:hr>
</gpxtpx:TrackPointExtension>
</extensions>
</trkpt>
<trkpt lat="33.0084079" lon="35.1921994">
<ele>236.42</ele>
<time>2023-12-19T09:58:06.070Z</time>
<extensions>
<gpxtpx:TrackPointExtension>
<gpxtpx:hr>96</gpxtpx:hr>
</gpxtpx:TrackPointExtension>
</extensions>
</trkpt>
<trkpt lat="33.0084724" lon="35.1919062">
<ele>234.67</ele>
<time>2023-12-19T09:58:08.079Z</time>
<extensions>
<gpxtpx:TrackPointExtension>
<gpxtpx:hr>95</gpxtpx:hr>
</gpxtpx:TrackPointExtension>
</extensions>
</trkpt>
<trkpt lat="33.0085098" lon="35.1916187">
<ele>232.94</ele>
<time>2023-12-19T09:58:10.081Z</time>
<extensions>
<gpxtpx:TrackPointExtension>
<gpxtpx:hr>95</gpxtpx:hr>
</gpxtpx:TrackPointExtension>
</extensions>
</trkpt>
<trkpt lat="33.0085424" lon="35.1913270">
<ele>230.73</ele>
<time>2023-12-19T09:58:12.074Z</time>
<extensions>
<gpxtpx:TrackPointExtension>
<gpxtpx:hr>92</gpxtpx:hr>
</gpxtpx:TrackPointExtension>
</extensions>
</trkpt>
<trkpt lat="33.0085899" lon="35.1910475">
<ele>228.42</ele>
<time>2023-12-19T09:58:14.076Z</time>
<extensions>
<gpxtpx:TrackPointExtension>
<gpxtpx:hr>91</gpxtpx:hr>
</gpxtpx:TrackPointExtension>
</extensions>
</trkpt>
<trkpt lat="33.0086303" lon="35.1907691">
<ele>226.46</ele>
<time>2023-12-19T09:58:16.070Z</time>
<extensions>
<gpxtpx:TrackPointExtension>
<gpxtpx:hr>90</gpxtpx:hr>
</gpxtpx:TrackPointExtension>
</extensions>
</trkpt>
<trkpt lat="33.0086674" lon="35.1904841">
<ele>225.68</ele>
<time>2023-12-19T09:58:18.082Z</time>
<extensions>
<gpxtpx:TrackPointExtension>
<gpxtpx:hr>91</gpxtpx:hr>
</gpxtpx:TrackPointExtension>
</extensions>
</trkpt>
<trkpt lat="33.0087014" lon="35.1901910">
<ele>225.15</ele>
<time>2023-12-19T09:58:20.075Z</time>
<extensions>
<gpxtpx:TrackPointExtension>
<gpxtpx:hr>93</gpxtpx:hr>
</gpxtpx:TrackPointExtension>
</extensions>
</trkpt>
<trkpt lat="33.0087496" lon="35.1899157">
<ele>224.47</ele>
<time>2023-12-19T09:58:22.082Z</time>
<extensions>
<gpxtpx:TrackPointExtension>
<gpxtpx:hr>96</gpxtpx:hr>
</gpxtpx:TrackPointExtension>
</extensions>
</trkpt>
<trkpt lat="33.0087965" lon="35.1896310">
<ele>223.41</ele>
<time>2023-12-19T09:58:24.071Z</time>
<extensions>
<gpxtpx:TrackPointExtension>
<gpxtpx:hr>96</gpxtpx:hr>
</gpxtpx:TrackPointExtension>
</extensions>
</trkpt>
<trkpt lat="33.0088419" lon="35.1893509">
<ele>222.26</ele>
<time>2023-12-19T09:58:26.069Z</time>
<extensions>
<gpxtpx:TrackPointExtension>
<gpxtpx:hr>95</gpxtpx:hr>
</gpxtpx:TrackPointExtension>
</extensions>
</trkpt>
<trkpt lat="33.0088980" lon="35.1890495">
<ele>220.65</ele>
<time>2023-12-19T09:58:28.077Z</time>
<extensions>
<gpxtpx:TrackPointExtension>
<gpxtpx:hr>92</gpxtpx:hr>
</gpxtpx:TrackPointExtension>
</extensions>
</trkpt>
<trkpt lat="33.0089585" lon="35.1887542">
<ele>218.40</ele>
<time>2023-12-19T09:58:30.070Z</time>
<extensions>
<gpxtpx:TrackPointExtension>
<gpxtpx:hr>92</gpxtpx:hr>
</gpxtpx:TrackPointExtension>
</extensions>
</trkpt>
<trkpt lat="33.0090313" lon="35.1884563">
<ele>215.88</ele>
<time>2023-12-19T09:58:32.080Z</time>
<extensions>
<gpxtpx:TrackPointExtension>
<gpxtpx:hr>92</gpxtpx:hr>
</gpxtpx:TrackPointExtension>
</extensions>
</trkpt>
<trkpt lat="33.0090968" lon="35.1881624">
<ele>213.21</ele>
<time>2023-12-19T09:58:34.071Z</time>
<extensions>
<gpxtpx:TrackPointExtension>
<gpxtpx:hr>94</gpxtpx:hr>
</gpxtpx:TrackPointExtension>
</extensions>
</trkpt>
<trkpt lat="33.0091603" lon="35.1878488">
<ele>210.24</ele>
<time>2023-12-19T09:58:36.069Z</time>
<extensions>
<gpxtpx:TrackPointExtension>
<gpxtpx:hr>96</gpxtpx:hr>
</gpxtpx:TrackPointExtension>
</extensions>
</trkpt>
<trkpt lat="33.0092141" lon="35.1875081">
<ele>206.97</ele>
<time>2023-12-19T09:58:38.071Z</time>
<extensions>
<gpxtpx:TrackPointExtension>
<gpxtpx:hr>97</gpxtpx:hr>
</gpxtpx:TrackPointExtension>
</extensions>
</trkpt>
<trkpt lat="33.0092632" lon="35.1871622">
<ele>204.31</ele>
<time>2023-12-19T09:58:40.082Z</time>
<extensions>
<gpxtpx:TrackPointExtension>
<gpxtpx:hr>98</gpxtpx:hr>
</gpxtpx:TrackPointExtension>
</extensions>
</trkpt>
<trkpt lat="33.0093209" lon="35.1868233">
<ele>201.74</ele>
<time>2023-12-19T09:58:42.077Z</time>
<extensions>
<gpxtpx:TrackPointExtension>
<gpxtpx:hr>98</gpxtpx:hr>
</gpxtpx:TrackPointExtension>
</extensions>
</trkpt>
<trkpt lat="33.0094392" lon="35.1864971">
<ele>198.96</ele>
<time>2023-12-19T09:58:44.076Z</time>
<extensions>
<gpxtpx:TrackPointExtension>
<gpxtpx:hr>97</gpxtpx:hr>
</gpxtpx:TrackPointExtension>
</extensions>
</trkpt>
<trkpt lat="33.0095914" lon="35.1861871">
<ele>196.42</ele>
<time>2023-12-19T09:58:46.075Z</time>
<extensions>
<gpxtpx:TrackPointExtension>
<gpxtpx:hr>96</gpxtpx:hr>
</gpxtpx:TrackPointExtension>
</extensions>
</trkpt>
<trkpt lat="33.0097810" lon="35.1859058">
<ele>193.37</ele>
<time>2023-12-19T09:58:48.073Z</time>
<extensions>
<gpxtpx:TrackPointExtension>
<gpxtpx:hr>94</gpxtpx:hr>
</gpxtpx:TrackPointExtension>
</extensions>
</trkpt>
<trkpt lat="33.0099697" lon="35.1856197">
<ele>190.77</ele>
<time>2023-12-19T09:58:50.076Z</time>
<extensions>
<gpxtpx:TrackPointExtension>
<gpxtpx:hr>94</gpxtpx:hr>
</gpxtpx:TrackPointExtension>
</extensions>
</trkpt>
<trkpt lat="33.0101288" lon="35.1853287">
<ele>189.75</ele>
<time>2023-12-19T09:58:52.077Z</time>
<extensions>
<gpxtpx:TrackPointExtension>
<gpxtpx:hr>95</gpxtpx:hr>
</gpxtpx:TrackPointExtension>
</extensions>
</trkpt>
<trkpt lat="33.0102731" lon="35.1850481">
<ele>188.85</ele>
<time>2023-12-19T09:58:54.071Z</time>
<extensions>
<gpxtpx:TrackPointExtension>
<gpxtpx:hr>94</gpxtpx:hr>
</gpxtpx:TrackPointExtension>
</extensions>
</trkpt>
<trkpt lat="33.0104074" lon="35.1847733">
<ele>188.52</ele>
<time>2023-12-19T09:58:56.072Z</time>
<extensions>
<gpxtpx:TrackPointExtension>
<gpxtpx:hr>95</gpxtpx:hr>
</gpxtpx:TrackPointExtension>
</extensions>
</trkpt>
<trkpt lat="33.0105393" lon="35.1844903">
<ele>188.29</ele>
<time>2023-12-19T09:58:58.076Z</time>
<extensions>
<gpxtpx:TrackPointExtension>
<gpxtpx:hr>95</gpxtpx:hr>
</gpxtpx:TrackPointExtension>
</extensions>
</trkpt>
<trkpt lat="33.0106566" lon="35.1842238">
<ele>187.83</ele>
<time>2023-12-19T09:59:00.071Z</time>
<extensions>
<gpxtpx:TrackPointExtension>
<gpxtpx:hr>94</gpxtpx:hr>
</gpxtpx:TrackPointExtension>
</extensions>
</trkpt>
<trkpt lat="33.0107790" lon="35.1839680">
<ele>187.54</ele>
<time>2023-12-19T09:59:02.074Z</time>
<extensions>
<gpxtpx:TrackPointExtension>
<gpxtpx:hr>92</gpxtpx:hr>
</gpxtpx:TrackPointExtension>
</extensions>
</trkpt>
<trkpt lat="33.0108871" lon="35.1837326">
<ele>187.94</ele>
<time>2023-12-19T09:59:04.070Z</time>
<extensions>
<gpxtpx:TrackPointExtension>
<gpxtpx:hr>93</gpxtpx:hr>
</gpxtpx:TrackPointExtension>
</extensions>
</trkpt>
<trkpt lat="33.0110078" lon="35.1835244">
<ele>188.16</ele>
<time>2023-12-19T09:59:06.080Z</time>
<extensions>
<gpxtpx:TrackPointExtension>
<gpxtpx:hr>94</gpxtpx:hr>
</gpxtpx:TrackPointExtension>
</extensions>
</trkpt>
<trkpt lat="33.0111308" lon="35.1833257">
<ele>187.84</ele>
<time>2023-12-19T09:59:08.078Z</time>
<extensions>
<gpxtpx:TrackPointExtension>
<gpxtpx:hr>94</gpxtpx:hr>
</gpxtpx:TrackPointExtension>
</extensions>
</trkpt>
<trkpt lat="33.0112517" lon="35.1831450">
<ele>187.07</ele>
<time>2023-12-19T09:59:10.069Z</time>
<extensions>
<gpxtpx:TrackPointExtension>
<gpxtpx:hr>97</gpxtpx:hr>
</gpxtpx:TrackPointExtension>
</extensions>
</trkpt>
<trkpt lat="33.0113620" lon="35.1829586">
<ele>186.34</ele>
<time>2023-12-19T09:59:12.078Z</time>
<extensions>
<gpxtpx:TrackPointExtension>
<gpxtpx:hr>98</gpxtpx:hr>
</gpxtpx:TrackPointExtension>
</extensions>
</trkpt>
<trkpt lat="33.0115025" lon="35.1826997">
<ele>185.51</ele>
<time>2023-12-19T09:59:15.069Z</time>
<extensions>
<gpxtpx:TrackPointExtension>
<gpxtpx:hr>100</gpxtpx:hr>
</gpxtpx:TrackPointExtension>
</extensions>
</trkpt>
<trkpt lat="33.0116336" lon="35.1824306">
<ele>184.53</ele>
<time>2023-12-19T09:59:18.076Z</time>
<extensions>
<gpxtpx:TrackPointExtension>
<gpxtpx:hr>99</gpxtpx:hr>
</gpxtpx:TrackPointExtension>
</extensions>
</trkpt>
<trkpt lat="33.0117730" lon="35.1821526">
<ele>182.82</ele>
<time>2023-12-19T09:59:21.068Z</time>
<extensions>
<gpxtpx:TrackPointExtension>
<gpxtpx:hr>94</gpxtpx:hr>
</gpxtpx:TrackPointExtension>
</extensions>
</trkpt>
<trkpt lat="33.0118676" lon="35.1819582">
<ele>181.80</ele>
<time>2023-12-19T09:59:23.072Z</time>
<extensions>
<gpxtpx:TrackPointExtension>
<gpxtpx:hr>94</gpxtpx:hr>
</gpxtpx:TrackPointExtension>
</extensions>
</trkpt>
<trkpt lat="33.0119601" lon="35.1817562">
<ele>180.73</ele>
<time>2023-12-19T09:59:25.077Z</time>
<extensions>
<gpxtpx:TrackPointExtension>
<gpxtpx:hr>93</gpxtpx:hr>
</gpxtpx:TrackPointExtension>
</extensions>
</trkpt>
<trkpt lat="33.0120271" lon="35.1815457">
<ele>179.62</ele>
<time>2023-12-19T09:59:27.075Z</time>
<extensions>
<gpxtpx:TrackPointExtension>
<gpxtpx:hr>95</gpxtpx:hr>
</gpxtpx:TrackPointExtension>
</extensions>
</trkpt>
<trkpt lat="33.0120532" lon="35.1813239">
<ele>178.62</ele>
<time>2023-12-19T09:59:29.070Z</time>
<extensions>
<gpxtpx:TrackPointExtension>
<gpxtpx:hr>96</gpxtpx:hr>
</gpxtpx:TrackPointExtension>
</extensions>
</trkpt>
<trkpt lat="33.0120608" lon="35.1810886">
<ele>177.71</ele>
<time>2023-12-19T09:59:31.075Z</time>
<extensions>
<gpxtpx:TrackPointExtension>
<gpxtpx:hr>97</gpxtpx:hr>
</gpxtpx:TrackPointExtension>
</extensions>
</trkpt>
<trkpt lat="33.0120591" lon="35.1808473">
<ele>176.83</ele>
<time>2023-12-19T09:59:33.080Z</time>
<extensions>
<gpxtpx:TrackPointExtension>
<gpxtpx:hr>96</gpxtpx:hr>
</gpxtpx:TrackPointExtension>
</extensions>
</trkpt>
<trkpt lat="33.0120585" lon="35.1806220">
<ele>176.11</ele>
<time>2023-12-19T09:59:35.067Z</time>
<extensions>
<gpxtpx:TrackPointExtension>
<gpxtpx:hr>94</gpxtpx:hr>
</gpxtpx:TrackPointExtension>
</extensions>
</trkpt>
<trkpt lat="33.0120696" lon="35.1803989">
<ele>175.41</ele>
<time>2023-12-19T09:59:37.068Z</time>
<extensions>
<gpxtpx:TrackPointExtension>
<gpxtpx:hr>92</gpxtpx:hr>
</gpxtpx:TrackPointExtension>
</extensions>
</trkpt>
<trkpt lat="33.0120866" lon="35.1801848">
<ele>174.69</ele>
<time>2023-12-19T09:59:39.069Z</time>
<extensions>
<gpxtpx:TrackPointExtension>
<gpxtpx:hr>91</gpxtpx:hr>
</gpxtpx:TrackPointExtension>
</extensions>
</trkpt>
<trkpt lat="33.0121207" lon="35.1799604">
<ele>173.80</ele>
<time>2023-12-19T09:59:41.072Z</time>
<extensions>
<gpxtpx:TrackPointExtension>
<gpxtpx:hr>92</gpxtpx:hr>
</gpxtpx:TrackPointExtension>
</extensions>
</trkpt>
<trkpt lat="33.0121679" lon="35.1797259">
<ele>172.29</ele>
<time>2023-12-19T09:59:43.075Z</time>
<extensions>
<gpxtpx:TrackPointExtension>
<gpxtpx:hr>93</gpxtpx:hr>
</gpxtpx:TrackPointExtension>
</extensions>
</trkpt>
<trkpt lat="33.0122105" lon="35.1795051">
<ele>170.75</ele>
<time>2023-12-19T09:59:45.075Z</time>
<extensions>
<gpxtpx:TrackPointExtension>
<gpxtpx:hr>95</gpxtpx:hr>
</gpxtpx:TrackPointExtension>
</extensions>
</trkpt>
<trkpt lat="33.0122610" lon="35.1792824">
<ele>169.18</ele>
<time>2023-12-19T09:59:47.074Z</time>
<extensions>
<gpxtpx:TrackPointExtension>
<gpxtpx:hr>94</gpxtpx:hr>
</gpxtpx:TrackPointExtension>
</extensions>
</trkpt>
<trkpt lat="33.0123011" lon="35.1790609">
<ele>167.67</ele>
<time>2023-12-19T09:59:49.073Z</time>
<extensions>
<gpxtpx:TrackPointExtension>
<gpxtpx:hr>92</gpxtpx:hr>
</gpxtpx:TrackPointExtension>
</extensions>
</trkpt>
<trkpt lat="33.0123532" lon="35.1788300">
<ele>166.09</ele>
<time>2023-12-19T09:59:51.072Z</time>
<extensions>
<gpxtpx:TrackPointExtension>
<gpxtpx:hr>91</gpxtpx:hr>
</gpxtpx:TrackPointExtension>
</extensions>
</trkpt>
<trkpt lat="33.0124097" lon="35.1785908">
<ele>164.42</ele>
<time>2023-12-19T09:59:53.074Z</time>
<extensions>
<gpxtpx:TrackPointExtension>
<gpxtpx:hr>91</gpxtpx:hr>
</gpxtpx:TrackPointExtension>
</extensions>
</trkpt>
<trkpt lat="33.0124695" lon="35.1783523">
<ele>162.67</ele>
<time>2023-12-19T09:59:55.073Z</time>
<extensions>
<gpxtpx:TrackPointExtension>
<gpxtpx:hr>91</gpxtpx:hr>
</gpxtpx:TrackPointExtension>
</extensions>
</trkpt>
<trkpt lat="33.0125251" lon="35.1781055">
<ele>162.00</ele>
<time>2023-12-19T09:59:57.072Z</time>
<extensions>
<gpxtpx:TrackPointExtension>
<gpxtpx:hr>93</gpxtpx:hr>
</gpxtpx:TrackPointExtension>
</extensions>
</trkpt>
<trkpt lat="33.0125804" lon="35.1778372">
<ele>161.70</ele>
<time>2023-12-19T09:59:59.069Z</time>
<extensions>
<gpxtpx:TrackPointExtension>
<gpxtpx:hr>95</gpxtpx:hr>
</gpxtpx:TrackPointExtension>
</extensions>
</trkpt>
<trkpt lat="33.0126403" lon="35.1775611">
<ele>161.29</ele>
<time>2023-12-19T10:00:01.075Z</time>
<extensions>
<gpxtpx:TrackPointExtension>
<gpxtpx:hr>95</gpxtpx:hr>
</gpxtpx:TrackPointExtension>
</extensions>
</trkpt>
<trkpt lat="33.0127045" lon="35.1772869">
<ele>160.56</ele>
<time>2023-12-19T10:00:03.075Z</time>
<extensions>
<gpxtpx:TrackPointExtension>
<gpxtpx:hr>97</gpxtpx:hr>
</gpxtpx:TrackPointExtension>
</extensions>
</trkpt>
<trkpt lat="33.0127614" lon="35.1770430">
<ele>159.72</ele>
<time>2023-12-19T10:00:05.072Z</time>
<extensions>
<gpxtpx:TrackPointExtension>
<gpxtpx:hr>98</gpxtpx:hr>
</gpxtpx:TrackPointExtension>
</extensions>
</trkpt>
<trkpt lat="33.0128159" lon="35.1768217">
<ele>158.86</ele>
<time>2023-12-19T10:00:07.075Z</time>
<extensions>
<gpxtpx:TrackPointExtension>
<gpxtpx:hr>99</gpxtpx:hr>
</gpxtpx:TrackPointExtension>
</extensions>
</trkpt>
<trkpt lat="33.0128643" lon="35.1766109">
<ele>157.93</ele>
<time>2023-12-19T10:00:09.076Z</time>
<extensions>
<gpxtpx:TrackPointExtension>
<gpxtpx:hr>98</gpxtpx:hr>
</gpxtpx:TrackPointExtension>
</extensions>
</trkpt>
<trkpt lat="33.0129329" lon="35.1763113">
<ele>156.13</ele>
<time>2023-12-19T10:00:12.073Z</time>
<extensions>
<gpxtpx:TrackPointExtension>
<gpxtpx:hr>96</gpxtpx:hr>
</gpxtpx:TrackPointExtension>
</extensions>
</trkpt>
<trkpt lat="33.0130109" lon="35.1760198">
<ele>154.19</ele>
<time>2023-12-19T10:00:15.077Z</time>
<extensions>
<gpxtpx:TrackPointExtension>
<gpxtpx:hr>96</gpxtpx:hr>
</gpxtpx:TrackPointExtension>
</extensions>
</trkpt>
<trkpt lat="33.0130514" lon="35.1758103">
<ele>152.88</ele>
<time>2023-12-19T10:00:17.070Z</time>
<extensions>
<gpxtpx:TrackPointExtension>
<gpxtpx:hr>96</gpxtpx:hr>
</gpxtpx:TrackPointExtension>
</extensions>
</trkpt>
<trkpt lat="33.0131057" lon="35.1754975">
<ele>151.02</ele>
<time>2023-12-19T10:00:20.076Z</time>
<extensions>
<gpxtpx:TrackPointExtension>
<gpxtpx:hr>96</gpxtpx:hr>
</gpxtpx:TrackPointExtension>
</extensions>
</trkpt>
<trkpt lat="33.0131983" lon="35.1752071">
<ele>148.52</ele>
<time>2023-12-19T10:00:23.075Z</time>
<extensions>
<gpxtpx:TrackPointExtension>
<gpxtpx:hr>97</gpxtpx:hr>
</gpxtpx:TrackPointExtension>
</extensions>
</trkpt>
<trkpt lat="33.0133032" lon="35.1749695">
<ele>145.76</ele>
<time>2023-12-19T10:00:26.067Z</time>
<extensions>
<gpxtpx:TrackPointExtension>
<gpxtpx:hr>97</gpxtpx:hr>
</gpxtpx:TrackPointExtension>
</extensions>
</trkpt>
<trkpt lat="33.0134104" lon="35.1747362">
<ele>144.22</ele>
<time>2023-12-19T10:00:29.064Z</time>
<extensions>
<gpxtpx:TrackPointExtension>
<gpxtpx:hr>95</gpxtpx:hr>
</gpxtpx:TrackPointExtension>
</extensions>
</trkpt>
<trkpt lat="33.0134472" lon="35.1745200">
<ele>143.37</ele>
<time>2023-12-19T10:00:32.069Z</time>
<extensions>
<gpxtpx:TrackPointExtension>
<gpxtpx:hr>95</gpxtpx:hr>
</gpxtpx:TrackPointExtension>
</extensions>
</trkpt>
<trkpt lat="33.0133752" lon="35.1747344">
<ele>144.04</ele>
<time>2023-12-19T10:01:01.075Z</time>
<extensions>
<gpxtpx:TrackPointExtension>
<gpxtpx:hr>108</gpxtpx:hr>
</gpxtpx:TrackPointExtension>
</extensions>
</trkpt>
<trkpt lat="33.0133075" lon="35.1749578">
<ele>145.17</ele>
<time>2023-12-19T10:01:11.075Z</time>
<extensions>
<gpxtpx:TrackPointExtension>
<gpxtpx:hr>112</gpxtpx:hr>
</gpxtpx:TrackPointExtension>
</extensions>
</trkpt>
<trkpt lat="33.0132131" lon="35.1751487">
<ele>147.55</ele>
<time>2023-12-19T10:01:22.076Z</time>
<extensions>
<gpxtpx:TrackPointExtension>
<gpxtpx:hr>117</gpxtpx:hr>
</gpxtpx:TrackPointExtension>
</extensions>
</trkpt>
<trkpt lat="33.0131249" lon="35.1753486">
<ele>149.74</ele>
<time>2023-12-19T10:01:32.082Z</time>
<extensions>
<gpxtpx:TrackPointExtension>
<gpxtpx:hr>122</gpxtpx:hr>
</gpxtpx:TrackPointExtension>
</extensions>
</trkpt>
<trkpt lat="33.0130486" lon="35.1755649">
<ele>151.61</ele>
<time>2023-12-19T10:01:43.068Z</time>
<extensions>
<gpxtpx:TrackPointExtension>
<gpxtpx:hr>127</gpxtpx:hr>
</gpxtpx:TrackPointExtension>
</extensions>
</trkpt>
<trkpt lat="33.0129854" lon="35.1757753">
<ele>153.08</ele>
<time>2023-12-19T10:01:53.075Z</time>
<extensions>
<gpxtpx:TrackPointExtension>
<gpxtpx:hr>130</gpxtpx:hr>
</gpxtpx:TrackPointExtension>
</extensions>
</trkpt>
<trkpt lat="33.0129305" lon="35.1759899">
<ele>154.46</ele>
<time>2023-12-19T10:02:04.080Z</time>
<extensions>
<gpxtpx:TrackPointExtension>
<gpxtpx:hr>134</gpxtpx:hr>
</gpxtpx:TrackPointExtension>
</extensions>
</trkpt>
<trkpt lat="33.0128688" lon="35.1762077">
<ele>155.97</ele>
<time>2023-12-19T10:02:15.069Z</time>
<extensions>
<gpxtpx:TrackPointExtension>
<gpxtpx:hr>133</gpxtpx:hr>
</gpxtpx:TrackPointExtension>
</extensions>
</trkpt>
<trkpt lat="33.0128259" lon="35.1764264">
<ele>157.23</ele>
<time>2023-12-19T10:02:26.080Z</time>
<extensions>
<gpxtpx:TrackPointExtension>
<gpxtpx:hr>136</gpxtpx:hr>
</gpxtpx:TrackPointExtension>
</extensions>
</trkpt>
<trkpt lat="33.0127691" lon="35.1766451">
<ele>158.60</ele>
<time>2023-12-19T10:02:38.076Z</time>
<extensions>
<gpxtpx:TrackPointExtension>
<gpxtpx:hr>140</gpxtpx:hr>
</gpxtpx:TrackPointExtension>
</extensions>
</trkpt>
<trkpt lat="33.0126906" lon="35.1768438">
<ele>159.67</ele>
<time>2023-12-19T10:02:49.081Z</time>
<extensions>
<gpxtpx:TrackPointExtension>
<gpxtpx:hr>141</gpxtpx:hr>
</gpxtpx:TrackPointExtension>
</extensions>
</trkpt>
<trkpt lat="33.0126522" lon="35.1770646">
<ele>160.34</ele>
<time>2023-12-19T10:03:00.067Z</time>
<extensions>
<gpxtpx:TrackPointExtension>
<gpxtpx:hr>143</gpxtpx:hr>
</gpxtpx:TrackPointExtension>
</extensions>
</trkpt>
<trkpt lat="33.0125986" lon="35.1772787">
<ele>161.05</ele>
<time>2023-12-19T10:03:11.075Z</time>
<extensions>
<gpxtpx:TrackPointExtension>
<gpxtpx:hr>144</gpxtpx:hr>
</gpxtpx:TrackPointExtension>
</extensions>
</trkpt>
<trkpt lat="33.0125413" lon="35.1775000">
<ele>161.73</ele>
<time>2023-12-19T10:03:23.082Z</time>
<extensions>
<gpxtpx:TrackPointExtension>
<gpxtpx:hr>145</gpxtpx:hr>
</gpxtpx:TrackPointExtension>
</extensions>
</trkpt>
<trkpt lat="33.0125057" lon="35.1777272">
<ele>161.97</ele>
<time>2023-12-19T10:03:34.072Z</time>
<extensions>
<gpxtpx:TrackPointExtension>
<gpxtpx:hr>147</gpxtpx:hr>
</gpxtpx:TrackPointExtension>
</extensions>
</trkpt>
<trkpt lat="33.0124444" lon="35.1779514">
<ele>162.28</ele>
<time>2023-12-19T10:03:45.073Z</time>
<extensions>
<gpxtpx:TrackPointExtension>
<gpxtpx:hr>146</gpxtpx:hr>
</gpxtpx:TrackPointExtension>
</extensions>
</trkpt>
<trkpt lat="33.0123638" lon="35.1781628">
<ele>162.78</ele>
<time>2023-12-19T10:03:57.071Z</time>
<extensions>
<gpxtpx:TrackPointExtension>
<gpxtpx:hr>146</gpxtpx:hr>
</gpxtpx:TrackPointExtension>
</extensions>
</trkpt>
<trkpt lat="33.0123391" lon="35.1783820">
<ele>163.20</ele>
<time>2023-12-19T10:04:08.076Z</time>
<extensions>
<gpxtpx:TrackPointExtension>
<gpxtpx:hr>146</gpxtpx:hr>
</gpxtpx:TrackPointExtension>
</extensions>
</trkpt>
<trkpt lat="33.0123140" lon="35.1786083">
<ele>164.65</ele>
<time>2023-12-19T10:04:20.072Z</time>
<extensions>
<gpxtpx:TrackPointExtension>
<gpxtpx:hr>147</gpxtpx:hr>
</gpxtpx:TrackPointExtension>
</extensions>
</trkpt>
<trkpt lat="33.0122627" lon="35.1788199">
<ele>166.10</ele>
<time>2023-12-19T10:04:30.080Z</time>
<extensions>
<gpxtpx:TrackPointExtension>
<gpxtpx:hr>146</gpxtpx:hr>
</gpxtpx:TrackPointExtension>
</extensions>
</trkpt>
<trkpt lat="33.0122051" lon="35.1790251">
<ele>167.57</ele>
<time>2023-12-19T10:04:40.080Z</time>
<extensions>
<gpxtpx:TrackPointExtension>
<gpxtpx:hr>146</gpxtpx:hr>
</gpxtpx:TrackPointExtension>
</extensions>
</trkpt>
<trkpt lat="33.0121890" lon="35.1792460">
<ele>168.90</ele>
<time>2023-12-19T10:04:50.074Z</time>
<extensions>
<gpxtpx:TrackPointExtension>
<gpxtpx:hr>145</gpxtpx:hr>
</gpxtpx:TrackPointExtension>
</extensions>
</trkpt>
<trkpt lat="33.0121356" lon="35.1794679">
<ele>170.48</ele>
<time>2023-12-19T10:05:00.065Z</time>
<extensions>
<gpxtpx:TrackPointExtension>
<gpxtpx:hr>144</gpxtpx:hr>
</gpxtpx:TrackPointExtension>
</extensions>
</trkpt>
<trkpt lat="33.0120945" lon="35.1796997">
<ele>172.08</ele>
<time>2023-12-19T10:05:11.068Z</time>
<extensions>
<gpxtpx:TrackPointExtension>
<gpxtpx:hr>143</gpxtpx:hr>
</gpxtpx:TrackPointExtension>
</extensions>
</trkpt>
<trkpt lat="33.0120805" lon="35.1799243">
<ele>173.50</ele>
<time>2023-12-19T10:05:20.075Z</time>
<extensions>
<gpxtpx:TrackPointExtension>
<gpxtpx:hr>143</gpxtpx:hr>
</gpxtpx:TrackPointExtension>
</extensions>
</trkpt>
<trkpt lat="33.0120373" lon="35.1801470">
<ele>174.61</ele>
<time>2023-12-19T10:05:31.070Z</time>
<extensions>
<gpxtpx:TrackPointExtension>
<gpxtpx:hr>142</gpxtpx:hr>
</gpxtpx:TrackPointExtension>
</extensions>
</trkpt>
<trkpt lat="33.0120066" lon="35.1803686">
<ele>175.40</ele>
<time>2023-12-19T10:05:40.071Z</time>
<extensions>
<gpxtpx:TrackPointExtension>
<gpxtpx:hr>140</gpxtpx:hr>
</gpxtpx:TrackPointExtension>
</extensions>
</trkpt>
<trkpt lat="33.0119917" lon="35.1805827">
<ele>176.09</ele>
<time>2023-12-19T10:05:49.066Z</time>
<extensions>
<gpxtpx:TrackPointExtension>
<gpxtpx:hr>138</gpxtpx:hr>
</gpxtpx:TrackPointExtension>
</extensions>
</trkpt>
<trkpt lat="33.0120085" lon="35.1808130">
<ele>176.68</ele>
<time>2023-12-19T10:05:58.066Z</time>
<extensions>
<gpxtpx:TrackPointExtension>
<gpxtpx:hr>138</gpxtpx:hr>
</gpxtpx:TrackPointExtension>
</extensions>
</trkpt>
<trkpt lat="33.0120004" lon="35.1810519">
<ele>177.59</ele>
<time>2023-12-19T10:06:07.074Z</time>
<extensions>
<gpxtpx:TrackPointExtension>
<gpxtpx:hr>137</gpxtpx:hr>
</gpxtpx:TrackPointExtension>
</extensions>
</trkpt>
<trkpt lat="33.0119616" lon="35.1812849">
<ele>178.68</ele>
<time>2023-12-19T10:06:16.063Z</time>
<extensions>
<gpxtpx:TrackPointExtension>
<gpxtpx:hr>136</gpxtpx:hr>
</gpxtpx:TrackPointExtension>
</extensions>
</trkpt>
<trkpt lat="33.0119354" lon="35.1815030">
<ele>179.67</ele>
<time>2023-12-19T10:06:24.071Z</time>
<extensions>
<gpxtpx:TrackPointExtension>
<gpxtpx:hr>135</gpxtpx:hr>
</gpxtpx:TrackPointExtension>
</extensions>
</trkpt>
<trkpt lat="33.0119139" lon="35.1817279">
<ele>180.65</ele>
<time>2023-12-19T10:06:33.074Z</time>
<extensions>
<gpxtpx:TrackPointExtension>
<gpxtpx:hr>134</gpxtpx:hr>
</gpxtpx:TrackPointExtension>
</extensions>
</trkpt>
<trkpt lat="33.0118353" lon="35.1819290">
<ele>181.63</ele>
<time>2023-12-19T10:06:42.075Z</time>
<extensions>
<gpxtpx:TrackPointExtension>
<gpxtpx:hr>134</gpxtpx:hr>
</gpxtpx:TrackPointExtension>
</extensions>
</trkpt>
<trkpt lat="33.0117315" lon="35.1821162">
<ele>182.68</ele>
<time>2023-12-19T10:06:51.080Z</time>
<extensions>
<gpxtpx:TrackPointExtension>
<gpxtpx:hr>134</gpxtpx:hr>
</gpxtpx:TrackPointExtension>
</extensions>
</trkpt>
<trkpt lat="33.0116241" lon="35.1823158">
<ele>184.01</ele>
<time>2023-12-19T10:07:01.074Z</time>
<extensions>
<gpxtpx:TrackPointExtension>
<gpxtpx:hr>136</gpxtpx:hr>
</gpxtpx:TrackPointExtension>
</extensions>
</trkpt>
<trkpt lat="33.0115193" lon="35.1824970">
<ele>186.02</ele>
<time>2023-12-19T10:07:10.081Z</time>
<extensions>
<gpxtpx:TrackPointExtension>
<gpxtpx:hr>136</gpxtpx:hr>
</gpxtpx:TrackPointExtension>
</extensions>
</trkpt>
<trkpt lat="33.0114117" lon="35.1826819">
<ele>186.77</ele>
<time>2023-12-19T10:07:20.075Z</time>
<extensions>
<gpxtpx:TrackPointExtension>
<gpxtpx:hr>137</gpxtpx:hr>
</gpxtpx:TrackPointExtension>
</extensions>
</trkpt>
<trkpt lat="33.0113121" lon="35.1828652">
<ele>187.31</ele>
<time>2023-12-19T10:07:28.074Z</time>
<extensions>
<gpxtpx:TrackPointExtension>
<gpxtpx:hr>137</gpxtpx:hr>
</gpxtpx:TrackPointExtension>
</extensions>
</trkpt>
<trkpt lat="33.0112088" lon="35.1830459">
<ele>187.96</ele>
<time>2023-12-19T10:07:36.075Z</time>
<extensions>
<gpxtpx:TrackPointExtension>
<gpxtpx:hr>136</gpxtpx:hr>
</gpxtpx:TrackPointExtension>
</extensions>
</trkpt>
<trkpt lat="33.0111117" lon="35.1832289">
<ele>188.46</ele>
<time>2023-12-19T10:07:43.071Z</time>
<extensions>
<gpxtpx:TrackPointExtension>
<gpxtpx:hr>136</gpxtpx:hr>
</gpxtpx:TrackPointExtension>
</extensions>
</trkpt>
<trkpt lat="33.0109973" lon="35.1834164">
<ele>189.03</ele>
<time>2023-12-19T10:07:50.080Z</time>
<extensions>
<gpxtpx:TrackPointExtension>
<gpxtpx:hr>133</gpxtpx:hr>
</gpxtpx:TrackPointExtension>
</extensions>
</trkpt>
<trkpt lat="33.0108855" lon="35.1836092">
<ele>189.07</ele>
<time>2023-12-19T10:07:57.078Z</time>
<extensions>
<gpxtpx:TrackPointExtension>
<gpxtpx:hr>132</gpxtpx:hr>
</gpxtpx:TrackPointExtension>
</extensions>
</trkpt>
<trkpt lat="33.0108040" lon="35.1838193">
<ele>188.38</ele>
<time>2023-12-19T10:08:04.068Z</time>
<extensions>
<gpxtpx:TrackPointExtension>
<gpxtpx:hr>130</gpxtpx:hr>
</gpxtpx:TrackPointExtension>
</extensions>
</trkpt>
<trkpt lat="33.0107160" lon="35.1840189">
<ele>188.12</ele>
<time>2023-12-19T10:08:11.066Z</time>
<extensions>
<gpxtpx:TrackPointExtension>
<gpxtpx:hr>129</gpxtpx:hr>
</gpxtpx:TrackPointExtension>
</extensions>
</trkpt>
<trkpt lat="33.0106307" lon="35.1842146">
<ele>188.13</ele>
<time>2023-12-19T10:08:18.070Z</time>
<extensions>
<gpxtpx:TrackPointExtension>
<gpxtpx:hr>128</gpxtpx:hr>
</gpxtpx:TrackPointExtension>
</extensions>
</trkpt>
<trkpt lat="33.0105475" lon="35.1844163">
<ele>188.48</ele>
<time>2023-12-19T10:08:25.071Z</time>
<extensions>
<gpxtpx:TrackPointExtension>
<gpxtpx:hr>127</gpxtpx:hr>
</gpxtpx:TrackPointExtension>
</extensions>
</trkpt>
<trkpt lat="33.0104428" lon="35.1846045">
<ele>188.98</ele>
<time>2023-12-19T10:08:32.076Z</time>
<extensions>
<gpxtpx:TrackPointExtension>
<gpxtpx:hr>125</gpxtpx:hr>
</gpxtpx:TrackPointExtension>
</extensions>
</trkpt>
<trkpt lat="33.0103409" lon="35.1848205">
<ele>189.07</ele>
<time>2023-12-19T10:08:40.079Z</time>
<extensions>
<gpxtpx:TrackPointExtension>
<gpxtpx:hr>126</gpxtpx:hr>
</gpxtpx:TrackPointExtension>
</extensions>
</trkpt>
<trkpt lat="33.0102452" lon="35.1850105">
<ele>189.02</ele>
<time>2023-12-19T10:08:47.073Z</time>
<extensions>
<gpxtpx:TrackPointExtension>
<gpxtpx:hr>126</gpxtpx:hr>
</gpxtpx:TrackPointExtension>
</extensions>
</trkpt>
<trkpt lat="33.0101378" lon="35.1852067">
<ele>189.77</ele>
<time>2023-12-19T10:08:54.075Z</time>
<extensions>
<gpxtpx:TrackPointExtension>
<gpxtpx:hr>128</gpxtpx:hr>
</gpxtpx:TrackPointExtension>
</extensions>
</trkpt>
<trkpt lat="33.0100249" lon="35.1854015">
<ele>190.30</ele>
<time>2023-12-19T10:09:01.071Z</time>
<extensions>
<gpxtpx:TrackPointExtension>
<gpxtpx:hr>129</gpxtpx:hr>
</gpxtpx:TrackPointExtension>
</extensions>
</trkpt>
<trkpt lat="33.0099010" lon="35.1855628">
<ele>191.59</ele>
<time>2023-12-19T10:09:08.076Z</time>
<extensions>
<gpxtpx:TrackPointExtension>
<gpxtpx:hr>130</gpxtpx:hr>
</gpxtpx:TrackPointExtension>
</extensions>
</trkpt>
<trkpt lat="33.0098006" lon="35.1857486">
<ele>192.62</ele>
<time>2023-12-19T10:09:17.069Z</time>
<extensions>
<gpxtpx:TrackPointExtension>
<gpxtpx:hr>133</gpxtpx:hr>
</gpxtpx:TrackPointExtension>
</extensions>
</trkpt>
<trkpt lat="33.0096755" lon="35.1859189">
<ele>194.37</ele>
<time>2023-12-19T10:09:28.076Z</time>
<extensions>
<gpxtpx:TrackPointExtension>
<gpxtpx:hr>136</gpxtpx:hr>
</gpxtpx:TrackPointExtension>
</extensions>
</trkpt>
<trkpt lat="33.0095443" lon="35.1860898">
<ele>196.60</ele>
<time>2023-12-19T10:09:40.070Z</time>
<extensions>
<gpxtpx:TrackPointExtension>
<gpxtpx:hr>140</gpxtpx:hr>
</gpxtpx:TrackPointExtension>
</extensions>
</trkpt>
<trkpt lat="33.0094299" lon="35.1862735">
<ele>198.52</ele>
<time>2023-12-19T10:09:52.065Z</time>
<extensions>
<gpxtpx:TrackPointExtension>
<gpxtpx:hr>144</gpxtpx:hr>
</gpxtpx:TrackPointExtension>
</extensions>
</trkpt>
<trkpt lat="33.0093455" lon="35.1864821">
<ele>199.95</ele>
<time>2023-12-19T10:10:07.079Z</time>
<extensions>
<gpxtpx:TrackPointExtension>
<gpxtpx:hr>147</gpxtpx:hr>
</gpxtpx:TrackPointExtension>
</extensions>
</trkpt>
<trkpt lat="33.0093046" lon="35.1866917">
<ele>200.76</ele>
<time>2023-12-19T10:10:22.071Z</time>
<extensions>
<gpxtpx:TrackPointExtension>
<gpxtpx:hr>148</gpxtpx:hr>
</gpxtpx:TrackPointExtension>
</extensions>
</trkpt>
<trkpt lat="33.0092479" lon="35.1868954">
<ele>202.65</ele>
<time>2023-12-19T10:10:36.068Z</time>
<extensions>
<gpxtpx:TrackPointExtension>
<gpxtpx:hr>148</gpxtpx:hr>
</gpxtpx:TrackPointExtension>
</extensions>
</trkpt>
<trkpt lat="33.0091969" lon="35.1871165">
<ele>204.61</ele>
<time>2023-12-19T10:10:49.070Z</time>
<extensions>
<gpxtpx:TrackPointExtension>
<gpxtpx:hr>149</gpxtpx:hr>
</gpxtpx:TrackPointExtension>
</extensions>
</trkpt>
<trkpt lat="33.0091655" lon="35.1873287">
<ele>206.16</ele>
<time>2023-12-19T10:11:03.073Z</time>
<extensions>
<gpxtpx:TrackPointExtension>
<gpxtpx:hr>150</gpxtpx:hr>
</gpxtpx:TrackPointExtension>
</extensions>
</trkpt>
<trkpt lat="33.0091104" lon="35.1875440">
<ele>207.99</ele>
<time>2023-12-19T10:11:16.072Z</time>
<extensions>
<gpxtpx:TrackPointExtension>
<gpxtpx:hr>150</gpxtpx:hr>
</gpxtpx:TrackPointExtension>
</extensions>
</trkpt>
<trkpt lat="33.0090872" lon="35.1877661">
<ele>209.88</ele>
<time>2023-12-19T10:11:32.072Z</time>
<extensions>
<gpxtpx:TrackPointExtension>
<gpxtpx:hr>149</gpxtpx:hr>
</gpxtpx:TrackPointExtension>
</extensions>
</trkpt>
<trkpt lat="33.0090225" lon="35.1879783">
<ele>212.19</ele>
<time>2023-12-19T10:11:46.068Z</time>
<extensions>
<gpxtpx:TrackPointExtension>
<gpxtpx:hr>149</gpxtpx:hr>
</gpxtpx:TrackPointExtension>
</extensions>
</trkpt>
<trkpt lat="33.0090059" lon="35.1881971">
<ele>213.93</ele>
<time>2023-12-19T10:12:02.074Z</time>
<extensions>
<gpxtpx:TrackPointExtension>
<gpxtpx:hr>152</gpxtpx:hr>
</gpxtpx:TrackPointExtension>
</extensions>
</trkpt>
<trkpt lat="33.0089604" lon="35.1884156">
<ele>215.89</ele>
<time>2023-12-19T10:12:16.079Z</time>
<extensions>
<gpxtpx:TrackPointExtension>
<gpxtpx:hr>152</gpxtpx:hr>
</gpxtpx:TrackPointExtension>
</extensions>
</trkpt>
<trkpt lat="33.0088877" lon="35.1886274">
<ele>217.93</ele>
<time>2023-12-19T10:12:29.074Z</time>
<extensions>
<gpxtpx:TrackPointExtension>
<gpxtpx:hr>152</gpxtpx:hr>
</gpxtpx:TrackPointExtension>
</extensions>
</trkpt>
<trkpt lat="33.0088798" lon="35.1888427">
<ele>219.23</ele>
<time>2023-12-19T10:12:44.069Z</time>
<extensions>
<gpxtpx:TrackPointExtension>
<gpxtpx:hr>152</gpxtpx:hr>
</gpxtpx:TrackPointExtension>
</extensions>
</trkpt>
<trkpt lat="33.0088408" lon="35.1890578">
<ele>220.87</ele>
<time>2023-12-19T10:12:57.068Z</time>
<extensions>
<gpxtpx:TrackPointExtension>
<gpxtpx:hr>151</gpxtpx:hr>
</gpxtpx:TrackPointExtension>
</extensions>
</trkpt>
<trkpt lat="33.0088218" lon="35.1892775">
<ele>221.98</ele>
<time>2023-12-19T10:13:13.070Z</time>
<extensions>
<gpxtpx:TrackPointExtension>
<gpxtpx:hr>148</gpxtpx:hr>
</gpxtpx:TrackPointExtension>
</extensions>
</trkpt>
<trkpt lat="33.0087630" lon="35.1895007">
<ele>223.13</ele>
<time>2023-12-19T10:13:25.072Z</time>
<extensions>
<gpxtpx:TrackPointExtension>
<gpxtpx:hr>147</gpxtpx:hr>
</gpxtpx:TrackPointExtension>
</extensions>
</trkpt>
<trkpt lat="33.0087590" lon="35.1897272">
<ele>223.75</ele>
<time>2023-12-19T10:13:36.071Z</time>
<extensions>
<gpxtpx:TrackPointExtension>
<gpxtpx:hr>146</gpxtpx:hr>
</gpxtpx:TrackPointExtension>
</extensions>
</trkpt>
<trkpt lat="33.0087415" lon="35.1899541">
<ele>224.41</ele>
<time>2023-12-19T10:13:47.072Z</time>
<extensions>
<gpxtpx:TrackPointExtension>
<gpxtpx:hr>145</gpxtpx:hr>
</gpxtpx:TrackPointExtension>
</extensions>
</trkpt>
<trkpt lat="33.0086706" lon="35.1901614">
<ele>225.25</ele>
<time>2023-12-19T10:13:58.068Z</time>
<extensions>
<gpxtpx:TrackPointExtension>
<gpxtpx:hr>144</gpxtpx:hr>
</gpxtpx:TrackPointExtension>
</extensions>
</trkpt>
<trkpt lat="33.0086104" lon="35.1903816">
<ele>225.94</ele>
<time>2023-12-19T10:14:09.070Z</time>
<extensions>
<gpxtpx:TrackPointExtension>
<gpxtpx:hr>143</gpxtpx:hr>
</gpxtpx:TrackPointExtension>
</extensions>
</trkpt>
<trkpt lat="33.0085716" lon="35.1906139">
<ele>226.49</ele>
<time>2023-12-19T10:14:19.077Z</time>
<extensions>
<gpxtpx:TrackPointExtension>
<gpxtpx:hr>142</gpxtpx:hr>
</gpxtpx:TrackPointExtension>
</extensions>
</trkpt>
<trkpt lat="33.0085250" lon="35.1908217">
<ele>227.13</ele>
<time>2023-12-19T10:14:29.075Z</time>
<extensions>
<gpxtpx:TrackPointExtension>
<gpxtpx:hr>140</gpxtpx:hr>
</gpxtpx:TrackPointExtension>
</extensions>
</trkpt>
<trkpt lat="33.0084732" lon="35.1910429">
<ele>229.01</ele>
<time>2023-12-19T10:14:40.069Z</time>
<extensions>
<gpxtpx:TrackPointExtension>
<gpxtpx:hr>140</gpxtpx:hr>
</gpxtpx:TrackPointExtension>
</extensions>
</trkpt>
<trkpt lat="33.0084612" lon="35.1912690">
<ele>230.68</ele>
<time>2023-12-19T10:14:51.081Z</time>
<extensions>
<gpxtpx:TrackPointExtension>
<gpxtpx:hr>139</gpxtpx:hr>
</gpxtpx:TrackPointExtension>
</extensions>
</trkpt>
<trkpt lat="33.0084212" lon="35.1914860">
<ele>232.60</ele>
<time>2023-12-19T10:15:01.079Z</time>
<extensions>
<gpxtpx:TrackPointExtension>
<gpxtpx:hr>140</gpxtpx:hr>
</gpxtpx:TrackPointExtension>
</extensions>
</trkpt>
<trkpt lat="33.0083850" lon="35.1916989">
<ele>234.47</ele>
<time>2023-12-19T10:15:11.071Z</time>
<extensions>
<gpxtpx:TrackPointExtension>
<gpxtpx:hr>139</gpxtpx:hr>
</gpxtpx:TrackPointExtension>
</extensions>
</trkpt>
<trkpt lat="33.0083909" lon="35.1919237">
<ele>235.25</ele>
<time>2023-12-19T10:15:22.082Z</time>
<extensions>
<gpxtpx:TrackPointExtension>
<gpxtpx:hr>140</gpxtpx:hr>
</gpxtpx:TrackPointExtension>
</extensions>
</trkpt>
<trkpt lat="33.0083709" lon="35.1921561">
<ele>236.32</ele>
<time>2023-12-19T10:15:34.076Z</time>
<extensions>
<gpxtpx:TrackPointExtension>
<gpxtpx:hr>140</gpxtpx:hr>
</gpxtpx:TrackPointExtension>
</extensions>
</trkpt>
<trkpt lat="33.0083584" lon="35.1923872">
<ele>237.30</ele>
<time>2023-12-19T10:15:45.071Z</time>
<extensions>
<gpxtpx:TrackPointExtension>
<gpxtpx:hr>140</gpxtpx:hr>
</gpxtpx:TrackPointExtension>
</extensions>
</trkpt>
<trkpt lat="33.0083649" lon="35.1926162">
<ele>238.24</ele>
<time>2023-12-19T10:15:56.074Z</time>
<extensions>
<gpxtpx:TrackPointExtension>
<gpxtpx:hr>140</gpxtpx:hr>
</gpxtpx:TrackPointExtension>
</extensions>
</trkpt>
<trkpt lat="33.0084141" lon="35.1928340">
<ele>238.95</ele>
<time>2023-12-19T10:16:07.074Z</time>
<extensions>
<gpxtpx:TrackPointExtension>
<gpxtpx:hr>141</gpxtpx:hr>
</gpxtpx:TrackPointExtension>
</extensions>
</trkpt>
<trkpt lat="33.0084709" lon="35.1930586">
<ele>239.77</ele>
<time>2023-12-19T10:16:18.080Z</time>
<extensions>
<gpxtpx:TrackPointExtension>
<gpxtpx:hr>141</gpxtpx:hr>
</gpxtpx:TrackPointExtension>
</extensions>
</trkpt>
<trkpt lat="33.0084981" lon="35.1932883">
<ele>240.90</ele>
<time>2023-12-19T10:16:29.071Z</time>
<extensions>
<gpxtpx:TrackPointExtension>
<gpxtpx:hr>141</gpxtpx:hr>
</gpxtpx:TrackPointExtension>
</extensions>
</trkpt>
<trkpt lat="33.0085337" lon="35.1935087">
<ele>241.94</ele>
<time>2023-12-19T10:16:40.074Z</time>
<extensions>
<gpxtpx:TrackPointExtension>
<gpxtpx:hr>141</gpxtpx:hr>
</gpxtpx:TrackPointExtension>
</extensions>
</trkpt>
<trkpt lat="33.0085682" lon="35.1937417">
<ele>243.05</ele>
<time>2023-12-19T10:16:52.076Z</time>
<extensions>
<gpxtpx:TrackPointExtension>
<gpxtpx:hr>142</gpxtpx:hr>
</gpxtpx:TrackPointExtension>
</extensions>
</trkpt>
<trkpt lat="33.0085741" lon="35.1939636">
<ele>244.26</ele>
<time>2023-12-19T10:17:04.073Z</time>
<extensions>
<gpxtpx:TrackPointExtension>
<gpxtpx:hr>145</gpxtpx:hr>
</gpxtpx:TrackPointExtension>
</extensions>
</trkpt>
<trkpt lat="33.0086116" lon="35.1941936">
<ele>245.48</ele>
<time>2023-12-19T10:17:16.065Z</time>
<extensions>
<gpxtpx:TrackPointExtension>
<gpxtpx:hr>145</gpxtpx:hr>
</gpxtpx:TrackPointExtension>
</extensions>
</trkpt>
<trkpt lat="33.0086807" lon="35.1944074">
<ele>247.02</ele>
<time>2023-12-19T10:17:26.069Z</time>
<extensions>
<gpxtpx:TrackPointExtension>
<gpxtpx:hr>144</gpxtpx:hr>
</gpxtpx:TrackPointExtension>
</extensions>
</trkpt>
<trkpt lat="33.0087619" lon="35.1946200">
<ele>248.44</ele>
<time>2023-12-19T10:17:37.070Z</time>
<extensions>
<gpxtpx:TrackPointExtension>
<gpxtpx:hr>144</gpxtpx:hr>
</gpxtpx:TrackPointExtension>
</extensions>
</trkpt>
<trkpt lat="33.0088755" lon="35.1947994">
<ele>249.47</ele>
<time>2023-12-19T10:17:47.073Z</time>
<extensions>
<gpxtpx:TrackPointExtension>
<gpxtpx:hr>144</gpxtpx:hr>
</gpxtpx:TrackPointExtension>
</extensions>
</trkpt>
<trkpt lat="33.0089735" lon="35.1949976">
<ele>250.65</ele>
<time>2023-12-19T10:17:59.071Z</time>
<extensions>
<gpxtpx:TrackPointExtension>
<gpxtpx:hr>143</gpxtpx:hr>
</gpxtpx:TrackPointExtension>
</extensions>
</trkpt>
<trkpt lat="33.0090845" lon="35.1951710">
<ele>251.46</ele>
<time>2023-12-19T10:18:10.078Z</time>
<extensions>
<gpxtpx:TrackPointExtension>
<gpxtpx:hr>143</gpxtpx:hr>
</gpxtpx:TrackPointExtension>
</extensions>
</trkpt>
<trkpt lat="33.0091495" lon="35.1953777">
<ele>252.72</ele>
<time>2023-12-19T10:18:22.082Z</time>
<extensions>
<gpxtpx:TrackPointExtension>
<gpxtpx:hr>143</gpxtpx:hr>
</gpxtpx:TrackPointExtension>
</extensions>
</trkpt>
<trkpt lat="33.0092057" lon="35.1955823">
<ele>253.86</ele>
<time>2023-12-19T10:18:34.075Z</time>
<extensions>
<gpxtpx:TrackPointExtension>
<gpxtpx:hr>142</gpxtpx:hr>
</gpxtpx:TrackPointExtension>
</extensions>
</trkpt>
<trkpt lat="33.0092658" lon="35.1957938">
<ele>254.95</ele>
<time>2023-12-19T10:18:46.075Z</time>
<extensions>
<gpxtpx:TrackPointExtension>
<gpxtpx:hr>142</gpxtpx:hr>
</gpxtpx:TrackPointExtension>
</extensions>
</trkpt>
<trkpt lat="33.0093333" lon="35.1959943">
<ele>255.61</ele>
<time>2023-12-19T10:18:57.080Z</time>
<extensions>
<gpxtpx:TrackPointExtension>
<gpxtpx:hr>141</gpxtpx:hr>
</gpxtpx:TrackPointExtension>
</extensions>
</trkpt>
<trkpt lat="33.0093795" lon="35.1962217">
<ele>256.54</ele>
<time>2023-12-19T10:19:09.085Z</time>
<extensions>
<gpxtpx:TrackPointExtension>
<gpxtpx:hr>141</gpxtpx:hr>
</gpxtpx:TrackPointExtension>
</extensions>
</trkpt>
<trkpt lat="33.0094501" lon="35.1964379">
<ele>257.32</ele>
<time>2023-12-19T10:19:21.065Z</time>
<extensions>
<gpxtpx:TrackPointExtension>
<gpxtpx:hr>142</gpxtpx:hr>
</gpxtpx:TrackPointExtension>
</extensions>
</trkpt>
<trkpt lat="33.0095151" lon="35.1966400">
<ele>258.14</ele>
<time>2023-12-19T10:19:31.074Z</time>
<extensions>
<gpxtpx:TrackPointExtension>
<gpxtpx:hr>142</gpxtpx:hr>
</gpxtpx:TrackPointExtension>
</extensions>
</trkpt>
<trkpt lat="33.0095656" lon="35.1968664">
<ele>259.47</ele>
<time>2023-12-19T10:19:43.086Z</time>
<extensions>
<gpxtpx:TrackPointExtension>
<gpxtpx:hr>142</gpxtpx:hr>
</gpxtpx:TrackPointExtension>
</extensions>
</trkpt>
<trkpt lat="33.0096099" lon="35.1970774">
<ele>260.77</ele>
<time>2023-12-19T10:19:54.071Z</time>
<extensions>
<gpxtpx:TrackPointExtension>
<gpxtpx:hr>142</gpxtpx:hr>
</gpxtpx:TrackPointExtension>
</extensions>
</trkpt>
<trkpt lat="33.0096315" lon="35.1973030">
<ele>262.29</ele>
<time>2023-12-19T10:20:04.072Z</time>
<extensions>
<gpxtpx:TrackPointExtension>
<gpxtpx:hr>142</gpxtpx:hr>
</gpxtpx:TrackPointExtension>
</extensions>
</trkpt>
<trkpt lat="33.0096290" lon="35.1975185">
<ele>263.84</ele>
<time>2023-12-19T10:20:14.073Z</time>
<extensions>
<gpxtpx:TrackPointExtension>
<gpxtpx:hr>142</gpxtpx:hr>
</gpxtpx:TrackPointExtension>
</extensions>
</trkpt>
<trkpt lat="33.0095854" lon="35.1977323">
<ele>265.47</ele>
<time>2023-12-19T10:20:26.068Z</time>
<extensions>
<gpxtpx:TrackPointExtension>
<gpxtpx:hr>144</gpxtpx:hr>
</gpxtpx:TrackPointExtension>
</extensions>
</trkpt>
<trkpt lat="33.0095361" lon="35.1979540">
<ele>267.18</ele>
<time>2023-12-19T10:20:37.071Z</time>
<extensions>
<gpxtpx:TrackPointExtension>
<gpxtpx:hr>145</gpxtpx:hr>
</gpxtpx:TrackPointExtension>
</extensions>
</trkpt>
<trkpt lat="33.0095181" lon="35.1981875">
<ele>268.85</ele>
<time>2023-12-19T10:20:49.068Z</time>
<extensions>
<gpxtpx:TrackPointExtension>
<gpxtpx:hr>147</gpxtpx:hr>
</gpxtpx:TrackPointExtension>
</extensions>
</trkpt>
<trkpt lat="33.0096030" lon="35.1984209">
<ele>269.62</ele>
<time>2023-12-19T10:20:59.072Z</time>
<extensions>
<gpxtpx:TrackPointExtension>
<gpxtpx:hr>147</gpxtpx:hr>
</gpxtpx:TrackPointExtension>
</extensions>
</trkpt>
<trkpt lat="33.0095753" lon="35.1986532">
<ele>270.44</ele>
<time>2023-12-19T10:21:05.073Z</time>
<extensions>
<gpxtpx:TrackPointExtension>
<gpxtpx:hr>146</gpxtpx:hr>
</gpxtpx:TrackPointExtension>
</extensions>
</trkpt>
<trkpt lat="33.0094420" lon="35.1988066">
<ele>271.83</ele>
<time>2023-12-19T10:21:19.067Z</time>
<extensions>
<gpxtpx:TrackPointExtension>
<gpxtpx:hr>147</gpxtpx:hr>
</gpxtpx:TrackPointExtension>
</extensions>
</trkpt>
<trkpt lat="33.0093918" lon="35.1990187">
<ele>272.86</ele>
<time>2023-12-19T10:21:31.066Z</time>
<extensions>
<gpxtpx:TrackPointExtension>
<gpxtpx:hr>147</gpxtpx:hr>
</gpxtpx:TrackPointExtension>
</extensions>
</trkpt>
<trkpt lat="33.0093342" lon="35.1992268">
<ele>273.75</ele>
<time>2023-12-19T10:21:40.076Z</time>
<extensions>
<gpxtpx:TrackPointExtension>
<gpxtpx:hr>147</gpxtpx:hr>
</gpxtpx:TrackPointExtension>
</extensions>
</trkpt>
<trkpt lat="33.0092733" lon="35.1994369">
<ele>274.38</ele>
<time>2023-12-19T10:21:49.072Z</time>
<extensions>
<gpxtpx:TrackPointExtension>
<gpxtpx:hr>147</gpxtpx:hr>
</gpxtpx:TrackPointExtension>
</extensions>
</trkpt>
<trkpt lat="33.0091384" lon="35.1996049">
<ele>275.56</ele>
<time>2023-12-19T10:22:05.069Z</time>
<extensions>
<gpxtpx:TrackPointExtension>
<gpxtpx:hr>147</gpxtpx:hr>
</gpxtpx:TrackPointExtension>
</extensions>
</trkpt>
<trkpt lat="33.0089622" lon="35.1996657">
<ele>276.18</ele>
<time>2023-12-19T10:22:15.060Z</time>
<extensions>
<gpxtpx:TrackPointExtension>
<gpxtpx:hr>146</gpxtpx:hr>
</gpxtpx:TrackPointExtension>
</extensions>
</trkpt>
<trkpt lat="33.0087779" lon="35.1996766">
<ele>276.74</ele>
<time>2023-12-19T10:22:24.065Z</time>
<extensions>
<gpxtpx:TrackPointExtension>
<gpxtpx:hr>144</gpxtpx:hr>
</gpxtpx:TrackPointExtension>
</extensions>
</trkpt>
<trkpt lat="33.0085882" lon="35.1995588">
<ele>276.78</ele>
<time>2023-12-19T10:22:29.067Z</time>
<extensions>
<gpxtpx:TrackPointExtension>
<gpxtpx:hr>144</gpxtpx:hr>
</gpxtpx:TrackPointExtension>
</extensions>
</trkpt>
<trkpt lat="33.0086248" lon="35.1998608">
<ele>277.82</ele>
<time>2023-12-19T10:22:33.068Z</time>
<extensions>
<gpxtpx:TrackPointExtension>
<gpxtpx:hr>143</gpxtpx:hr>
</gpxtpx:TrackPointExtension>
</extensions>
</trkpt>
<trkpt lat="33.0086696" lon="35.2000749">
<ele>278.46</ele>
<time>2023-12-19T10:22:37.068Z</time>
<extensions>
<gpxtpx:TrackPointExtension>
<gpxtpx:hr>142</gpxtpx:hr>
</gpxtpx:TrackPointExtension>
</extensions>
</trkpt>
<trkpt lat="33.0085339" lon="35.2002175">
<ele>279.39</ele>
<time>2023-12-19T10:22:47.067Z</time>
<extensions>
<gpxtpx:TrackPointExtension>
<gpxtpx:hr>140</gpxtpx:hr>
</gpxtpx:TrackPointExtension>
</extensions>
</trkpt>
<trkpt lat="33.0083706" lon="35.2003418">
<ele>280.54</ele>
<time>2023-12-19T10:22:56.068Z</time>
<extensions>
<gpxtpx:TrackPointExtension>
<gpxtpx:hr>141</gpxtpx:hr>
</gpxtpx:TrackPointExtension>
</extensions>
</trkpt>
<trkpt lat="33.0082372" lon="35.2004924">
<ele>280.69</ele>
<time>2023-12-19T10:23:04.071Z</time>
<extensions>
<gpxtpx:TrackPointExtension>
<gpxtpx:hr>140</gpxtpx:hr>
</gpxtpx:TrackPointExtension>
</extensions>
</trkpt>
<trkpt lat="33.0080931" lon="35.2006569">
<ele>280.38</ele>
<time>2023-12-19T10:23:12.075Z</time>
<extensions>
<gpxtpx:TrackPointExtension>
<gpxtpx:hr>140</gpxtpx:hr>
</gpxtpx:TrackPointExtension>
</extensions>
</trkpt>
<trkpt lat="33.0079464" lon="35.2008200">
<ele>280.11</ele>
<time>2023-12-19T10:23:20.074Z</time>
<extensions>
<gpxtpx:TrackPointExtension>
<gpxtpx:hr>141</gpxtpx:hr>
</gpxtpx:TrackPointExtension>
</extensions>
</trkpt>
<trkpt lat="33.0078111" lon="35.2009689">
<ele>279.94</ele>
<time>2023-12-19T10:23:28.069Z</time>
<extensions>
<gpxtpx:TrackPointExtension>
<gpxtpx:hr>139</gpxtpx:hr>
</gpxtpx:TrackPointExtension>
</extensions>
</trkpt>
<trkpt lat="33.0076767" lon="35.2011203">
<ele>280.12</ele>
<time>2023-12-19T10:23:36.067Z</time>
<extensions>
<gpxtpx:TrackPointExtension>
<gpxtpx:hr>139</gpxtpx:hr>
</gpxtpx:TrackPointExtension>
</extensions>
</trkpt>
<trkpt lat="33.0075274" lon="35.2012769">
<ele>280.65</ele>
<time>2023-12-19T10:23:44.077Z</time>
<extensions>
<gpxtpx:TrackPointExtension>
<gpxtpx:hr>137</gpxtpx:hr>
</gpxtpx:TrackPointExtension>
</extensions>
</trkpt>
<trkpt lat="33.0073846" lon="35.2014274">
<ele>281.22</ele>
<time>2023-12-19T10:23:52.069Z</time>
<extensions>
<gpxtpx:TrackPointExtension>
<gpxtpx:hr>137</gpxtpx:hr>
</gpxtpx:TrackPointExtension>
</extensions>
</trkpt>
<trkpt lat="33.0072370" lon="35.2015949">
<ele>281.86</ele>
<time>2023-12-19T10:24:00.061Z</time>
<extensions>
<gpxtpx:TrackPointExtension>
<gpxtpx:hr>135</gpxtpx:hr>
</gpxtpx:TrackPointExtension>
</extensions>
</trkpt>
<trkpt lat="33.0070977" lon="35.2017583">
<ele>282.54</ele>
<time>2023-12-19T10:24:08.068Z</time>
<extensions>
<gpxtpx:TrackPointExtension>
<gpxtpx:hr>134</gpxtpx:hr>
</gpxtpx:TrackPointExtension>
</extensions>
</trkpt>
<trkpt lat="33.0069643" lon="35.2019279">
<ele>283.34</ele>
<time>2023-12-19T10:24:16.072Z</time>
<extensions>
<gpxtpx:TrackPointExtension>
<gpxtpx:hr>134</gpxtpx:hr>
</gpxtpx:TrackPointExtension>
</extensions>
</trkpt>
<trkpt lat="33.0068487" lon="35.2020965">
<ele>284.25</ele>
<time>2023-12-19T10:24:24.076Z</time>
<extensions>
<gpxtpx:TrackPointExtension>
<gpxtpx:hr>132</gpxtpx:hr>
</gpxtpx:TrackPointExtension>
</extensions>
</trkpt>
<trkpt lat="33.0066887" lon="35.2022472">
<ele>285.15</ele>
<time>2023-12-19T10:24:32.069Z</time>
<extensions>
<gpxtpx:TrackPointExtension>
<gpxtpx:hr>133</gpxtpx:hr>
</gpxtpx:TrackPointExtension>
</extensions>
</trkpt>
<trkpt lat="33.0066017" lon="35.2024404">
<ele>286.26</ele>
<time>2023-12-19T10:24:41.075Z</time>
<extensions>
<gpxtpx:TrackPointExtension>
<gpxtpx:hr>132</gpxtpx:hr>
</gpxtpx:TrackPointExtension>
</extensions>
</trkpt>
<trkpt lat="33.0065608" lon="35.2026558">
<ele>287.22</ele>
<time>2023-12-19T10:24:49.074Z</time>
<extensions>
<gpxtpx:TrackPointExtension>
<gpxtpx:hr>132</gpxtpx:hr>
</gpxtpx:TrackPointExtension>
</extensions>
</trkpt>
<trkpt lat="33.0064987" lon="35.2028723">
<ele>287.96</ele>
<time>2023-12-19T10:24:58.074Z</time>
<extensions>
<gpxtpx:TrackPointExtension>
<gpxtpx:hr>134</gpxtpx:hr>
</gpxtpx:TrackPointExtension>
</extensions>
</trkpt>
<trkpt lat="33.0064521" lon="35.2030982">
<ele>288.90</ele>
<time>2023-12-19T10:25:11.068Z</time>
<extensions>
<gpxtpx:TrackPointExtension>
<gpxtpx:hr>138</gpxtpx:hr>
</gpxtpx:TrackPointExtension>
</extensions>
</trkpt>
<trkpt lat="33.0064603" lon="35.2033248">
<ele>289.91</ele>
<time>2023-12-19T10:25:19.076Z</time>
<extensions>
<gpxtpx:TrackPointExtension>
<gpxtpx:hr>140</gpxtpx:hr>
</gpxtpx:TrackPointExtension>
</extensions>
</trkpt>
<trkpt lat="33.0064124" lon="35.2035367">
<ele>291.10</ele>
<time>2023-12-19T10:25:29.068Z</time>
<extensions>
<gpxtpx:TrackPointExtension>
<gpxtpx:hr>141</gpxtpx:hr>
</gpxtpx:TrackPointExtension>
</extensions>
</trkpt>
<trkpt lat="33.0063932" lon="35.2037679">
<ele>292.38</ele>
<time>2023-12-19T10:25:41.066Z</time>
<extensions>
<gpxtpx:TrackPointExtension>
<gpxtpx:hr>142</gpxtpx:hr>
</gpxtpx:TrackPointExtension>
</extensions>
</trkpt>
<trkpt lat="33.0063379" lon="35.2039773">
<ele>293.53</ele>
<time>2023-12-19T10:25:51.067Z</time>
<extensions>
<gpxtpx:TrackPointExtension>
<gpxtpx:hr>146</gpxtpx:hr>
</gpxtpx:TrackPointExtension>
</extensions>
</trkpt>
<trkpt lat="33.0061464" lon="35.2040369">
<ele>293.71</ele>
<time>2023-12-19T10:28:27.071Z</time>
<extensions>
<gpxtpx:TrackPointExtension>
<gpxtpx:hr>132</gpxtpx:hr>
</gpxtpx:TrackPointExtension>
</extensions>
</trkpt>
<trkpt lat="33.0059441" lon="35.2039577">
<ele>293.15</ele>
<time>2023-12-19T10:28:33.060Z</time>
<extensions>
<gpxtpx:TrackPointExtension>
<gpxtpx:hr>133</gpxtpx:hr>
</gpxtpx:TrackPointExtension>
</extensions>
</trkpt>
<trkpt lat="33.0057617" lon="35.2038720">
<ele>292.34</ele>
<time>2023-12-19T10:28:39.078Z</time>
<extensions>
<gpxtpx:TrackPointExtension>
<gpxtpx:hr>134</gpxtpx:hr>
</gpxtpx:TrackPointExtension>
</extensions>
</trkpt>
<trkpt lat="33.0056194" lon="35.2040223">
<ele>292.37</ele>
<time>2023-12-19T10:28:46.070Z</time>
<extensions>
<gpxtpx:TrackPointExtension>
<gpxtpx:hr>134</gpxtpx:hr>
</gpxtpx:TrackPointExtension>
</extensions>
</trkpt>
<trkpt lat="33.0055435" lon="35.2042256">
<ele>293.29</ele>
<time>2023-12-19T10:28:53.073Z</time>
<extensions>
<gpxtpx:TrackPointExtension>
<gpxtpx:hr>136</gpxtpx:hr>
</gpxtpx:TrackPointExtension>
</extensions>
</trkpt>
<trkpt lat="33.0054386" lon="35.2044085">
<ele>293.98</ele>
<time>2023-12-19T10:29:01.070Z</time>
<extensions>
<gpxtpx:TrackPointExtension>
<gpxtpx:hr>136</gpxtpx:hr>
</gpxtpx:TrackPointExtension>
</extensions>
</trkpt>
<trkpt lat="33.0054581" lon="35.2046387">
<ele>295.39</ele>
<time>2023-12-19T10:29:08.077Z</time>
<extensions>
<gpxtpx:TrackPointExtension>
<gpxtpx:hr>137</gpxtpx:hr>
</gpxtpx:TrackPointExtension>
</extensions>
</trkpt>
<trkpt lat="33.0054729" lon="35.2048601">
<ele>296.80</ele>
<time>2023-12-19T10:29:15.232Z</time>
<extensions>
<gpxtpx:TrackPointExtension>
<gpxtpx:hr>138</gpxtpx:hr>
</gpxtpx:TrackPointExtension>
</extensions>
</trkpt>
<trkpt lat="33.0065632" lon="35.2096535">
<ele>314.47</ele>
<time>2023-12-19T10:38:08.938Z</time>
<extensions>
<gpxtpx:TrackPointExtension>
<gpxtpx:hr>159</gpxtpx:hr>
</gpxtpx:TrackPointExtension>
</extensions>
</trkpt>
<trkpt lat="33.0058579" lon="35.2086954">
<ele>319.67</ele>
<time>2023-12-19T10:38:25.268Z</time>
<extensions>
<gpxtpx:TrackPointExtension>
<gpxtpx:hr>160</gpxtpx:hr>
</gpxtpx:TrackPointExtension>
</extensions>
</trkpt>
<trkpt lat="33.0055509" lon="35.2082784">
<ele>316.63</ele>
<time>2023-12-19T10:38:30.162Z</time>
<extensions>
<gpxtpx:TrackPointExtension>
<gpxtpx:hr>160</gpxtpx:hr>
</gpxtpx:TrackPointExtension>
</extensions>
</trkpt>
<trkpt lat="33.0062666" lon="35.2094687">
<ele>320.06</ele>
<time>2023-12-19T10:38:35.309Z</time>
<extensions>
<gpxtpx:TrackPointExtension>
<gpxtpx:hr>160</gpxtpx:hr>
</gpxtpx:TrackPointExtension>
</extensions>
</trkpt>
<trkpt lat="33.0062970" lon="35.2097762">
<ele>321.79</ele>
<time>2023-12-19T10:38:40.289Z</time>
<extensions>
<gpxtpx:TrackPointExtension>
<gpxtpx:hr>160</gpxtpx:hr>
</gpxtpx:TrackPointExtension>
</extensions>
</trkpt>
<trkpt lat="33.0060876" lon="35.2097835">
<ele>323.07</ele>
<time>2023-12-19T10:39:15.490Z</time>
<extensions>
<gpxtpx:TrackPointExtension>
<gpxtpx:hr>159</gpxtpx:hr>
</gpxtpx:TrackPointExtension>
</extensions>
</trkpt>
<trkpt lat="33.0064442" lon="35.2097180">
<ele>322.17</ele>
<time>2023-12-19T10:39:20.711Z</time>
<extensions>
<gpxtpx:TrackPointExtension>
<gpxtpx:hr>159</gpxtpx:hr>
</gpxtpx:TrackPointExtension>
</extensions>
</trkpt>
<trkpt lat="33.0063462" lon="35.2100380">
<ele>323.10</ele>
<time>2023-12-19T10:39:40.882Z</time>
<extensions>
<gpxtpx:TrackPointExtension>
<gpxtpx:hr>159</gpxtpx:hr>
</gpxtpx:TrackPointExtension>
</extensions>
</trkpt>
<trkpt lat="33.0065484" lon="35.2104472">
<ele>324.86</ele>
<time>2023-12-19T10:40:02.061Z</time>
<extensions>
<gpxtpx:TrackPointExtension>
<gpxtpx:hr>155</gpxtpx:hr>
</gpxtpx:TrackPointExtension>
</extensions>
</trkpt>
<trkpt lat="33.0065673" lon="35.2107021">
<ele>326.99</ele>
<time>2023-12-19T10:40:17.067Z</time>
<extensions>
<gpxtpx:TrackPointExtension>
<gpxtpx:hr>155</gpxtpx:hr>
</gpxtpx:TrackPointExtension>
</extensions>
</trkpt>
<trkpt lat="33.0065617" lon="35.2109363">
<ele>328.63</ele>
<time>2023-12-19T10:40:25.072Z</time>
<extensions>
<gpxtpx:TrackPointExtension>
<gpxtpx:hr>154</gpxtpx:hr>
</gpxtpx:TrackPointExtension>
</extensions>
</trkpt>
<trkpt lat="33.0065658" lon="35.2111674">
<ele>330.24</ele>
<time>2023-12-19T10:40:35.072Z</time>
<extensions>
<gpxtpx:TrackPointExtension>
<gpxtpx:hr>153</gpxtpx:hr>
</gpxtpx:TrackPointExtension>
</extensions>
</trkpt>
<trkpt lat="33.0065260" lon="35.2113808">
<ele>331.67</ele>
<time>2023-12-19T10:40:46.068Z</time>
<extensions>
<gpxtpx:TrackPointExtension>
<gpxtpx:hr>154</gpxtpx:hr>
</gpxtpx:TrackPointExtension>
</extensions>
</trkpt>
<trkpt lat="33.0065305" lon="35.2116093">
<ele>333.23</ele>
<time>2023-12-19T10:40:56.063Z</time>
<extensions>
<gpxtpx:TrackPointExtension>
<gpxtpx:hr>153</gpxtpx:hr>
</gpxtpx:TrackPointExtension>
</extensions>
</trkpt>
<trkpt lat="33.0064920" lon="35.2118293">
<ele>334.25</ele>
<time>2023-12-19T10:41:06.066Z</time>
<extensions>
<gpxtpx:TrackPointExtension>
<gpxtpx:hr>154</gpxtpx:hr>
</gpxtpx:TrackPointExtension>
</extensions>
</trkpt>
<trkpt lat="33.0064764" lon="35.2120632">
<ele>335.26</ele>
<time>2023-12-19T10:41:17.064Z</time>
<extensions>
<gpxtpx:TrackPointExtension>
<gpxtpx:hr>155</gpxtpx:hr>
</gpxtpx:TrackPointExtension>
</extensions>
</trkpt>
<trkpt lat="33.0064617" lon="35.2122897">
<ele>336.26</ele>
<time>2023-12-19T10:41:27.061Z</time>
<extensions>
<gpxtpx:TrackPointExtension>
<gpxtpx:hr>156</gpxtpx:hr>
</gpxtpx:TrackPointExtension>
</extensions>
</trkpt>
<trkpt lat="33.0063316" lon="35.2124461">
<ele>337.11</ele>
<time>2023-12-19T10:41:38.068Z</time>
<extensions>
<gpxtpx:TrackPointExtension>
<gpxtpx:hr>157</gpxtpx:hr>
</gpxtpx:TrackPointExtension>
</extensions>
</trkpt>
<trkpt lat="33.0061805" lon="35.2125882">
<ele>338.19</ele>
<time>2023-12-19T10:41:49.070Z</time>
<extensions>
<gpxtpx:TrackPointExtension>
<gpxtpx:hr>156</gpxtpx:hr>
</gpxtpx:TrackPointExtension>
</extensions>
</trkpt>
<trkpt lat="33.0060552" lon="35.2127714">
<ele>339.72</ele>
<time>2023-12-19T10:41:58.065Z</time>
<extensions>
<gpxtpx:TrackPointExtension>
<gpxtpx:hr>155</gpxtpx:hr>
</gpxtpx:TrackPointExtension>
</extensions>
</trkpt>
<trkpt lat="33.0064504" lon="35.2124301">
<ele>337.40</ele>
<time>2023-12-19T10:42:27.172Z</time>
<extensions>
<gpxtpx:TrackPointExtension>
<gpxtpx:hr>150</gpxtpx:hr>
</gpxtpx:TrackPointExtension>
</extensions>
</trkpt>
<trkpt lat="33.0056477" lon="35.2140758">
<ele>341.29</ele>
<time>2023-12-19T10:42:48.760Z</time>
<extensions>
<gpxtpx:TrackPointExtension>
<gpxtpx:hr>150</gpxtpx:hr>
</gpxtpx:TrackPointExtension>
</extensions>
</trkpt>
<trkpt lat="33.0057978" lon="35.2143320">
<ele>346.00</ele>
<time>2023-12-19T10:43:20.474Z</time>
<extensions>
<gpxtpx:TrackPointExtension>
<gpxtpx:hr>152</gpxtpx:hr>
</gpxtpx:TrackPointExtension>
</extensions>
</trkpt>
<trkpt lat="33.0060644" lon="35.2146649">
<ele>348.17</ele>
<time>2023-12-19T10:43:35.563Z</time>
<extensions>
<gpxtpx:TrackPointExtension>
<gpxtpx:hr>154</gpxtpx:hr>
</gpxtpx:TrackPointExtension>
</extensions>
</trkpt>
<trkpt lat="33.0060670" lon="35.2151163">
<ele>350.55</ele>
<time>2023-12-19T10:43:50.720Z</time>
<extensions>
<gpxtpx:TrackPointExtension>
<gpxtpx:hr>155</gpxtpx:hr>
</gpxtpx:TrackPointExtension>
</extensions>
</trkpt>
<trkpt lat="33.0057737" lon="35.2152398">
<ele>351.52</ele>
<time>2023-12-19T10:44:10.694Z</time>
<extensions>
<gpxtpx:TrackPointExtension>
<gpxtpx:hr>154</gpxtpx:hr>
</gpxtpx:TrackPointExtension>
</extensions>
</trkpt>
<trkpt lat="33.0055604" lon="35.2153761">
<ele>352.10</ele>
<time>2023-12-19T10:44:20.981Z</time>
<extensions>
<gpxtpx:TrackPointExtension>
<gpxtpx:hr>154</gpxtpx:hr>
</gpxtpx:TrackPointExtension>
</extensions>
</trkpt>
<trkpt lat="33.0053542" lon="35.2155209">
<ele>352.53</ele>
<time>2023-12-19T10:44:35.830Z</time>
<extensions>
<gpxtpx:TrackPointExtension>
<gpxtpx:hr>153</gpxtpx:hr>
</gpxtpx:TrackPointExtension>
</extensions>
</trkpt>
<trkpt lat="33.0051284" lon="35.2156414">
<ele>352.43</ele>
<time>2023-12-19T10:44:40.905Z</time>
<extensions>
<gpxtpx:TrackPointExtension>
<gpxtpx:hr>151</gpxtpx:hr>
</gpxtpx:TrackPointExtension>
</extensions>
</trkpt>
</trkseg>
</trk>
</gpx>
