<?xml version='1.0' encoding='UTF-8'?>
<gpx version="1.1" creator="https://www.komoot.de" xmlns="http://www.topografix.com/GPX/1/1" xmlns:xsi="http://www.w3.org/2001/XMLSchema-instance" xsi:schemaLocation="http://www.topografix.com/GPX/1/1 http://www.topografix.com/GPX/1/1/gpx.xsd">
  <metadata>
    <name>GPX Download: Le Petit Balcon Nord - Chamonix-Mont-Blanc - Trail - Loop</name>
    <author>
      <link href="https://www.komoot.de">
        <text>komoot</text>
        <type>text/html</type>
      </link>
    </author>
  </metadata>
  <trk>
    <name>GPX Download: Le Petit Balcon Nord - Chamonix-Mont-Blanc - Trail - Loop</name>
    <trkseg>
      <trkpt lat="45.926963" lon="6.875203">
        <ele>1038.974877</ele>
        <time>2024-09-14T11:56:59.707Z</time>
      </trkpt>
      <trkpt lat="45.927117" lon="6.875319">
        <ele>1038.974877</ele>
        <time>2024-09-14T11:57:06.906Z</time>
      </trkpt>
      <trkpt lat="45.927160" lon="6.875352">
        <ele>1038.974877</ele>
        <time>2024-09-14T11:57:08.918Z</time>
      </trkpt>
      <trkpt lat="45.927245" lon="6.875406">
        <ele>1038.974877</ele>
        <time>2024-09-14T11:57:12.729Z</time>
      </trkpt>
      <trkpt lat="45.927325" lon="6.875358">
        <ele>1038.974877</ele>
        <time>2024-09-14T11:57:16.329Z</time>
      </trkpt>
      <trkpt lat="45.927347" lon="6.875369">
        <ele>1038.974877</ele>
        <time>2024-09-14T11:57:17.287Z</time>
      </trkpt>
      <trkpt lat="45.927386" lon="6.875428">
        <ele>1038.974877</ele>
        <time>2024-09-14T11:57:19.670Z</time>
      </trkpt>
      <trkpt lat="45.927463" lon="6.875334">
        <ele>1038.974877</ele>
        <time>2024-09-14T11:57:23.861Z</time>
      </trkpt>
      <trkpt lat="45.927547" lon="6.875229">
        <ele>1038.974877</ele>
        <time>2024-09-14T11:57:28.473Z</time>
      </trkpt>
      <trkpt lat="45.927565" lon="6.875181">
        <ele>1038.974877</ele>
        <time>2024-09-14T11:57:30.052Z</time>
      </trkpt>
      <trkpt lat="45.927990" lon="6.875586">
        <ele>1039.323913</ele>
        <time>2024-09-14T11:57:55.194Z</time>
      </trkpt>
      <trkpt lat="45.928254" lon="6.875961">
        <ele>1039.701630</ele>
        <time>2024-09-14T11:58:13.630Z</time>
      </trkpt>
      <trkpt lat="45.929464" lon="6.877393">
        <ele>1041.567795</ele>
        <time>2024-09-14T11:59:33.149Z</time>
      </trkpt>
      <trkpt lat="45.929486" lon="6.877445">
        <ele>1041.634660</ele>
        <time>2024-09-14T11:59:35.334Z</time>
      </trkpt>
      <trkpt lat="45.929699" lon="6.877789">
        <ele>1042.140625</ele>
        <time>2024-09-14T11:59:51.849Z</time>
      </trkpt>
      <trkpt lat="45.929748" lon="6.877823">
        <ele>1042.226561</ele>
        <time>2024-09-14T11:59:54.641Z</time>
      </trkpt>
      <trkpt lat="45.930210" lon="6.878147">
        <ele>1043.038457</ele>
        <time>2024-09-14T12:00:21.086Z</time>
      </trkpt>
      <trkpt lat="45.930347" lon="6.878526">
        <ele>1043.507688</ele>
        <time>2024-09-14T12:00:36.421Z</time>
      </trkpt>
      <trkpt lat="45.930478" lon="6.878950">
        <ele>1043.997659</ele>
        <time>2024-09-14T12:00:53.098Z</time>
      </trkpt>
      <trkpt lat="45.930559" lon="6.879505">
        <ele>1044.587543</ele>
        <time>2024-09-14T12:01:13.373Z</time>
      </trkpt>
      <trkpt lat="45.931260" lon="6.881070">
        <ele>1046.505367</ele>
        <time>2024-09-14T12:02:19.393Z</time>
      </trkpt>
      <trkpt lat="45.931477" lon="6.881775">
        <ele>1047.228358</ele>
        <time>2024-09-14T12:02:46.680Z</time>
      </trkpt>
      <trkpt lat="45.931613" lon="6.882540">
        <ele>1047.968831</ele>
        <time>2024-09-14T12:03:14.371Z</time>
      </trkpt>
      <trkpt lat="45.931827" lon="6.882939">
        <ele>1048.441339</ele>
        <time>2024-09-14T12:03:31.986Z</time>
      </trkpt>
      <trkpt lat="45.932189" lon="6.883552">
        <ele>1049.347077</ele>
        <time>2024-09-14T12:04:00.758Z</time>
      </trkpt>
      <trkpt lat="45.932240" lon="6.883790">
        <ele>1049.662218</ele>
        <time>2024-09-14T12:04:09.723Z</time>
      </trkpt>
      <trkpt lat="45.932251" lon="6.884229">
        <ele>1050.218097</ele>
        <time>2024-09-14T12:04:25.582Z</time>
      </trkpt>
      <trkpt lat="45.932259" lon="6.884571">
        <ele>1050.651115</ele>
        <time>2024-09-14T12:04:37.873Z</time>
      </trkpt>
      <trkpt lat="45.932450" lon="6.884865">
        <ele>1051.160203</ele>
        <time>2024-09-14T12:04:52.360Z</time>
      </trkpt>
      <trkpt lat="45.932655" lon="6.885007">
        <ele>1051.574211</ele>
        <time>2024-09-14T12:05:04.387Z</time>
      </trkpt>
      <trkpt lat="45.933030" lon="6.885743">
        <ele>1052.801869</ele>
        <time>2024-09-14T12:05:37.451Z</time>
      </trkpt>
      <trkpt lat="45.933195" lon="6.886270">
        <ele>1053.610189</ele>
        <time>2024-09-14T12:05:58.678Z</time>
      </trkpt>
      <trkpt lat="45.933885" lon="6.887953">
        <ele>1056.387237</ele>
        <time>2024-09-14T12:07:09.263Z</time>
      </trkpt>
      <trkpt lat="45.934046" lon="6.888149">
        <ele>1056.838846</ele>
        <time>2024-09-14T12:07:20.209Z</time>
      </trkpt>
      <trkpt lat="45.934303" lon="6.888513">
        <ele>1057.611116</ele>
        <time>2024-09-14T12:07:39.147Z</time>
      </trkpt>
      <trkpt lat="45.934535" lon="6.888658">
        <ele>1058.152665</ele>
        <time>2024-09-14T12:07:52.419Z</time>
      </trkpt>
      <trkpt lat="45.934566" lon="6.888762">
        <ele>1058.321128</ele>
        <time>2024-09-14T12:07:56.611Z</time>
      </trkpt>
      <trkpt lat="45.934607" lon="6.888900">
        <ele>1058.544552</ele>
        <time>2024-09-14T12:08:02.141Z</time>
      </trkpt>
      <trkpt lat="45.934531" lon="6.889222">
        <ele>1059.050820</ele>
        <time>2024-09-14T12:08:14.644Z</time>
      </trkpt>
      <trkpt lat="45.934528" lon="6.889307">
        <ele>1059.177535</ele>
        <time>2024-09-14T12:08:17.350Z</time>
      </trkpt>
      <trkpt lat="45.934530" lon="6.889413">
        <ele>1059.335412</ele>
        <time>2024-09-14T12:08:20.664Z</time>
      </trkpt>
      <trkpt lat="45.934581" lon="6.889642">
        <ele>1059.759288</ele>
        <time>2024-09-14T12:08:28.010Z</time>
      </trkpt>
      <trkpt lat="45.934609" lon="6.889766">
        <ele>1060.020014</ele>
        <time>2024-09-14T12:08:32.117Z</time>
      </trkpt>
      <trkpt lat="45.934630" lon="6.889865">
        <ele>1060.227004</ele>
        <time>2024-09-14T12:08:35.435Z</time>
      </trkpt>
      <trkpt lat="45.934798" lon="6.890421">
        <ele>1061.439333</ele>
        <time>2024-09-14T12:08:54.399Z</time>
      </trkpt>
      <trkpt lat="45.934802" lon="6.890426">
        <ele>1061.454574</ele>
        <time>2024-09-14T12:08:54.657Z</time>
      </trkpt>
      <trkpt lat="45.934881" lon="6.890526">
        <ele>1061.757226</ele>
        <time>2024-09-14T12:08:59.334Z</time>
      </trkpt>
      <trkpt lat="45.935210" lon="6.890610">
        <ele>1062.718070</ele>
        <time>2024-09-14T12:09:14.662Z</time>
      </trkpt>
      <trkpt lat="45.935426" lon="6.890511">
        <ele>1063.369972</ele>
        <time>2024-09-14T12:09:25.396Z</time>
      </trkpt>
      <trkpt lat="45.935653" lon="6.890405">
        <ele>1064.056273</ele>
        <time>2024-09-14T12:09:36.631Z</time>
      </trkpt>
      <trkpt lat="45.935702" lon="6.890379">
        <ele>1064.206461</ele>
        <time>2024-09-14T12:09:39.151Z</time>
      </trkpt>
      <trkpt lat="45.936147" lon="6.891674">
        <ele>1067.688363</ele>
        <time>2024-09-14T12:10:26.416Z</time>
      </trkpt>
      <trkpt lat="45.936270" lon="6.892113">
        <ele>1068.866723</ele>
        <time>2024-09-14T12:10:44.852Z</time>
      </trkpt>
      <trkpt lat="45.936272" lon="6.892538">
        <ele>1069.924883</ele>
        <time>2024-09-14T12:11:01.396Z</time>
      </trkpt>
      <trkpt lat="45.936619" lon="6.893666">
        <ele>1073.097133</ele>
        <time>2024-09-14T12:11:49.444Z</time>
      </trkpt>
      <trkpt lat="45.936834" lon="6.894088">
        <ele>1074.469664</ele>
        <time>2024-09-14T12:12:09.368Z</time>
      </trkpt>
      <trkpt lat="45.937140" lon="6.894521">
        <ele>1076.089350</ele>
        <time>2024-09-14T12:12:32.489Z</time>
      </trkpt>
      <trkpt lat="45.937505" lon="6.894954">
        <ele>1077.874522</ele>
        <time>2024-09-14T12:13:00.729Z</time>
      </trkpt>
      <trkpt lat="45.937881" lon="6.895175">
        <ele>1079.460191</ele>
        <time>2024-09-14T12:13:24.996Z</time>
      </trkpt>
      <trkpt lat="45.938028" lon="6.895231">
        <ele>1080.054143</ele>
        <time>2024-09-14T12:13:33.229Z</time>
      </trkpt>
      <trkpt lat="45.938386" lon="6.895496">
        <ele>1081.626791</ele>
        <time>2024-09-14T12:13:56.098Z</time>
      </trkpt>
      <trkpt lat="45.938305" lon="6.895541">
        <ele>1081.965947</ele>
        <time>2024-09-14T12:14:00.767Z</time>
      </trkpt>
      <trkpt lat="45.938307" lon="6.895545">
        <ele>1081.979329</ele>
        <time>2024-09-14T12:14:01.608Z</time>
      </trkpt>
      <trkpt lat="45.938385" lon="6.895803">
        <ele>1082.743460</ele>
        <time>2024-09-14T12:14:10.483Z</time>
      </trkpt>
      <trkpt lat="45.938653" lon="6.896297">
        <ele>1084.445243</ele>
        <time>2024-09-14T12:14:34.228Z</time>
      </trkpt>
      <trkpt lat="45.938542" lon="6.896262">
        <ele>1084.889081</ele>
        <time>2024-09-14T12:14:41.761Z</time>
      </trkpt>
      <trkpt lat="45.938640" lon="6.896473">
        <ele>1085.188387</ele>
        <time>2024-09-14T12:14:50.701Z</time>
      </trkpt>
      <trkpt lat="45.940054" lon="6.898265">
        <ele>1088.184979</ele>
        <time>2024-09-14T12:16:26.357Z</time>
      </trkpt>
      <trkpt lat="45.940498" lon="6.898910">
        <ele>1089.226629</ele>
        <time>2024-09-14T12:16:57.239Z</time>
      </trkpt>
      <trkpt lat="45.940744" lon="6.899321">
        <ele>1089.849016</ele>
        <time>2024-09-14T12:17:16.748Z</time>
      </trkpt>
      <trkpt lat="45.940816" lon="6.899559">
        <ele>1090.146904</ele>
        <time>2024-09-14T12:17:26.199Z</time>
      </trkpt>
      <trkpt lat="45.941251" lon="6.900390">
        <ele>1091.579386</ele>
        <time>2024-09-14T12:18:05.959Z</time>
      </trkpt>
      <trkpt lat="45.941547" lon="6.900941">
        <ele>1092.693270</ele>
        <time>2024-09-14T12:18:31.956Z</time>
      </trkpt>
      <trkpt lat="45.941786" lon="6.902031">
        <ele>1094.521671</ele>
        <time>2024-09-14T12:19:12.931Z</time>
      </trkpt>
      <trkpt lat="45.941960" lon="6.902344">
        <ele>1095.191442</ele>
        <time>2024-09-14T12:19:27.316Z</time>
      </trkpt>
      <trkpt lat="45.942005" lon="6.902364">
        <ele>1095.310516</ele>
        <time>2024-09-14T12:19:29.730Z</time>
      </trkpt>
      <trkpt lat="45.942200" lon="6.901943">
        <ele>1096.199790</ele>
        <time>2024-09-14T12:19:48.007Z</time>
      </trkpt>
      <trkpt lat="45.942172" lon="6.901128">
        <ele>1097.634310</ele>
        <time>2024-09-14T12:20:18.922Z</time>
      </trkpt>
      <trkpt lat="45.942270" lon="6.901023">
        <ele>1097.943269</ele>
        <time>2024-09-14T12:20:24.848Z</time>
      </trkpt>
      <trkpt lat="45.942389" lon="6.901088">
        <ele>1098.265084</ele>
        <time>2024-09-14T12:20:32.242Z</time>
      </trkpt>
      <trkpt lat="45.942682" lon="6.901531">
        <ele>1099.339888</ele>
        <time>2024-09-14T12:20:54.701Z</time>
      </trkpt>
      <trkpt lat="45.942874" lon="6.901674">
        <ele>1100.282925</ele>
        <time>2024-09-14T12:21:05.822Z</time>
      </trkpt>
      <trkpt lat="45.942946" lon="6.901784">
        <ele>1100.774018</ele>
        <time>2024-09-14T12:21:14.176Z</time>
      </trkpt>
      <trkpt lat="45.943440" lon="6.902070">
        <ele>1103.263583</ele>
        <time>2024-09-14T12:21:49.762Z</time>
      </trkpt>
      <trkpt lat="45.943591" lon="6.902442">
        <ele>1104.663852</ele>
        <time>2024-09-14T12:22:11.119Z</time>
      </trkpt>
      <trkpt lat="45.943852" lon="6.902546">
        <ele>1105.929994</ele>
        <time>2024-09-14T12:22:30.264Z</time>
      </trkpt>
      <trkpt lat="45.944046" lon="6.902737">
        <ele>1107.029117</ele>
        <time>2024-09-14T12:22:46.446Z</time>
      </trkpt>
      <trkpt lat="45.944082" lon="6.903250">
        <ele>1109.076250</ele>
        <time>2024-09-14T12:23:13.795Z</time>
      </trkpt>
      <trkpt lat="45.944189" lon="6.903360">
        <ele>1109.951293</ele>
        <time>2024-09-14T12:23:23.662Z</time>
      </trkpt>
      <trkpt lat="45.944765" lon="6.903470">
        <ele>1113.817001</ele>
        <time>2024-09-14T12:24:07.496Z</time>
      </trkpt>
      <trkpt lat="45.945045" lon="6.903287">
        <ele>1115.863157</ele>
        <time>2024-09-14T12:24:30.494Z</time>
      </trkpt>
      <trkpt lat="45.945330" lon="6.903235">
        <ele>1117.774432</ele>
        <time>2024-09-14T12:24:52.108Z</time>
      </trkpt>
      <trkpt lat="45.945463" lon="6.903301">
        <ele>1118.710462</ele>
        <time>2024-09-14T12:25:02.150Z</time>
      </trkpt>
      <trkpt lat="45.945845" lon="6.903616">
        <ele>1122.825902</ele>
        <time>2024-09-14T12:25:36.160Z</time>
      </trkpt>
      <trkpt lat="45.945982" lon="6.903814">
        <ele>1124.948424</ele>
        <time>2024-09-14T12:25:52.590Z</time>
      </trkpt>
      <trkpt lat="45.946074" lon="6.904202">
        <ele>1128.063422</ele>
        <time>2024-09-14T12:26:20.617Z</time>
      </trkpt>
      <trkpt lat="45.946186" lon="6.904342">
        <ele>1129.685071</ele>
        <time>2024-09-14T12:26:34.928Z</time>
      </trkpt>
      <trkpt lat="45.946508" lon="6.904540">
        <ele>1133.512063</ele>
        <time>2024-09-14T12:27:11.542Z</time>
      </trkpt>
      <trkpt lat="45.946931" lon="6.905054">
        <ele>1139.596402</ele>
        <time>2024-09-14T12:28:08.025Z</time>
      </trkpt>
      <trkpt lat="45.947283" lon="6.905214">
        <ele>1144.792688</ele>
        <time>2024-09-14T12:28:45.741Z</time>
      </trkpt>
      <trkpt lat="45.947482" lon="6.905424">
        <ele>1148.266948</ele>
        <time>2024-09-14T12:29:11.100Z</time>
      </trkpt>
      <trkpt lat="45.947613" lon="6.905854">
        <ele>1152.861676</ele>
        <time>2024-09-14T12:29:45.524Z</time>
      </trkpt>
      <trkpt lat="45.947596" lon="6.906157">
        <ele>1155.836831</ele>
        <time>2024-09-14T12:30:08.283Z</time>
      </trkpt>
      <trkpt lat="45.947687" lon="6.906424">
        <ele>1158.747055</ele>
        <time>2024-09-14T12:30:30.499Z</time>
      </trkpt>
      <trkpt lat="45.947693" lon="6.906792">
        <ele>1162.349723</ele>
        <time>2024-09-14T12:30:59.058Z</time>
      </trkpt>
      <trkpt lat="45.947532" lon="6.907081">
        <ele>1166.493631</ele>
        <time>2024-09-14T12:31:27.879Z</time>
      </trkpt>
      <trkpt lat="45.947397" lon="6.907201">
        <ele>1169.689574</ele>
        <time>2024-09-14T12:31:45.185Z</time>
      </trkpt>
      <trkpt lat="45.947388" lon="6.907288">
        <ele>1170.921172</ele>
        <time>2024-09-14T12:31:52.723Z</time>
      </trkpt>
      <trkpt lat="45.947461" lon="6.907547">
        <ele>1174.834355</ele>
        <time>2024-09-14T12:32:18.882Z</time>
      </trkpt>
      <trkpt lat="45.947625" lon="6.907716">
        <ele>1178.897211</ele>
        <time>2024-09-14T12:32:44.740Z</time>
      </trkpt>
      <trkpt lat="45.947756" lon="6.907745">
        <ele>1181.566329</ele>
        <time>2024-09-14T12:33:01.650Z</time>
      </trkpt>
      <trkpt lat="45.947790" lon="6.907822">
        <ele>1182.843521</ele>
        <time>2024-09-14T12:33:09.341Z</time>
      </trkpt>
      <trkpt lat="45.947856" lon="6.907970">
        <ele>1185.305419</ele>
        <time>2024-09-14T12:33:24.207Z</time>
      </trkpt>
      <trkpt lat="45.947803" lon="6.908139">
        <ele>1187.901326</ele>
        <time>2024-09-14T12:33:44.672Z</time>
      </trkpt>
      <trkpt lat="45.947829" lon="6.908351">
        <ele>1190.915586</ele>
        <time>2024-09-14T12:34:04.179Z</time>
      </trkpt>
      <trkpt lat="45.947930" lon="6.908435">
        <ele>1193.265095</ele>
        <time>2024-09-14T12:34:21.179Z</time>
      </trkpt>
      <trkpt lat="45.948026" lon="6.908867">
        <ele>1199.615389</ele>
        <time>2024-09-14T12:35:02.887Z</time>
      </trkpt>
      <trkpt lat="45.948085" lon="6.908945">
        <ele>1201.299299</ele>
        <time>2024-09-14T12:35:15.839Z</time>
      </trkpt>
      <trkpt lat="45.948190" lon="6.909557">
        <ele>1212.694102</ele>
        <time>2024-09-14T12:36:40.884Z</time>
      </trkpt>
      <trkpt lat="45.948357" lon="6.910009">
        <ele>1221.946689</ele>
        <time>2024-09-14T12:37:50.005Z</time>
      </trkpt>
      <trkpt lat="45.948355" lon="6.910237">
        <ele>1226.068506</ele>
        <time>2024-09-14T12:38:20.186Z</time>
      </trkpt>
      <trkpt lat="45.948202" lon="6.910794">
        <ele>1236.894482</ele>
        <time>2024-09-14T12:39:33.884Z</time>
      </trkpt>
      <trkpt lat="45.948299" lon="6.910821">
        <ele>1239.463102</ele>
        <time>2024-09-14T12:39:46.666Z</time>
      </trkpt>
      <trkpt lat="45.948303" lon="6.910922">
        <ele>1241.291810</ele>
        <time>2024-09-14T12:40:10.733Z</time>
      </trkpt>
      <trkpt lat="45.948132" lon="6.911552">
        <ele>1247.884501</ele>
        <time>2024-09-14T12:41:13.783Z</time>
      </trkpt>
      <trkpt lat="45.948172" lon="6.911887">
        <ele>1248.027933</ele>
        <time>2024-09-14T12:41:36.030Z</time>
      </trkpt>
      <trkpt lat="45.948104" lon="6.912047">
        <ele>1248.107063</ele>
        <time>2024-09-14T12:41:48.036Z</time>
      </trkpt>
      <trkpt lat="45.948001" lon="6.912117">
        <ele>1248.176201</ele>
        <time>2024-09-14T12:41:53.148Z</time>
      </trkpt>
      <trkpt lat="45.947805" lon="6.912051">
        <ele>1248.298369</ele>
        <time>2024-09-14T12:42:13.591Z</time>
      </trkpt>
      <trkpt lat="45.948001" lon="6.912117">
        <ele>1248.420537</ele>
        <time>2024-09-14T12:42:22.466Z</time>
      </trkpt>
      <trkpt lat="45.948104" lon="6.912047">
        <ele>1248.489675</ele>
        <time>2024-09-14T12:42:40.285Z</time>
      </trkpt>
      <trkpt lat="45.948172" lon="6.911887">
        <ele>1248.568805</ele>
        <time>2024-09-14T12:42:46.637Z</time>
      </trkpt>
      <trkpt lat="45.948132" lon="6.911552">
        <ele>1248.712238</ele>
        <time>2024-09-14T12:42:57.258Z</time>
      </trkpt>
      <trkpt lat="45.948303" lon="6.910922">
        <ele>1247.112557</ele>
        <time>2024-09-14T12:43:18.181Z</time>
      </trkpt>
      <trkpt lat="45.948401" lon="6.910887">
        <ele>1246.434106</ele>
        <time>2024-09-14T12:43:23.503Z</time>
      </trkpt>
      <trkpt lat="45.948655" lon="6.910537">
        <ele>1244.070632</ele>
        <time>2024-09-14T12:43:39.145Z</time>
      </trkpt>
      <trkpt lat="45.948763" lon="6.910074">
        <ele>1241.789174</ele>
        <time>2024-09-14T12:43:54.641Z</time>
      </trkpt>
      <trkpt lat="45.948782" lon="6.909706">
        <ele>1240.065269</ele>
        <time>2024-09-14T12:44:08.618Z</time>
      </trkpt>
      <trkpt lat="45.948864" lon="6.909375">
        <ele>1238.423731</ele>
        <time>2024-09-14T12:44:23.215Z</time>
      </trkpt>
      <trkpt lat="45.949030" lon="6.908989">
        <ele>1237.910630</ele>
        <time>2024-09-14T12:44:43.961Z</time>
      </trkpt>
      <trkpt lat="45.949082" lon="6.908482">
        <ele>1244.008449</ele>
        <time>2024-09-14T12:45:22.242Z</time>
      </trkpt>
      <trkpt lat="45.949104" lon="6.908261">
        <ele>1246.664831</ele>
        <time>2024-09-14T12:45:32.208Z</time>
      </trkpt>
      <trkpt lat="45.949137" lon="6.908234">
        <ele>1247.314538</ele>
        <time>2024-09-14T12:45:34.203Z</time>
      </trkpt>
      <trkpt lat="45.949261" lon="6.908364">
        <ele>1249.940453</ele>
        <time>2024-09-14T12:46:05.286Z</time>
      </trkpt>
      <trkpt lat="45.949283" lon="6.908491">
        <ele>1251.497750</ele>
        <time>2024-09-14T12:46:11.204Z</time>
      </trkpt>
      <trkpt lat="45.949273" lon="6.908650">
        <ele>1253.397328</ele>
        <time>2024-09-14T12:46:17.908Z</time>
      </trkpt>
      <trkpt lat="45.949351" lon="6.908957">
        <ele>1257.286390</ele>
        <time>2024-09-14T12:46:52.001Z</time>
      </trkpt>
      <trkpt lat="45.949266" lon="6.909287">
        <ele>1261.473649</ele>
        <time>2024-09-14T12:47:39.808Z</time>
      </trkpt>
      <trkpt lat="45.949355" lon="6.909472">
        <ele>1264.150399</ele>
        <time>2024-09-14T12:47:56.405Z</time>
      </trkpt>
      <trkpt lat="45.949401" lon="6.909738">
        <ele>1267.411807</ele>
        <time>2024-09-14T12:48:41.121Z</time>
      </trkpt>
      <trkpt lat="45.949599" lon="6.909918">
        <ele>1271.314234</ele>
        <time>2024-09-14T12:49:15.561Z</time>
      </trkpt>
      <trkpt lat="45.949716" lon="6.909880">
        <ele>1273.310810</ele>
        <time>2024-09-14T12:49:52.839Z</time>
      </trkpt>
      <trkpt lat="45.949806" lon="6.909536">
        <ele>1277.564628</ele>
        <time>2024-09-14T12:50:34.017Z</time>
      </trkpt>
      <trkpt lat="45.949939" lon="6.909450">
        <ele>1279.991945</ele>
        <time>2024-09-14T12:50:56.300Z</time>
      </trkpt>
      <trkpt lat="45.950065" lon="6.909368">
        <ele>1282.294012</ele>
        <time>2024-09-14T12:51:04.468Z</time>
      </trkpt>
      <trkpt lat="45.950156" lon="6.909200">
        <ele>1284.758747</ele>
        <time>2024-09-14T12:51:29.531Z</time>
      </trkpt>
      <trkpt lat="45.950195" lon="6.909339">
        <ele>1286.493500</ele>
        <time>2024-09-14T12:51:38.472Z</time>
      </trkpt>
      <trkpt lat="45.950079" lon="6.909854">
        <ele>1292.758778</ele>
        <time>2024-09-14T12:52:09.183Z</time>
      </trkpt>
      <trkpt lat="45.950411" lon="6.909516">
        <ele>1297.302197</ele>
        <time>2024-09-14T12:52:37.470Z</time>
      </trkpt>
      <trkpt lat="45.950460" lon="6.909298">
        <ele>1297.077900</ele>
        <time>2024-09-14T12:52:50.603Z</time>
      </trkpt>
      <trkpt lat="45.950545" lon="6.909218">
        <ele>1296.934866</ele>
        <time>2024-09-14T12:53:00.429Z</time>
      </trkpt>
      <trkpt lat="45.950627" lon="6.909005">
        <ele>1296.696508</ele>
        <time>2024-09-14T12:53:09.086Z</time>
      </trkpt>
      <trkpt lat="45.950778" lon="6.908849">
        <ele>1296.434724</ele>
        <time>2024-09-14T12:53:30.106Z</time>
      </trkpt>
      <trkpt lat="45.950910" lon="6.908479">
        <ele>1296.027595</ele>
        <time>2024-09-14T12:53:44.384Z</time>
      </trkpt>
      <trkpt lat="45.951231" lon="6.907413">
        <ele>1294.585971</ele>
        <time>2024-09-14T12:54:23.305Z</time>
      </trkpt>
      <trkpt lat="45.951481" lon="6.906346">
        <ele>1287.152399</ele>
        <time>2024-09-14T12:55:00.125Z</time>
      </trkpt>
      <trkpt lat="45.951996" lon="6.906270">
        <ele>1282.236492</ele>
        <time>2024-09-14T12:55:24.316Z</time>
      </trkpt>
      <trkpt lat="45.952152" lon="6.906154">
        <ele>1280.568927</ele>
        <time>2024-09-14T12:55:32.151Z</time>
      </trkpt>
      <trkpt lat="45.952293" lon="6.905886">
        <ele>1278.350133</ele>
        <time>2024-09-14T12:55:43.379Z</time>
      </trkpt>
      <trkpt lat="45.952514" lon="6.905755">
        <ele>1274.910295</ele>
        <time>2024-09-14T12:55:54.091Z</time>
      </trkpt>
      <trkpt lat="45.952654" lon="6.905541">
        <ele>1271.697844</ele>
        <time>2024-09-14T12:56:03.217Z</time>
      </trkpt>
      <trkpt lat="45.952832" lon="6.905408">
        <ele>1268.543740</ele>
        <time>2024-09-14T12:56:12.221Z</time>
      </trkpt>
      <trkpt lat="45.952941" lon="6.905277">
        <ele>1266.310187</ele>
        <time>2024-09-14T12:56:18.527Z</time>
      </trkpt>
      <trkpt lat="45.953545" lon="6.905159">
        <ele>1256.725373</ele>
        <time>2024-09-14T12:56:45.595Z</time>
      </trkpt>
      <trkpt lat="45.953701" lon="6.905142">
        <ele>1254.265319</ele>
        <time>2024-09-14T12:56:50.551Z</time>
      </trkpt>
      <trkpt lat="45.953887" lon="6.905289">
        <ele>1250.928133</ele>
        <time>2024-09-14T12:56:57.363Z</time>
      </trkpt>
      <trkpt lat="45.954377" lon="6.905465">
        <ele>1243.067024</ele>
        <time>2024-09-14T12:57:13.434Z</time>
      </trkpt>
      <trkpt lat="45.954902" lon="6.905302">
        <ele>1234.724626</ele>
        <time>2024-09-14T12:57:30.619Z</time>
      </trkpt>
      <trkpt lat="45.955190" lon="6.905596">
        <ele>1229.239159</ele>
        <time>2024-09-14T12:57:41.943Z</time>
      </trkpt>
      <trkpt lat="45.955295" lon="6.905633">
        <ele>1227.560013</ele>
        <time>2024-09-14T12:57:45.414Z</time>
      </trkpt>
      <trkpt lat="45.955568" lon="6.905669">
        <ele>1223.301843</ele>
        <time>2024-09-14T12:57:54.282Z</time>
      </trkpt>
      <trkpt lat="45.956148" lon="6.905607">
        <ele>1217.809076</ele>
        <time>2024-09-14T12:58:13.034Z</time>
      </trkpt>
      <trkpt lat="45.956206" lon="6.905672">
        <ele>1217.215313</ele>
        <time>2024-09-14T12:58:15.395Z</time>
      </trkpt>
      <trkpt lat="45.956207" lon="6.905673">
        <ele>1217.205478</ele>
        <time>2024-09-14T12:58:15.559Z</time>
      </trkpt>
      <trkpt lat="45.956357" lon="6.905933">
        <ele>1215.308625</ele>
        <time>2024-09-14T12:58:23.625Z</time>
      </trkpt>
      <trkpt lat="45.956660" lon="6.905939">
        <ele>1212.861487</ele>
        <time>2024-09-14T12:58:34.181Z</time>
      </trkpt>
      <trkpt lat="45.956988" lon="6.906063">
        <ele>1210.122738</ele>
        <time>2024-09-14T12:58:46.567Z</time>
      </trkpt>
      <trkpt lat="45.956985" lon="6.906281">
        <ele>1208.898616</ele>
        <time>2024-09-14T12:58:52.119Z</time>
      </trkpt>
      <trkpt lat="45.956985" lon="6.906281">
        <ele>1208.898616</ele>
        <time>2024-09-14T12:58:52.149Z</time>
      </trkpt>
      <trkpt lat="45.957269" lon="6.906326">
        <ele>1207.206289</ele>
        <time>2024-09-14T12:59:02.764Z</time>
      </trkpt>
      <trkpt lat="45.957398" lon="6.906981">
        <ele>1207.841170</ele>
        <time>2024-09-14T12:59:20.783Z</time>
      </trkpt>
      <trkpt lat="45.957509" lon="6.907259">
        <ele>1208.140147</ele>
        <time>2024-09-14T12:59:30.430Z</time>
      </trkpt>
      <trkpt lat="45.957567" lon="6.907343">
        <ele>1208.250556</ele>
        <time>2024-09-14T12:59:33.768Z</time>
      </trkpt>
      <trkpt lat="45.958335" lon="6.908813">
        <ele>1212.452344</ele>
        <time>2024-09-14T13:00:35.496Z</time>
      </trkpt>
      <trkpt lat="45.959170" lon="6.909864">
        <ele>1222.471525</ele>
        <time>2024-09-14T13:01:48.067Z</time>
      </trkpt>
      <trkpt lat="45.959653" lon="6.910225">
        <ele>1228.050926</ele>
        <time>2024-09-14T13:02:25.489Z</time>
      </trkpt>
      <trkpt lat="45.959828" lon="6.910397">
        <ele>1230.752934</ele>
        <time>2024-09-14T13:02:44.613Z</time>
      </trkpt>
      <trkpt lat="45.960102" lon="6.910864">
        <ele>1236.168683</ele>
        <time>2024-09-14T13:03:20.789Z</time>
      </trkpt>
      <trkpt lat="45.960831" lon="6.911686">
        <ele>1247.977120</ele>
        <time>2024-09-14T13:04:44.116Z</time>
      </trkpt>
      <trkpt lat="45.961693" lon="6.912411">
        <ele>1262.893842</ele>
        <time>2024-09-14T13:06:10.368Z</time>
      </trkpt>
      <trkpt lat="45.962225" lon="6.912615">
        <ele>1271.191791</ele>
        <time>2024-09-14T13:07:05.234Z</time>
      </trkpt>
      <trkpt lat="45.963139" lon="6.913623">
        <ele>1291.564404</ele>
        <time>2024-09-14T13:09:08.594Z</time>
      </trkpt>
      <trkpt lat="45.963347" lon="6.913898">
        <ele>1296.829920</ele>
        <time>2024-09-14T13:09:40.706Z</time>
      </trkpt>
      <trkpt lat="45.963843" lon="6.914839">
        <ele>1311.647819</ele>
        <time>2024-09-14T13:11:09.099Z</time>
      </trkpt>
      <trkpt lat="45.964255" lon="6.915328">
        <ele>1319.882835</ele>
        <time>2024-09-14T13:12:09.188Z</time>
      </trkpt>
      <trkpt lat="45.964555" lon="6.915846">
        <ele>1327.108693</ele>
        <time>2024-09-14T13:12:54.729Z</time>
      </trkpt>
      <trkpt lat="45.965854" lon="6.917093">
        <ele>1343.519642</ele>
        <time>2024-09-14T13:15:02.594Z</time>
      </trkpt>
      <trkpt lat="45.966183" lon="6.917483">
        <ele>1346.523144</ele>
        <time>2024-09-14T13:15:27.974Z</time>
      </trkpt>
      <trkpt lat="45.966566" lon="6.918079">
        <ele>1349.321539</ele>
        <time>2024-09-14T13:15:58.050Z</time>
      </trkpt>
      <trkpt lat="45.966847" lon="6.918185">
        <ele>1348.188959</ele>
        <time>2024-09-14T13:16:11.894Z</time>
      </trkpt>
      <trkpt lat="45.967013" lon="6.918505">
        <ele>1347.106903</ele>
        <time>2024-09-14T13:16:24.461Z</time>
      </trkpt>
      <trkpt lat="45.967292" lon="6.918681">
        <ele>1345.919185</ele>
        <time>2024-09-14T13:16:37.572Z</time>
      </trkpt>
      <trkpt lat="45.967833" lon="6.919272">
        <ele>1343.270836</ele>
        <time>2024-09-14T13:17:05.741Z</time>
      </trkpt>
      <trkpt lat="45.968404" lon="6.919704">
        <ele>1339.428038</ele>
        <time>2024-09-14T13:17:32.144Z</time>
      </trkpt>
      <trkpt lat="45.968718" lon="6.920060">
        <ele>1336.820451</ele>
        <time>2024-09-14T13:17:48.477Z</time>
      </trkpt>
      <trkpt lat="45.969379" lon="6.920617">
        <ele>1331.823958</ele>
        <time>2024-09-14T13:18:19.691Z</time>
      </trkpt>
      <trkpt lat="45.969617" lon="6.920981">
        <ele>1330.503582</ele>
        <time>2024-09-14T13:18:35.212Z</time>
      </trkpt>
      <trkpt lat="45.969736" lon="6.921079">
        <ele>1330.197082</ele>
        <time>2024-09-14T13:18:42.533Z</time>
      </trkpt>
      <trkpt lat="45.970296" lon="6.921541">
        <ele>1328.754094</ele>
        <time>2024-09-14T13:19:12.623Z</time>
      </trkpt>
      <trkpt lat="45.970489" lon="6.921842">
        <ele>1328.117841</ele>
        <time>2024-09-14T13:19:25.478Z</time>
      </trkpt>
      <trkpt lat="45.970591" lon="6.922037">
        <ele>1327.738670</ele>
        <time>2024-09-14T13:19:34.633Z</time>
      </trkpt>
      <trkpt lat="45.970742" lon="6.922733">
        <ele>1326.472532</ele>
        <time>2024-09-14T13:19:57.433Z</time>
      </trkpt>
      <trkpt lat="45.970826" lon="6.922925">
        <ele>1325.992997</ele>
        <time>2024-09-14T13:20:05.051Z</time>
      </trkpt>
      <trkpt lat="45.971056" lon="6.923077">
        <ele>1325.223274</ele>
        <time>2024-09-14T13:20:15.916Z</time>
      </trkpt>
      <trkpt lat="45.971462" lon="6.923471">
        <ele>1323.733967</ele>
        <time>2024-09-14T13:20:38.153Z</time>
      </trkpt>
      <trkpt lat="45.973091" lon="6.925318">
        <ele>1318.750720</ele>
        <time>2024-09-14T13:22:10.057Z</time>
      </trkpt>
      <trkpt lat="45.973185" lon="6.925501">
        <ele>1318.425876</ele>
        <time>2024-09-14T13:22:17.573Z</time>
      </trkpt>
      <trkpt lat="45.973316" lon="6.926202">
        <ele>1317.094987</ele>
        <time>2024-09-14T13:22:46.820Z</time>
      </trkpt>
      <trkpt lat="45.973540" lon="6.926595">
        <ele>1315.862588</ele>
        <time>2024-09-14T13:23:03.622Z</time>
      </trkpt>
      <trkpt lat="45.973700" lon="6.927113">
        <ele>1314.488119</ele>
        <time>2024-09-14T13:23:22.338Z</time>
      </trkpt>
      <trkpt lat="45.973940" lon="6.927509">
        <ele>1313.214119</ele>
        <time>2024-09-14T13:23:39.990Z</time>
      </trkpt>
      <trkpt lat="45.974083" lon="6.927614">
        <ele>1312.654005</ele>
        <time>2024-09-14T13:23:46.679Z</time>
      </trkpt>
      <trkpt lat="45.974736" lon="6.927883">
        <ele>1304.414260</ele>
        <time>2024-09-14T13:24:12.470Z</time>
      </trkpt>
      <trkpt lat="45.975266" lon="6.928256">
        <ele>1292.704623</ele>
        <time>2024-09-14T13:24:34.420Z</time>
      </trkpt>
      <trkpt lat="45.975675" lon="6.928319">
        <ele>1284.540855</ele>
        <time>2024-09-14T13:24:50.179Z</time>
      </trkpt>
      <trkpt lat="45.975855" lon="6.928535">
        <ele>1279.889152</ele>
        <time>2024-09-14T13:24:57.580Z</time>
      </trkpt>
      <trkpt lat="45.975983" lon="6.928634">
        <ele>1277.005019</ele>
        <time>2024-09-14T13:25:02.190Z</time>
      </trkpt>
      <trkpt lat="45.976166" lon="6.928364">
        <ele>1272.361209</ele>
        <time>2024-09-14T13:25:10.491Z</time>
      </trkpt>
      <trkpt lat="45.976201" lon="6.927996">
        <ele>1267.946656</ele>
        <time>2024-09-14T13:25:18.693Z</time>
      </trkpt>
      <trkpt lat="45.976294" lon="6.927630">
        <ele>1263.314997</ele>
        <time>2024-09-14T13:25:27.262Z</time>
      </trkpt>
      <trkpt lat="45.976182" lon="6.927290">
        <ele>1258.843025</ele>
        <time>2024-09-14T13:25:35.565Z</time>
      </trkpt>
      <trkpt lat="45.976222" lon="6.927037">
        <ele>1255.759216</ele>
        <time>2024-09-14T13:25:41.352Z</time>
      </trkpt>
      <trkpt lat="45.976198" lon="6.926533">
        <ele>1249.754992</ele>
        <time>2024-09-14T13:25:52.611Z</time>
      </trkpt>
      <trkpt lat="45.976190" lon="6.926355">
        <ele>1247.634992</ele>
        <time>2024-09-14T13:25:56.599Z</time>
      </trkpt>
      <trkpt lat="45.976455" lon="6.925616">
        <ele>1241.235613</ele>
        <time>2024-09-14T13:26:15.982Z</time>
      </trkpt>
      <trkpt lat="45.976470" lon="6.925220">
        <ele>1238.763621</ele>
        <time>2024-09-14T13:26:25.193Z</time>
      </trkpt>
      <trkpt lat="45.976355" lon="6.924928">
        <ele>1236.671590</ele>
        <time>2024-09-14T13:26:32.893Z</time>
      </trkpt>
      <trkpt lat="45.976282" lon="6.924548">
        <ele>1234.214157</ele>
        <time>2024-09-14T13:26:42.208Z</time>
      </trkpt>
      <trkpt lat="45.976363" lon="6.924066">
        <ele>1231.123180</ele>
        <time>2024-09-14T13:26:54.163Z</time>
      </trkpt>
      <trkpt lat="45.976462" lon="6.923678">
        <ele>1228.681181</ele>
        <time>2024-09-14T13:27:04.324Z</time>
      </trkpt>
      <trkpt lat="45.976649" lon="6.922938">
        <ele>1225.426264</ele>
        <time>2024-09-14T13:27:23.725Z</time>
      </trkpt>
      <trkpt lat="45.976670" lon="6.922816">
        <ele>1224.906711</ele>
        <time>2024-09-14T13:27:26.777Z</time>
      </trkpt>
      <trkpt lat="45.976724" lon="6.922324">
        <ele>1222.847713</ele>
        <time>2024-09-14T13:27:38.944Z</time>
      </trkpt>
      <trkpt lat="45.976622" lon="6.922178">
        <ele>1221.991941</ele>
        <time>2024-09-14T13:27:44.059Z</time>
      </trkpt>
      <trkpt lat="45.975717" lon="6.921290">
        <ele>1216.424441</ele>
        <time>2024-09-14T13:28:24.545Z</time>
      </trkpt>
      <trkpt lat="45.975730" lon="6.921134">
        <ele>1215.997203</ele>
        <time>2024-09-14T13:28:28.594Z</time>
      </trkpt>
      <trkpt lat="45.975810" lon="6.921026">
        <ele>1215.567985</ele>
        <time>2024-09-14T13:28:32.709Z</time>
      </trkpt>
      <trkpt lat="45.975994" lon="6.920822">
        <ele>1214.659118</ele>
        <time>2024-09-14T13:28:41.516Z</time>
      </trkpt>
      <trkpt lat="45.976031" lon="6.920796">
        <ele>1214.498005</ele>
        <time>2024-09-14T13:28:43.063Z</time>
      </trkpt>
      <trkpt lat="45.975972" lon="6.920727">
        <ele>1214.200521</ele>
        <time>2024-09-14T13:28:45.932Z</time>
      </trkpt>
      <trkpt lat="45.975467" lon="6.920232">
        <ele>1211.809680</ele>
        <time>2024-09-14T13:29:09.002Z</time>
      </trkpt>
      <trkpt lat="45.975096" lon="6.919814">
        <ele>1210.127245</ele>
        <time>2024-09-14T13:29:26.765Z</time>
      </trkpt>
      <trkpt lat="45.975039" lon="6.919557">
        <ele>1209.488817</ele>
        <time>2024-09-14T13:29:33.861Z</time>
      </trkpt>
      <trkpt lat="45.974805" lon="6.918960">
        <ele>1207.866764</ele>
        <time>2024-09-14T13:29:51.894Z</time>
      </trkpt>
      <trkpt lat="45.974656" lon="6.918261">
        <ele>1206.136465</ele>
        <time>2024-09-14T13:30:14.565Z</time>
      </trkpt>
      <trkpt lat="45.974410" lon="6.917467">
        <ele>1204.116843</ele>
        <time>2024-09-14T13:30:41.620Z</time>
      </trkpt>
      <trkpt lat="45.973984" lon="6.916555">
        <ele>1201.613867</ele>
        <time>2024-09-14T13:31:15.738Z</time>
      </trkpt>
      <trkpt lat="45.973580" lon="6.915921">
        <ele>1199.654571</ele>
        <time>2024-09-14T13:31:42.423Z</time>
      </trkpt>
      <trkpt lat="45.972521" lon="6.914736">
        <ele>1195.666221</ele>
        <time>2024-09-14T13:32:42.576Z</time>
      </trkpt>
      <trkpt lat="45.972044" lon="6.914296">
        <ele>1194.002147</ele>
        <time>2024-09-14T13:33:08.195Z</time>
      </trkpt>
      <trkpt lat="45.971460" lon="6.913931">
        <ele>1192.536467</ele>
        <time>2024-09-14T13:33:37.276Z</time>
      </trkpt>
      <trkpt lat="45.970811" lon="6.913671">
        <ele>1191.008644</ele>
        <time>2024-09-14T13:34:08.412Z</time>
      </trkpt>
      <trkpt lat="45.970684" lon="6.913553">
        <ele>1190.665792</ele>
        <time>2024-09-14T13:34:15.270Z</time>
      </trkpt>
      <trkpt lat="45.970577" lon="6.913473">
        <ele>1190.392325</ele>
        <time>2024-09-14T13:34:20.924Z</time>
      </trkpt>
      <trkpt lat="45.970461" lon="6.913377">
        <ele>1190.088840</ele>
        <time>2024-09-14T13:34:27.018Z</time>
      </trkpt>
      <trkpt lat="45.970357" lon="6.913302">
        <ele>1189.824360</ele>
        <time>2024-09-14T13:34:32.282Z</time>
      </trkpt>
      <trkpt lat="45.970168" lon="6.913324">
        <ele>1189.294502</ele>
        <time>2024-09-14T13:34:40.954Z</time>
      </trkpt>
      <trkpt lat="45.969541" lon="6.913108">
        <ele>1187.492920</ele>
        <time>2024-09-14T13:35:10.000Z</time>
      </trkpt>
      <trkpt lat="45.969174" lon="6.912870">
        <ele>1186.368032</ele>
        <time>2024-09-14T13:35:28.061Z</time>
      </trkpt>
      <trkpt lat="45.968854" lon="6.912752">
        <ele>1185.444937</ele>
        <time>2024-09-14T13:35:43.043Z</time>
      </trkpt>
      <trkpt lat="45.968775" lon="6.912723">
        <ele>1185.217111</ele>
        <time>2024-09-14T13:35:46.678Z</time>
      </trkpt>
      <trkpt lat="45.968184" lon="6.912356">
        <ele>1183.701668</ele>
        <time>2024-09-14T13:36:15.745Z</time>
      </trkpt>
      <trkpt lat="45.967810" lon="6.912050">
        <ele>1182.745595</ele>
        <time>2024-09-14T13:36:35.085Z</time>
      </trkpt>
      <trkpt lat="45.967178" lon="6.911533">
        <ele>1181.130050</ele>
        <time>2024-09-14T13:37:08.378Z</time>
      </trkpt>
      <trkpt lat="45.967050" lon="6.911558">
        <ele>1180.843006</ele>
        <time>2024-09-14T13:37:14.323Z</time>
      </trkpt>
      <trkpt lat="45.965719" lon="6.911282">
        <ele>1182.766711</ele>
        <time>2024-09-14T13:38:20.417Z</time>
      </trkpt>
      <trkpt lat="45.965355" lon="6.911347">
        <ele>1183.308706</ele>
        <time>2024-09-14T13:38:41.843Z</time>
      </trkpt>
      <trkpt lat="45.965099" lon="6.911516">
        <ele>1184.270258</ele>
        <time>2024-09-14T13:38:58.610Z</time>
      </trkpt>
      <trkpt lat="45.964880" lon="6.911769">
        <ele>1185.548520</ele>
        <time>2024-09-14T13:39:15.557Z</time>
      </trkpt>
      <trkpt lat="45.964106" lon="6.911606">
        <ele>1189.108606</ele>
        <time>2024-09-14T13:40:03.395Z</time>
      </trkpt>
      <trkpt lat="45.963535" lon="6.911131">
        <ele>1191.473527</ele>
        <time>2024-09-14T13:40:40.987Z</time>
      </trkpt>
      <trkpt lat="45.963474" lon="6.911080">
        <ele>1191.351904</ele>
        <time>2024-09-14T13:40:44.942Z</time>
      </trkpt>
      <trkpt lat="45.963300" lon="6.910743">
        <ele>1190.848873</ele>
        <time>2024-09-14T13:40:59.899Z</time>
      </trkpt>
      <trkpt lat="45.962969" lon="6.909844">
        <ele>1189.629833</ele>
        <time>2024-09-14T13:41:32.541Z</time>
      </trkpt>
      <trkpt lat="45.962662" lon="6.909524">
        <ele>1188.976296</ele>
        <time>2024-09-14T13:41:48.993Z</time>
      </trkpt>
      <trkpt lat="45.962393" lon="6.909142">
        <ele>1187.776799</ele>
        <time>2024-09-14T13:42:05.022Z</time>
      </trkpt>
      <trkpt lat="45.962132" lon="6.909049">
        <ele>1186.175475</ele>
        <time>2024-09-14T13:42:16.120Z</time>
      </trkpt>
      <trkpt lat="45.961822" lon="6.908779">
        <ele>1184.017309</ele>
        <time>2024-09-14T13:42:31.316Z</time>
      </trkpt>
      <trkpt lat="45.961671" lon="6.908480">
        <ele>1182.487333</ele>
        <time>2024-09-14T13:42:42.272Z</time>
      </trkpt>
      <trkpt lat="45.961056" lon="6.907667">
        <ele>1177.534405</ele>
        <time>2024-09-14T13:43:17.550Z</time>
      </trkpt>
      <trkpt lat="45.960709" lon="6.907500">
        <ele>1175.498422</ele>
        <time>2024-09-14T13:43:32.561Z</time>
      </trkpt>
      <trkpt lat="45.960586" lon="6.907339">
        <ele>1174.573099</ele>
        <time>2024-09-14T13:43:39.449Z</time>
      </trkpt>
      <trkpt lat="45.960422" lon="6.906920">
        <ele>1172.713157</ele>
        <time>2024-09-14T13:43:53.421Z</time>
      </trkpt>
      <trkpt lat="45.960072" lon="6.906512">
        <ele>1170.206508</ele>
        <time>2024-09-14T13:44:12.791Z</time>
      </trkpt>
      <trkpt lat="45.959969" lon="6.905677">
        <ele>1166.176683</ele>
        <time>2024-09-14T13:44:38.941Z</time>
      </trkpt>
      <trkpt lat="45.959659" lon="6.905082">
        <ele>1160.910446</ele>
        <time>2024-09-14T13:45:01.263Z</time>
      </trkpt>
      <trkpt lat="45.959641" lon="6.905023">
        <ele>1160.454111</ele>
        <time>2024-09-14T13:45:03.159Z</time>
      </trkpt>
      <trkpt lat="45.959460" lon="6.904246">
        <ele>1154.650285</ele>
        <time>2024-09-14T13:45:24.735Z</time>
      </trkpt>
      <trkpt lat="45.959291" lon="6.903861">
        <ele>1151.425412</ele>
        <time>2024-09-14T13:45:36.650Z</time>
      </trkpt>
      <trkpt lat="45.959202" lon="6.903493">
        <ele>1148.135313</ele>
        <time>2024-09-14T13:45:46.899Z</time>
      </trkpt>
      <trkpt lat="45.958993" lon="6.903107">
        <ele>1142.475047</ele>
        <time>2024-09-14T13:45:59.703Z</time>
      </trkpt>
      <trkpt lat="45.958525" lon="6.902569">
        <ele>1132.505246</ele>
        <time>2024-09-14T13:46:22.161Z</time>
      </trkpt>
      <trkpt lat="45.958101" lon="6.902218">
        <ele>1124.364134</ele>
        <time>2024-09-14T13:46:40.561Z</time>
      </trkpt>
      <trkpt lat="45.957686" lon="6.902077">
        <ele>1118.210291</ele>
        <time>2024-09-14T13:46:56.490Z</time>
      </trkpt>
      <trkpt lat="45.957653" lon="6.902020">
        <ele>1117.703312</ele>
        <time>2024-09-14T13:46:58.412Z</time>
      </trkpt>
      <trkpt lat="45.957488" lon="6.901736">
        <ele>1115.173664</ele>
        <time>2024-09-14T13:47:08.086Z</time>
      </trkpt>
      <trkpt lat="45.957040" lon="6.901568">
        <ele>1110.622003</ele>
        <time>2024-09-14T13:47:26.479Z</time>
      </trkpt>
      <trkpt lat="45.956873" lon="6.901427">
        <ele>1108.718230</ele>
        <time>2024-09-14T13:47:34.425Z</time>
      </trkpt>
      <trkpt lat="45.956697" lon="6.901386">
        <ele>1106.965366</ele>
        <time>2024-09-14T13:47:42.214Z</time>
      </trkpt>
      <trkpt lat="45.956618" lon="6.901286">
        <ele>1105.930778</ele>
        <time>2024-09-14T13:47:46.354Z</time>
      </trkpt>
      <trkpt lat="45.956511" lon="6.901263">
        <ele>1104.867141</ele>
        <time>2024-09-14T13:47:51.128Z</time>
      </trkpt>
      <trkpt lat="45.956169" lon="6.901096">
        <ele>1101.610689</ele>
        <time>2024-09-14T13:48:06.709Z</time>
      </trkpt>
      <trkpt lat="45.956031" lon="6.900828">
        <ele>1100.505398</ele>
        <time>2024-09-14T13:48:16.410Z</time>
      </trkpt>
      <trkpt lat="45.955992" lon="6.900905">
        <ele>1100.189665</ele>
        <time>2024-09-14T13:48:19.313Z</time>
      </trkpt>
      <trkpt lat="45.956018" lon="6.900996">
        <ele>1099.863601</ele>
        <time>2024-09-14T13:48:22.263Z</time>
      </trkpt>
      <trkpt lat="45.955973" lon="6.901038">
        <ele>1099.607878</ele>
        <time>2024-09-14T13:48:24.503Z</time>
      </trkpt>
      <trkpt lat="45.955903" lon="6.900879">
        <ele>1098.984153</ele>
        <time>2024-09-14T13:48:29.996Z</time>
      </trkpt>
      <trkpt lat="45.955414" lon="6.900518">
        <ele>1096.363934</ele>
        <time>2024-09-14T13:48:53.323Z</time>
      </trkpt>
      <trkpt lat="45.955266" lon="6.900140">
        <ele>1094.926158</ele>
        <time>2024-09-14T13:49:06.808Z</time>
      </trkpt>
      <trkpt lat="45.955112" lon="6.900080">
        <ele>1094.165566</ele>
        <time>2024-09-14T13:49:13.702Z</time>
      </trkpt>
      <trkpt lat="45.955045" lon="6.899854">
        <ele>1093.351298</ele>
        <time>2024-09-14T13:49:21.680Z</time>
      </trkpt>
      <trkpt lat="45.954842" lon="6.899589">
        <ele>1092.593080</ele>
        <time>2024-09-14T13:49:33.854Z</time>
      </trkpt>
      <trkpt lat="45.954635" lon="6.899286">
        <ele>1091.793882</ele>
        <time>2024-09-14T13:49:46.960Z</time>
      </trkpt>
      <trkpt lat="45.954150" lon="6.898801">
        <ele>1090.195428</ele>
        <time>2024-09-14T13:50:13.486Z</time>
      </trkpt>
      <trkpt lat="45.952985" lon="6.897735">
        <ele>1086.754622</ele>
        <time>2024-09-14T13:51:17.362Z</time>
      </trkpt>
      <trkpt lat="45.952670" lon="6.897148">
        <ele>1085.567073</ele>
        <time>2024-09-14T13:51:40.823Z</time>
      </trkpt>
      <trkpt lat="45.952499" lon="6.896505">
        <ele>1084.464530</ele>
        <time>2024-09-14T13:52:02.357Z</time>
      </trkpt>
      <trkpt lat="45.952309" lon="6.896244">
        <ele>1083.794531</ele>
        <time>2024-09-14T13:52:14.549Z</time>
      </trkpt>
      <trkpt lat="45.952230" lon="6.896250">
        <ele>1083.585687</ele>
        <time>2024-09-14T13:52:17.911Z</time>
      </trkpt>
      <trkpt lat="45.951965" lon="6.895919">
        <ele>1082.659134</ele>
        <time>2024-09-14T13:52:33.838Z</time>
      </trkpt>
      <trkpt lat="45.951786" lon="6.895593">
        <ele>1081.896688</ele>
        <time>2024-09-14T13:52:47.133Z</time>
      </trkpt>
      <trkpt lat="45.951313" lon="6.895108">
        <ele>1080.363179</ele>
        <time>2024-09-14T13:53:13.316Z</time>
      </trkpt>
      <trkpt lat="45.951222" lon="6.894769">
        <ele>1079.696194</ele>
        <time>2024-09-14T13:53:24.559Z</time>
      </trkpt>
      <trkpt lat="45.951020" lon="6.894418">
        <ele>1079.006029</ele>
        <time>2024-09-14T13:53:38.956Z</time>
      </trkpt>
      <trkpt lat="45.950997" lon="6.894247">
        <ele>1078.753588</ele>
        <time>2024-09-14T13:53:44.635Z</time>
      </trkpt>
      <trkpt lat="45.950890" lon="6.893996">
        <ele>1078.326853</ele>
        <time>2024-09-14T13:53:54.022Z</time>
      </trkpt>
      <trkpt lat="45.950697" lon="6.893758">
        <ele>1077.796884</ele>
        <time>2024-09-14T13:54:05.907Z</time>
      </trkpt>
      <trkpt lat="45.950513" lon="6.893416">
        <ele>1077.170113</ele>
        <time>2024-09-14T13:54:19.849Z</time>
      </trkpt>
      <trkpt lat="45.950271" lon="6.893220">
        <ele>1076.591144</ele>
        <time>2024-09-14T13:54:32.644Z</time>
      </trkpt>
      <trkpt lat="45.950135" lon="6.892923">
        <ele>1076.075696</ele>
        <time>2024-09-14T13:54:43.876Z</time>
      </trkpt>
      <trkpt lat="45.949799" lon="6.892559">
        <ele>1075.228803</ele>
        <time>2024-09-14T13:55:03.228Z</time>
      </trkpt>
      <trkpt lat="45.949690" lon="6.892176">
        <ele>1074.658657</ele>
        <time>2024-09-14T13:55:16.421Z</time>
      </trkpt>
      <trkpt lat="45.949493" lon="6.891720">
        <ele>1073.919034</ele>
        <time>2024-09-14T13:55:33.550Z</time>
      </trkpt>
      <trkpt lat="45.949202" lon="6.891406">
        <ele>1073.198190</ele>
        <time>2024-09-14T13:55:50.235Z</time>
      </trkpt>
      <trkpt lat="45.948428" lon="6.890749">
        <ele>1071.782730</ele>
        <time>2024-09-14T13:56:31.985Z</time>
      </trkpt>
      <trkpt lat="45.948209" lon="6.890653">
        <ele>1071.530265</ele>
        <time>2024-09-14T13:56:42.641Z</time>
      </trkpt>
      <trkpt lat="45.948116" lon="6.890672">
        <ele>1071.426682</ele>
        <time>2024-09-14T13:56:47.015Z</time>
      </trkpt>
      <trkpt lat="45.947976" lon="6.890565">
        <ele>1071.251855</ele>
        <time>2024-09-14T13:56:54.423Z</time>
      </trkpt>
      <trkpt lat="45.947789" lon="6.890233">
        <ele>1070.924255</ele>
        <time>2024-09-14T13:57:08.470Z</time>
      </trkpt>
      <trkpt lat="45.947780" lon="6.890145">
        <ele>1070.856056</ele>
        <time>2024-09-14T13:57:11.403Z</time>
      </trkpt>
      <trkpt lat="45.947791" lon="6.890004">
        <ele>1070.747268</ele>
        <time>2024-09-14T13:57:16.087Z</time>
      </trkpt>
      <trkpt lat="45.947019" lon="6.889445">
        <ele>1070.011561</ele>
        <time>2024-09-14T13:57:57.307Z</time>
      </trkpt>
      <trkpt lat="45.946621" lon="6.888905">
        <ele>1069.691093</ele>
        <time>2024-09-14T13:58:23.443Z</time>
      </trkpt>
      <trkpt lat="45.946593" lon="6.888895">
        <ele>1069.674196</ele>
        <time>2024-09-14T13:58:24.793Z</time>
      </trkpt>
      <trkpt lat="45.946485" lon="6.888946">
        <ele>1069.607619</ele>
        <time>2024-09-14T13:58:30.280Z</time>
      </trkpt>
      <trkpt lat="45.946445" lon="6.888996">
        <ele>1069.576579</ele>
        <time>2024-09-14T13:58:32.822Z</time>
      </trkpt>
      <trkpt lat="45.946340" lon="6.889083">
        <ele>1069.505605</ele>
        <time>2024-09-14T13:58:38.617Z</time>
      </trkpt>
      <trkpt lat="45.946243" lon="6.889099">
        <ele>1069.448421</ele>
        <time>2024-09-14T13:58:43.304Z</time>
      </trkpt>
      <trkpt lat="45.946112" lon="6.889242">
        <ele>1069.352097</ele>
        <time>2024-09-14T13:58:49.959Z</time>
      </trkpt>
      <trkpt lat="45.946071" lon="6.889255">
        <ele>1069.327507</ele>
        <time>2024-09-14T13:58:51.623Z</time>
      </trkpt>
      <trkpt lat="45.945025" lon="6.888310">
        <ele>1068.085412</ele>
        <time>2024-09-14T13:59:41.096Z</time>
      </trkpt>
      <trkpt lat="45.944523" lon="6.888157">
        <ele>1067.525247</ele>
        <time>2024-09-14T14:00:01.510Z</time>
      </trkpt>
      <trkpt lat="45.943807" lon="6.888093">
        <ele>1066.757419</ele>
        <time>2024-09-14T14:00:30.140Z</time>
      </trkpt>
      <trkpt lat="45.943233" lon="6.888226">
        <ele>1066.142190</ele>
        <time>2024-09-14T14:00:53.403Z</time>
      </trkpt>
      <trkpt lat="45.942980" lon="6.888495">
        <ele>1065.809243</ele>
        <time>2024-09-14T14:01:06.040Z</time>
      </trkpt>
      <trkpt lat="45.942917" lon="6.888588">
        <ele>1065.713707</ele>
        <time>2024-09-14T14:01:09.676Z</time>
      </trkpt>
      <trkpt lat="45.942769" lon="6.888807">
        <ele>1065.488995</ele>
        <time>2024-09-14T14:01:18.206Z</time>
      </trkpt>
      <trkpt lat="45.942722" lon="6.888884">
        <ele>1065.413604</ele>
        <time>2024-09-14T14:01:21.102Z</time>
      </trkpt>
      <trkpt lat="45.942620" lon="6.889046">
        <ele>1065.225702</ele>
        <time>2024-09-14T14:01:27.181Z</time>
      </trkpt>
      <trkpt lat="45.942620" lon="6.889046">
        <ele>1065.225702</ele>
        <time>2024-09-14T14:01:27.226Z</time>
      </trkpt>
      <trkpt lat="45.941695" lon="6.887832">
        <ele>1063.477506</ele>
        <time>2024-09-14T14:02:17.122Z</time>
      </trkpt>
      <trkpt lat="45.941585" lon="6.887694">
        <ele>1063.273727</ele>
        <time>2024-09-14T14:02:22.965Z</time>
      </trkpt>
      <trkpt lat="45.941574" lon="6.887610">
        <ele>1063.190751</ele>
        <time>2024-09-14T14:02:25.141Z</time>
      </trkpt>
      <trkpt lat="45.940791" lon="6.886578">
        <ele>1061.558061</ele>
        <time>2024-09-14T14:03:06.944Z</time>
      </trkpt>
      <trkpt lat="45.940758" lon="6.886616">
        <ele>1061.491132</ele>
        <time>2024-09-14T14:03:08.601Z</time>
      </trkpt>
      <trkpt lat="45.940679" lon="6.886522">
        <ele>1061.328801</ele>
        <time>2024-09-14T14:03:12.651Z</time>
      </trkpt>
      <trkpt lat="45.940735" lon="6.886406">
        <ele>1061.173339</ele>
        <time>2024-09-14T14:03:16.568Z</time>
      </trkpt>
      <trkpt lat="45.940711" lon="6.886268">
        <ele>1061.016734</ele>
        <time>2024-09-14T14:03:21.118Z</time>
      </trkpt>
      <trkpt lat="45.940693" lon="6.886179">
        <ele>1060.914693</ele>
        <time>2024-09-14T14:03:24.055Z</time>
      </trkpt>
      <trkpt lat="45.940631" lon="6.886111">
        <ele>1060.791248</ele>
        <time>2024-09-14T14:03:27.687Z</time>
      </trkpt>
      <trkpt lat="45.940548" lon="6.886063">
        <ele>1060.649620</ele>
        <time>2024-09-14T14:03:31.862Z</time>
      </trkpt>
      <trkpt lat="45.940381" lon="6.886172">
        <ele>1060.359278</ele>
        <time>2024-09-14T14:03:40.508Z</time>
      </trkpt>
      <trkpt lat="45.940258" lon="6.885907">
        <ele>1060.008518</ele>
        <time>2024-09-14T14:03:49.318Z</time>
      </trkpt>
      <trkpt lat="45.940237" lon="6.885772">
        <ele>1059.907842</ele>
        <time>2024-09-14T14:03:53.156Z</time>
      </trkpt>
      <trkpt lat="45.940159" lon="6.885267">
        <ele>1059.577155</ele>
        <time>2024-09-14T14:04:07.533Z</time>
      </trkpt>
      <trkpt lat="45.940017" lon="6.884162">
        <ele>1058.858824</ele>
        <time>2024-09-14T14:04:38.909Z</time>
      </trkpt>
      <trkpt lat="45.939934" lon="6.883523">
        <ele>1058.443279</ele>
        <time>2024-09-14T14:04:57.135Z</time>
      </trkpt>
      <trkpt lat="45.939904" lon="6.883309">
        <ele>1058.301832</ele>
        <time>2024-09-14T14:05:03.293Z</time>
      </trkpt>
      <trkpt lat="45.939882" lon="6.883145">
        <ele>1058.185950</ele>
        <time>2024-09-14T14:05:07.988Z</time>
      </trkpt>
      <trkpt lat="45.939795" lon="6.882476">
        <ele>1057.713745</ele>
        <time>2024-09-14T14:05:27.088Z</time>
      </trkpt>
      <trkpt lat="45.939821" lon="6.881716">
        <ele>1057.185812</ele>
        <time>2024-09-14T14:05:48.317Z</time>
      </trkpt>
      <trkpt lat="45.939888" lon="6.881369">
        <ele>1056.935952</ele>
        <time>2024-09-14T14:05:58.288Z</time>
      </trkpt>
      <trkpt lat="45.939763" lon="6.881082">
        <ele>1056.700999</ele>
        <time>2024-09-14T14:06:09.331Z</time>
      </trkpt>
      <trkpt lat="45.939633" lon="6.880782">
        <ele>1056.406147</ele>
        <time>2024-09-14T14:06:20.812Z</time>
      </trkpt>
      <trkpt lat="45.939360" lon="6.880335">
        <ele>1055.722859</ele>
        <time>2024-09-14T14:06:40.107Z</time>
      </trkpt>
      <trkpt lat="45.937798" lon="6.879118">
        <ele>1052.912192</ele>
        <time>2024-09-14T14:08:02.349Z</time>
      </trkpt>
      <trkpt lat="45.937128" lon="6.878589">
        <ele>1051.851689</ele>
        <time>2024-09-14T14:08:37.908Z</time>
      </trkpt>
      <trkpt lat="45.936271" lon="6.877914">
        <ele>1050.819955</ele>
        <time>2024-09-14T14:09:23.932Z</time>
      </trkpt>
      <trkpt lat="45.935597" lon="6.877440">
        <ele>1050.371390</ele>
        <time>2024-09-14T14:09:59.698Z</time>
      </trkpt>
      <trkpt lat="45.935539" lon="6.877419">
        <ele>1050.335632</ele>
        <time>2024-09-14T14:10:02.144Z</time>
      </trkpt>
      <trkpt lat="45.935237" lon="6.877139">
        <ele>1050.120802</ele>
        <time>2024-09-14T14:10:19.347Z</time>
      </trkpt>
      <trkpt lat="45.934722" lon="6.876786">
        <ele>1049.731924</ele>
        <time>2024-09-14T14:10:46.807Z</time>
      </trkpt>
      <trkpt lat="45.934278" lon="6.876628">
        <ele>1049.396310</ele>
        <time>2024-09-14T14:11:08.722Z</time>
      </trkpt>
      <trkpt lat="45.934213" lon="6.876605">
        <ele>1049.347193</ele>
        <time>2024-09-14T14:11:11.933Z</time>
      </trkpt>
      <trkpt lat="45.934019" lon="6.876426">
        <ele>1049.178058</ele>
        <time>2024-09-14T14:11:22.902Z</time>
      </trkpt>
      <trkpt lat="45.933599" lon="6.875964">
        <ele>1048.790041</ele>
        <time>2024-09-14T14:11:47.858Z</time>
      </trkpt>
      <trkpt lat="45.933579" lon="6.875942">
        <ele>1048.771564</ele>
        <time>2024-09-14T14:11:49.021Z</time>
      </trkpt>
      <trkpt lat="45.932781" lon="6.875085">
        <ele>1046.681258</ele>
        <time>2024-09-14T14:12:34.982Z</time>
      </trkpt>
      <trkpt lat="45.931825" lon="6.873850">
        <ele>1043.664987</ele>
        <time>2024-09-14T14:13:32.913Z</time>
      </trkpt>
      <trkpt lat="45.931586" lon="6.873629">
        <ele>1042.975960</ele>
        <time>2024-09-14T14:13:45.772Z</time>
      </trkpt>
      <trkpt lat="45.931370" lon="6.873545">
        <ele>1042.433388</ele>
        <time>2024-09-14T14:13:55.970Z</time>
      </trkpt>
      <trkpt lat="45.931322" lon="6.873563">
        <ele>1042.313105</ele>
        <time>2024-09-14T14:13:58.182Z</time>
      </trkpt>
      <trkpt lat="45.931291" lon="6.873575">
        <ele>1042.235260</ele>
        <time>2024-09-14T14:13:59.613Z</time>
      </trkpt>
      <trkpt lat="45.931224" lon="6.873592">
        <ele>1042.070290</ele>
        <time>2024-09-14T14:14:02.746Z</time>
      </trkpt>
      <trkpt lat="45.931157" lon="6.873614">
        <ele>1041.903647</ele>
        <time>2024-09-14T14:14:05.880Z</time>
      </trkpt>
      <trkpt lat="45.930994" lon="6.873724">
        <ele>1041.467036</ele>
        <time>2024-09-14T14:14:14.140Z</time>
      </trkpt>
      <trkpt lat="45.930871" lon="6.873795">
        <ele>1041.145649</ele>
        <time>2024-09-14T14:14:20.163Z</time>
      </trkpt>
      <trkpt lat="45.930813" lon="6.873825">
        <ele>1040.996188</ele>
        <time>2024-09-14T14:14:23.031Z</time>
      </trkpt>
      <trkpt lat="45.930763" lon="6.873859">
        <ele>1040.862073</ele>
        <time>2024-09-14T14:14:25.568Z</time>
      </trkpt>
      <trkpt lat="45.930650" lon="6.873268">
        <ele>1039.979740</ele>
        <time>2024-09-14T14:14:42.277Z</time>
      </trkpt>
      <trkpt lat="45.930345" lon="6.872937">
        <ele>1039.504855</ele>
        <time>2024-09-14T14:14:57.333Z</time>
      </trkpt>
      <trkpt lat="45.930093" lon="6.872750">
        <ele>1039.152438</ele>
        <time>2024-09-14T14:15:08.622Z</time>
      </trkpt>
      <trkpt lat="45.929625" lon="6.872642">
        <ele>1038.563403</ele>
        <time>2024-09-14T14:15:27.629Z</time>
      </trkpt>
      <trkpt lat="45.929071" lon="6.872516">
        <ele>1037.893530</ele>
        <time>2024-09-14T14:15:50.131Z</time>
      </trkpt>
      <trkpt lat="45.928537" lon="6.872340">
        <ele>1037.708459</ele>
        <time>2024-09-14T14:16:12.214Z</time>
      </trkpt>
      <trkpt lat="45.928089" lon="6.872132">
        <ele>1037.549424</ele>
        <time>2024-09-14T14:16:31.350Z</time>
      </trkpt>
      <trkpt lat="45.927780" lon="6.872022">
        <ele>1037.441888</ele>
        <time>2024-09-14T14:16:44.388Z</time>
      </trkpt>
      <trkpt lat="45.927788" lon="6.872268">
        <ele>1037.384022</ele>
        <time>2024-09-14T14:16:51.439Z</time>
      </trkpt>
      <trkpt lat="45.927792" lon="6.872373">
        <ele>1037.359313</ele>
        <time>2024-09-14T14:16:54.451Z</time>
      </trkpt>
      <trkpt lat="45.927886" lon="6.872675">
        <ele>1037.296064</ele>
        <time>2024-09-14T14:17:03.971Z</time>
      </trkpt>
      <trkpt lat="45.927927" lon="6.872957">
        <ele>1037.296064</ele>
        <time>2024-09-14T14:17:12.261Z</time>
      </trkpt>
      <trkpt lat="45.927878" lon="6.873221">
        <ele>1037.296064</ele>
        <time>2024-09-14T14:17:20.206Z</time>
      </trkpt>
      <trkpt lat="45.927813" lon="6.873308">
        <ele>1037.296064</ele>
        <time>2024-09-14T14:17:23.926Z</time>
      </trkpt>
      <trkpt lat="45.927626" lon="6.873416">
        <ele>1037.296064</ele>
        <time>2024-09-14T14:17:32.362Z</time>
      </trkpt>
      <trkpt lat="45.927502" lon="6.873597">
        <ele>1037.296064</ele>
        <time>2024-09-14T14:17:39.769Z</time>
      </trkpt>
      <trkpt lat="45.927461" lon="6.873829">
        <ele>1037.296064</ele>
        <time>2024-09-14T14:17:46.726Z</time>
      </trkpt>
      <trkpt lat="45.927484" lon="6.874100">
        <ele>1037.296064</ele>
        <time>2024-09-14T14:17:54.691Z</time>
      </trkpt>
      <trkpt lat="45.927347" lon="6.874538">
        <ele>1037.296064</ele>
        <time>2024-09-14T14:18:08.698Z</time>
      </trkpt>
      <trkpt lat="45.927269" lon="6.874744">
        <ele>1037.296064</ele>
        <time>2024-09-14T14:18:15.496Z</time>
      </trkpt>
      <trkpt lat="45.927194" lon="6.874781">
        <ele>1037.296064</ele>
        <time>2024-09-14T14:18:18.844Z</time>
      </trkpt>
      <trkpt lat="45.927231" lon="6.874870">
        <ele>1037.296064</ele>
        <time>2024-09-14T14:18:21.878Z</time>
      </trkpt>
      <trkpt lat="45.927187" lon="6.874968">
        <ele>1037.296064</ele>
        <time>2024-09-14T14:18:25.261Z</time>
      </trkpt>
      <trkpt lat="45.927155" lon="6.875032">
        <ele>1037.296064</ele>
        <time>2024-09-14T14:18:27.534Z</time>
      </trkpt>
      <trkpt lat="45.927129" lon="6.875078">
        <ele>1037.296064</ele>
        <time>2024-09-14T14:18:29.257Z</time>
      </trkpt>
      <trkpt lat="45.927083" lon="6.875187">
        <ele>1037.296064</ele>
        <time>2024-09-14T14:18:32.976Z</time>
      </trkpt>
      <trkpt lat="45.927135" lon="6.875260">
        <ele>1037.296064</ele>
        <time>2024-09-14T14:18:35.998Z</time>
      </trkpt>
      <trkpt lat="45.927117" lon="6.875319">
        <ele>1037.296064</ele>
        <time>2024-09-14T14:18:37.867Z</time>
      </trkpt>
      <trkpt lat="45.926963" lon="6.875203">
        <ele>1037.296064</ele>
        <time>2024-09-14T14:18:45.086Z</time>
      </trkpt>
    </trkseg>
  </trk>
</gpx>