<?xml version="1.0" encoding="UTF-8" standalone="no" ?>
<gpx xmlns="http://www.topografix.com/GPX/1/1" creator="OruxMaps v.10.5.0 GP" version="1.1" xmlns:gpxtpx="http://www.garmin.com/xmlschemas/TrackPointExtension/v2" xmlns:xsi="http://www.w3.org/2001/XMLSchema-instance" xmlns:om="http://www.oruxmaps.com/oruxmapsextensions/1/0" xsi:schemaLocation="http://www.topografix.com/GPX/1/1 http://www.topografix.com/GPX/1/1/gpx.xsd">
<!-- owner: 4cd85a9e434039 -->
<metadata>
<name><![CDATA[2024-02-06 11:58:30]]></name>
<link href="https://www.oruxmaps.com">
<text>OruxMaps GP</text>
</link>
<time>2024-02-06T09:58:30.485Z</time><bounds maxlat="33.8182523" maxlon="35.4908040" minlat="32.6919719" minlon="35.1035311"/>
</metadata>
<trk>
<name><![CDATA[2024-02-06 11:58:30]]></name>
<desc><![CDATA[<p>Type: Mountain biking<br/>Start time: 11:58 Feb 6, 2024<br/>Finish time: 10:36 Feb 21, 2024<br/>Distance: 2.2 km (358:37)<br/>Moving time: 358:22<br/>Average speed: 0.01 km/h<br/>Avg. Speed Mov: 0.01 km/h<br/>Max. speed: 5.06 km/h<br/>Minimum altitude: 23 m<br/>Maximum altitude: 23 m<br/>Descent speed: 289.6 m/h<br/>Elevation loss: 5 m<br/>Descent time: 00:01<br/></p><hr align="center" width="480" style="height: 2px; width: 517px"/>]]></desc>
<type>Mountain biking</type>
<extensions>
<om:oruxmapsextensions>
<om:ext type="TYPE" subtype="0">6</om:ext>
<om:ext type="DIFFICULTY">0</om:ext>
</om:oruxmapsextensions>
</extensions>
<trkseg>
<trkpt lat="32.6936864" lon="35.1078895">
<ele>30.63</ele>
<time>2024-02-06T09:58:32.178Z</time>
<extensions>
</extensions>
</trkpt>
<trkpt lat="32.6937107" lon="35.1076243">
<ele>27.48</ele>
<time>2024-02-06T09:58:37.270Z</time>
<extensions>
</extensions>
</trkpt>
<trkpt lat="32.6935552" lon="35.1075148">
<ele>23.77</ele>
<time>2024-02-06T09:59:06.565Z</time>
<extensions>
</extensions>
</trkpt>
<trkpt lat="32.6933806" lon="35.1075977">
<ele>24.24</ele>
<time>2024-02-06T09:59:23.576Z</time>
<extensions>
</extensions>
</trkpt>
<trkpt lat="32.6932070" lon="35.1076557">
<ele>24.27</ele>
<time>2024-02-06T09:59:43.567Z</time>
<extensions>
</extensions>
</trkpt>
<trkpt lat="32.6930281" lon="35.1076845">
<ele>23.95</ele>
<time>2024-02-06T09:59:59.572Z</time>
<extensions>
</extensions>
</trkpt>
<trkpt lat="32.6928383" lon="35.1076967">
<ele>23.39</ele>
<time>2024-02-06T10:00:16.571Z</time>
<extensions>
</extensions>
</trkpt>
<trkpt lat="32.6926569" lon="35.1077621">
<ele>23.18</ele>
<time>2024-02-06T10:00:31.579Z</time>
<extensions>
</extensions>
</trkpt>
<trkpt lat="32.6924889" lon="35.1078463">
<ele>23.05</ele>
<time>2024-02-06T10:00:49.581Z</time>
<extensions>
</extensions>
</trkpt>
<trkpt lat="32.6923112" lon="35.1079012">
<ele>23.19</ele>
<time>2024-02-06T10:01:09.569Z</time>
<extensions>
</extensions>
</trkpt>
<trkpt lat="32.6921278" lon="35.1079425">
<ele>23.20</ele>
<time>2024-02-06T10:01:25.578Z</time>
<extensions>
</extensions>
</trkpt>
<trkpt lat="32.6919719" lon="35.1078326">
<ele>22.37</ele>
<time>2024-02-06T10:01:52.570Z</time>
<extensions>
</extensions>
</trkpt>
<trkpt lat="32.7091361" lon="35.1035311">
<ele>25.96</ele>
<time>2024-02-06T11:20:01.379Z</time>
<extensions>
</extensions>
</trkpt>
<trkpt lat="33.8182523" lon="35.4908040">
<ele>3.33</ele>
<time>2024-02-21T08:36:26.988Z</time>
<extensions>
</extensions>
</trkpt>
</trkseg>
</trk>
</gpx>
