<?xml version="1.0" encoding="utf-8"?>
<gpx version="1.1"><trk><trkseg>
<trkpt lat="31.7170973" lon="35.999386"><ele>968.8</ele><time>2024-09-28T14:13:54Z</time></trkpt>
<trkpt lat="31.7170974" lon="35.9993861"><ele>968.7</ele><time>2024-09-28T14:13:55Z</time></trkpt>
<trkpt lat="31.7170975" lon="35.9993861"><ele>968.7</ele><time>2024-09-28T14:13:56Z</time></trkpt>
<trkpt lat="31.7170973" lon="35.9993852"><ele>968.6</ele><time>2024-09-28T14:13:57Z</time></trkpt>
<trkpt lat="31.7170968" lon="35.9993838"><ele>968.6</ele><time>2024-09-28T14:13:58Z</time></trkpt>
<trkpt lat="31.7170967" lon="35.9993829"><ele>968.6</ele><time>2024-09-28T14:13:59Z</time></trkpt>
<trkpt lat="31.7170973" lon="35.9993823"><ele>968.6</ele><time>2024-09-28T14:14:00Z</time></trkpt>
<trkpt lat="31.7170993" lon="35.9993806"><ele>968.6</ele><time>2024-09-28T14:14:01Z</time></trkpt>
<trkpt lat="31.7171008" lon="35.9993788"><ele>968.5</ele><time>2024-09-28T14:14:02Z</time></trkpt>
<trkpt lat="31.7171007" lon="35.9993784"><ele>968.5</ele><time>2024-09-28T14:14:03Z</time></trkpt>
<trkpt lat="31.7171005" lon="35.9993781"><ele>968.4</ele><time>2024-09-28T14:14:04Z</time></trkpt>
<trkpt lat="31.7171003" lon="35.9993779"><ele>968.4</ele><time>2024-09-28T14:14:05Z</time></trkpt>
<trkpt lat="31.7171001" lon="35.9993776"><ele>968.3</ele><time>2024-09-28T14:14:06Z</time></trkpt>
<trkpt lat="31.7171" lon="35.9993774"><ele>968.3</ele><time>2024-09-28T14:14:07Z</time></trkpt>
<trkpt lat="31.7170998" lon="35.9993772"><ele>968.3</ele><time>2024-09-28T14:14:08Z</time></trkpt>
<trkpt lat="31.7170996" lon="35.999377"><ele>968.2</ele><time>2024-09-28T14:14:09Z</time></trkpt>
<trkpt lat="31.7170995" lon="35.9993768"><ele>968.2</ele><time>2024-09-28T14:14:10Z</time></trkpt>
<trkpt lat="31.7170993" lon="35.9993766"><ele>968.1</ele><time>2024-09-28T14:14:11Z</time></trkpt>
<trkpt lat="31.7170992" lon="35.9993764"><ele>968.1</ele><time>2024-09-28T14:14:12Z</time></trkpt>
<trkpt lat="31.7170991" lon="35.9993763"><ele>968.1</ele><time>2024-09-28T14:14:13Z</time></trkpt>
<trkpt lat="31.7170989" lon="35.9993761"><ele>968.0</ele><time>2024-09-28T14:14:14Z</time></trkpt>
<trkpt lat="31.7170988" lon="35.9993759"><ele>968.0</ele><time>2024-09-28T14:14:15Z</time></trkpt>
<trkpt lat="31.7170987" lon="35.9993757"><ele>967.9</ele><time>2024-09-28T14:14:16Z</time></trkpt>
<trkpt lat="31.7170985" lon="35.9993756"><ele>967.9</ele><time>2024-09-28T14:14:17Z</time></trkpt>
<trkpt lat="31.7170984" lon="35.9993754"><ele>967.8</ele><time>2024-09-28T14:14:18Z</time></trkpt>
<trkpt lat="31.7170983" lon="35.9993752"><ele>967.8</ele><time>2024-09-28T14:14:19Z</time></trkpt>
<trkpt lat="31.7170981" lon="35.999375"><ele>967.7</ele><time>2024-09-28T14:14:20Z</time></trkpt>
<trkpt lat="31.717098" lon="35.9993748"><ele>967.7</ele><time>2024-09-28T14:14:21Z</time></trkpt>
<trkpt lat="31.7170978" lon="35.9993746"><ele>967.6</ele><time>2024-09-28T14:14:22Z</time></trkpt>
<trkpt lat="31.7170976" lon="35.9993744"><ele>967.6</ele><time>2024-09-28T14:14:23Z</time></trkpt>
<trkpt lat="31.7170974" lon="35.9993742"><ele>967.5</ele><time>2024-09-28T14:14:24Z</time></trkpt>
<trkpt lat="31.7170972" lon="35.9993739"><ele>967.5</ele><time>2024-09-28T14:14:25Z</time></trkpt>
<trkpt lat="31.717097" lon="35.9993736"><ele>967.4</ele><time>2024-09-28T14:14:26Z</time></trkpt>
<trkpt lat="31.7170968" lon="35.9993733"><ele>967.3</ele><time>2024-09-28T14:14:27Z</time></trkpt>
<trkpt lat="31.7170965" lon="35.999373"><ele>967.3</ele><time>2024-09-28T14:14:28Z</time></trkpt>
<trkpt lat="31.7170962" lon="35.9993727"><ele>967.2</ele><time>2024-09-28T14:14:29Z</time></trkpt>
<trkpt lat="31.7170959" lon="35.9993723"><ele>967.2</ele><time>2024-09-28T14:14:30Z</time></trkpt>
<trkpt lat="31.7170956" lon="35.9993719"><ele>967.1</ele><time>2024-09-28T14:14:31Z</time></trkpt>
<trkpt lat="31.7170952" lon="35.9993714"><ele>967.1</ele><time>2024-09-28T14:14:32Z</time></trkpt>
<trkpt lat="31.7170948" lon="35.9993708"><ele>967.1</ele><time>2024-09-28T14:14:33Z</time></trkpt>
<trkpt lat="31.7170943" lon="35.9993702"><ele>967.0</ele><time>2024-09-28T14:14:34Z</time></trkpt>
<trkpt lat="31.7170933" lon="35.9993693"><ele>967.0</ele><time>2024-09-28T14:14:35Z</time></trkpt>
<trkpt lat="31.7170901" lon="35.9993665"><ele>967.0</ele><time>2024-09-28T14:14:36Z</time></trkpt>
<trkpt lat="31.7170848" lon="35.999362"><ele>967.0</ele><time>2024-09-28T14:14:37Z</time></trkpt>
<trkpt lat="31.7170801" lon="35.9993579"><ele>967.0</ele><time>2024-09-28T14:14:38Z</time></trkpt>
<trkpt lat="31.7170776" lon="35.9993555"><ele>967.1</ele><time>2024-09-28T14:14:39Z</time></trkpt>
<trkpt lat="31.7170767" lon="35.9993539"><ele>967.1</ele><time>2024-09-28T14:14:40Z</time></trkpt>
<trkpt lat="31.7170763" lon="35.9993518"><ele>967.2</ele><time>2024-09-28T14:14:41Z</time></trkpt>
<trkpt lat="31.7170766" lon="35.9993502"><ele>967.3</ele><time>2024-09-28T14:14:42Z</time></trkpt>
<trkpt lat="31.7170773" lon="35.9993496"><ele>967.4</ele><time>2024-09-28T14:14:43Z</time></trkpt>
<trkpt lat="31.7170781" lon="35.9993502"><ele>967.5</ele><time>2024-09-28T14:14:44Z</time></trkpt>
<trkpt lat="31.7170788" lon="35.999352"><ele>967.6</ele><time>2024-09-28T14:14:45Z</time></trkpt>
<trkpt lat="31.7170792" lon="35.9993548"><ele>967.8</ele><time>2024-09-28T14:14:46Z</time></trkpt>
<trkpt lat="31.7170788" lon="35.9993573"><ele>968.0</ele><time>2024-09-28T14:14:47Z</time></trkpt>
<trkpt lat="31.7170773" lon="35.9993586"><ele>968.1</ele><time>2024-09-28T14:14:48Z</time></trkpt>
<trkpt lat="31.7170748" lon="35.9993593"><ele>968.3</ele><time>2024-09-28T14:14:49Z</time></trkpt>
<trkpt lat="31.7170718" lon="35.9993604"><ele>968.5</ele><time>2024-09-28T14:14:50Z</time></trkpt>
<trkpt lat="31.7170692" lon="35.9993617"><ele>968.7</ele><time>2024-09-28T14:14:51Z</time></trkpt>
<trkpt lat="31.7170664" lon="35.9993617"><ele>968.9</ele><time>2024-09-28T14:14:52Z</time></trkpt>
<trkpt lat="31.7170637" lon="35.9993603"><ele>969.1</ele><time>2024-09-28T14:14:53Z</time></trkpt>
<trkpt lat="31.7170626" lon="35.9993579"><ele>969.3</ele><time>2024-09-28T14:14:54Z</time></trkpt>
<trkpt lat="31.7170623" lon="35.9993562"><ele>969.5</ele><time>2024-09-28T14:14:55Z</time></trkpt>
<trkpt lat="31.7170619" lon="35.9993568"><ele>969.6</ele><time>2024-09-28T14:14:56Z</time></trkpt>
<trkpt lat="31.7170606" lon="35.9993591"><ele>969.8</ele><time>2024-09-28T14:14:57Z</time></trkpt>
<trkpt lat="31.7170591" lon="35.999362"><ele>969.9</ele><time>2024-09-28T14:14:58Z</time></trkpt>
<trkpt lat="31.7170577" lon="35.9993658"><ele>970.0</ele><time>2024-09-28T14:14:59Z</time></trkpt>
<trkpt lat="31.7170564" lon="35.9993691"><ele>970.1</ele><time>2024-09-28T14:15:00Z</time></trkpt>
<trkpt lat="31.7170549" lon="35.999371"><ele>970.1</ele><time>2024-09-28T14:15:01Z</time></trkpt>
<trkpt lat="31.7170535" lon="35.9993731"><ele>970.2</ele><time>2024-09-28T14:15:02Z</time></trkpt>
<trkpt lat="31.7170528" lon="35.999375"><ele>970.2</ele><time>2024-09-28T14:15:03Z</time></trkpt>
<trkpt lat="31.7170528" lon="35.9993767"><ele>970.2</ele><time>2024-09-28T14:15:04Z</time></trkpt>
<trkpt lat="31.7170538" lon="35.9993793"><ele>970.1</ele><time>2024-09-28T14:15:05Z</time></trkpt>
<trkpt lat="31.7170541" lon="35.9993821"><ele>970.1</ele><time>2024-09-28T14:15:06Z</time></trkpt>
<trkpt lat="31.7170523" lon="35.999384"><ele>970.0</ele><time>2024-09-28T14:15:07Z</time></trkpt>
<trkpt lat="31.7170506" lon="35.9993844"><ele>970.0</ele><time>2024-09-28T14:15:08Z</time></trkpt>
<trkpt lat="31.7170505" lon="35.9993829"><ele>969.9</ele><time>2024-09-28T14:15:09Z</time></trkpt>
<trkpt lat="31.7170514" lon="35.9993805"><ele>969.8</ele><time>2024-09-28T14:15:10Z</time></trkpt>
<trkpt lat="31.7170535" lon="35.9993776"><ele>969.7</ele><time>2024-09-28T14:15:11Z</time></trkpt>
<trkpt lat="31.7170585" lon="35.9993745"><ele>969.6</ele><time>2024-09-28T14:15:12Z</time></trkpt>
<trkpt lat="31.7170646" lon="35.9993707"><ele>969.5</ele><time>2024-09-28T14:15:13Z</time></trkpt>
<trkpt lat="31.7170677" lon="35.9993665"><ele>969.3</ele><time>2024-09-28T14:15:14Z</time></trkpt>
<trkpt lat="31.7170658" lon="35.999364"><ele>969.2</ele><time>2024-09-28T14:15:15Z</time></trkpt>
<trkpt lat="31.717062" lon="35.9993623"><ele>969.1</ele><time>2024-09-28T14:15:16Z</time></trkpt>
<trkpt lat="31.7170599" lon="35.9993598"><ele>968.9</ele><time>2024-09-28T14:15:17Z</time></trkpt>
<trkpt lat="31.7170581" lon="35.9993575"><ele>968.8</ele><time>2024-09-28T14:15:18Z</time></trkpt>
<trkpt lat="31.7170559" lon="35.9993557"><ele>968.7</ele><time>2024-09-28T14:15:19Z</time></trkpt>
<trkpt lat="31.7170552" lon="35.9993558"><ele>968.6</ele><time>2024-09-28T14:15:20Z</time></trkpt>
<trkpt lat="31.7170561" lon="35.9993583"><ele>968.5</ele><time>2024-09-28T14:15:21Z</time></trkpt>
<trkpt lat="31.7170562" lon="35.9993611"><ele>968.4</ele><time>2024-09-28T14:15:22Z</time></trkpt>
<trkpt lat="31.7170565" lon="35.9993604"><ele>968.3</ele><time>2024-09-28T14:15:23Z</time></trkpt>
<trkpt lat="31.7170577" lon="35.9993569"><ele>968.2</ele><time>2024-09-28T14:15:24Z</time></trkpt>
<trkpt lat="31.7170584" lon="35.9993539"><ele>968.1</ele><time>2024-09-28T14:15:25Z</time></trkpt>
<trkpt lat="31.7170582" lon="35.9993543"><ele>968.0</ele><time>2024-09-28T14:15:26Z</time></trkpt>
<trkpt lat="31.7170582" lon="35.9993566"><ele>967.9</ele><time>2024-09-28T14:15:27Z</time></trkpt>
<trkpt lat="31.7170583" lon="35.999356"><ele>967.9</ele><time>2024-09-28T14:15:28Z</time></trkpt>
<trkpt lat="31.7170578" lon="35.9993544"><ele>967.8</ele><time>2024-09-28T14:15:29Z</time></trkpt>
<trkpt lat="31.7170556" lon="35.9993548"><ele>967.7</ele><time>2024-09-28T14:15:30Z</time></trkpt>
<trkpt lat="31.7170502" lon="35.9993563"><ele>967.6</ele><time>2024-09-28T14:15:31Z</time></trkpt>
<trkpt lat="31.7170438" lon="35.9993586"><ele>967.5</ele><time>2024-09-28T14:15:32Z</time></trkpt>
<trkpt lat="31.7170404" lon="35.9993621"><ele>967.4</ele><time>2024-09-28T14:15:33Z</time></trkpt>
<trkpt lat="31.7170404" lon="35.9993652"><ele>967.3</ele><time>2024-09-28T14:15:34Z</time></trkpt>
<trkpt lat="31.7170422" lon="35.9993652"><ele>967.2</ele><time>2024-09-28T14:15:35Z</time></trkpt>
<trkpt lat="31.7170453" lon="35.9993617"><ele>967.1</ele><time>2024-09-28T14:15:36Z</time></trkpt>
<trkpt lat="31.717049" lon="35.9993563"><ele>967.0</ele><time>2024-09-28T14:15:37Z</time></trkpt>
<trkpt lat="31.7170517" lon="35.9993532"><ele>966.8</ele><time>2024-09-28T14:15:38Z</time></trkpt>
<trkpt lat="31.717053" lon="35.9993533"><ele>966.7</ele><time>2024-09-28T14:15:39Z</time></trkpt>
<trkpt lat="31.7170535" lon="35.9993544"><ele>966.6</ele><time>2024-09-28T14:15:40Z</time></trkpt>
<trkpt lat="31.7170516" lon="35.9993556"><ele>966.5</ele><time>2024-09-28T14:15:41Z</time></trkpt>
<trkpt lat="31.7170486" lon="35.9993559"><ele>966.5</ele><time>2024-09-28T14:15:42Z</time></trkpt>
<trkpt lat="31.7170484" lon="35.9993559"><ele>966.4</ele><time>2024-09-28T14:15:43Z</time></trkpt>
<trkpt lat="31.7170495" lon="35.9993556"><ele>966.4</ele><time>2024-09-28T14:15:44Z</time></trkpt>
<trkpt lat="31.7170495" lon="35.9993546"><ele>966.3</ele><time>2024-09-28T14:15:45Z</time></trkpt>
<trkpt lat="31.7170479" lon="35.9993532"><ele>966.3</ele><time>2024-09-28T14:15:46Z</time></trkpt>
<trkpt lat="31.7170458" lon="35.9993518"><ele>966.3</ele><time>2024-09-28T14:15:47Z</time></trkpt>
<trkpt lat="31.7170439" lon="35.9993525"><ele>966.3</ele><time>2024-09-28T14:15:48Z</time></trkpt>
<trkpt lat="31.7170432" lon="35.9993537"><ele>966.4</ele><time>2024-09-28T14:15:49Z</time></trkpt>
<trkpt lat="31.7170441" lon="35.9993538"><ele>966.4</ele><time>2024-09-28T14:15:50Z</time></trkpt>
<trkpt lat="31.7170456" lon="35.9993539"><ele>966.5</ele><time>2024-09-28T14:15:51Z</time></trkpt>
<trkpt lat="31.7170467" lon="35.9993547"><ele>966.5</ele><time>2024-09-28T14:15:52Z</time></trkpt>
<trkpt lat="31.7170457" lon="35.9993553"><ele>966.6</ele><time>2024-09-28T14:15:53Z</time></trkpt>
<trkpt lat="31.7170423" lon="35.9993531"><ele>966.6</ele><time>2024-09-28T14:15:54Z</time></trkpt>
<trkpt lat="31.7170388" lon="35.9993497"><ele>966.7</ele><time>2024-09-28T14:15:55Z</time></trkpt>
<trkpt lat="31.7170376" lon="35.9993463"><ele>966.8</ele><time>2024-09-28T14:15:56Z</time></trkpt>
<trkpt lat="31.717038" lon="35.9993437"><ele>966.9</ele><time>2024-09-28T14:15:57Z</time></trkpt>
<trkpt lat="31.7170396" lon="35.9993428"><ele>966.9</ele><time>2024-09-28T14:15:58Z</time></trkpt>
<trkpt lat="31.7170417" lon="35.9993432"><ele>967.0</ele><time>2024-09-28T14:15:59Z</time></trkpt>
<trkpt lat="31.7170431" lon="35.9993454"><ele>967.1</ele><time>2024-09-28T14:16:00Z</time></trkpt>
<trkpt lat="31.7170441" lon="35.9993487"><ele>967.1</ele><time>2024-09-28T14:16:01Z</time></trkpt>
<trkpt lat="31.7170464" lon="35.9993497"><ele>967.2</ele><time>2024-09-28T14:16:02Z</time></trkpt>
<trkpt lat="31.7170497" lon="35.9993484"><ele>967.2</ele><time>2024-09-28T14:16:03Z</time></trkpt>
<trkpt lat="31.7170519" lon="35.9993485"><ele>967.2</ele><time>2024-09-28T14:16:04Z</time></trkpt>
<trkpt lat="31.7170535" lon="35.9993512"><ele>967.3</ele><time>2024-09-28T14:16:05Z</time></trkpt>
<trkpt lat="31.7170542" lon="35.9993559"><ele>967.3</ele><time>2024-09-28T14:16:06Z</time></trkpt>
<trkpt lat="31.7170531" lon="35.999361"><ele>967.3</ele><time>2024-09-28T14:16:07Z</time></trkpt>
<trkpt lat="31.7170531" lon="35.9993622"><ele>967.3</ele><time>2024-09-28T14:16:08Z</time></trkpt>
<trkpt lat="31.7170555" lon="35.9993608"><ele>967.3</ele><time>2024-09-28T14:16:09Z</time></trkpt>
<trkpt lat="31.7170571" lon="35.9993604"><ele>967.3</ele><time>2024-09-28T14:16:10Z</time></trkpt>
<trkpt lat="31.7170573" lon="35.9993609"><ele>967.2</ele><time>2024-09-28T14:16:11Z</time></trkpt>
<trkpt lat="31.7170567" lon="35.9993624"><ele>967.1</ele><time>2024-09-28T14:16:12Z</time></trkpt>
<trkpt lat="31.7170557" lon="35.9993658"><ele>967.1</ele><time>2024-09-28T14:16:13Z</time></trkpt>
<trkpt lat="31.7170548" lon="35.9993692"><ele>967.0</ele><time>2024-09-28T14:16:14Z</time></trkpt>
<trkpt lat="31.7170542" lon="35.9993707"><ele>966.9</ele><time>2024-09-28T14:16:15Z</time></trkpt>
<trkpt lat="31.7170527" lon="35.9993715"><ele>966.8</ele><time>2024-09-28T14:16:16Z</time></trkpt>
<trkpt lat="31.7170496" lon="35.999373"><ele>966.7</ele><time>2024-09-28T14:16:17Z</time></trkpt>
<trkpt lat="31.7170436" lon="35.9993763"><ele>966.6</ele><time>2024-09-28T14:16:18Z</time></trkpt>
<trkpt lat="31.717035" lon="35.9993807"><ele>966.6</ele><time>2024-09-28T14:16:19Z</time></trkpt>
<trkpt lat="31.7170268" lon="35.9993834"><ele>966.5</ele><time>2024-09-28T14:16:20Z</time></trkpt>
<trkpt lat="31.7170212" lon="35.9993828"><ele>966.5</ele><time>2024-09-28T14:16:21Z</time></trkpt>
<trkpt lat="31.7170198" lon="35.9993804"><ele>966.5</ele><time>2024-09-28T14:16:22Z</time></trkpt>
<trkpt lat="31.717022" lon="35.9993786"><ele>966.5</ele><time>2024-09-28T14:16:23Z</time></trkpt>
<trkpt lat="31.7170253" lon="35.9993785"><ele>966.5</ele><time>2024-09-28T14:16:24Z</time></trkpt>
<trkpt lat="31.7170285" lon="35.9993781"><ele>966.6</ele><time>2024-09-28T14:16:25Z</time></trkpt>
<trkpt lat="31.7170312" lon="35.9993743"><ele>966.7</ele><time>2024-09-28T14:16:26Z</time></trkpt>
<trkpt lat="31.7170316" lon="35.9993704"><ele>966.8</ele><time>2024-09-28T14:16:27Z</time></trkpt>
<trkpt lat="31.7170313" lon="35.9993662"><ele>966.9</ele><time>2024-09-28T14:16:28Z</time></trkpt>
<trkpt lat="31.7170315" lon="35.9993609"><ele>967.1</ele><time>2024-09-28T14:16:29Z</time></trkpt>
<trkpt lat="31.7170321" lon="35.9993576"><ele>967.2</ele><time>2024-09-28T14:16:30Z</time></trkpt>
<trkpt lat="31.7170322" lon="35.9993564"><ele>967.4</ele><time>2024-09-28T14:16:31Z</time></trkpt>
<trkpt lat="31.7170325" lon="35.9993572"><ele>967.5</ele><time>2024-09-28T14:16:32Z</time></trkpt>
<trkpt lat="31.7170342" lon="35.9993589"><ele>967.7</ele><time>2024-09-28T14:16:33Z</time></trkpt>
<trkpt lat="31.7170357" lon="35.9993599"><ele>967.8</ele><time>2024-09-28T14:16:34Z</time></trkpt>
<trkpt lat="31.7170374" lon="35.9993602"><ele>968.0</ele><time>2024-09-28T14:16:35Z</time></trkpt>
<trkpt lat="31.717039" lon="35.9993596"><ele>968.1</ele><time>2024-09-28T14:16:36Z</time></trkpt>
<trkpt lat="31.7170404" lon="35.9993609"><ele>968.3</ele><time>2024-09-28T14:16:37Z</time></trkpt>
<trkpt lat="31.7170417" lon="35.9993636"><ele>968.4</ele><time>2024-09-28T14:16:38Z</time></trkpt>
<trkpt lat="31.7170434" lon="35.9993635"><ele>968.6</ele><time>2024-09-28T14:16:39Z</time></trkpt>
<trkpt lat="31.7170462" lon="35.9993616"><ele>968.7</ele><time>2024-09-28T14:16:40Z</time></trkpt>
<trkpt lat="31.7170506" lon="35.9993592"><ele>968.8</ele><time>2024-09-28T14:16:41Z</time></trkpt>
<trkpt lat="31.7170547" lon="35.9993576"><ele>969.0</ele><time>2024-09-28T14:16:42Z</time></trkpt>
<trkpt lat="31.717057" lon="35.9993577"><ele>969.1</ele><time>2024-09-28T14:16:43Z</time></trkpt>
<trkpt lat="31.7170581" lon="35.9993589"><ele>969.2</ele><time>2024-09-28T14:16:44Z</time></trkpt>
<trkpt lat="31.717058" lon="35.9993611"><ele>969.3</ele><time>2024-09-28T14:16:45Z</time></trkpt>
<trkpt lat="31.7170563" lon="35.9993654"><ele>969.4</ele><time>2024-09-28T14:16:46Z</time></trkpt>
<trkpt lat="31.7170524" lon="35.9993691"><ele>969.5</ele><time>2024-09-28T14:16:47Z</time></trkpt>
<trkpt lat="31.7170466" lon="35.9993694"><ele>969.7</ele><time>2024-09-28T14:16:48Z</time></trkpt>
<trkpt lat="31.7170404" lon="35.9993685"><ele>969.8</ele><time>2024-09-28T14:16:49Z</time></trkpt>
<trkpt lat="31.7170375" lon="35.999367"><ele>969.9</ele><time>2024-09-28T14:16:50Z</time></trkpt>
<trkpt lat="31.7170388" lon="35.9993631"><ele>970.0</ele><time>2024-09-28T14:16:51Z</time></trkpt>
<trkpt lat="31.7170409" lon="35.9993588"><ele>970.0</ele><time>2024-09-28T14:16:52Z</time></trkpt>
<trkpt lat="31.7170412" lon="35.9993574"><ele>970.1</ele><time>2024-09-28T14:16:53Z</time></trkpt>
<trkpt lat="31.7170404" lon="35.9993583"><ele>970.2</ele><time>2024-09-28T14:16:54Z</time></trkpt>
<trkpt lat="31.7170423" lon="35.9993573"><ele>970.2</ele><time>2024-09-28T14:16:55Z</time></trkpt>
<trkpt lat="31.7170458" lon="35.9993542"><ele>970.3</ele><time>2024-09-28T14:16:56Z</time></trkpt>
<trkpt lat="31.7170465" lon="35.9993506"><ele>970.3</ele><time>2024-09-28T14:16:57Z</time></trkpt>
<trkpt lat="31.7170404" lon="35.9993445"><ele>970.2</ele><time>2024-09-28T14:16:58Z</time></trkpt>
<trkpt lat="31.7170302" lon="35.9993339"><ele>970.2</ele><time>2024-09-28T14:16:59Z</time></trkpt>
<trkpt lat="31.717023" lon="35.9993243"><ele>970.1</ele><time>2024-09-28T14:17:00Z</time></trkpt>
<trkpt lat="31.7170239" lon="35.9993261"><ele>970.0</ele><time>2024-09-28T14:17:01Z</time></trkpt>
<trkpt lat="31.7170324" lon="35.9993397"><ele>969.9</ele><time>2024-09-28T14:17:02Z</time></trkpt>
<trkpt lat="31.7170418" lon="35.9993566"><ele>969.8</ele><time>2024-09-28T14:17:03Z</time></trkpt>
<trkpt lat="31.7170473" lon="35.999367"><ele>969.6</ele><time>2024-09-28T14:17:04Z</time></trkpt>
<trkpt lat="31.7170491" lon="35.9993699"><ele>969.4</ele><time>2024-09-28T14:17:05Z</time></trkpt>
<trkpt lat="31.7170518" lon="35.9993701"><ele>969.3</ele><time>2024-09-28T14:17:06Z</time></trkpt>
<trkpt lat="31.7170588" lon="35.9993699"><ele>969.1</ele><time>2024-09-28T14:17:07Z</time></trkpt>
<trkpt lat="31.7170691" lon="35.9993691"><ele>968.9</ele><time>2024-09-28T14:17:08Z</time></trkpt>
<trkpt lat="31.7170801" lon="35.999369"><ele>968.6</ele><time>2024-09-28T14:17:09Z</time></trkpt>
<trkpt lat="31.7170906" lon="35.9993708"><ele>968.4</ele><time>2024-09-28T14:17:10Z</time></trkpt>
<trkpt lat="31.7171003" lon="35.9993734"><ele>968.2</ele><time>2024-09-28T14:17:11Z</time></trkpt>
<trkpt lat="31.7171078" lon="35.9993756"><ele>968.0</ele><time>2024-09-28T14:17:12Z</time></trkpt>
<trkpt lat="31.7171105" lon="35.9993762"><ele>967.7</ele><time>2024-09-28T14:17:13Z</time></trkpt>
<trkpt lat="31.7171082" lon="35.9993751"><ele>967.5</ele><time>2024-09-28T14:17:14Z</time></trkpt>
<trkpt lat="31.7171036" lon="35.9993729"><ele>967.2</ele><time>2024-09-28T14:17:15Z</time></trkpt>
<trkpt lat="31.7170989" lon="35.9993697"><ele>967.0</ele><time>2024-09-28T14:17:16Z</time></trkpt>
<trkpt lat="31.7170953" lon="35.9993644"><ele>966.7</ele><time>2024-09-28T14:17:17Z</time></trkpt>
<trkpt lat="31.7170933" lon="35.9993572"><ele>966.5</ele><time>2024-09-28T14:17:18Z</time></trkpt>
<trkpt lat="31.7170913" lon="35.9993516"><ele>966.2</ele><time>2024-09-28T14:17:19Z</time></trkpt>
<trkpt lat="31.717086" lon="35.9993512"><ele>965.9</ele><time>2024-09-28T14:17:20Z</time></trkpt>
<trkpt lat="31.7170792" lon="35.9993552"><ele>965.6</ele><time>2024-09-28T14:17:21Z</time></trkpt>
<trkpt lat="31.7170748" lon="35.99936"><ele>965.3</ele><time>2024-09-28T14:17:22Z</time></trkpt>
<trkpt lat="31.7170722" lon="35.9993645"><ele>965.0</ele><time>2024-09-28T14:17:23Z</time></trkpt>
<trkpt lat="31.7170707" lon="35.99937"><ele>964.6</ele><time>2024-09-28T14:17:24Z</time></trkpt>
<trkpt lat="31.7170699" lon="35.9993764"><ele>964.3</ele><time>2024-09-28T14:17:25Z</time></trkpt>
<trkpt lat="31.7170692" lon="35.9993815"><ele>964.0</ele><time>2024-09-28T14:17:26Z</time></trkpt>
<trkpt lat="31.7170682" lon="35.9993827"><ele>963.6</ele><time>2024-09-28T14:17:27Z</time></trkpt>
<trkpt lat="31.7170668" lon="35.9993795"><ele>963.3</ele><time>2024-09-28T14:17:28Z</time></trkpt>
<trkpt lat="31.717064" lon="35.9993728"><ele>963.0</ele><time>2024-09-28T14:17:29Z</time></trkpt>
<trkpt lat="31.7170599" lon="35.9993666"><ele>962.6</ele><time>2024-09-28T14:17:30Z</time></trkpt>
<trkpt lat="31.7170562" lon="35.9993643"><ele>962.3</ele><time>2024-09-28T14:17:31Z</time></trkpt>
<trkpt lat="31.7170523" lon="35.9993656"><ele>962.0</ele><time>2024-09-28T14:17:32Z</time></trkpt>
<trkpt lat="31.7170474" lon="35.9993687"><ele>961.7</ele><time>2024-09-28T14:17:33Z</time></trkpt>
<trkpt lat="31.7170432" lon="35.9993717"><ele>961.5</ele><time>2024-09-28T14:17:34Z</time></trkpt>
<trkpt lat="31.7170413" lon="35.9993735"><ele>961.2</ele><time>2024-09-28T14:17:35Z</time></trkpt>
<trkpt lat="31.7170417" lon="35.9993749"><ele>961.0</ele><time>2024-09-28T14:17:36Z</time></trkpt>
<trkpt lat="31.7170428" lon="35.9993782"><ele>960.9</ele><time>2024-09-28T14:17:37Z</time></trkpt>
<trkpt lat="31.7170431" lon="35.9993846"><ele>960.7</ele><time>2024-09-28T14:17:38Z</time></trkpt>
<trkpt lat="31.7170424" lon="35.9993914"><ele>960.6</ele><time>2024-09-28T14:17:39Z</time></trkpt>
<trkpt lat="31.7170429" lon="35.9993938"><ele>960.5</ele><time>2024-09-28T14:17:40Z</time></trkpt>
<trkpt lat="31.7170448" lon="35.9993924"><ele>960.5</ele><time>2024-09-28T14:17:41Z</time></trkpt>
<trkpt lat="31.7170469" lon="35.9993902"><ele>960.5</ele><time>2024-09-28T14:17:42Z</time></trkpt>
<trkpt lat="31.7170489" lon="35.9993873"><ele>960.4</ele><time>2024-09-28T14:17:43Z</time></trkpt>
<trkpt lat="31.7170515" lon="35.9993835"><ele>960.4</ele><time>2024-09-28T14:17:44Z</time></trkpt>
<trkpt lat="31.7170562" lon="35.9993793"><ele>960.4</ele><time>2024-09-28T14:17:45Z</time></trkpt>
<trkpt lat="31.7170588" lon="35.9993756"><ele>960.3</ele><time>2024-09-28T14:17:46Z</time></trkpt>
<trkpt lat="31.7170578" lon="35.9993742"><ele>960.2</ele><time>2024-09-28T14:17:47Z</time></trkpt>
<trkpt lat="31.7170592" lon="35.9993769"><ele>960.1</ele><time>2024-09-28T14:17:48Z</time></trkpt>
<trkpt lat="31.7170637" lon="35.9993817"><ele>960.0</ele><time>2024-09-28T14:17:49Z</time></trkpt>
<trkpt lat="31.7170671" lon="35.9993792"><ele>959.8</ele><time>2024-09-28T14:17:50Z</time></trkpt>
<trkpt lat="31.7170688" lon="35.9993638"><ele>959.6</ele><time>2024-09-28T14:17:51Z</time></trkpt>
<trkpt lat="31.7170717" lon="35.9993356"><ele>959.4</ele><time>2024-09-28T14:17:52Z</time></trkpt>
<trkpt lat="31.7170749" lon="35.9992992"><ele>959.2</ele><time>2024-09-28T14:17:53Z</time></trkpt>
<trkpt lat="31.717077" lon="35.9992638"><ele>959.0</ele><time>2024-09-28T14:17:54Z</time></trkpt>
<trkpt lat="31.7170766" lon="35.9992371"><ele>958.8</ele><time>2024-09-28T14:17:55Z</time></trkpt>
<trkpt lat="31.7170745" lon="35.9992237"><ele>958.5</ele><time>2024-09-28T14:17:56Z</time></trkpt>
<trkpt lat="31.7170724" lon="35.9992255"><ele>958.3</ele><time>2024-09-28T14:17:57Z</time></trkpt>
<trkpt lat="31.7170715" lon="35.999243"><ele>958.2</ele><time>2024-09-28T14:17:58Z</time></trkpt>
<trkpt lat="31.7170727" lon="35.9992723"><ele>958.0</ele><time>2024-09-28T14:17:59Z</time></trkpt>
<trkpt lat="31.7170759" lon="35.9993065"><ele>958.0</ele><time>2024-09-28T14:18:00Z</time></trkpt>
<trkpt lat="31.7170808" lon="35.9993385"><ele>957.9</ele><time>2024-09-28T14:18:01Z</time></trkpt>
<trkpt lat="31.7170864" lon="35.9993642"><ele>958.0</ele><time>2024-09-28T14:18:02Z</time></trkpt>
<trkpt lat="31.7170914" lon="35.9993816"><ele>958.1</ele><time>2024-09-28T14:18:03Z</time></trkpt>
<trkpt lat="31.7170938" lon="35.9993906"><ele>958.2</ele><time>2024-09-28T14:18:04Z</time></trkpt>
<trkpt lat="31.717091" lon="35.9993915"><ele>958.4</ele><time>2024-09-28T14:18:05Z</time></trkpt>
<trkpt lat="31.7170835" lon="35.9993865"><ele>958.7</ele><time>2024-09-28T14:18:06Z</time></trkpt>
<trkpt lat="31.717075" lon="35.9993788"><ele>958.9</ele><time>2024-09-28T14:18:07Z</time></trkpt>
<trkpt lat="31.71707" lon="35.9993713"><ele>959.2</ele><time>2024-09-28T14:18:08Z</time></trkpt>
<trkpt lat="31.7170696" lon="35.9993655"><ele>959.5</ele><time>2024-09-28T14:18:09Z</time></trkpt>
<trkpt lat="31.7170716" lon="35.999363"><ele>959.8</ele><time>2024-09-28T14:18:10Z</time></trkpt>
<trkpt lat="31.7170769" lon="35.9993651"><ele>960.1</ele><time>2024-09-28T14:18:11Z</time></trkpt>
<trkpt lat="31.7170844" lon="35.9993703"><ele>960.4</ele><time>2024-09-28T14:18:12Z</time></trkpt>
<trkpt lat="31.7170904" lon="35.9993757"><ele>960.6</ele><time>2024-09-28T14:18:13Z</time></trkpt>
<trkpt lat="31.7170928" lon="35.9993791"><ele>960.8</ele><time>2024-09-28T14:18:14Z</time></trkpt>
<trkpt lat="31.7170918" lon="35.9993799"><ele>961.0</ele><time>2024-09-28T14:18:15Z</time></trkpt>
<trkpt lat="31.7170888" lon="35.9993787"><ele>961.1</ele><time>2024-09-28T14:18:16Z</time></trkpt>
<trkpt lat="31.717085" lon="35.999376"><ele>961.2</ele><time>2024-09-28T14:18:17Z</time></trkpt>
<trkpt lat="31.717081" lon="35.9993716"><ele>961.2</ele><time>2024-09-28T14:18:18Z</time></trkpt>
<trkpt lat="31.7170768" lon="35.9993662"><ele>961.2</ele><time>2024-09-28T14:18:19Z</time></trkpt>
<trkpt lat="31.7170728" lon="35.9993619"><ele>961.2</ele><time>2024-09-28T14:18:20Z</time></trkpt>
<trkpt lat="31.7170701" lon="35.9993603"><ele>961.1</ele><time>2024-09-28T14:18:21Z</time></trkpt>
<trkpt lat="31.7170688" lon="35.9993609"><ele>961.0</ele><time>2024-09-28T14:18:22Z</time></trkpt>
<trkpt lat="31.7170682" lon="35.999363"><ele>960.9</ele><time>2024-09-28T14:18:23Z</time></trkpt>
<trkpt lat="31.7170684" lon="35.9993661"><ele>960.8</ele><time>2024-09-28T14:18:24Z</time></trkpt>
<trkpt lat="31.7170692" lon="35.9993695"><ele>960.6</ele><time>2024-09-28T14:18:25Z</time></trkpt>
<trkpt lat="31.7170704" lon="35.9993721"><ele>960.5</ele><time>2024-09-28T14:18:26Z</time></trkpt>
<trkpt lat="31.7170717" lon="35.9993727"><ele>960.3</ele><time>2024-09-28T14:18:27Z</time></trkpt>
<trkpt lat="31.7170728" lon="35.999371"><ele>960.2</ele><time>2024-09-28T14:18:28Z</time></trkpt>
<trkpt lat="31.7170737" lon="35.999368"><ele>960.0</ele><time>2024-09-28T14:18:29Z</time></trkpt>
<trkpt lat="31.7170745" lon="35.999363"><ele>959.9</ele><time>2024-09-28T14:18:30Z</time></trkpt>
<trkpt lat="31.7170751" lon="35.9993559"><ele>959.7</ele><time>2024-09-28T14:18:31Z</time></trkpt>
<trkpt lat="31.7170748" lon="35.9993479"><ele>959.6</ele><time>2024-09-28T14:18:32Z</time></trkpt>
<trkpt lat="31.7170739" lon="35.9993394"><ele>959.5</ele><time>2024-09-28T14:18:33Z</time></trkpt>
<trkpt lat="31.7170731" lon="35.9993308"><ele>959.5</ele><time>2024-09-28T14:18:34Z</time></trkpt>
<trkpt lat="31.717073" lon="35.9993226"><ele>959.4</ele><time>2024-09-28T14:18:35Z</time></trkpt>
<trkpt lat="31.7170734" lon="35.9993157"><ele>959.5</ele><time>2024-09-28T14:18:36Z</time></trkpt>
<trkpt lat="31.7170742" lon="35.999311"><ele>959.5</ele><time>2024-09-28T14:18:37Z</time></trkpt>
<trkpt lat="31.7170753" lon="35.999309"><ele>959.6</ele><time>2024-09-28T14:18:38Z</time></trkpt>
<trkpt lat="31.7170761" lon="35.9993093"><ele>959.8</ele><time>2024-09-28T14:18:39Z</time></trkpt>
<trkpt lat="31.7170761" lon="35.9993103"><ele>960.0</ele><time>2024-09-28T14:18:40Z</time></trkpt>
<trkpt lat="31.7170746" lon="35.9993116"><ele>960.2</ele><time>2024-09-28T14:18:41Z</time></trkpt>
<trkpt lat="31.7170712" lon="35.9993129"><ele>960.4</ele><time>2024-09-28T14:18:42Z</time></trkpt>
<trkpt lat="31.7170677" lon="35.999314"><ele>960.7</ele><time>2024-09-28T14:18:43Z</time></trkpt>
<trkpt lat="31.717066" lon="35.9993147"><ele>961.1</ele><time>2024-09-28T14:18:44Z</time></trkpt>
<trkpt lat="31.7170662" lon="35.9993139"><ele>961.4</ele><time>2024-09-28T14:18:45Z</time></trkpt>
<trkpt lat="31.7170673" lon="35.9993128"><ele>961.7</ele><time>2024-09-28T14:18:46Z</time></trkpt>
<trkpt lat="31.717069" lon="35.9993118"><ele>962.1</ele><time>2024-09-28T14:18:47Z</time></trkpt>
<trkpt lat="31.71707" lon="35.9993122"><ele>962.4</ele><time>2024-09-28T14:18:48Z</time></trkpt>
<trkpt lat="31.7170692" lon="35.999314"><ele>962.7</ele><time>2024-09-28T14:18:49Z</time></trkpt>
<trkpt lat="31.7170684" lon="35.9993153"><ele>963.0</ele><time>2024-09-28T14:18:50Z</time></trkpt>
<trkpt lat="31.7170678" lon="35.9993173"><ele>963.3</ele><time>2024-09-28T14:18:51Z</time></trkpt>
<trkpt lat="31.7170659" lon="35.9993202"><ele>963.6</ele><time>2024-09-28T14:18:52Z</time></trkpt>
<trkpt lat="31.717063" lon="35.999323"><ele>963.9</ele><time>2024-09-28T14:18:53Z</time></trkpt>
<trkpt lat="31.7170605" lon="35.9993263"><ele>964.1</ele><time>2024-09-28T14:18:54Z</time></trkpt>
<trkpt lat="31.7170583" lon="35.9993306"><ele>964.3</ele><time>2024-09-28T14:18:55Z</time></trkpt>
<trkpt lat="31.7170565" lon="35.9993359"><ele>964.6</ele><time>2024-09-28T14:18:56Z</time></trkpt>
<trkpt lat="31.7170555" lon="35.9993409"><ele>964.8</ele><time>2024-09-28T14:18:57Z</time></trkpt>
<trkpt lat="31.7170545" lon="35.9993447"><ele>964.9</ele><time>2024-09-28T14:18:58Z</time></trkpt>
<trkpt lat="31.7170532" lon="35.9993482"><ele>965.1</ele><time>2024-09-28T14:18:59Z</time></trkpt>
<trkpt lat="31.717052" lon="35.9993512"><ele>965.2</ele><time>2024-09-28T14:19:00Z</time></trkpt>
<trkpt lat="31.7170517" lon="35.9993533"><ele>965.3</ele><time>2024-09-28T14:19:01Z</time></trkpt>
<trkpt lat="31.7170539" lon="35.9993535"><ele>965.4</ele><time>2024-09-28T14:19:02Z</time></trkpt>
<trkpt lat="31.7170559" lon="35.9993522"><ele>965.5</ele><time>2024-09-28T14:19:03Z</time></trkpt>
<trkpt lat="31.7170543" lon="35.9993542"><ele>965.5</ele><time>2024-09-28T14:19:04Z</time></trkpt>
<trkpt lat="31.71705" lon="35.9993619"><ele>965.6</ele><time>2024-09-28T14:19:05Z</time></trkpt>
<trkpt lat="31.7170435" lon="35.9993725"><ele>965.5</ele><time>2024-09-28T14:19:06Z</time></trkpt>
<trkpt lat="31.717036" lon="35.9993825"><ele>965.5</ele><time>2024-09-28T14:19:07Z</time></trkpt>
<trkpt lat="31.7170299" lon="35.9993885"><ele>965.5</ele><time>2024-09-28T14:19:08Z</time></trkpt>
<trkpt lat="31.7170274" lon="35.9993872"><ele>965.4</ele><time>2024-09-28T14:19:09Z</time></trkpt>
<trkpt lat="31.7170271" lon="35.9993808"><ele>965.3</ele><time>2024-09-28T14:19:10Z</time></trkpt>
<trkpt lat="31.7170281" lon="35.9993739"><ele>965.2</ele><time>2024-09-28T14:19:11Z</time></trkpt>
<trkpt lat="31.7170296" lon="35.9993677"><ele>965.2</ele><time>2024-09-28T14:19:12Z</time></trkpt>
<trkpt lat="31.7170305" lon="35.9993624"><ele>965.1</ele><time>2024-09-28T14:19:13Z</time></trkpt>
<trkpt lat="31.7170316" lon="35.9993574"><ele>965.0</ele><time>2024-09-28T14:19:14Z</time></trkpt>
<trkpt lat="31.7170335" lon="35.9993516"><ele>964.9</ele><time>2024-09-28T14:19:15Z</time></trkpt>
<trkpt lat="31.717038" lon="35.9993468"><ele>964.8</ele><time>2024-09-28T14:19:16Z</time></trkpt>
<trkpt lat="31.7170432" lon="35.9993447"><ele>964.7</ele><time>2024-09-28T14:19:17Z</time></trkpt>
<trkpt lat="31.7170469" lon="35.9993448"><ele>964.6</ele><time>2024-09-28T14:19:18Z</time></trkpt>
<trkpt lat="31.7170502" lon="35.9993468"><ele>964.5</ele><time>2024-09-28T14:19:19Z</time></trkpt>
<trkpt lat="31.717053" lon="35.9993489"><ele>964.4</ele><time>2024-09-28T14:19:20Z</time></trkpt>
<trkpt lat="31.717054" lon="35.9993486"><ele>964.4</ele><time>2024-09-28T14:19:21Z</time></trkpt>
<trkpt lat="31.7170544" lon="35.9993476"><ele>964.3</ele><time>2024-09-28T14:19:22Z</time></trkpt>
<trkpt lat="31.7170565" lon="35.9993499"><ele>964.3</ele><time>2024-09-28T14:19:23Z</time></trkpt>
<trkpt lat="31.7170583" lon="35.9993532"><ele>964.3</ele><time>2024-09-28T14:19:24Z</time></trkpt>
<trkpt lat="31.7170578" lon="35.9993539"><ele>964.3</ele><time>2024-09-28T14:19:25Z</time></trkpt>
<trkpt lat="31.717056" lon="35.9993527"><ele>964.3</ele><time>2024-09-28T14:19:26Z</time></trkpt>
<trkpt lat="31.7170564" lon="35.9993519"><ele>964.3</ele><time>2024-09-28T14:19:27Z</time></trkpt>
<trkpt lat="31.7170591" lon="35.9993519"><ele>964.4</ele><time>2024-09-28T14:19:28Z</time></trkpt>
<trkpt lat="31.7170619" lon="35.9993519"><ele>964.5</ele><time>2024-09-28T14:19:29Z</time></trkpt>
<trkpt lat="31.7170657" lon="35.9993521"><ele>964.6</ele><time>2024-09-28T14:19:30Z</time></trkpt>
<trkpt lat="31.7170699" lon="35.9993527"><ele>964.7</ele><time>2024-09-28T14:19:31Z</time></trkpt>
<trkpt lat="31.7170729" lon="35.9993542"><ele>964.8</ele><time>2024-09-28T14:19:32Z</time></trkpt>
<trkpt lat="31.717075" lon="35.9993567"><ele>965.0</ele><time>2024-09-28T14:19:33Z</time></trkpt>
<trkpt lat="31.7170753" lon="35.9993593"><ele>965.2</ele><time>2024-09-28T14:19:34Z</time></trkpt>
<trkpt lat="31.717073" lon="35.9993607"><ele>965.4</ele><time>2024-09-28T14:19:35Z</time></trkpt>
<trkpt lat="31.7170687" lon="35.9993592"><ele>965.6</ele><time>2024-09-28T14:19:36Z</time></trkpt>
<trkpt lat="31.7170665" lon="35.9993564"><ele>965.9</ele><time>2024-09-28T14:19:37Z</time></trkpt>
<trkpt lat="31.7170675" lon="35.9993559"><ele>966.1</ele><time>2024-09-28T14:19:38Z</time></trkpt>
<trkpt lat="31.7170692" lon="35.9993582"><ele>966.4</ele><time>2024-09-28T14:19:39Z</time></trkpt>
<trkpt lat="31.7170713" lon="35.9993618"><ele>966.7</ele><time>2024-09-28T14:19:40Z</time></trkpt>
<trkpt lat="31.7170727" lon="35.9993645"><ele>967.0</ele><time>2024-09-28T14:19:41Z</time></trkpt>
<trkpt lat="31.7170738" lon="35.9993664"><ele>967.3</ele><time>2024-09-28T14:19:42Z</time></trkpt>
<trkpt lat="31.7170749" lon="35.999368"><ele>967.6</ele><time>2024-09-28T14:19:43Z</time></trkpt>
<trkpt lat="31.717076" lon="35.99937"><ele>967.9</ele><time>2024-09-28T14:19:44Z</time></trkpt>
<trkpt lat="31.7170761" lon="35.9993706"><ele>968.3</ele><time>2024-09-28T14:19:45Z</time></trkpt>
<trkpt lat="31.7170752" lon="35.9993693"><ele>968.6</ele><time>2024-09-28T14:19:46Z</time></trkpt>
<trkpt lat="31.7170742" lon="35.9993678"><ele>969.0</ele><time>2024-09-28T14:19:47Z</time></trkpt>
<trkpt lat="31.7170732" lon="35.9993676"><ele>969.3</ele><time>2024-09-28T14:19:48Z</time></trkpt>
<trkpt lat="31.717073" lon="35.9993708"><ele>969.7</ele><time>2024-09-28T14:19:49Z</time></trkpt>
<trkpt lat="31.7170737" lon="35.9993753"><ele>970.1</ele><time>2024-09-28T14:19:50Z</time></trkpt>
<trkpt lat="31.7170737" lon="35.999376"><ele>970.4</ele><time>2024-09-28T14:19:51Z</time></trkpt>
<trkpt lat="31.7170727" lon="35.9993731"><ele>970.7</ele><time>2024-09-28T14:19:52Z</time></trkpt>
<trkpt lat="31.7170724" lon="35.999369"><ele>971.0</ele><time>2024-09-28T14:19:53Z</time></trkpt>
<trkpt lat="31.7170732" lon="35.9993646"><ele>971.3</ele><time>2024-09-28T14:19:54Z</time></trkpt>
<trkpt lat="31.717075" lon="35.9993611"><ele>971.6</ele><time>2024-09-28T14:19:55Z</time></trkpt>
<trkpt lat="31.7170769" lon="35.9993592"><ele>971.8</ele><time>2024-09-28T14:19:56Z</time></trkpt>
<trkpt lat="31.7170788" lon="35.9993583"><ele>972.0</ele><time>2024-09-28T14:19:57Z</time></trkpt>
<trkpt lat="31.7170797" lon="35.9993571"><ele>972.2</ele><time>2024-09-28T14:19:58Z</time></trkpt>
<trkpt lat="31.7170792" lon="35.9993556"><ele>972.3</ele><time>2024-09-28T14:19:59Z</time></trkpt>
<trkpt lat="31.7170784" lon="35.9993539"><ele>972.4</ele><time>2024-09-28T14:20:00Z</time></trkpt>
<trkpt lat="31.7170779" lon="35.9993524"><ele>972.5</ele><time>2024-09-28T14:20:01Z</time></trkpt>
<trkpt lat="31.7170783" lon="35.9993514"><ele>972.5</ele><time>2024-09-28T14:20:02Z</time></trkpt>
<trkpt lat="31.717078" lon="35.9993506"><ele>972.5</ele><time>2024-09-28T14:20:03Z</time></trkpt>
<trkpt lat="31.7170752" lon="35.9993499"><ele>972.5</ele><time>2024-09-28T14:20:04Z</time></trkpt>
<trkpt lat="31.717072" lon="35.9993492"><ele>972.4</ele><time>2024-09-28T14:20:05Z</time></trkpt>
<trkpt lat="31.71707" lon="35.9993485"><ele>972.3</ele><time>2024-09-28T14:20:06Z</time></trkpt>
<trkpt lat="31.7170677" lon="35.9993467"><ele>972.2</ele><time>2024-09-28T14:20:07Z</time></trkpt>
<trkpt lat="31.717065" lon="35.9993457"><ele>972.0</ele><time>2024-09-28T14:20:08Z</time></trkpt>
<trkpt lat="31.7170631" lon="35.9993483"><ele>971.8</ele><time>2024-09-28T14:20:09Z</time></trkpt>
<trkpt lat="31.7170627" lon="35.9993545"><ele>971.6</ele><time>2024-09-28T14:20:10Z</time></trkpt>
<trkpt lat="31.7170624" lon="35.999362"><ele>971.4</ele><time>2024-09-28T14:20:11Z</time></trkpt>
<trkpt lat="31.7170604" lon="35.9993697"><ele>971.1</ele><time>2024-09-28T14:20:12Z</time></trkpt>
<trkpt lat="31.7170578" lon="35.9993773"><ele>970.8</ele><time>2024-09-28T14:20:13Z</time></trkpt>
<trkpt lat="31.7170554" lon="35.9993826"><ele>970.5</ele><time>2024-09-28T14:20:14Z</time></trkpt>
<trkpt lat="31.7170528" lon="35.9993855"><ele>970.2</ele><time>2024-09-28T14:20:15Z</time></trkpt>
<trkpt lat="31.7170522" lon="35.9993858"><ele>969.8</ele><time>2024-09-28T14:20:16Z</time></trkpt>
<trkpt lat="31.7170561" lon="35.9993816"><ele>969.5</ele><time>2024-09-28T14:20:17Z</time></trkpt>
<trkpt lat="31.7170596" lon="35.9993759"><ele>969.2</ele><time>2024-09-28T14:20:18Z</time></trkpt>
<trkpt lat="31.7170557" lon="35.9993704"><ele>968.9</ele><time>2024-09-28T14:20:19Z</time></trkpt>
<trkpt lat="31.7170474" lon="35.9993624"><ele>968.6</ele><time>2024-09-28T14:20:20Z</time></trkpt>
<trkpt lat="31.7170438" lon="35.9993564"><ele>968.4</ele><time>2024-09-28T14:20:21Z</time></trkpt>
<trkpt lat="31.7170449" lon="35.9993582"><ele>968.1</ele><time>2024-09-28T14:20:22Z</time></trkpt>
<trkpt lat="31.7170459" lon="35.9993638"><ele>967.9</ele><time>2024-09-28T14:20:23Z</time></trkpt>
<trkpt lat="31.7170466" lon="35.9993679"><ele>967.8</ele><time>2024-09-28T14:20:24Z</time></trkpt>
<trkpt lat="31.7170472" lon="35.9993698"><ele>967.6</ele><time>2024-09-28T14:20:25Z</time></trkpt>
<trkpt lat="31.7170474" lon="35.9993706"><ele>967.5</ele><time>2024-09-28T14:20:26Z</time></trkpt>
<trkpt lat="31.7170468" lon="35.999371"><ele>967.4</ele><time>2024-09-28T14:20:27Z</time></trkpt>
<trkpt lat="31.7170447" lon="35.9993721"><ele>967.4</ele><time>2024-09-28T14:20:28Z</time></trkpt>
<trkpt lat="31.7170431" lon="35.9993723"><ele>967.3</ele><time>2024-09-28T14:20:29Z</time></trkpt>
<trkpt lat="31.717044" lon="35.9993699"><ele>967.3</ele><time>2024-09-28T14:20:30Z</time></trkpt>
<trkpt lat="31.717048" lon="35.9993659"><ele>967.3</ele><time>2024-09-28T14:20:31Z</time></trkpt>
<trkpt lat="31.7170532" lon="35.9993646"><ele>967.3</ele><time>2024-09-28T14:20:32Z</time></trkpt>
<trkpt lat="31.7170558" lon="35.9993666"><ele>967.4</ele><time>2024-09-28T14:20:33Z</time></trkpt>
<trkpt lat="31.7170546" lon="35.9993666"><ele>967.4</ele><time>2024-09-28T14:20:34Z</time></trkpt>
<trkpt lat="31.7170513" lon="35.9993645"><ele>967.5</ele><time>2024-09-28T14:20:35Z</time></trkpt>
<trkpt lat="31.7170482" lon="35.9993631"><ele>967.5</ele><time>2024-09-28T14:20:36Z</time></trkpt>
<trkpt lat="31.7170452" lon="35.999363"><ele>967.6</ele><time>2024-09-28T14:20:37Z</time></trkpt>
<trkpt lat="31.7170431" lon="35.9993635"><ele>967.7</ele><time>2024-09-28T14:20:38Z</time></trkpt>
<trkpt lat="31.7170417" lon="35.9993637"><ele>967.8</ele><time>2024-09-28T14:20:39Z</time></trkpt>
<trkpt lat="31.7170419" lon="35.9993654"><ele>967.9</ele><time>2024-09-28T14:20:40Z</time></trkpt>
<trkpt lat="31.7170444" lon="35.9993678"><ele>968.1</ele><time>2024-09-28T14:20:41Z</time></trkpt>
<trkpt lat="31.7170471" lon="35.999369"><ele>968.2</ele><time>2024-09-28T14:20:42Z</time></trkpt>
<trkpt lat="31.7170485" lon="35.9993693"><ele>968.3</ele><time>2024-09-28T14:20:43Z</time></trkpt>
<trkpt lat="31.7170492" lon="35.9993702"><ele>968.5</ele><time>2024-09-28T14:20:44Z</time></trkpt>
<trkpt lat="31.71705" lon="35.999373"><ele>968.6</ele><time>2024-09-28T14:20:45Z</time></trkpt>
<trkpt lat="31.7170506" lon="35.9993775"><ele>968.7</ele><time>2024-09-28T14:20:46Z</time></trkpt>
<trkpt lat="31.7170501" lon="35.9993799"><ele>968.8</ele><time>2024-09-28T14:20:47Z</time></trkpt>
<trkpt lat="31.7170499" lon="35.9993779"><ele>969.0</ele><time>2024-09-28T14:20:48Z</time></trkpt>
<trkpt lat="31.7170513" lon="35.9993735"><ele>969.1</ele><time>2024-09-28T14:20:49Z</time></trkpt>
<trkpt lat="31.7170514" lon="35.9993684"><ele>969.2</ele><time>2024-09-28T14:20:50Z</time></trkpt>
<trkpt lat="31.7170512" lon="35.9993629"><ele>969.2</ele><time>2024-09-28T14:20:51Z</time></trkpt>
<trkpt lat="31.7170508" lon="35.9993593"><ele>969.3</ele><time>2024-09-28T14:20:52Z</time></trkpt>
<trkpt lat="31.7170487" lon="35.9993595"><ele>969.3</ele><time>2024-09-28T14:20:53Z</time></trkpt>
<trkpt lat="31.7170454" lon="35.9993628"><ele>969.4</ele><time>2024-09-28T14:20:54Z</time></trkpt>
<trkpt lat="31.717043" lon="35.9993657"><ele>969.4</ele><time>2024-09-28T14:20:55Z</time></trkpt>
<trkpt lat="31.7170422" lon="35.9993647"><ele>969.4</ele><time>2024-09-28T14:20:56Z</time></trkpt>
<trkpt lat="31.7170437" lon="35.999363"><ele>969.3</ele><time>2024-09-28T14:20:57Z</time></trkpt>
<trkpt lat="31.7170461" lon="35.9993625"><ele>969.3</ele><time>2024-09-28T14:20:58Z</time></trkpt>
<trkpt lat="31.7170466" lon="35.999362"><ele>969.3</ele><time>2024-09-28T14:20:59Z</time></trkpt>
<trkpt lat="31.717045" lon="35.9993604"><ele>969.2</ele><time>2024-09-28T14:21:00Z</time></trkpt>
<trkpt lat="31.7170437" lon="35.9993579"><ele>969.2</ele><time>2024-09-28T14:21:01Z</time></trkpt>
<trkpt lat="31.7170456" lon="35.9993572"><ele>969.1</ele><time>2024-09-28T14:21:02Z</time></trkpt>
<trkpt lat="31.7170467" lon="35.9993584"><ele>969.0</ele><time>2024-09-28T14:21:03Z</time></trkpt>
<trkpt lat="31.7170462" lon="35.9993596"><ele>969.0</ele><time>2024-09-28T14:21:04Z</time></trkpt>
<trkpt lat="31.7170472" lon="35.9993606"><ele>968.9</ele><time>2024-09-28T14:21:05Z</time></trkpt>
<trkpt lat="31.7170501" lon="35.9993611"><ele>968.8</ele><time>2024-09-28T14:21:06Z</time></trkpt>
<trkpt lat="31.7170525" lon="35.9993618"><ele>968.7</ele><time>2024-09-28T14:21:07Z</time></trkpt>
<trkpt lat="31.7170527" lon="35.9993627"><ele>968.6</ele><time>2024-09-28T14:21:08Z</time></trkpt>
<trkpt lat="31.7170527" lon="35.999363"><ele>968.5</ele><time>2024-09-28T14:21:09Z</time></trkpt>
<trkpt lat="31.7170533" lon="35.9993627"><ele>968.4</ele><time>2024-09-28T14:21:10Z</time></trkpt>
<trkpt lat="31.7170543" lon="35.999362"><ele>968.3</ele><time>2024-09-28T14:21:11Z</time></trkpt>
<trkpt lat="31.7170555" lon="35.9993609"><ele>968.1</ele><time>2024-09-28T14:21:12Z</time></trkpt>
<trkpt lat="31.7170568" lon="35.9993595"><ele>968.0</ele><time>2024-09-28T14:21:13Z</time></trkpt>
<trkpt lat="31.7170582" lon="35.9993573"><ele>967.8</ele><time>2024-09-28T14:21:14Z</time></trkpt>
<trkpt lat="31.7170595" lon="35.9993543"><ele>967.6</ele><time>2024-09-28T14:21:15Z</time></trkpt>
<trkpt lat="31.7170604" lon="35.9993501"><ele>967.5</ele><time>2024-09-28T14:21:16Z</time></trkpt>
<trkpt lat="31.7170605" lon="35.999346"><ele>967.3</ele><time>2024-09-28T14:21:17Z</time></trkpt>
<trkpt lat="31.7170601" lon="35.9993434"><ele>967.1</ele><time>2024-09-28T14:21:18Z</time></trkpt>
<trkpt lat="31.7170591" lon="35.9993424"><ele>966.9</ele><time>2024-09-28T14:21:19Z</time></trkpt>
<trkpt lat="31.7170579" lon="35.999342"><ele>966.7</ele><time>2024-09-28T14:21:20Z</time></trkpt>
<trkpt lat="31.7170576" lon="35.9993417"><ele>966.6</ele><time>2024-09-28T14:21:21Z</time></trkpt>
<trkpt lat="31.7170577" lon="35.9993408"><ele>966.4</ele><time>2024-09-28T14:21:22Z</time></trkpt>
<trkpt lat="31.7170579" lon="35.9993392"><ele>966.3</ele><time>2024-09-28T14:21:23Z</time></trkpt>
<trkpt lat="31.717057" lon="35.9993366"><ele>966.2</ele><time>2024-09-28T14:21:24Z</time></trkpt>
<trkpt lat="31.717056" lon="35.9993346"><ele>966.1</ele><time>2024-09-28T14:21:25Z</time></trkpt>
<trkpt lat="31.7170561" lon="35.999335"><ele>966.1</ele><time>2024-09-28T14:21:26Z</time></trkpt>
<trkpt lat="31.7170567" lon="35.9993373"><ele>966.0</ele><time>2024-09-28T14:21:27Z</time></trkpt>
<trkpt lat="31.7170571" lon="35.9993401"><ele>966.0</ele><time>2024-09-28T14:21:28Z</time></trkpt>
<trkpt lat="31.7170573" lon="35.9993425"><ele>966.1</ele><time>2024-09-28T14:21:29Z</time></trkpt>
<trkpt lat="31.7170575" lon="35.9993434"><ele>966.1</ele><time>2024-09-28T14:21:30Z</time></trkpt>
<trkpt lat="31.7170587" lon="35.9993423"><ele>966.2</ele><time>2024-09-28T14:21:31Z</time></trkpt>
<trkpt lat="31.7170609" lon="35.9993402"><ele>966.2</ele><time>2024-09-28T14:21:32Z</time></trkpt>
<trkpt lat="31.7170626" lon="35.9993411"><ele>966.3</ele><time>2024-09-28T14:21:33Z</time></trkpt>
<trkpt lat="31.7170633" lon="35.9993451"><ele>966.5</ele><time>2024-09-28T14:21:34Z</time></trkpt>
<trkpt lat="31.7170635" lon="35.9993497"><ele>966.6</ele><time>2024-09-28T14:21:35Z</time></trkpt>
<trkpt lat="31.7170625" lon="35.9993545"><ele>966.7</ele><time>2024-09-28T14:21:36Z</time></trkpt>
<trkpt lat="31.7170601" lon="35.9993602"><ele>966.9</ele><time>2024-09-28T14:21:37Z</time></trkpt>
<trkpt lat="31.7170579" lon="35.9993648"><ele>967.0</ele><time>2024-09-28T14:21:38Z</time></trkpt>
<trkpt lat="31.7170572" lon="35.9993677"><ele>967.2</ele><time>2024-09-28T14:21:39Z</time></trkpt>
<trkpt lat="31.7170574" lon="35.9993705"><ele>967.4</ele><time>2024-09-28T14:21:40Z</time></trkpt>
<trkpt lat="31.7170583" lon="35.999373"><ele>967.6</ele><time>2024-09-28T14:21:41Z</time></trkpt>
<trkpt lat="31.71706" lon="35.9993729"><ele>967.7</ele><time>2024-09-28T14:21:42Z</time></trkpt>
<trkpt lat="31.7170619" lon="35.9993711"><ele>967.9</ele><time>2024-09-28T14:21:43Z</time></trkpt>
<trkpt lat="31.7170625" lon="35.9993698"><ele>968.1</ele><time>2024-09-28T14:21:44Z</time></trkpt>
<trkpt lat="31.7170614" lon="35.9993696"><ele>968.3</ele><time>2024-09-28T14:21:45Z</time></trkpt>
<trkpt lat="31.7170602" lon="35.9993697"><ele>968.4</ele><time>2024-09-28T14:21:46Z</time></trkpt>
<trkpt lat="31.7170604" lon="35.9993691"><ele>968.6</ele><time>2024-09-28T14:21:47Z</time></trkpt>
<trkpt lat="31.7170616" lon="35.9993679"><ele>968.7</ele><time>2024-09-28T14:21:48Z</time></trkpt>
<trkpt lat="31.717063" lon="35.9993664"><ele>968.9</ele><time>2024-09-28T14:21:49Z</time></trkpt>
<trkpt lat="31.7170639" lon="35.9993647"><ele>969.0</ele><time>2024-09-28T14:21:50Z</time></trkpt>
<trkpt lat="31.7170647" lon="35.999363"><ele>969.1</ele><time>2024-09-28T14:21:51Z</time></trkpt>
<trkpt lat="31.7170647" lon="35.9993626"><ele>969.2</ele><time>2024-09-28T14:21:52Z</time></trkpt>
<trkpt lat="31.7170641" lon="35.9993621"><ele>969.3</ele><time>2024-09-28T14:21:53Z</time></trkpt>
<trkpt lat="31.7170637" lon="35.9993594"><ele>969.4</ele><time>2024-09-28T14:21:54Z</time></trkpt>
<trkpt lat="31.7170643" lon="35.9993538"><ele>969.5</ele><time>2024-09-28T14:21:55Z</time></trkpt>
<trkpt lat="31.7170648" lon="35.9993486"><ele>969.6</ele><time>2024-09-28T14:21:56Z</time></trkpt>
<trkpt lat="31.7170644" lon="35.9993476"><ele>969.6</ele><time>2024-09-28T14:21:57Z</time></trkpt>
<trkpt lat="31.7170639" lon="35.9993494"><ele>969.7</ele><time>2024-09-28T14:21:58Z</time></trkpt>
<trkpt lat="31.717064" lon="35.99935"><ele>969.7</ele><time>2024-09-28T14:21:59Z</time></trkpt>
<trkpt lat="31.7170642" lon="35.9993488"><ele>969.8</ele><time>2024-09-28T14:22:00Z</time></trkpt>
<trkpt lat="31.7170644" lon="35.9993469"><ele>969.8</ele><time>2024-09-28T14:22:01Z</time></trkpt>
<trkpt lat="31.7170645" lon="35.999345"><ele>969.9</ele><time>2024-09-28T14:22:02Z</time></trkpt>
<trkpt lat="31.717064" lon="35.9993446"><ele>969.9</ele><time>2024-09-28T14:22:03Z</time></trkpt>
<trkpt lat="31.7170636" lon="35.9993454"><ele>969.9</ele><time>2024-09-28T14:22:04Z</time></trkpt>
<trkpt lat="31.7170632" lon="35.9993461"><ele>970.0</ele><time>2024-09-28T14:22:05Z</time></trkpt>
<trkpt lat="31.7170626" lon="35.9993459"><ele>970.0</ele><time>2024-09-28T14:22:06Z</time></trkpt>
<trkpt lat="31.7170618" lon="35.9993463"><ele>970.0</ele><time>2024-09-28T14:22:07Z</time></trkpt>
<trkpt lat="31.7170611" lon="35.9993463"><ele>969.9</ele><time>2024-09-28T14:22:08Z</time></trkpt>
<trkpt lat="31.7170604" lon="35.9993449"><ele>969.9</ele><time>2024-09-28T14:22:09Z</time></trkpt>
<trkpt lat="31.7170596" lon="35.9993433"><ele>969.8</ele><time>2024-09-28T14:22:10Z</time></trkpt>
<trkpt lat="31.7170588" lon="35.9993429"><ele>969.7</ele><time>2024-09-28T14:22:11Z</time></trkpt>
<trkpt lat="31.7170583" lon="35.9993442"><ele>969.6</ele><time>2024-09-28T14:22:12Z</time></trkpt>
<trkpt lat="31.7170576" lon="35.9993487"><ele>969.5</ele><time>2024-09-28T14:22:13Z</time></trkpt>
<trkpt lat="31.7170563" lon="35.9993545"><ele>969.4</ele><time>2024-09-28T14:22:14Z</time></trkpt>
<trkpt lat="31.7170549" lon="35.9993584"><ele>969.2</ele><time>2024-09-28T14:22:15Z</time></trkpt>
<trkpt lat="31.7170542" lon="35.9993604"><ele>969.0</ele><time>2024-09-28T14:22:16Z</time></trkpt>
<trkpt lat="31.7170544" lon="35.999361"><ele>968.8</ele><time>2024-09-28T14:22:17Z</time></trkpt>
<trkpt lat="31.7170553" lon="35.9993602"><ele>968.5</ele><time>2024-09-28T14:22:18Z</time></trkpt>
<trkpt lat="31.7170568" lon="35.9993578"><ele>968.3</ele><time>2024-09-28T14:22:19Z</time></trkpt>
<trkpt lat="31.7170585" lon="35.9993538"><ele>968.0</ele><time>2024-09-28T14:22:20Z</time></trkpt>
<trkpt lat="31.7170603" lon="35.9993481"><ele>967.8</ele><time>2024-09-28T14:22:21Z</time></trkpt>
<trkpt lat="31.7170615" lon="35.9993403"><ele>967.5</ele><time>2024-09-28T14:22:22Z</time></trkpt>
<trkpt lat="31.7170617" lon="35.9993302"><ele>967.2</ele><time>2024-09-28T14:22:23Z</time></trkpt>
<trkpt lat="31.7170601" lon="35.9993192"><ele>966.9</ele><time>2024-09-28T14:22:24Z</time></trkpt>
<trkpt lat="31.7170551" lon="35.9993103"><ele>966.6</ele><time>2024-09-28T14:22:25Z</time></trkpt>
<trkpt lat="31.7170477" lon="35.9993055"><ele>966.3</ele><time>2024-09-28T14:22:26Z</time></trkpt>
<trkpt lat="31.7170421" lon="35.9993049"><ele>965.9</ele><time>2024-09-28T14:22:27Z</time></trkpt>
<trkpt lat="31.7170405" lon="35.9993075"><ele>965.6</ele><time>2024-09-28T14:22:28Z</time></trkpt>
<trkpt lat="31.7170414" lon="35.999312"><ele>965.3</ele><time>2024-09-28T14:22:29Z</time></trkpt>
<trkpt lat="31.7170424" lon="35.9993178"><ele>965.0</ele><time>2024-09-28T14:22:30Z</time></trkpt>
<trkpt lat="31.7170434" lon="35.9993212"><ele>964.7</ele><time>2024-09-28T14:22:31Z</time></trkpt>
<trkpt lat="31.7170459" lon="35.999315"><ele>964.4</ele><time>2024-09-28T14:22:32Z</time></trkpt>
<trkpt lat="31.7170502" lon="35.9992986"><ele>964.2</ele><time>2024-09-28T14:22:33Z</time></trkpt>
<trkpt lat="31.7170543" lon="35.9992808"><ele>963.9</ele><time>2024-09-28T14:22:34Z</time></trkpt>
<trkpt lat="31.7170533" lon="35.9992693"><ele>963.6</ele><time>2024-09-28T14:22:35Z</time></trkpt>
<trkpt lat="31.717047" lon="35.9992633"><ele>963.4</ele><time>2024-09-28T14:22:36Z</time></trkpt>
<trkpt lat="31.7170411" lon="35.999262"><ele>963.2</ele><time>2024-09-28T14:22:37Z</time></trkpt>
<trkpt lat="31.7170397" lon="35.9992653"><ele>963.0</ele><time>2024-09-28T14:22:38Z</time></trkpt>
<trkpt lat="31.7170414" lon="35.9992712"><ele>962.8</ele><time>2024-09-28T14:22:39Z</time></trkpt>
<trkpt lat="31.7170425" lon="35.9992775"><ele>962.6</ele><time>2024-09-28T14:22:40Z</time></trkpt>
<trkpt lat="31.7170452" lon="35.9992856"><ele>962.5</ele><time>2024-09-28T14:22:41Z</time></trkpt>
<trkpt lat="31.7170497" lon="35.9992957"><ele>962.4</ele><time>2024-09-28T14:22:42Z</time></trkpt>
<trkpt lat="31.7170521" lon="35.9993035"><ele>962.2</ele><time>2024-09-28T14:22:43Z</time></trkpt>
<trkpt lat="31.7170511" lon="35.9993076"><ele>962.1</ele><time>2024-09-28T14:22:44Z</time></trkpt>
<trkpt lat="31.7170492" lon="35.9993096"><ele>962.0</ele><time>2024-09-28T14:22:45Z</time></trkpt>
<trkpt lat="31.7170493" lon="35.9993112"><ele>961.9</ele><time>2024-09-28T14:22:46Z</time></trkpt>
<trkpt lat="31.7170507" lon="35.9993128"><ele>961.9</ele><time>2024-09-28T14:22:47Z</time></trkpt>
<trkpt lat="31.7170526" lon="35.9993142"><ele>961.8</ele><time>2024-09-28T14:22:48Z</time></trkpt>
<trkpt lat="31.7170546" lon="35.999315"><ele>961.7</ele><time>2024-09-28T14:22:49Z</time></trkpt>
<trkpt lat="31.717057" lon="35.9993157"><ele>961.7</ele><time>2024-09-28T14:22:50Z</time></trkpt>
<trkpt lat="31.7170598" lon="35.9993166"><ele>961.6</ele><time>2024-09-28T14:22:51Z</time></trkpt>
<trkpt lat="31.7170626" lon="35.9993178"><ele>961.6</ele><time>2024-09-28T14:22:52Z</time></trkpt>
<trkpt lat="31.7170653" lon="35.9993193"><ele>961.5</ele><time>2024-09-28T14:22:53Z</time></trkpt>
<trkpt lat="31.7170678" lon="35.9993216"><ele>961.5</ele><time>2024-09-28T14:22:54Z</time></trkpt>
<trkpt lat="31.7170698" lon="35.999325"><ele>961.5</ele><time>2024-09-28T14:22:55Z</time></trkpt>
<trkpt lat="31.7170713" lon="35.9993302"><ele>961.5</ele><time>2024-09-28T14:22:56Z</time></trkpt>
<trkpt lat="31.7170728" lon="35.9993378"><ele>961.5</ele><time>2024-09-28T14:22:57Z</time></trkpt>
<trkpt lat="31.7170737" lon="35.9993452"><ele>961.6</ele><time>2024-09-28T14:22:58Z</time></trkpt>
<trkpt lat="31.7170728" lon="35.9993505"><ele>961.6</ele><time>2024-09-28T14:22:59Z</time></trkpt>
<trkpt lat="31.7170728" lon="35.9993535"><ele>961.6</ele><time>2024-09-28T14:23:00Z</time></trkpt>
<trkpt lat="31.7170748" lon="35.9993528"><ele>961.7</ele><time>2024-09-28T14:23:01Z</time></trkpt>
<trkpt lat="31.7170771" lon="35.9993474"><ele>961.7</ele><time>2024-09-28T14:23:02Z</time></trkpt>
<trkpt lat="31.7170789" lon="35.9993423"><ele>961.8</ele><time>2024-09-28T14:23:03Z</time></trkpt>
<trkpt lat="31.7170777" lon="35.9993435"><ele>961.8</ele><time>2024-09-28T14:23:04Z</time></trkpt>
<trkpt lat="31.7170744" lon="35.9993479"><ele>961.9</ele><time>2024-09-28T14:23:05Z</time></trkpt>
<trkpt lat="31.7170731" lon="35.9993489"><ele>961.9</ele><time>2024-09-28T14:23:06Z</time></trkpt>
<trkpt lat="31.7170753" lon="35.9993473"><ele>962.0</ele><time>2024-09-28T14:23:07Z</time></trkpt>
<trkpt lat="31.7170776" lon="35.9993472"><ele>962.0</ele><time>2024-09-28T14:23:08Z</time></trkpt>
<trkpt lat="31.7170779" lon="35.9993485"><ele>962.1</ele><time>2024-09-28T14:23:09Z</time></trkpt>
<trkpt lat="31.7170781" lon="35.9993499"><ele>962.1</ele><time>2024-09-28T14:23:10Z</time></trkpt>
<trkpt lat="31.7170793" lon="35.9993508"><ele>962.1</ele><time>2024-09-28T14:23:11Z</time></trkpt>
<trkpt lat="31.7170799" lon="35.9993512"><ele>962.2</ele><time>2024-09-28T14:23:12Z</time></trkpt>
<trkpt lat="31.7170802" lon="35.999351"><ele>962.2</ele><time>2024-09-28T14:23:13Z</time></trkpt>
<trkpt lat="31.7170809" lon="35.9993518"><ele>962.3</ele><time>2024-09-28T14:23:14Z</time></trkpt>
<trkpt lat="31.7170813" lon="35.9993543"><ele>962.3</ele><time>2024-09-28T14:23:15Z</time></trkpt>
<trkpt lat="31.7170818" lon="35.9993561"><ele>962.4</ele><time>2024-09-28T14:23:16Z</time></trkpt>
<trkpt lat="31.7170814" lon="35.9993569"><ele>962.5</ele><time>2024-09-28T14:23:17Z</time></trkpt>
<trkpt lat="31.7170807" lon="35.9993575"><ele>962.6</ele><time>2024-09-28T14:23:18Z</time></trkpt>
<trkpt lat="31.7170794" lon="35.9993579"><ele>962.6</ele><time>2024-09-28T14:23:19Z</time></trkpt>
<trkpt lat="31.7170775" lon="35.9993548"><ele>962.7</ele><time>2024-09-28T14:23:20Z</time></trkpt>
<trkpt lat="31.7170757" lon="35.9993511"><ele>962.8</ele><time>2024-09-28T14:23:21Z</time></trkpt>
<trkpt lat="31.7170747" lon="35.9993512"><ele>962.9</ele><time>2024-09-28T14:23:22Z</time></trkpt>
<trkpt lat="31.7170738" lon="35.9993531"><ele>963.0</ele><time>2024-09-28T14:23:23Z</time></trkpt>
<trkpt lat="31.7170725" lon="35.9993558"><ele>963.1</ele><time>2024-09-28T14:23:24Z</time></trkpt>
<trkpt lat="31.7170698" lon="35.9993589"><ele>963.2</ele><time>2024-09-28T14:23:25Z</time></trkpt>
<trkpt lat="31.7170673" lon="35.9993632"><ele>963.3</ele><time>2024-09-28T14:23:26Z</time></trkpt>
<trkpt lat="31.7170687" lon="35.9993659"><ele>963.4</ele><time>2024-09-28T14:23:27Z</time></trkpt>
<trkpt lat="31.7170736" lon="35.9993649"><ele>963.5</ele><time>2024-09-28T14:23:28Z</time></trkpt>
<trkpt lat="31.7170762" lon="35.9993629"><ele>963.6</ele><time>2024-09-28T14:23:29Z</time></trkpt>
<trkpt lat="31.7170735" lon="35.9993603"><ele>963.7</ele><time>2024-09-28T14:23:30Z</time></trkpt>
<trkpt lat="31.7170682" lon="35.9993588"><ele>963.9</ele><time>2024-09-28T14:23:31Z</time></trkpt>
<trkpt lat="31.7170644" lon="35.9993604"><ele>964.0</ele><time>2024-09-28T14:23:32Z</time></trkpt>
<trkpt lat="31.7170644" lon="35.9993652"><ele>964.2</ele><time>2024-09-28T14:23:33Z</time></trkpt>
<trkpt lat="31.7170691" lon="35.9993751"><ele>964.4</ele><time>2024-09-28T14:23:34Z</time></trkpt>
<trkpt lat="31.7170767" lon="35.999388"><ele>964.5</ele><time>2024-09-28T14:23:35Z</time></trkpt>
<trkpt lat="31.7170815" lon="35.9993988"><ele>964.7</ele><time>2024-09-28T14:23:36Z</time></trkpt>
<trkpt lat="31.7170787" lon="35.9994042"><ele>964.9</ele><time>2024-09-28T14:23:37Z</time></trkpt>
<trkpt lat="31.7170693" lon="35.9994029"><ele>965.1</ele><time>2024-09-28T14:23:38Z</time></trkpt>
<trkpt lat="31.717061" lon="35.9993984"><ele>965.3</ele><time>2024-09-28T14:23:39Z</time></trkpt>
<trkpt lat="31.7170598" lon="35.9993933"><ele>965.5</ele><time>2024-09-28T14:23:40Z</time></trkpt>
<trkpt lat="31.7170627" lon="35.9993878"><ele>965.7</ele><time>2024-09-28T14:23:41Z</time></trkpt>
<trkpt lat="31.7170632" lon="35.9993854"><ele>965.9</ele><time>2024-09-28T14:23:42Z</time></trkpt>
<trkpt lat="31.7170595" lon="35.9993864"><ele>966.0</ele><time>2024-09-28T14:23:43Z</time></trkpt>
<trkpt lat="31.7170542" lon="35.9993876"><ele>966.1</ele><time>2024-09-28T14:23:44Z</time></trkpt>
<trkpt lat="31.7170506" lon="35.9993876"><ele>966.2</ele><time>2024-09-28T14:23:45Z</time></trkpt>
<trkpt lat="31.7170495" lon="35.9993854"><ele>966.3</ele><time>2024-09-28T14:23:46Z</time></trkpt>
<trkpt lat="31.717049" lon="35.9993808"><ele>966.4</ele><time>2024-09-28T14:23:47Z</time></trkpt>
<trkpt lat="31.7170504" lon="35.9993756"><ele>966.5</ele><time>2024-09-28T14:23:48Z</time></trkpt>
<trkpt lat="31.7170532" lon="35.9993719"><ele>966.5</ele><time>2024-09-28T14:23:49Z</time></trkpt>
<trkpt lat="31.717055" lon="35.9993694"><ele>966.6</ele><time>2024-09-28T14:23:50Z</time></trkpt>
<trkpt lat="31.7170557" lon="35.9993668"><ele>966.6</ele><time>2024-09-28T14:23:51Z</time></trkpt>
<trkpt lat="31.7170559" lon="35.9993625"><ele>966.6</ele><time>2024-09-28T14:23:52Z</time></trkpt>
<trkpt lat="31.7170559" lon="35.9993567"><ele>966.7</ele><time>2024-09-28T14:23:53Z</time></trkpt>
<trkpt lat="31.7170559" lon="35.9993521"><ele>966.7</ele><time>2024-09-28T14:23:54Z</time></trkpt>
<trkpt lat="31.7170561" lon="35.9993489"><ele>966.8</ele><time>2024-09-28T14:23:55Z</time></trkpt>
<trkpt lat="31.7170552" lon="35.9993459"><ele>966.8</ele><time>2024-09-28T14:23:56Z</time></trkpt>
<trkpt lat="31.7170537" lon="35.9993456"><ele>966.9</ele><time>2024-09-28T14:23:57Z</time></trkpt>
<trkpt lat="31.717053" lon="35.9993492"><ele>967.0</ele><time>2024-09-28T14:23:58Z</time></trkpt>
<trkpt lat="31.7170524" lon="35.9993568"><ele>967.0</ele><time>2024-09-28T14:23:59Z</time></trkpt>
<trkpt lat="31.7170527" lon="35.9993654"><ele>967.1</ele><time>2024-09-28T14:24:00Z</time></trkpt>
<trkpt lat="31.7170551" lon="35.9993687"><ele>967.2</ele><time>2024-09-28T14:24:01Z</time></trkpt>
<trkpt lat="31.7170589" lon="35.9993646"><ele>967.3</ele><time>2024-09-28T14:24:02Z</time></trkpt>
<trkpt lat="31.7170599" lon="35.9993591"><ele>967.3</ele><time>2024-09-28T14:24:03Z</time></trkpt>
<trkpt lat="31.7170565" lon="35.9993586"><ele>967.4</ele><time>2024-09-28T14:24:04Z</time></trkpt>
<trkpt lat="31.7170521" lon="35.9993631"><ele>967.4</ele><time>2024-09-28T14:24:05Z</time></trkpt>
<trkpt lat="31.7170487" lon="35.9993681"><ele>967.4</ele><time>2024-09-28T14:24:06Z</time></trkpt>
<trkpt lat="31.7170476" lon="35.9993699"><ele>967.4</ele><time>2024-09-28T14:24:07Z</time></trkpt>
<trkpt lat="31.7170473" lon="35.9993682"><ele>967.4</ele><time>2024-09-28T14:24:08Z</time></trkpt>
<trkpt lat="31.7170448" lon="35.9993644"><ele>967.4</ele><time>2024-09-28T14:24:09Z</time></trkpt>
<trkpt lat="31.7170387" lon="35.9993581"><ele>967.3</ele><time>2024-09-28T14:24:10Z</time></trkpt>
<trkpt lat="31.7170304" lon="35.9993517"><ele>967.2</ele><time>2024-09-28T14:24:11Z</time></trkpt>
<trkpt lat="31.7170262" lon="35.9993486"><ele>967.1</ele><time>2024-09-28T14:24:12Z</time></trkpt>
<trkpt lat="31.717027" lon="35.9993483"><ele>967.0</ele><time>2024-09-28T14:24:13Z</time></trkpt>
<trkpt lat="31.7170296" lon="35.9993482"><ele>966.9</ele><time>2024-09-28T14:24:14Z</time></trkpt>
<trkpt lat="31.7170331" lon="35.9993467"><ele>966.7</ele><time>2024-09-28T14:24:15Z</time></trkpt>
<trkpt lat="31.7170366" lon="35.9993441"><ele>966.5</ele><time>2024-09-28T14:24:16Z</time></trkpt>
<trkpt lat="31.7170399" lon="35.9993421"><ele>966.3</ele><time>2024-09-28T14:24:17Z</time></trkpt>
<trkpt lat="31.7170426" lon="35.999343"><ele>966.1</ele><time>2024-09-28T14:24:18Z</time></trkpt>
<trkpt lat="31.7170438" lon="35.9993475"><ele>965.9</ele><time>2024-09-28T14:24:19Z</time></trkpt>
<trkpt lat="31.7170451" lon="35.9993539"><ele>965.7</ele><time>2024-09-28T14:24:20Z</time></trkpt>
<trkpt lat="31.7170447" lon="35.9993605"><ele>965.5</ele><time>2024-09-28T14:24:21Z</time></trkpt>
<trkpt lat="31.7170406" lon="35.9993674"><ele>965.2</ele><time>2024-09-28T14:24:22Z</time></trkpt>
<trkpt lat="31.7170373" lon="35.9993704"><ele>965.0</ele><time>2024-09-28T14:24:23Z</time></trkpt>
<trkpt lat="31.7170368" lon="35.9993692"><ele>964.8</ele><time>2024-09-28T14:24:24Z</time></trkpt>
<trkpt lat="31.7170377" lon="35.9993678"><ele>964.5</ele><time>2024-09-28T14:24:25Z</time></trkpt>
<trkpt lat="31.7170389" lon="35.999365"><ele>964.3</ele><time>2024-09-28T14:24:26Z</time></trkpt>
<trkpt lat="31.71704" lon="35.9993609"><ele>964.1</ele><time>2024-09-28T14:24:27Z</time></trkpt>
<trkpt lat="31.7170413" lon="35.9993575"><ele>963.9</ele><time>2024-09-28T14:24:28Z</time></trkpt>
<trkpt lat="31.7170425" lon="35.9993552"><ele>963.7</ele><time>2024-09-28T14:24:29Z</time></trkpt>
<trkpt lat="31.7170429" lon="35.9993537"><ele>963.5</ele><time>2024-09-28T14:24:30Z</time></trkpt>
<trkpt lat="31.7170412" lon="35.9993532"><ele>963.3</ele><time>2024-09-28T14:24:31Z</time></trkpt>
<trkpt lat="31.7170392" lon="35.9993532"><ele>963.2</ele><time>2024-09-28T14:24:32Z</time></trkpt>
<trkpt lat="31.7170384" lon="35.9993534"><ele>963.0</ele><time>2024-09-28T14:24:33Z</time></trkpt>
<trkpt lat="31.7170381" lon="35.9993535"><ele>962.9</ele><time>2024-09-28T14:24:34Z</time></trkpt>
<trkpt lat="31.7170381" lon="35.9993533"><ele>962.8</ele><time>2024-09-28T14:24:35Z</time></trkpt>
<trkpt lat="31.7170384" lon="35.9993531"><ele>962.7</ele><time>2024-09-28T14:24:36Z</time></trkpt>
<trkpt lat="31.7170388" lon="35.9993532"><ele>962.7</ele><time>2024-09-28T14:24:37Z</time></trkpt>
<trkpt lat="31.7170392" lon="35.9993534"><ele>962.6</ele><time>2024-09-28T14:24:38Z</time></trkpt>
<trkpt lat="31.7170395" lon="35.9993536"><ele>962.6</ele><time>2024-09-28T14:24:39Z</time></trkpt>
<trkpt lat="31.7170398" lon="35.9993537"><ele>962.5</ele><time>2024-09-28T14:24:40Z</time></trkpt>
<trkpt lat="31.7170401" lon="35.9993539"><ele>962.5</ele><time>2024-09-28T14:24:41Z</time></trkpt>
<trkpt lat="31.7170402" lon="35.999354"><ele>962.5</ele><time>2024-09-28T14:24:42Z</time></trkpt>
<trkpt lat="31.7170404" lon="35.999354"><ele>962.5</ele><time>2024-09-28T14:24:43Z</time></trkpt>
<trkpt lat="31.7170405" lon="35.9993541"><ele>962.5</ele><time>2024-09-28T14:24:44Z</time></trkpt>
<trkpt lat="31.7170405" lon="35.9993541"><ele>962.5</ele><time>2024-09-28T14:24:45Z</time></trkpt>
<trkpt lat="31.7170406" lon="35.9993541"><ele>962.5</ele><time>2024-09-28T14:24:46Z</time></trkpt>
<trkpt lat="31.7170406" lon="35.9993542"><ele>962.5</ele><time>2024-09-28T14:24:47Z</time></trkpt>
<trkpt lat="31.7170406" lon="35.9993542"><ele>962.5</ele><time>2024-09-28T14:24:48Z</time></trkpt>
<trkpt lat="31.7170406" lon="35.9993542"><ele>962.5</ele><time>2024-09-28T14:24:49Z</time></trkpt>
<trkpt lat="31.7170406" lon="35.9993542"><ele>962.5</ele><time>2024-09-28T14:24:50Z</time></trkpt>
<trkpt lat="31.7170406" lon="35.9993542"><ele>962.5</ele><time>2024-09-28T14:24:51Z</time></trkpt>
<trkpt lat="31.7170407" lon="35.9993542"><ele>962.5</ele><time>2024-09-28T14:24:52Z</time></trkpt>
<trkpt lat="31.7170407" lon="35.9993542"><ele>962.5</ele><time>2024-09-28T14:24:53Z</time></trkpt>
<trkpt lat="31.7170407" lon="35.9993542"><ele>962.5</ele><time>2024-09-28T14:24:54Z</time></trkpt>
<trkpt lat="31.7170407" lon="35.9993542"><ele>962.6</ele><time>2024-09-28T14:24:55Z</time></trkpt>
<trkpt lat="31.7170407" lon="35.9993542"><ele>962.6</ele><time>2024-09-28T14:24:56Z</time></trkpt>
<trkpt lat="31.7170407" lon="35.9993542"><ele>962.6</ele><time>2024-09-28T14:24:57Z</time></trkpt>
<trkpt lat="31.7170407" lon="35.9993542"><ele>962.6</ele><time>2024-09-28T14:24:58Z</time></trkpt>
<trkpt lat="31.7170407" lon="35.9993542"><ele>962.6</ele><time>2024-09-28T14:24:59Z</time></trkpt>
<trkpt lat="31.7170407" lon="35.9993542"><ele>962.6</ele><time>2024-09-28T14:25:00Z</time></trkpt>
<trkpt lat="31.7170407" lon="35.9993542"><ele>962.6</ele><time>2024-09-28T14:25:01Z</time></trkpt>
<trkpt lat="31.7170407" lon="35.9993542"><ele>962.6</ele><time>2024-09-28T14:25:02Z</time></trkpt>
<trkpt lat="31.7170407" lon="35.9993542"><ele>962.6</ele><time>2024-09-28T14:25:03Z</time></trkpt>
<trkpt lat="31.7170407" lon="35.9993542"><ele>962.6</ele><time>2024-09-28T14:25:04Z</time></trkpt>
<trkpt lat="31.7170407" lon="35.9993542"><ele>962.6</ele><time>2024-09-28T14:25:05Z</time></trkpt>
<trkpt lat="31.7170407" lon="35.9993542"><ele>962.6</ele><time>2024-09-28T14:25:06Z</time></trkpt>
<trkpt lat="31.7170407" lon="35.9993542"><ele>962.6</ele><time>2024-09-28T14:25:07Z</time></trkpt>
<trkpt lat="31.7170407" lon="35.9993542"><ele>962.6</ele><time>2024-09-28T14:25:08Z</time></trkpt>
<trkpt lat="31.7170407" lon="35.9993542"><ele>962.6</ele><time>2024-09-28T14:25:09Z</time></trkpt>
<trkpt lat="31.7170407" lon="35.9993542"><ele>962.6</ele><time>2024-09-28T14:25:10Z</time></trkpt>
<trkpt lat="31.7170407" lon="35.9993542"><ele>962.6</ele><time>2024-09-28T14:25:11Z</time></trkpt>
<trkpt lat="31.7170407" lon="35.9993542"><ele>962.6</ele><time>2024-09-28T14:25:12Z</time></trkpt>
<trkpt lat="31.7170407" lon="35.9993542"><ele>962.6</ele><time>2024-09-28T14:25:13Z</time></trkpt>
<trkpt lat="31.7170407" lon="35.9993542"><ele>962.6</ele><time>2024-09-28T14:25:14Z</time></trkpt>
<trkpt lat="31.7170407" lon="35.9993542"><ele>962.6</ele><time>2024-09-28T14:25:15Z</time></trkpt>
<trkpt lat="31.7170407" lon="35.9993542"><ele>962.6</ele><time>2024-09-28T14:25:16Z</time></trkpt>
<trkpt lat="31.7170407" lon="35.9993542"><ele>962.6</ele><time>2024-09-28T14:25:17Z</time></trkpt>
<trkpt lat="31.7170407" lon="35.9993542"><ele>962.6</ele><time>2024-09-28T14:25:18Z</time></trkpt>
<trkpt lat="31.7170407" lon="35.9993542"><ele>962.6</ele><time>2024-09-28T14:25:19Z</time></trkpt>
<trkpt lat="31.7170407" lon="35.9993542"><ele>962.6</ele><time>2024-09-28T14:25:20Z</time></trkpt>
<trkpt lat="31.7170407" lon="35.9993542"><ele>962.6</ele><time>2024-09-28T14:25:21Z</time></trkpt>
<trkpt lat="31.7170407" lon="35.9993542"><ele>962.6</ele><time>2024-09-28T14:25:22Z</time></trkpt>
<trkpt lat="31.7170407" lon="35.9993542"><ele>962.6</ele><time>2024-09-28T14:25:23Z</time></trkpt>
<trkpt lat="31.7170407" lon="35.9993542"><ele>962.6</ele><time>2024-09-28T14:25:24Z</time></trkpt>
<trkpt lat="31.7170407" lon="35.9993542"><ele>962.6</ele><time>2024-09-28T14:25:25Z</time></trkpt>
<trkpt lat="31.7170407" lon="35.9993542"><ele>962.6</ele><time>2024-09-28T14:25:26Z</time></trkpt>
<trkpt lat="31.7170407" lon="35.9993542"><ele>962.6</ele><time>2024-09-28T14:25:27Z</time></trkpt>
<trkpt lat="31.7170407" lon="35.9993542"><ele>962.6</ele><time>2024-09-28T14:25:28Z</time></trkpt>
<trkpt lat="31.7170407" lon="35.9993542"><ele>962.6</ele><time>2024-09-28T14:25:29Z</time></trkpt>
<trkpt lat="31.7170407" lon="35.9993542"><ele>962.6</ele><time>2024-09-28T14:25:30Z</time></trkpt>
<trkpt lat="31.7170407" lon="35.9993542"><ele>962.6</ele><time>2024-09-28T14:25:31Z</time></trkpt>
<trkpt lat="31.7170407" lon="35.9993542"><ele>962.6</ele><time>2024-09-28T14:25:32Z</time></trkpt>
<trkpt lat="31.7170407" lon="35.9993542"><ele>962.6</ele><time>2024-09-28T14:25:33Z</time></trkpt>
<trkpt lat="31.7170407" lon="35.9993542"><ele>962.6</ele><time>2024-09-28T14:25:34Z</time></trkpt>
<trkpt lat="31.7170407" lon="35.9993542"><ele>962.6</ele><time>2024-09-28T14:25:35Z</time></trkpt>
<trkpt lat="31.7170407" lon="35.9993542"><ele>962.6</ele><time>2024-09-28T14:25:36Z</time></trkpt>
<trkpt lat="31.7170407" lon="35.9993542"><ele>962.6</ele><time>2024-09-28T14:25:37Z</time></trkpt>
<trkpt lat="31.7170407" lon="35.9993542"><ele>962.6</ele><time>2024-09-28T14:25:38Z</time></trkpt>
<trkpt lat="31.7170407" lon="35.9993542"><ele>962.6</ele><time>2024-09-28T14:25:39Z</time></trkpt>
<trkpt lat="31.7170407" lon="35.9993542"><ele>962.6</ele><time>2024-09-28T14:25:40Z</time></trkpt>
<trkpt lat="31.7170407" lon="35.9993542"><ele>962.6</ele><time>2024-09-28T14:25:41Z</time></trkpt>
<trkpt lat="31.7170407" lon="35.9993542"><ele>962.6</ele><time>2024-09-28T14:25:42Z</time></trkpt>
<trkpt lat="31.7170407" lon="35.9993542"><ele>962.6</ele><time>2024-09-28T14:25:43Z</time></trkpt>
<trkpt lat="31.7170407" lon="35.9993542"><ele>962.6</ele><time>2024-09-28T14:25:44Z</time></trkpt>
<trkpt lat="31.7170407" lon="35.9993542"><ele>962.6</ele><time>2024-09-28T14:25:45Z</time></trkpt>
<trkpt lat="31.7170407" lon="35.9993542"><ele>962.6</ele><time>2024-09-28T14:25:46Z</time></trkpt>
<trkpt lat="31.7170407" lon="35.9993542"><ele>962.6</ele><time>2024-09-28T14:25:47Z</time></trkpt>
<trkpt lat="31.7170407" lon="35.9993542"><ele>962.6</ele><time>2024-09-28T14:25:48Z</time></trkpt>
<trkpt lat="31.7170407" lon="35.9993542"><ele>962.6</ele><time>2024-09-28T14:25:49Z</time></trkpt>
<trkpt lat="31.7170407" lon="35.9993542"><ele>962.6</ele><time>2024-09-28T14:25:50Z</time></trkpt>
<trkpt lat="31.7170407" lon="35.9993542"><ele>962.6</ele><time>2024-09-28T14:25:51Z</time></trkpt>
</trkseg></trk></gpx>