<?xml version="1.0" encoding="UTF-8"?>
<gpx xmlns="Amud Anan http://amudanan.co.il/" version="1.0" xmlns:xsi="http://www.w3.org/2001/XMLSchema-instance" xsi:schemaLocation="http://www.topografix.com/GPX/1/0 http://www.topografix.com/GPX/1/0/gpx.xsd"><trk><name>Amud Anan</name><trkseg><trkpt lon="35.729317846794" lat="33.250484634381"/><trkpt lon="35.728931608696" lat="33.250825582154"/><trkpt lon="35.728523912926" lat="33.25114858408"/><trkpt lon="35.728137674828" lat="33.251902250597"/><trkpt lon="35.728030386467" lat="33.25258413375"/><trkpt lon="35.727837267418" lat="33.253140402908"/><trkpt lon="35.727601233025" lat="33.253301899742"/><trkpt lon="35.72715062191" lat="33.253283955664"/><trkpt lon="35.726893129845" lat="33.253122458796"/><trkpt lon="35.726421061058" lat="33.252817408344"/><trkpt lon="35.726013365288" lat="33.252943017483"/><trkpt lon="35.724961939354" lat="33.253230123408"/><trkpt lon="35.723567190667" lat="33.253382645456"/><trkpt lon="35.723030748864" lat="33.253427508184"/><trkpt lon="35.722547951241" lat="33.253041706765"/><trkpt lon="35.721963229676" lat="33.252848806926"/><trkpt lon="35.721163931389" lat="33.252943017483"/><trkpt lon="35.720498743553" lat="33.253185261341"/><trkpt lon="35.720251980324" lat="33.253378158422"/><trkpt lon="35.719635072251" lat="33.253348997617"/><trkpt lon="35.719305160542" lat="33.253424137642"/><trkpt lon="35.719140204687" lat="33.253228434418"/><trkpt lon="35.71955460598" lat="33.252960961631"/><trkpt lon="35.719350758095" lat="33.252467494616"/><trkpt lon="35.719511690636" lat="33.251920194959"/><trkpt lon="35.719758453865" lat="33.251507473701"/><trkpt lon="35.719275656243" lat="33.251184473109"/><trkpt lon="35.718482757445" lat="33.251516930421"/><trkpt lon="35.717903917833" lat="33.251728019832"/><trkpt lon="35.716724004634" lat="33.251752814611"/><trkpt lon="35.716241336395" lat="33.251621656737"/><trkpt lon="35.715270441424" lat="33.251681688711"/><trkpt lon="35.714656247906" lat="33.251693760269"/><trkpt lon="35.714042054387" lat="33.251598165356"/><trkpt lon="35.713312493535" lat="33.251221331599"/><trkpt lon="35.71275459406" lat="33.251095719985"/><trkpt lon="35.712389813634" lat="33.2512392761"/><trkpt lon="35.712067948552" lat="33.251651998618"/><trkpt lon="35.711982117864" lat="33.2518852757"/><trkpt lon="35.711681710454" lat="33.251818039421"/><trkpt lon="35.710995064946" lat="33.25192570564"/><trkpt lon="35.710458623143" lat="33.252033371725"/><trkpt lon="35.710050927373" lat="33.251800095038"/><trkpt lon="35.709342824193" lat="33.251746261868"/><trkpt lon="35.708613263341" lat="33.251979538699"/><trkpt lon="35.708033906194" lat="33.25226664779"/><trkpt lon="35.707261429997" lat="33.252230759205"/><trkpt lon="35.70676062632" lat="33.252290365005"/><trkpt lon="35.706374388222" lat="33.252308309287"/><trkpt lon="35.70594523478" lat="33.25234419784"/><trkpt lon="35.705816488747" lat="33.252236532137"/><trkpt lon="35.705215673928" lat="33.252433919158"/><trkpt lon="35.704743605141" lat="33.252290365005"/><trkpt lon="35.704400282387" lat="33.252146810617"/><trkpt lon="35.703842382912" lat="33.252057089005"/><trkpt lon="35.703391771798" lat="33.251823812381"/><trkpt lon="35.702962618355" lat="33.251787923614"/><trkpt lon="35.702340345864" lat="33.251626423982"/><trkpt lon="35.702147226815" lat="33.251411090675"/><trkpt lon="35.701782446389" lat="33.251213701344"/><trkpt lon="35.701653700356" lat="33.251070145187"/><trkpt lon="35.701439123635" lat="33.250908644228"/><trkpt lon="35.700967054848" lat="33.2506394753"/><trkpt lon="35.700666647438" lat="33.250460028888"/><trkpt lon="35.699808340554" lat="33.250298526802"/><trkpt lon="35.69905732203" lat="33.250119079689"/><trkpt lon="35.698413591866" lat="33.249957576973"/><trkpt lon="35.697877150063" lat="33.249849908329"/><trkpt lon="35.697576742653" lat="33.249670460296"/><trkpt lon="35.697287601571" lat="33.249532062065"/><trkpt lon="35.696944278817" lat="33.249316723597"/><trkpt lon="35.696515125375" lat="33.249029604814"/><trkpt lon="35.69625763331" lat="33.248724540074"/><trkpt lon="35.695935768228" lat="33.248509199617"/><trkpt lon="35.695849937539" lat="33.248365639017"/><trkpt lon="35.695849937539" lat="33.248006736486"/><trkpt lon="35.69554953013" lat="33.248042626805"/><trkpt lon="35.695377868753" lat="33.248257968412"/><trkpt lon="35.695163292031" lat="33.24854508973"/><trkpt lon="35.695098919015" lat="33.24832974883"/><trkpt lon="35.695077461343" lat="33.248186187935"/><trkpt lon="35.695034545999" lat="33.247934955802"/><trkpt lon="35.694862884622" lat="33.247755503837"/><trkpt lon="35.694446026464" lat="33.248083886942"/><trkpt lon="35.693931042333" lat="33.248137722368"/><trkpt lon="35.69339460053" lat="33.248173612634"/><trkpt lon="35.692943989415" lat="33.248388953919"/><trkpt lon="35.692557751317" lat="33.248622239711"/><trkpt lon="35.692171513219" lat="33.24869401983"/><trkpt lon="35.691720902105" lat="33.248299228448"/><trkpt lon="35.691549240728" lat="33.247922380465"/><trkpt lon="35.691334664007" lat="33.247671147573"/><trkpt lon="35.691463410039" lat="33.247401968674"/><trkpt lon="35.691613613744" lat="33.247114843601"/><trkpt lon="35.69127029099" lat="33.246827717585"/><trkpt lon="35.69086259522" lat="33.246504699689"/><trkpt lon="35.69045489945" lat="33.246397026792"/><trkpt lon="35.69015449204" lat="33.246397026792"/><trkpt lon="35.689874389286" lat="33.246287425177"/><trkpt lon="35.689423778172" lat="33.246036187586"/><trkpt lon="35.689209201451" lat="33.245892622924"/><trkpt lon="35.68910191309" lat="33.245732170133"/><trkpt lon="35.688672759648" lat="33.245660387582"/><trkpt lon="35.688651301975" lat="33.245480930946"/><trkpt lon="35.688350894566" lat="33.245337365372"/><trkpt lon="35.688179233189" lat="33.245247636768"/><trkpt lon="35.6880934025" lat="33.244978450405"/><trkpt lon="35.687857368107" lat="33.244368291579"/><trkpt lon="35.687664249058" lat="33.244206778236"/><trkpt lon="35.687492587681" lat="33.243650452213"/><trkpt lon="35.687213637943" lat="33.243363314817"/><trkpt lon="35.686848857517" lat="33.243040284118"/><trkpt lon="35.686484077091" lat="33.242806983426"/><trkpt lon="35.685883262272" lat="33.242717252225"/><trkpt lon="35.685539939518" lat="33.242753144716"/><trkpt lon="35.685003497715" lat="33.242896714535"/><trkpt lon="35.684316852207" lat="33.242932606953"/><trkpt lon="35.683973529453" lat="33.24287876832"/><trkpt lon="35.683565833683" lat="33.242717252225"/><trkpt lon="35.68332979929" lat="33.242466004372"/><trkpt lon="35.683115222569" lat="33.242250648495"/><trkpt lon="35.682986476536" lat="33.242160916722"/><trkpt lon="35.682686069126" lat="33.242142970357"/><trkpt lon="35.682511532093" lat="33.24200235977"/><trkpt lon="35.682318413044" lat="33.241697270502"/><trkpt lon="35.682146751667" lat="33.241410126689"/><trkpt lon="35.682232582355" lat="33.241105035355"/><trkpt lon="35.682361328388" lat="33.240889676125"/><trkpt lon="35.682404243732" lat="33.240656369693"/><trkpt lon="35.682447159077" lat="33.240153861419"/><trkpt lon="35.682361328388" lat="33.239938499846"/><trkpt lon="35.682189667011" lat="33.239974393478"/><trkpt lon="35.682018005634" lat="33.239974393478"/><trkpt lon="35.681846344257" lat="33.239974393478"/><trkpt lon="35.68167468288" lat="33.239884659369"/><trkpt lon="35.681588852192" lat="33.239651350256"/><trkpt lon="35.681588852192" lat="33.239507775107"/><trkpt lon="35.681460106159" lat="33.240028233899"/><trkpt lon="35.681374275471" lat="33.240476902784"/><trkpt lon="35.681030952717" lat="33.240817889597"/></trkseg></trk></gpx>
