<?xml version="1.0" encoding="utf-8"?>
<gpx version="1.1"><trk><trkseg>
<trkpt lat="33.0358268" lon="35.2487078"><ele>626.0</ele><time>2026-05-16T05:48:32Z</time></trkpt>
<trkpt lat="33.0358162" lon="35.2487299"><ele>651.7</ele><time>2026-05-16T05:48:33Z</time></trkpt>
<trkpt lat="33.0358022" lon="35.2487589"><ele>680.7</ele><time>2026-05-16T05:48:34Z</time></trkpt>
<trkpt lat="33.0357834" lon="35.2487967"><ele>713.3</ele><time>2026-05-16T05:48:35Z</time></trkpt>
<trkpt lat="33.0357589" lon="35.2488444"><ele>748.2</ele><time>2026-05-16T05:48:36Z</time></trkpt>
<trkpt lat="33.035727" lon="35.2489045"><ele>782.7</ele><time>2026-05-16T05:48:37Z</time></trkpt>
<trkpt lat="33.0356879" lon="35.2489768"><ele>813.6</ele><time>2026-05-16T05:48:38Z</time></trkpt>
<trkpt lat="33.0356449" lon="35.2490559"><ele>840.5</ele><time>2026-05-16T05:48:39Z</time></trkpt>
<trkpt lat="33.0354976" lon="35.249067"><ele>871.3</ele><time>2026-05-16T05:49:28Z</time></trkpt>
<trkpt lat="33.0354601" lon="35.2490917"><ele>892.6</ele><time>2026-05-16T05:49:29Z</time></trkpt>
<trkpt lat="33.0354482" lon="35.2490885"><ele>914.1</ele><time>2026-05-16T05:49:30Z</time></trkpt>
<trkpt lat="33.0354275" lon="35.2490886"><ele>934.3</ele><time>2026-05-16T05:49:31Z</time></trkpt>
<trkpt lat="33.0353975" lon="35.2490912"><ele>951.9</ele><time>2026-05-16T05:49:32Z</time></trkpt>
<trkpt lat="33.0353609" lon="35.249093"><ele>965.7</ele><time>2026-05-16T05:49:33Z</time></trkpt>
<trkpt lat="33.035314" lon="35.2490984"><ele>976.3</ele><time>2026-05-16T05:49:34Z</time></trkpt>
<trkpt lat="33.0352721" lon="35.2490948"><ele>982.8</ele><time>2026-05-16T05:49:35Z</time></trkpt>
<trkpt lat="33.0352396" lon="35.249078"><ele>985.9</ele><time>2026-05-16T05:49:36Z</time></trkpt>
<trkpt lat="33.0352165" lon="35.2490476"><ele>986.1</ele><time>2026-05-16T05:49:37Z</time></trkpt>
<trkpt lat="33.0352063" lon="35.2490047"><ele>983.3</ele><time>2026-05-16T05:49:38Z</time></trkpt>
<trkpt lat="33.0352116" lon="35.2489536"><ele>977.7</ele><time>2026-05-16T05:49:39Z</time></trkpt>
<trkpt lat="33.0352286" lon="35.2489028"><ele>969.1</ele><time>2026-05-16T05:49:40Z</time></trkpt>
<trkpt lat="33.035251" lon="35.2488577"><ele>957.8</ele><time>2026-05-16T05:49:41Z</time></trkpt>
<trkpt lat="33.0352729" lon="35.248819"><ele>944.0</ele><time>2026-05-16T05:49:42Z</time></trkpt>
<trkpt lat="33.035294" lon="35.2487841"><ele>928.3</ele><time>2026-05-16T05:49:43Z</time></trkpt>
<trkpt lat="33.0354856" lon="35.2484868"><ele>702.0</ele><time>2026-05-16T05:49:54Z</time></trkpt>
<trkpt lat="33.0355158" lon="35.2484282"><ele>630.3</ele><time>2026-05-16T05:50:00Z</time></trkpt>
<trkpt lat="33.0355047" lon="35.2484364"><ele>636.6</ele><time>2026-05-16T05:50:02Z</time></trkpt>
<trkpt lat="33.0353747" lon="35.2485773"><ele>874.5</ele><time>2026-05-16T05:50:15Z</time></trkpt>
<trkpt lat="33.0353102" lon="35.2486579"><ele>975.4</ele><time>2026-05-16T05:50:20Z</time></trkpt>
<trkpt lat="33.0352951" lon="35.2486775"><ele>983.5</ele><time>2026-05-16T05:50:21Z</time></trkpt>
<trkpt lat="33.035277" lon="35.2486966"><ele>989.2</ele><time>2026-05-16T05:50:22Z</time></trkpt>
<trkpt lat="33.0352546" lon="35.2487151"><ele>993.1</ele><time>2026-05-16T05:50:23Z</time></trkpt>
<trkpt lat="33.0352392" lon="35.2487267"><ele>995.6</ele><time>2026-05-16T05:50:24Z</time></trkpt>
<trkpt lat="33.0352339" lon="35.2487302"><ele>997.0</ele><time>2026-05-16T05:50:25Z</time></trkpt>
<trkpt lat="33.0352339" lon="35.2487279"><ele>997.7</ele><time>2026-05-16T05:50:26Z</time></trkpt>
<trkpt lat="33.0352431" lon="35.248717"><ele>998.0</ele><time>2026-05-16T05:50:27Z</time></trkpt>
<trkpt lat="33.0352613" lon="35.2487002"><ele>997.9</ele><time>2026-05-16T05:50:28Z</time></trkpt>
<trkpt lat="33.0352863" lon="35.2486801"><ele>997.8</ele><time>2026-05-16T05:50:29Z</time></trkpt>
<trkpt lat="33.0353118" lon="35.2486609"><ele>997.5</ele><time>2026-05-16T05:50:30Z</time></trkpt>
<trkpt lat="33.0353336" lon="35.2486446"><ele>997.3</ele><time>2026-05-16T05:50:31Z</time></trkpt>
<trkpt lat="33.0353529" lon="35.2486291"><ele>997.0</ele><time>2026-05-16T05:50:32Z</time></trkpt>
<trkpt lat="33.0353686" lon="35.248615"><ele>996.9</ele><time>2026-05-16T05:50:33Z</time></trkpt>
<trkpt lat="33.0353793" lon="35.2486045"><ele>996.7</ele><time>2026-05-16T05:50:34Z</time></trkpt>
<trkpt lat="33.0353848" lon="35.2485989"><ele>996.6</ele><time>2026-05-16T05:50:35Z</time></trkpt>
<trkpt lat="33.0353864" lon="35.2485975"><ele>996.5</ele><time>2026-05-16T05:50:36Z</time></trkpt>
<trkpt lat="33.0353864" lon="35.2485979"><ele>996.5</ele><time>2026-05-16T05:50:37Z</time></trkpt>
<trkpt lat="33.0353867" lon="35.2485992"><ele>996.4</ele><time>2026-05-16T05:50:38Z</time></trkpt>
<trkpt lat="33.0353869" lon="35.2486005"><ele>996.4</ele><time>2026-05-16T05:50:39Z</time></trkpt>
<trkpt lat="33.0353873" lon="35.2486019"><ele>996.4</ele><time>2026-05-16T05:50:40Z</time></trkpt>
<trkpt lat="33.0353882" lon="35.2486031"><ele>996.4</ele><time>2026-05-16T05:50:41Z</time></trkpt>
<trkpt lat="33.0353896" lon="35.2486039"><ele>996.4</ele><time>2026-05-16T05:50:42Z</time></trkpt>
<trkpt lat="33.0353913" lon="35.2486046"><ele>996.4</ele><time>2026-05-16T05:50:43Z</time></trkpt>
<trkpt lat="33.0353936" lon="35.248605"><ele>996.4</ele><time>2026-05-16T05:50:44Z</time></trkpt>
<trkpt lat="33.0353961" lon="35.2486053"><ele>996.4</ele><time>2026-05-16T05:50:45Z</time></trkpt>
<trkpt lat="33.0353989" lon="35.2486058"><ele>996.3</ele><time>2026-05-16T05:50:46Z</time></trkpt>
<trkpt lat="33.0354021" lon="35.2486062"><ele>996.3</ele><time>2026-05-16T05:50:47Z</time></trkpt>
<trkpt lat="33.0354055" lon="35.2486065"><ele>996.3</ele><time>2026-05-16T05:50:48Z</time></trkpt>
<trkpt lat="33.0354091" lon="35.2486064"><ele>996.3</ele><time>2026-05-16T05:50:49Z</time></trkpt>
<trkpt lat="33.0354122" lon="35.2486058"><ele>996.3</ele><time>2026-05-16T05:50:50Z</time></trkpt>
<trkpt lat="33.035415" lon="35.2486052"><ele>996.3</ele><time>2026-05-16T05:50:51Z</time></trkpt>
<trkpt lat="33.0354172" lon="35.2486048"><ele>996.3</ele><time>2026-05-16T05:50:52Z</time></trkpt>
<trkpt lat="33.0354189" lon="35.2486046"><ele>996.3</ele><time>2026-05-16T05:50:53Z</time></trkpt>
<trkpt lat="33.0354206" lon="35.2486041"><ele>996.2</ele><time>2026-05-16T05:50:54Z</time></trkpt>
<trkpt lat="33.0354221" lon="35.2486034"><ele>996.2</ele><time>2026-05-16T05:50:55Z</time></trkpt>
<trkpt lat="33.0354234" lon="35.2486025"><ele>996.2</ele><time>2026-05-16T05:50:56Z</time></trkpt>
<trkpt lat="33.0354248" lon="35.2486011"><ele>996.2</ele><time>2026-05-16T05:50:57Z</time></trkpt>
<trkpt lat="33.035426" lon="35.2485995"><ele>996.2</ele><time>2026-05-16T05:50:58Z</time></trkpt>
<trkpt lat="33.0354269" lon="35.2485972"><ele>996.2</ele><time>2026-05-16T05:50:59Z</time></trkpt>
<trkpt lat="33.0354284" lon="35.2485947"><ele>996.2</ele><time>2026-05-16T05:51:00Z</time></trkpt>
<trkpt lat="33.03543" lon="35.2485918"><ele>996.2</ele><time>2026-05-16T05:51:01Z</time></trkpt>
<trkpt lat="33.0354316" lon="35.2485891"><ele>996.2</ele><time>2026-05-16T05:51:02Z</time></trkpt>
<trkpt lat="33.0354335" lon="35.2485861"><ele>996.2</ele><time>2026-05-16T05:51:03Z</time></trkpt>
<trkpt lat="33.0354354" lon="35.2485831"><ele>996.2</ele><time>2026-05-16T05:51:04Z</time></trkpt>
<trkpt lat="33.0354375" lon="35.2485799"><ele>996.2</ele><time>2026-05-16T05:51:05Z</time></trkpt>
<trkpt lat="33.0354395" lon="35.2485767"><ele>996.2</ele><time>2026-05-16T05:51:06Z</time></trkpt>
<trkpt lat="33.0354415" lon="35.2485735"><ele>996.2</ele><time>2026-05-16T05:51:07Z</time></trkpt>
<trkpt lat="33.0354435" lon="35.2485706"><ele>996.2</ele><time>2026-05-16T05:51:08Z</time></trkpt>
<trkpt lat="33.0354453" lon="35.2485684"><ele>996.2</ele><time>2026-05-16T05:51:09Z</time></trkpt>
<trkpt lat="33.035447" lon="35.2485664"><ele>996.2</ele><time>2026-05-16T05:51:10Z</time></trkpt>
<trkpt lat="33.0354487" lon="35.2485638"><ele>996.2</ele><time>2026-05-16T05:51:11Z</time></trkpt>
<trkpt lat="33.0354502" lon="35.2485612"><ele>996.2</ele><time>2026-05-16T05:51:12Z</time></trkpt>
<trkpt lat="33.0354512" lon="35.2485587"><ele>996.2</ele><time>2026-05-16T05:51:13Z</time></trkpt>
<trkpt lat="33.0354519" lon="35.2485564"><ele>996.1</ele><time>2026-05-16T05:51:14Z</time></trkpt>
<trkpt lat="33.0354523" lon="35.2485543"><ele>996.1</ele><time>2026-05-16T05:51:15Z</time></trkpt>
<trkpt lat="33.030106" lon="35.2516475"><ele>997.3</ele><time>2026-05-16T05:51:16Z</time></trkpt>
<trkpt lat="33.0282412" lon="35.252725"><ele>998.6</ele><time>2026-05-16T05:51:17Z</time></trkpt>
<trkpt lat="33.0246607" lon="35.2547953"><ele>1001.0</ele><time>2026-05-16T05:51:18Z</time></trkpt>
<trkpt lat="33.0161631" lon="35.2597104"><ele>1005.8</ele><time>2026-05-16T05:51:19Z</time></trkpt>
<trkpt lat="33.0027986" lon="35.2674397"><ele>1016.3</ele><time>2026-05-16T05:51:20Z</time></trkpt>
<trkpt lat="32.9822384" lon="35.2793271"><ele>1031.2</ele><time>2026-05-16T05:51:21Z</time></trkpt>
<trkpt lat="32.953402" lon="35.2959906"><ele>1050.6</ele><time>2026-05-16T05:51:22Z</time></trkpt>
<trkpt lat="32.9199589" lon="35.3153019"><ele>1079.0</ele><time>2026-05-16T05:51:23Z</time></trkpt>
<trkpt lat="32.8737967" lon="35.3419322"><ele>1116.1</ele><time>2026-05-16T05:51:24Z</time></trkpt>
<trkpt lat="32.8001602" lon="35.3843483"><ele>1176.9</ele><time>2026-05-16T05:51:25Z</time></trkpt>
<trkpt lat="32.2193889" lon="35.7161626"><ele>1033.3</ele><time>2026-05-16T05:51:30Z</time></trkpt>
<trkpt lat="32.059908" lon="35.8064485"><ele>985.1</ele><time>2026-05-16T05:51:31Z</time></trkpt>
<trkpt lat="31.9311536" lon="35.8790832"><ele>964.8</ele><time>2026-05-16T05:51:32Z</time></trkpt>
<trkpt lat="31.8314146" lon="35.9351934"><ele>966.3</ele><time>2026-05-16T05:51:33Z</time></trkpt>
<trkpt lat="31.7593514" lon="35.9756497"><ele>979.0</ele><time>2026-05-16T05:51:34Z</time></trkpt>
<trkpt lat="31.7115455" lon="36.0024492"><ele>993.1</ele><time>2026-05-16T05:51:35Z</time></trkpt>
<trkpt lat="31.6831754" lon="36.0183386"><ele>1004.2</ele><time>2026-05-16T05:51:36Z</time></trkpt>
<trkpt lat="31.6694124" lon="36.026043"><ele>1010.8</ele><time>2026-05-16T05:51:37Z</time></trkpt>
<trkpt lat="31.6660989" lon="36.0278976"><ele>1013.5</ele><time>2026-05-16T05:51:38Z</time></trkpt>
<trkpt lat="31.6696046" lon="36.0259357"><ele>1013.7</ele><time>2026-05-16T05:51:39Z</time></trkpt>
<trkpt lat="31.6772676" lon="36.0216464"><ele>1012.2</ele><time>2026-05-16T05:51:40Z</time></trkpt>
<trkpt lat="31.6866225" lon="36.0164091"><ele>1009.7</ele><time>2026-05-16T05:51:41Z</time></trkpt>
<trkpt lat="31.6957766" lon="36.0112831"><ele>1007.0</ele><time>2026-05-16T05:51:42Z</time></trkpt>
<trkpt lat="31.7036576" lon="36.0068691"><ele>1004.3</ele><time>2026-05-16T05:51:43Z</time></trkpt>
<trkpt lat="31.7098213" lon="36.0034162"><ele>1001.9</ele><time>2026-05-16T05:51:44Z</time></trkpt>
<trkpt lat="31.7142568" lon="36.0009314"><ele>1000.1</ele><time>2026-05-16T05:51:45Z</time></trkpt>
<trkpt lat="31.7171898" lon="35.9992878"><ele>998.6</ele><time>2026-05-16T05:51:46Z</time></trkpt>
<trkpt lat="31.7189427" lon="35.9983054"><ele>997.6</ele><time>2026-05-16T05:51:47Z</time></trkpt>
<trkpt lat="31.7198407" lon="35.9978024"><ele>996.9</ele><time>2026-05-16T05:51:48Z</time></trkpt>
<trkpt lat="31.7201534" lon="35.9976279"><ele>996.4</ele><time>2026-05-16T05:51:49Z</time></trkpt>
<trkpt lat="31.720089" lon="35.9976649"><ele>996.1</ele><time>2026-05-16T05:51:50Z</time></trkpt>
<trkpt lat="31.7197978" lon="35.9978293"><ele>995.9</ele><time>2026-05-16T05:51:51Z</time></trkpt>
<trkpt lat="31.7193907" lon="35.9980593"><ele>995.8</ele><time>2026-05-16T05:51:52Z</time></trkpt>
<trkpt lat="31.7189468" lon="35.9983101"><ele>995.7</ele><time>2026-05-16T05:51:53Z</time></trkpt>
<trkpt lat="31.7185123" lon="35.9985556"><ele>995.7</ele><time>2026-05-16T05:51:54Z</time></trkpt>
<trkpt lat="31.7181196" lon="35.9987773"><ele>995.7</ele><time>2026-05-16T05:51:55Z</time></trkpt>
<trkpt lat="31.7177861" lon="35.9989654"><ele>995.7</ele><time>2026-05-16T05:51:56Z</time></trkpt>
<trkpt lat="31.7175174" lon="35.9991166"><ele>995.7</ele><time>2026-05-16T05:51:57Z</time></trkpt>
<trkpt lat="31.7173121" lon="35.9992315"><ele>995.8</ele><time>2026-05-16T05:51:58Z</time></trkpt>
<trkpt lat="31.7171634" lon="35.9993136"><ele>995.8</ele><time>2026-05-16T05:51:59Z</time></trkpt>
<trkpt lat="31.7170629" lon="35.9993681"><ele>995.8</ele><time>2026-05-16T05:52:00Z</time></trkpt>
<trkpt lat="31.7170011" lon="35.9994003"><ele>995.8</ele><time>2026-05-16T05:52:01Z</time></trkpt>
<trkpt lat="31.7169683" lon="35.9994162"><ele>995.8</ele><time>2026-05-16T05:52:02Z</time></trkpt>
<trkpt lat="31.7169581" lon="35.9994206"><ele>995.9</ele><time>2026-05-16T05:52:03Z</time></trkpt>
<trkpt lat="31.7169601" lon="35.9994176"><ele>995.9</ele><time>2026-05-16T05:52:04Z</time></trkpt>
<trkpt lat="31.716971" lon="35.9994099"><ele>995.8</ele><time>2026-05-16T05:52:05Z</time></trkpt>
<trkpt lat="31.7169869" lon="35.9993999"><ele>995.8</ele><time>2026-05-16T05:52:06Z</time></trkpt>
<trkpt lat="31.7170049" lon="35.9993891"><ele>995.6</ele><time>2026-05-16T05:52:07Z</time></trkpt>
<trkpt lat="31.717023" lon="35.9993784"><ele>995.5</ele><time>2026-05-16T05:52:08Z</time></trkpt>
<trkpt lat="31.7170401" lon="35.9993684"><ele>995.2</ele><time>2026-05-16T05:52:09Z</time></trkpt>
<trkpt lat="31.7170556" lon="35.9993591"><ele>994.9</ele><time>2026-05-16T05:52:10Z</time></trkpt>
<trkpt lat="31.7170693" lon="35.9993504"><ele>994.4</ele><time>2026-05-16T05:52:11Z</time></trkpt>
<trkpt lat="31.7170812" lon="35.9993422"><ele>993.9</ele><time>2026-05-16T05:52:12Z</time></trkpt>
<trkpt lat="31.717097" lon="35.9993121"><ele>990.1</ele><time>2026-05-16T05:52:16Z</time></trkpt>
<trkpt lat="31.7171138" lon="35.9993511"><ele>990.1</ele><time>2026-05-16T05:54:22Z</time></trkpt>
<trkpt lat="31.717113" lon="35.9993518"><ele>990.1</ele><time>2026-05-16T05:54:23Z</time></trkpt>
<trkpt lat="31.7171114" lon="35.9993534"><ele>990.1</ele><time>2026-05-16T05:54:24Z</time></trkpt>
<trkpt lat="31.7171099" lon="35.9993552"><ele>990.1</ele><time>2026-05-16T05:54:25Z</time></trkpt>
<trkpt lat="31.7171089" lon="35.9993569"><ele>990.1</ele><time>2026-05-16T05:54:26Z</time></trkpt>
<trkpt lat="31.7171084" lon="35.9993583"><ele>990.0</ele><time>2026-05-16T05:54:27Z</time></trkpt>
<trkpt lat="31.7171081" lon="35.9993593"><ele>989.9</ele><time>2026-05-16T05:54:28Z</time></trkpt>
<trkpt lat="31.717108" lon="35.9993601"><ele>989.8</ele><time>2026-05-16T05:54:29Z</time></trkpt>
<trkpt lat="31.7171079" lon="35.9993606"><ele>989.6</ele><time>2026-05-16T05:54:30Z</time></trkpt>
<trkpt lat="31.7171079" lon="35.9993608"><ele>989.3</ele><time>2026-05-16T05:54:31Z</time></trkpt>
<trkpt lat="31.717108" lon="35.9993607"><ele>989.1</ele><time>2026-05-16T05:54:32Z</time></trkpt>
<trkpt lat="31.7171082" lon="35.9993604"><ele>988.8</ele><time>2026-05-16T05:54:33Z</time></trkpt>
<trkpt lat="31.7171085" lon="35.9993599"><ele>988.6</ele><time>2026-05-16T05:54:34Z</time></trkpt>
<trkpt lat="31.7171088" lon="35.9993596"><ele>988.3</ele><time>2026-05-16T05:54:35Z</time></trkpt>
<trkpt lat="31.717109" lon="35.9993595"><ele>988.1</ele><time>2026-05-16T05:54:36Z</time></trkpt>
<trkpt lat="31.7171093" lon="35.9993596"><ele>987.8</ele><time>2026-05-16T05:54:37Z</time></trkpt>
<trkpt lat="31.7171097" lon="35.99936"><ele>987.6</ele><time>2026-05-16T05:54:38Z</time></trkpt>
<trkpt lat="31.7171133" lon="35.9993622"><ele>987.1</ele><time>2026-05-16T05:54:41Z</time></trkpt>
<trkpt lat="31.7171175" lon="35.9993644"><ele>986.7</ele><time>2026-05-16T05:54:43Z</time></trkpt>
<trkpt lat="31.7171194" lon="35.9993658"><ele>986.5</ele><time>2026-05-16T05:54:44Z</time></trkpt>
<trkpt lat="31.7171214" lon="35.9993681"><ele>986.1</ele><time>2026-05-16T05:54:46Z</time></trkpt>
<trkpt lat="31.717122" lon="35.9993657"><ele>985.3</ele><time>2026-05-16T05:54:50Z</time></trkpt>
<trkpt lat="31.7171199" lon="35.9993603"><ele>984.9</ele><time>2026-05-16T05:54:52Z</time></trkpt>
<trkpt lat="31.7171175" lon="35.9993562"><ele>984.7</ele><time>2026-05-16T05:54:53Z</time></trkpt>
<trkpt lat="31.7171097" lon="35.9993459"><ele>984.2</ele><time>2026-05-16T05:54:55Z</time></trkpt>
<trkpt lat="31.7171058" lon="35.999341"><ele>984.0</ele><time>2026-05-16T05:54:56Z</time></trkpt>
<trkpt lat="31.7170931" lon="35.9993238"><ele>983.5</ele><time>2026-05-16T05:54:58Z</time></trkpt>
<trkpt lat="31.7170885" lon="35.9993192"><ele>983.3</ele><time>2026-05-16T05:54:59Z</time></trkpt>
<trkpt lat="31.7170871" lon="35.9993199"><ele>983.1</ele><time>2026-05-16T05:55:00Z</time></trkpt>
<trkpt lat="31.7170866" lon="35.999322"><ele>983.0</ele><time>2026-05-16T05:55:01Z</time></trkpt>
<trkpt lat="31.7170864" lon="35.9993236"><ele>982.8</ele><time>2026-05-16T05:55:02Z</time></trkpt>
<trkpt lat="31.717085" lon="35.9993293"><ele>982.4</ele><time>2026-05-16T05:55:05Z</time></trkpt>
<trkpt lat="31.7170839" lon="35.999331"><ele>982.2</ele><time>2026-05-16T05:55:06Z</time></trkpt>
<trkpt lat="31.7170819" lon="35.9993282"><ele>982.0</ele><time>2026-05-16T05:55:07Z</time></trkpt>
<trkpt lat="31.7170784" lon="35.9993148"><ele>981.7</ele><time>2026-05-16T05:55:09Z</time></trkpt>
<trkpt lat="31.7170782" lon="35.9993116"><ele>981.5</ele><time>2026-05-16T05:55:10Z</time></trkpt>
<trkpt lat="31.7170787" lon="35.9993116"><ele>981.1</ele><time>2026-05-16T05:55:12Z</time></trkpt>
<trkpt lat="31.7170795" lon="35.999313"><ele>980.8</ele><time>2026-05-16T05:55:13Z</time></trkpt>
<trkpt lat="31.7170804" lon="35.9993146"><ele>980.6</ele><time>2026-05-16T05:55:14Z</time></trkpt>
<trkpt lat="31.7170815" lon="35.9993161"><ele>980.3</ele><time>2026-05-16T05:55:15Z</time></trkpt>
<trkpt lat="31.7170824" lon="35.9993171"><ele>980.0</ele><time>2026-05-16T05:55:16Z</time></trkpt>
<trkpt lat="31.717084" lon="35.9993194"><ele>979.8</ele><time>2026-05-16T05:55:17Z</time></trkpt>
<trkpt lat="31.7170858" lon="35.999322"><ele>979.6</ele><time>2026-05-16T05:55:18Z</time></trkpt>
<trkpt lat="31.7170867" lon="35.9993231"><ele>979.3</ele><time>2026-05-16T05:55:19Z</time></trkpt>
<trkpt lat="31.7170872" lon="35.9993237"><ele>979.0</ele><time>2026-05-16T05:55:20Z</time></trkpt>
<trkpt lat="31.7170872" lon="35.9993234"><ele>978.7</ele><time>2026-05-16T05:55:21Z</time></trkpt>
<trkpt lat="31.717087" lon="35.9993226"><ele>978.4</ele><time>2026-05-16T05:55:22Z</time></trkpt>
<trkpt lat="31.7170864" lon="35.9993216"><ele>978.0</ele><time>2026-05-16T05:55:23Z</time></trkpt>
<trkpt lat="31.7170816" lon="35.9993127"><ele>976.5</ele><time>2026-05-16T05:55:26Z</time></trkpt>
<trkpt lat="31.7170796" lon="35.9993085"><ele>975.8</ele><time>2026-05-16T05:55:27Z</time></trkpt>
<trkpt lat="31.7170789" lon="35.999307"><ele>975.1</ele><time>2026-05-16T05:55:28Z</time></trkpt>
<trkpt lat="31.7170803" lon="35.9993094"><ele>974.4</ele><time>2026-05-16T05:55:29Z</time></trkpt>
<trkpt lat="31.7170985" lon="35.9993408"><ele>969.3</ele><time>2026-05-16T05:55:44Z</time></trkpt>
<trkpt lat="31.7170974" lon="35.9993388"><ele>968.6</ele><time>2026-05-16T05:55:47Z</time></trkpt>
<trkpt lat="31.7170972" lon="35.9993384"><ele>968.1</ele><time>2026-05-16T05:55:48Z</time></trkpt>
<trkpt lat="31.7171137" lon="35.9993618"><ele>969.5</ele><time>2026-05-16T05:56:18Z</time></trkpt>
<trkpt lat="31.7171101" lon="35.9993646"><ele>968.4</ele><time>2026-05-16T05:56:20Z</time></trkpt>
<trkpt lat="31.7171095" lon="35.9993651"><ele>967.9</ele><time>2026-05-16T05:56:21Z</time></trkpt>
<trkpt lat="31.7171097" lon="35.9993663"><ele>967.4</ele><time>2026-05-16T05:56:22Z</time></trkpt>
<trkpt lat="31.7171099" lon="35.9993676"><ele>967.1</ele><time>2026-05-16T05:56:23Z</time></trkpt>
<trkpt lat="31.71711" lon="35.9993678"><ele>966.7</ele><time>2026-05-16T05:56:24Z</time></trkpt>
<trkpt lat="31.7171101" lon="35.999368"><ele>966.4</ele><time>2026-05-16T05:56:25Z</time></trkpt>
<trkpt lat="31.7171102" lon="35.9993681"><ele>966.2</ele><time>2026-05-16T05:56:26Z</time></trkpt>
<trkpt lat="31.7171103" lon="35.9993684"><ele>965.9</ele><time>2026-05-16T05:56:27Z</time></trkpt>
<trkpt lat="31.7171104" lon="35.9993687"><ele>965.7</ele><time>2026-05-16T05:56:28Z</time></trkpt>
<trkpt lat="31.7171104" lon="35.9993687"><ele>965.5</ele><time>2026-05-16T05:56:29Z</time></trkpt>
<trkpt lat="31.7171104" lon="35.9993686"><ele>965.3</ele><time>2026-05-16T05:56:30Z</time></trkpt>
<trkpt lat="31.7171105" lon="35.9993685"><ele>965.1</ele><time>2026-05-16T05:56:31Z</time></trkpt>
<trkpt lat="31.7171105" lon="35.9993684"><ele>964.9</ele><time>2026-05-16T05:56:32Z</time></trkpt>
<trkpt lat="31.7171106" lon="35.9993682"><ele>964.7</ele><time>2026-05-16T05:56:33Z</time></trkpt>
<trkpt lat="31.7171107" lon="35.9993684"><ele>964.5</ele><time>2026-05-16T05:56:34Z</time></trkpt>
<trkpt lat="31.7171108" lon="35.9993687"><ele>964.2</ele><time>2026-05-16T05:56:35Z</time></trkpt>
<trkpt lat="31.7171109" lon="35.9993686"><ele>964.0</ele><time>2026-05-16T05:56:36Z</time></trkpt>
<trkpt lat="31.717111" lon="35.9993686"><ele>963.8</ele><time>2026-05-16T05:56:37Z</time></trkpt>
<trkpt lat="31.7171111" lon="35.9993687"><ele>963.6</ele><time>2026-05-16T05:56:38Z</time></trkpt>
<trkpt lat="31.7171112" lon="35.9993688"><ele>963.4</ele><time>2026-05-16T05:56:39Z</time></trkpt>
<trkpt lat="31.7171115" lon="35.999369"><ele>963.2</ele><time>2026-05-16T05:56:40Z</time></trkpt>
<trkpt lat="31.7171118" lon="35.9993695"><ele>963.0</ele><time>2026-05-16T05:56:41Z</time></trkpt>
<trkpt lat="31.717112" lon="35.9993701"><ele>962.7</ele><time>2026-05-16T05:56:42Z</time></trkpt>
<trkpt lat="31.7171121" lon="35.9993706"><ele>962.5</ele><time>2026-05-16T05:56:43Z</time></trkpt>
<trkpt lat="31.7171122" lon="35.9993708"><ele>962.3</ele><time>2026-05-16T05:56:44Z</time></trkpt>
<trkpt lat="31.7171123" lon="35.9993708"><ele>962.1</ele><time>2026-05-16T05:56:45Z</time></trkpt>
<trkpt lat="31.7171124" lon="35.9993707"><ele>962.0</ele><time>2026-05-16T05:56:46Z</time></trkpt>
<trkpt lat="31.7171125" lon="35.9993707"><ele>961.8</ele><time>2026-05-16T05:56:47Z</time></trkpt>
<trkpt lat="31.7171126" lon="35.9993707"><ele>961.7</ele><time>2026-05-16T05:56:48Z</time></trkpt>
<trkpt lat="31.7171127" lon="35.9993708"><ele>961.5</ele><time>2026-05-16T05:56:49Z</time></trkpt>
<trkpt lat="31.7171128" lon="35.999371"><ele>961.5</ele><time>2026-05-16T05:56:50Z</time></trkpt>
<trkpt lat="31.717113" lon="35.999371"><ele>961.4</ele><time>2026-05-16T05:56:51Z</time></trkpt>
<trkpt lat="31.7171131" lon="35.999371"><ele>961.3</ele><time>2026-05-16T05:56:52Z</time></trkpt>
<trkpt lat="31.7171132" lon="35.9993709"><ele>961.3</ele><time>2026-05-16T05:56:53Z</time></trkpt>
<trkpt lat="31.7171132" lon="35.999371"><ele>961.2</ele><time>2026-05-16T05:56:54Z</time></trkpt>
<trkpt lat="31.7171133" lon="35.9993711"><ele>961.2</ele><time>2026-05-16T05:56:55Z</time></trkpt>
<trkpt lat="31.7171134" lon="35.9993711"><ele>961.2</ele><time>2026-05-16T05:56:56Z</time></trkpt>
<trkpt lat="31.7171135" lon="35.9993712"><ele>961.2</ele><time>2026-05-16T05:56:57Z</time></trkpt>
<trkpt lat="31.7171136" lon="35.9993712"><ele>961.2</ele><time>2026-05-16T05:56:58Z</time></trkpt>
<trkpt lat="31.7171136" lon="35.9993713"><ele>961.2</ele><time>2026-05-16T05:56:59Z</time></trkpt>
<trkpt lat="31.7171137" lon="35.9993713"><ele>961.2</ele><time>2026-05-16T05:57:00Z</time></trkpt>
<trkpt lat="31.7171138" lon="35.9993712"><ele>961.2</ele><time>2026-05-16T05:57:01Z</time></trkpt>
<trkpt lat="31.7171138" lon="35.9993712"><ele>961.2</ele><time>2026-05-16T05:57:02Z</time></trkpt>
<trkpt lat="31.7171139" lon="35.9993712"><ele>961.2</ele><time>2026-05-16T05:57:03Z</time></trkpt>
<trkpt lat="31.717114" lon="35.9993712"><ele>961.2</ele><time>2026-05-16T05:57:04Z</time></trkpt>
<trkpt lat="31.717114" lon="35.9993711"><ele>961.2</ele><time>2026-05-16T05:57:05Z</time></trkpt>
<trkpt lat="31.7171141" lon="35.9993711"><ele>961.2</ele><time>2026-05-16T05:57:06Z</time></trkpt>
<trkpt lat="31.7171142" lon="35.9993711"><ele>961.2</ele><time>2026-05-16T05:57:07Z</time></trkpt>
<trkpt lat="31.7171142" lon="35.9993711"><ele>961.2</ele><time>2026-05-16T05:57:08Z</time></trkpt>
<trkpt lat="31.7171144" lon="35.9993724"><ele>961.2</ele><time>2026-05-16T05:57:09Z</time></trkpt>
<trkpt lat="31.7171146" lon="35.9993743"><ele>961.2</ele><time>2026-05-16T05:57:10Z</time></trkpt>
<trkpt lat="31.7171148" lon="35.9993751"><ele>961.3</ele><time>2026-05-16T05:57:11Z</time></trkpt>
<trkpt lat="31.7171148" lon="35.9993752"><ele>961.3</ele><time>2026-05-16T05:57:12Z</time></trkpt>
<trkpt lat="31.7171149" lon="35.9993753"><ele>961.3</ele><time>2026-05-16T05:57:13Z</time></trkpt>
<trkpt lat="31.7171149" lon="35.9993754"><ele>961.3</ele><time>2026-05-16T05:57:14Z</time></trkpt>
<trkpt lat="31.7171149" lon="35.9993755"><ele>961.3</ele><time>2026-05-16T05:57:15Z</time></trkpt>
<trkpt lat="31.717115" lon="35.9993755"><ele>961.3</ele><time>2026-05-16T05:57:16Z</time></trkpt>
<trkpt lat="31.717115" lon="35.9993756"><ele>961.3</ele><time>2026-05-16T05:57:17Z</time></trkpt>
<trkpt lat="31.717115" lon="35.9993757"><ele>961.3</ele><time>2026-05-16T05:57:18Z</time></trkpt>
<trkpt lat="31.717115" lon="35.9993758"><ele>961.3</ele><time>2026-05-16T05:57:19Z</time></trkpt>
<trkpt lat="31.717115" lon="35.999376"><ele>961.3</ele><time>2026-05-16T05:57:20Z</time></trkpt>
<trkpt lat="31.717115" lon="35.9993763"><ele>961.3</ele><time>2026-05-16T05:57:21Z</time></trkpt>
<trkpt lat="31.7171151" lon="35.9993766"><ele>961.3</ele><time>2026-05-16T05:57:22Z</time></trkpt>
<trkpt lat="31.7171151" lon="35.9993767"><ele>961.3</ele><time>2026-05-16T05:57:23Z</time></trkpt>
<trkpt lat="31.7171151" lon="35.9993768"><ele>961.3</ele><time>2026-05-16T05:57:24Z</time></trkpt>
<trkpt lat="31.7171151" lon="35.9993768"><ele>961.3</ele><time>2026-05-16T05:57:25Z</time></trkpt>
<trkpt lat="31.7171151" lon="35.9993769"><ele>961.2</ele><time>2026-05-16T05:57:26Z</time></trkpt>
<trkpt lat="31.7171151" lon="35.999377"><ele>961.2</ele><time>2026-05-16T05:57:27Z</time></trkpt>
<trkpt lat="31.7171145" lon="35.9993776"><ele>961.2</ele><time>2026-05-16T05:57:28Z</time></trkpt>
<trkpt lat="31.7171138" lon="35.9993784"><ele>961.2</ele><time>2026-05-16T05:57:29Z</time></trkpt>
<trkpt lat="31.7171136" lon="35.9993786"><ele>961.2</ele><time>2026-05-16T05:57:30Z</time></trkpt>
<trkpt lat="31.7171133" lon="35.999379"><ele>961.3</ele><time>2026-05-16T05:57:31Z</time></trkpt>
<trkpt lat="31.717113" lon="35.9993793"><ele>961.3</ele><time>2026-05-16T05:57:32Z</time></trkpt>
<trkpt lat="31.717113" lon="35.9993793"><ele>961.3</ele><time>2026-05-16T05:57:33Z</time></trkpt>
<trkpt lat="31.7171129" lon="35.9993794"><ele>961.3</ele><time>2026-05-16T05:57:34Z</time></trkpt>
<trkpt lat="31.7171127" lon="35.9993796"><ele>961.3</ele><time>2026-05-16T05:57:35Z</time></trkpt>
<trkpt lat="31.7171125" lon="35.9993799"><ele>961.3</ele><time>2026-05-16T05:57:36Z</time></trkpt>
<trkpt lat="31.7171124" lon="35.99938"><ele>961.3</ele><time>2026-05-16T05:57:37Z</time></trkpt>
<trkpt lat="31.7171118" lon="35.9993806"><ele>961.2</ele><time>2026-05-16T05:57:38Z</time></trkpt>
<trkpt lat="31.7171106" lon="35.9993816"><ele>961.2</ele><time>2026-05-16T05:57:39Z</time></trkpt>
<trkpt lat="31.7171099" lon="35.9993823"><ele>961.2</ele><time>2026-05-16T05:57:40Z</time></trkpt>
<trkpt lat="31.7171095" lon="35.9993826"><ele>961.2</ele><time>2026-05-16T05:57:41Z</time></trkpt>
<trkpt lat="31.7171088" lon="35.9993832"><ele>961.2</ele><time>2026-05-16T05:57:42Z</time></trkpt>
<trkpt lat="31.717108" lon="35.9993841"><ele>961.1</ele><time>2026-05-16T05:57:43Z</time></trkpt>
<trkpt lat="31.7171077" lon="35.9993843"><ele>961.1</ele><time>2026-05-16T05:57:44Z</time></trkpt>
<trkpt lat="31.7171075" lon="35.9993846"><ele>961.1</ele><time>2026-05-16T05:57:45Z</time></trkpt>
<trkpt lat="31.717107" lon="35.9993852"><ele>961.1</ele><time>2026-05-16T05:57:46Z</time></trkpt>
<trkpt lat="31.7171066" lon="35.9993856"><ele>961.1</ele><time>2026-05-16T05:57:47Z</time></trkpt>
<trkpt lat="31.7171062" lon="35.9993861"><ele>961.1</ele><time>2026-05-16T05:57:48Z</time></trkpt>
<trkpt lat="31.7171056" lon="35.9993867"><ele>961.1</ele><time>2026-05-16T05:57:49Z</time></trkpt>
<trkpt lat="31.7171053" lon="35.999387"><ele>961.1</ele><time>2026-05-16T05:57:50Z</time></trkpt>
<trkpt lat="31.7171052" lon="35.9993871"><ele>961.1</ele><time>2026-05-16T05:57:51Z</time></trkpt>
<trkpt lat="31.7171051" lon="35.9993872"><ele>961.1</ele><time>2026-05-16T05:57:52Z</time></trkpt>
<trkpt lat="31.7171051" lon="35.9993872"><ele>961.1</ele><time>2026-05-16T05:57:53Z</time></trkpt>
<trkpt lat="31.7171051" lon="35.9993871"><ele>961.1</ele><time>2026-05-16T05:57:54Z</time></trkpt>
<trkpt lat="31.7171052" lon="35.999387"><ele>961.2</ele><time>2026-05-16T05:57:55Z</time></trkpt>
<trkpt lat="31.7171053" lon="35.9993869"><ele>961.2</ele><time>2026-05-16T05:57:56Z</time></trkpt>
<trkpt lat="31.7171054" lon="35.9993867"><ele>961.2</ele><time>2026-05-16T05:57:57Z</time></trkpt>
<trkpt lat="31.7171055" lon="35.9993866"><ele>961.2</ele><time>2026-05-16T05:57:58Z</time></trkpt>
<trkpt lat="31.7171056" lon="35.9993866"><ele>961.3</ele><time>2026-05-16T05:57:59Z</time></trkpt>
<trkpt lat="31.7171056" lon="35.9993866"><ele>961.3</ele><time>2026-05-16T05:58:00Z</time></trkpt>
<trkpt lat="31.7171055" lon="35.9993867"><ele>961.3</ele><time>2026-05-16T05:58:01Z</time></trkpt>
<trkpt lat="31.7171055" lon="35.9993867"><ele>961.3</ele><time>2026-05-16T05:58:02Z</time></trkpt>
<trkpt lat="31.7171055" lon="35.9993867"><ele>961.4</ele><time>2026-05-16T05:58:03Z</time></trkpt>
<trkpt lat="31.7171056" lon="35.9993866"><ele>961.4</ele><time>2026-05-16T05:58:04Z</time></trkpt>
<trkpt lat="31.7171057" lon="35.9993865"><ele>961.4</ele><time>2026-05-16T05:58:05Z</time></trkpt>
<trkpt lat="31.7171057" lon="35.9993865"><ele>961.4</ele><time>2026-05-16T05:58:06Z</time></trkpt>
<trkpt lat="31.7171055" lon="35.9993867"><ele>961.4</ele><time>2026-05-16T05:58:07Z</time></trkpt>
<trkpt lat="31.7171054" lon="35.9993868"><ele>961.4</ele><time>2026-05-16T05:58:08Z</time></trkpt>
<trkpt lat="31.7171054" lon="35.9993868"><ele>961.4</ele><time>2026-05-16T05:58:09Z</time></trkpt>
<trkpt lat="31.717105" lon="35.999387"><ele>961.3</ele><time>2026-05-16T05:58:10Z</time></trkpt>
<trkpt lat="31.7171046" lon="35.9993872"><ele>961.3</ele><time>2026-05-16T05:58:11Z</time></trkpt>
<trkpt lat="31.7171038" lon="35.9993875"><ele>961.3</ele><time>2026-05-16T05:58:12Z</time></trkpt>
<trkpt lat="31.7171031" lon="35.9993878"><ele>961.3</ele><time>2026-05-16T05:58:13Z</time></trkpt>
<trkpt lat="31.7171031" lon="35.9993876"><ele>961.3</ele><time>2026-05-16T05:58:14Z</time></trkpt>
<trkpt lat="31.7171033" lon="35.9993875"><ele>961.3</ele><time>2026-05-16T05:58:15Z</time></trkpt>
<trkpt lat="31.7171034" lon="35.9993873"><ele>961.3</ele><time>2026-05-16T05:58:16Z</time></trkpt>
<trkpt lat="31.7171035" lon="35.9993872"><ele>961.3</ele><time>2026-05-16T05:58:17Z</time></trkpt>
<trkpt lat="31.7171035" lon="35.9993871"><ele>961.4</ele><time>2026-05-16T05:58:18Z</time></trkpt>
<trkpt lat="31.7171036" lon="35.999387"><ele>961.4</ele><time>2026-05-16T05:58:19Z</time></trkpt>
<trkpt lat="31.7171037" lon="35.9993869"><ele>961.4</ele><time>2026-05-16T05:58:20Z</time></trkpt>
<trkpt lat="31.7171038" lon="35.9993867"><ele>961.4</ele><time>2026-05-16T05:58:21Z</time></trkpt>
<trkpt lat="31.7171039" lon="35.9993866"><ele>961.4</ele><time>2026-05-16T05:58:22Z</time></trkpt>
<trkpt lat="31.717104" lon="35.9993865"><ele>961.4</ele><time>2026-05-16T05:58:23Z</time></trkpt>
<trkpt lat="31.717104" lon="35.9993864"><ele>961.4</ele><time>2026-05-16T05:58:24Z</time></trkpt>
<trkpt lat="31.7171038" lon="35.9993864"><ele>961.4</ele><time>2026-05-16T05:58:25Z</time></trkpt>
<trkpt lat="31.7171036" lon="35.9993864"><ele>961.4</ele><time>2026-05-16T05:58:26Z</time></trkpt>
<trkpt lat="31.7171035" lon="35.9993864"><ele>961.4</ele><time>2026-05-16T05:58:27Z</time></trkpt>
<trkpt lat="31.7171036" lon="35.9993862"><ele>961.4</ele><time>2026-05-16T05:58:28Z</time></trkpt>
<trkpt lat="31.7171037" lon="35.9993861"><ele>961.4</ele><time>2026-05-16T05:58:29Z</time></trkpt>
<trkpt lat="31.7171039" lon="35.999386"><ele>961.3</ele><time>2026-05-16T05:58:30Z</time></trkpt>
<trkpt lat="31.717104" lon="35.9993859"><ele>961.3</ele><time>2026-05-16T05:58:31Z</time></trkpt>
<trkpt lat="31.7171041" lon="35.9993857"><ele>961.3</ele><time>2026-05-16T05:58:32Z</time></trkpt>
<trkpt lat="31.7171042" lon="35.9993856"><ele>961.2</ele><time>2026-05-16T05:58:33Z</time></trkpt>
<trkpt lat="31.7171043" lon="35.9993855"><ele>961.2</ele><time>2026-05-16T05:58:34Z</time></trkpt>
<trkpt lat="31.7171045" lon="35.9993853"><ele>961.3</ele><time>2026-05-16T05:58:35Z</time></trkpt>
<trkpt lat="31.7171043" lon="35.9993854"><ele>961.5</ele><time>2026-05-16T05:58:36Z</time></trkpt>
<trkpt lat="31.7171042" lon="35.9993855"><ele>961.8</ele><time>2026-05-16T05:58:37Z</time></trkpt>
<trkpt lat="31.7171041" lon="35.9993855"><ele>962.2</ele><time>2026-05-16T05:58:38Z</time></trkpt>
<trkpt lat="31.717104" lon="35.9993855"><ele>962.7</ele><time>2026-05-16T05:58:39Z</time></trkpt>
<trkpt lat="31.7171038" lon="35.9993856"><ele>963.5</ele><time>2026-05-16T05:58:40Z</time></trkpt>
<trkpt lat="31.7171034" lon="35.9993858"><ele>964.4</ele><time>2026-05-16T05:58:41Z</time></trkpt>
<trkpt lat="31.7171031" lon="35.9993859"><ele>965.5</ele><time>2026-05-16T05:58:42Z</time></trkpt>
<trkpt lat="31.717103" lon="35.999386"><ele>966.7</ele><time>2026-05-16T05:58:43Z</time></trkpt>
<trkpt lat="31.7171029" lon="35.999386"><ele>967.8</ele><time>2026-05-16T05:58:44Z</time></trkpt>
<trkpt lat="31.7171028" lon="35.999386"><ele>968.8</ele><time>2026-05-16T05:58:45Z</time></trkpt>
</trkseg></trk></gpx>