<?xml version="1.0" encoding="utf-8"?>
<gpx version="1.1" creator="Mapeak_route" xmlns="http://www.topografix.com/GPX/1/1">
	<metadata>
		<bounds minlat="33.042225" minlon="35.150227" maxlat="33.069698" maxlon="35.223292" />
	</metadata>
	<rte>
		<name>מצובה עקודים</name>
		<desc />
		<rtept lat="33.042313" lon="35.178412">
			<ele>93</ele>
		</rtept>
		<rtept lat="33.042427" lon="35.179427">
			<ele>92</ele>
		</rtept>
		<rtept lat="33.042364" lon="35.179748">
			<ele>93</ele>
		</rtept>
		<rtept lat="33.042707" lon="35.179834">
			<ele>93</ele>
		</rtept>
		<rtept lat="33.042747" lon="35.179725">
			<ele>92</ele>
		</rtept>
		<rtept lat="33.042812" lon="35.179484">
			<ele>92</ele>
		</rtept>
		<rtept lat="33.042854" lon="35.179128">
			<ele>93</ele>
		</rtept>
		<rtept lat="33.04297" lon="35.178444">
			<ele>91</ele>
		</rtept>
		<rtept lat="33.042984" lon="35.178298">
			<ele>91</ele>
		</rtept>
		<rtept lat="33.042975" lon="35.178074">
			<ele>90</ele>
		</rtept>
		<rtept lat="33.043033" lon="35.177701">
			<ele>91</ele>
		</rtept>
		<rtept lat="33.043095" lon="35.176806">
			<ele>89</ele>
		</rtept>
		<rtept lat="33.043094" lon="35.17647">
			<ele>88</ele>
		</rtept>
		<rtept lat="33.043058" lon="35.175829">
			<ele>87</ele>
		</rtept>
		<rtept lat="33.043068" lon="35.175178">
			<ele>87</ele>
		</rtept>
		<rtept lat="33.043168" lon="35.174154">
			<ele>84.5</ele>
		</rtept>
		<rtept lat="33.043161" lon="35.174226">
			<ele>85</ele>
		</rtept>
		<rtept lat="33.043405" lon="35.174194">
			<ele>87</ele>
		</rtept>
		<rtept lat="33.043576" lon="35.174126">
			<ele>87</ele>
		</rtept>
		<rtept lat="33.043641" lon="35.174088">
			<ele>87</ele>
		</rtept>
		<rtept lat="33.043679" lon="35.174043">
			<ele>87</ele>
		</rtept>
		<rtept lat="33.043756" lon="35.173849">
			<ele>87</ele>
		</rtept>
		<rtept lat="33.043831" lon="35.173728">
			<ele>87</ele>
		</rtept>
		<rtept lat="33.043855" lon="35.173603">
			<ele>89</ele>
		</rtept>
		<rtept lat="33.044005" lon="35.173188">
			<ele>89</ele>
		</rtept>
		<rtept lat="33.044275" lon="35.172678">
			<ele>90</ele>
		</rtept>
		<rtept lat="33.044383" lon="35.172504">
			<ele>92</ele>
		</rtept>
		<rtept lat="33.044461" lon="35.17231">
			<ele>93</ele>
		</rtept>
		<rtept lat="33.044556" lon="35.172213">
			<ele>96</ele>
		</rtept>
		<rtept lat="33.04466" lon="35.172181">
			<ele>98</ele>
		</rtept>
		<rtept lat="33.04484" lon="35.172196">
			<ele>99</ele>
		</rtept>
		<rtept lat="33.045229" lon="35.172116">
			<ele>103</ele>
		</rtept>
		<rtept lat="33.045409" lon="35.172106">
			<ele>104</ele>
		</rtept>
		<rtept lat="33.045536" lon="35.172026">
			<ele>106</ele>
		</rtept>
		<rtept lat="33.045606" lon="35.172009">
			<ele>107</ele>
		</rtept>
		<rtept lat="33.045823" lon="35.171906">
			<ele>109</ele>
		</rtept>
		<rtept lat="33.045913" lon="35.171912">
			<ele>110</ele>
		</rtept>
		<rtept lat="33.046121" lon="35.171982">
			<ele>110</ele>
		</rtept>
		<rtept lat="33.046265" lon="35.172">
			<ele>111</ele>
		</rtept>
		<rtept lat="33.046355" lon="35.171993">
			<ele>111</ele>
		</rtept>
		<rtept lat="33.046476" lon="35.171949">
			<ele>111</ele>
		</rtept>
		<rtept lat="33.046585" lon="35.171843">
			<ele>111</ele>
		</rtept>
		<rtept lat="33.046725" lon="35.171913">
			<ele>112</ele>
		</rtept>
		<rtept lat="33.048375" lon="35.172556">
			<ele>127</ele>
		</rtept>
		<rtept lat="33.048917" lon="35.172821">
			<ele>131</ele>
		</rtept>
		<rtept lat="33.049276" lon="35.173169">
			<ele>134</ele>
		</rtept>
		<rtept lat="33.049467" lon="35.173409">
			<ele>137</ele>
		</rtept>
		<rtept lat="33.049611" lon="35.17364">
			<ele>139</ele>
		</rtept>
		<rtept lat="33.049773" lon="35.174016">
			<ele>141</ele>
		</rtept>
		<rtept lat="33.049957" lon="35.174663">
			<ele>146</ele>
		</rtept>
		<rtept lat="33.049985" lon="35.175008">
			<ele>149</ele>
		</rtept>
		<rtept lat="33.049881" lon="35.178316">
			<ele>162</ele>
		</rtept>
		<rtept lat="33.049812" lon="35.179606">
			<ele>166</ele>
		</rtept>
		<rtept lat="33.049738" lon="35.180502">
			<ele>167</ele>
		</rtept>
		<rtept lat="33.048794" lon="35.180483">
			<ele>171</ele>
		</rtept>
		<rtept lat="33.048689" lon="35.183054">
			<ele>178</ele>
		</rtept>
		<rtept lat="33.048693" lon="35.183896">
			<ele>179</ele>
		</rtept>
		<rtept lat="33.048593" lon="35.183958">
			<ele>181</ele>
		</rtept>
		<rtept lat="33.048326" lon="35.184018">
			<ele>182</ele>
		</rtept>
		<rtept lat="33.048311" lon="35.18483">
			<ele>184</ele>
		</rtept>
		<rtept lat="33.048151" lon="35.185595">
			<ele>185</ele>
		</rtept>
		<rtept lat="33.048208" lon="35.185903">
			<ele>186</ele>
		</rtept>
		<rtept lat="33.048336" lon="35.186297">
			<ele>186</ele>
		</rtept>
		<rtept lat="33.048894" lon="35.186829">
			<ele>186</ele>
		</rtept>
		<rtept lat="33.049255" lon="35.187067">
			<ele>185</ele>
		</rtept>
		<rtept lat="33.04937" lon="35.187103">
			<ele>185</ele>
		</rtept>
		<rtept lat="33.049604" lon="35.187765">
			<ele>189</ele>
		</rtept>
		<rtept lat="33.04984" lon="35.1887">
			<ele>197</ele>
		</rtept>
		<rtept lat="33.05007" lon="35.1891">
			<ele>200</ele>
		</rtept>
		<rtept lat="33.05058" lon="35.19095">
			<ele>209</ele>
		</rtept>
		<rtept lat="33.05083" lon="35.19155">
			<ele>212</ele>
		</rtept>
		<rtept lat="33.05081" lon="35.19267">
			<ele>213</ele>
		</rtept>
		<rtept lat="33.05077" lon="35.1929">
			<ele>213</ele>
		</rtept>
		<rtept lat="33.05049" lon="35.19353">
			<ele>216</ele>
		</rtept>
		<rtept lat="33.05061" lon="35.19424">
			<ele>216</ele>
		</rtept>
		<rtept lat="33.05075" lon="35.19475">
			<ele>216</ele>
		</rtept>
		<rtept lat="33.05078" lon="35.19516">
			<ele>217</ele>
		</rtept>
		<rtept lat="33.05075" lon="35.19527">
			<ele>218</ele>
		</rtept>
		<rtept lat="33.05012" lon="35.19557">
			<ele>226</ele>
		</rtept>
		<rtept lat="33.04991" lon="35.19575">
			<ele>229</ele>
		</rtept>
		<rtept lat="33.05002" lon="35.19639">
			<ele>230</ele>
		</rtept>
		<rtept lat="33.0502" lon="35.19679">
			<ele>231</ele>
		</rtept>
		<rtept lat="33.05029" lon="35.19718">
			<ele>231</ele>
		</rtept>
		<rtept lat="33.05026" lon="35.19761">
			<ele>231</ele>
		</rtept>
		<rtept lat="33.05032" lon="35.19797">
			<ele>230</ele>
		</rtept>
		<rtept lat="33.05023" lon="35.19884">
			<ele>229</ele>
		</rtept>
		<rtept lat="33.050244" lon="35.199309">
			<ele>228</ele>
		</rtept>
		<rtept lat="33.05048" lon="35.19976">
			<ele>226</ele>
		</rtept>
		<rtept lat="33.0505" lon="35.20007">
			<ele>228</ele>
		</rtept>
		<rtept lat="33.05029" lon="35.20118">
			<ele>233</ele>
		</rtept>
		<rtept lat="33.05032" lon="35.20156">
			<ele>234</ele>
		</rtept>
		<rtept lat="33.05042" lon="35.20181">
			<ele>236</ele>
		</rtept>
		<rtept lat="33.05036" lon="35.20216">
			<ele>236</ele>
		</rtept>
		<rtept lat="33.050449" lon="35.202426">
			<ele>238</ele>
		</rtept>
		<rtept lat="33.050291" lon="35.202744">
			<ele>238</ele>
		</rtept>
		<rtept lat="33.050311" lon="35.203099">
			<ele>239.5</ele>
		</rtept>
		<rtept lat="33.050349" lon="35.203774">
			<ele>241</ele>
		</rtept>
		<rtept lat="33.050651" lon="35.204229">
			<ele>241</ele>
		</rtept>
		<rtept lat="33.050737" lon="35.205001">
			<ele>241</ele>
		</rtept>
		<rtept lat="33.05083" lon="35.205216">
			<ele>240</ele>
		</rtept>
		<rtept lat="33.050953" lon="35.205422">
			<ele>238</ele>
		</rtept>
		<rtept lat="33.050917" lon="35.205653">
			<ele>237</ele>
		</rtept>
		<rtept lat="33.050672" lon="35.206589">
			<ele>233</ele>
		</rtept>
		<rtept lat="33.050481" lon="35.20655">
			<ele>235</ele>
		</rtept>
		<rtept lat="33.050293" lon="35.20657">
			<ele>237</ele>
		</rtept>
		<rtept lat="33.050126" lon="35.20665">
			<ele>238</ele>
		</rtept>
		<rtept lat="33.049998" lon="35.206757">
			<ele>239</ele>
		</rtept>
		<rtept lat="33.049891" lon="35.206958">
			<ele>240</ele>
		</rtept>
		<rtept lat="33.049797" lon="35.207039">
			<ele>240</ele>
		</rtept>
		<rtept lat="33.049516" lon="35.207139">
			<ele>243</ele>
		</rtept>
		<rtept lat="33.049389" lon="35.207273">
			<ele>244</ele>
		</rtept>
		<rtept lat="33.049242" lon="35.207581">
			<ele>245</ele>
		</rtept>
		<rtept lat="33.049107" lon="35.207708">
			<ele>247</ele>
		</rtept>
		<rtept lat="33.048447" lon="35.208432">
			<ele>254</ele>
		</rtept>
		<rtept lat="33.048131" lon="35.208836">
			<ele>256</ele>
		</rtept>
		<rtept lat="33.048074" lon="35.208869">
			<ele>256</ele>
		</rtept>
		<rtept lat="33.047694" lon="35.208869">
			<ele>258</ele>
		</rtept>
		<rtept lat="33.047339" lon="35.208923">
			<ele>260</ele>
		</rtept>
		<rtept lat="33.046995" lon="35.209175">
			<ele>262</ele>
		</rtept>
		<rtept lat="33.046667" lon="35.209337">
			<ele>264</ele>
		</rtept>
		<rtept lat="33.046578" lon="35.209381">
			<ele>266</ele>
		</rtept>
		<rtept lat="33.046349" lon="35.20944">
			<ele>267</ele>
		</rtept>
		<rtept lat="33.045772" lon="35.209716">
			<ele>270</ele>
		</rtept>
		<rtept lat="33.045678" lon="35.209869">
			<ele>271</ele>
		</rtept>
		<rtept lat="33.045514" lon="35.21031">
			<ele>273</ele>
		</rtept>
		<rtept lat="33.045437" lon="35.210628">
			<ele>275</ele>
		</rtept>
		<rtept lat="33.045378" lon="35.210939">
			<ele>276</ele>
		</rtept>
		<rtept lat="33.045331" lon="35.211604">
			<ele>277</ele>
		</rtept>
		<rtept lat="33.04522" lon="35.212304">
			<ele>281</ele>
		</rtept>
		<rtept lat="33.045143" lon="35.212703">
			<ele>284</ele>
		</rtept>
		<rtept lat="33.04509" lon="35.212874">
			<ele>284</ele>
		</rtept>
		<rtept lat="33.045351" lon="35.213166">
			<ele>285</ele>
		</rtept>
		<rtept lat="33.045639" lon="35.213413">
			<ele>287</ele>
		</rtept>
		<rtept lat="33.045816" lon="35.213466">
			<ele>288</ele>
		</rtept>
		<rtept lat="33.045933" lon="35.213525">
			<ele>289</ele>
		</rtept>
		<rtept lat="33.045927" lon="35.214013">
			<ele>290</ele>
		</rtept>
		<rtept lat="33.046363" lon="35.214748">
			<ele>291</ele>
		</rtept>
		<rtept lat="33.046563" lon="35.215754">
			<ele>295</ele>
		</rtept>
		<rtept lat="33.046692" lon="35.216183">
			<ele>296</ele>
		</rtept>
		<rtept lat="33.046786" lon="35.216259">
			<ele>295</ele>
		</rtept>
		<rtept lat="33.046927" lon="35.216294">
			<ele>295</ele>
		</rtept>
		<rtept lat="33.047508" lon="35.216131">
			<ele>290</ele>
		</rtept>
		<rtept lat="33.047645" lon="35.216148">
			<ele>288</ele>
		</rtept>
		<rtept lat="33.047686" lon="35.216483">
			<ele>289</ele>
		</rtept>
		<rtept lat="33.047733" lon="35.216641">
			<ele>288</ele>
		</rtept>
		<rtept lat="33.047748" lon="35.216917">
			<ele>288</ele>
		</rtept>
		<rtept lat="33.047773" lon="35.217092">
			<ele>287.5</ele>
		</rtept>
		<rtept lat="33.047796" lon="35.217251">
			<ele>287</ele>
		</rtept>
		<rtept lat="33.047741" lon="35.217424">
			<ele>289</ele>
		</rtept>
		<rtept lat="33.04778" lon="35.217823">
			<ele>290</ele>
		</rtept>
		<rtept lat="33.04778" lon="35.218141">
			<ele>291</ele>
		</rtept>
		<rtept lat="33.047827" lon="35.218417">
			<ele>290</ele>
		</rtept>
		<rtept lat="33.047909" lon="35.218611">
			<ele>289</ele>
		</rtept>
		<rtept lat="33.047992" lon="35.218735">
			<ele>289</ele>
		</rtept>
		<rtept lat="33.048144" lon="35.218794">
			<ele>288</ele>
		</rtept>
		<rtept lat="33.048327" lon="35.218835">
			<ele>285</ele>
		</rtept>
		<rtept lat="33.048944" lon="35.219029">
			<ele>282</ele>
		</rtept>
		<rtept lat="33.049497" lon="35.2191">
			<ele>281</ele>
		</rtept>
		<rtept lat="33.049715" lon="35.21917">
			<ele>282</ele>
		</rtept>
		<rtept lat="33.049879" lon="35.219464">
			<ele>285</ele>
		</rtept>
		<rtept lat="33.049914" lon="35.219729">
			<ele>288</ele>
		</rtept>
		<rtept lat="33.049892" lon="35.220177">
			<ele>291</ele>
		</rtept>
		<rtept lat="33.049926" lon="35.220311">
			<ele>292</ele>
		</rtept>
		<rtept lat="33.04995" lon="35.220534">
			<ele>293</ele>
		</rtept>
		<rtept lat="33.04992" lon="35.220699">
			<ele>295</ele>
		</rtept>
		<rtept lat="33.049856" lon="35.220917">
			<ele>297</ele>
		</rtept>
		<rtept lat="33.049709" lon="35.221017">
			<ele>299</ele>
		</rtept>
		<rtept lat="33.049616" lon="35.221043">
			<ele>300</ele>
		</rtept>
		<rtept lat="33.04933" lon="35.220838">
			<ele>298</ele>
		</rtept>
		<rtept lat="33.048772" lon="35.220661">
			<ele>300</ele>
		</rtept>
		<rtept lat="33.048671" lon="35.220717">
			<ele>301</ele>
		</rtept>
		<rtept lat="33.048663" lon="35.221134">
			<ele>305</ele>
		</rtept>
		<rtept lat="33.048256" lon="35.220857">
			<ele>304</ele>
		</rtept>
		<rtept lat="33.048119" lon="35.220793">
			<ele>305</ele>
		</rtept>
		<rtept lat="33.048003" lon="35.220796">
			<ele>305</ele>
		</rtept>
		<rtept lat="33.047959" lon="35.22082">
			<ele>305</ele>
		</rtept>
		<rtept lat="33.048003" lon="35.220796">
			<ele>305</ele>
		</rtept>
		<rtept lat="33.048119" lon="35.220793">
			<ele>305</ele>
		</rtept>
		<rtept lat="33.048256" lon="35.220857">
			<ele>304</ele>
		</rtept>
		<rtept lat="33.048663" lon="35.221134">
			<ele>305</ele>
		</rtept>
		<rtept lat="33.049375" lon="35.221167">
			<ele>302</ele>
		</rtept>
		<rtept lat="33.049489" lon="35.221136">
			<ele>301</ele>
		</rtept>
		<rtept lat="33.049586" lon="35.221229">
			<ele>300</ele>
		</rtept>
		<rtept lat="33.049692" lon="35.221398">
			<ele>300</ele>
		</rtept>
		<rtept lat="33.049867" lon="35.222064">
			<ele>303</ele>
		</rtept>
		<rtept lat="33.049991" lon="35.222359">
			<ele>302</ele>
		</rtept>
		<rtept lat="33.050392" lon="35.222966">
			<ele>303</ele>
		</rtept>
		<rtept lat="33.050629" lon="35.223206">
			<ele>303</ele>
		</rtept>
		<rtept lat="33.050823" lon="35.223292">
			<ele>303</ele>
		</rtept>
		<rtept lat="33.050959" lon="35.223238">
			<ele>303</ele>
		</rtept>
		<rtept lat="33.050593" lon="35.22288">
			<ele>300</ele>
		</rtept>
		<rtept lat="33.050442" lon="35.222476">
			<ele>298</ele>
		</rtept>
		<rtept lat="33.050464" lon="35.221927">
			<ele>294</ele>
		</rtept>
		<rtept lat="33.050642" lon="35.221368">
			<ele>287.5</ele>
		</rtept>
		<rtept lat="33.050708" lon="35.221189">
			<ele>286</ele>
		</rtept>
		<rtept lat="33.050881" lon="35.220434">
			<ele>280</ele>
		</rtept>
		<rtept lat="33.051106" lon="35.219925">
			<ele>275</ele>
		</rtept>
		<rtept lat="33.051045" lon="35.219826">
			<ele>274</ele>
		</rtept>
		<rtept lat="33.051045" lon="35.21973">
			<ele>274</ele>
		</rtept>
		<rtept lat="33.051075" lon="35.219615">
			<ele>273</ele>
		</rtept>
		<rtept lat="33.051083" lon="35.219497">
			<ele>273</ele>
		</rtept>
		<rtept lat="33.051045" lon="35.219172">
			<ele>272</ele>
		</rtept>
		<rtept lat="33.051077" lon="35.21892">
			<ele>272</ele>
		</rtept>
		<rtept lat="33.051064" lon="35.218676">
			<ele>271.5</ele>
		</rtept>
		<rtept lat="33.051059" lon="35.218579">
			<ele>271</ele>
		</rtept>
		<rtept lat="33.051131" lon="35.218257">
			<ele>269</ele>
		</rtept>
		<rtept lat="33.051146" lon="35.218129">
			<ele>269</ele>
		</rtept>
		<rtept lat="33.051128" lon="35.218021">
			<ele>269</ele>
		</rtept>
		<rtept lat="33.050845" lon="35.217758">
			<ele>270</ele>
		</rtept>
		<rtept lat="33.050764" lon="35.217702">
			<ele>270</ele>
		</rtept>
		<rtept lat="33.050432" lon="35.217681">
			<ele>270</ele>
		</rtept>
		<rtept lat="33.050378" lon="35.217651">
			<ele>270</ele>
		</rtept>
		<rtept lat="33.05033" lon="35.217653">
			<ele>270</ele>
		</rtept>
		<rtept lat="33.05038" lon="35.217303">
			<ele>266</ele>
		</rtept>
		<rtept lat="33.050485" lon="35.216968">
			<ele>264</ele>
		</rtept>
		<rtept lat="33.050294" lon="35.216841">
			<ele>262</ele>
		</rtept>
		<rtept lat="33.050225" lon="35.216844">
			<ele>262</ele>
		</rtept>
		<rtept lat="33.050164" lon="35.216822">
			<ele>261</ele>
		</rtept>
		<rtept lat="33.050151" lon="35.216742">
			<ele>260</ele>
		</rtept>
		<rtept lat="33.050168" lon="35.216626">
			<ele>260</ele>
		</rtept>
		<rtept lat="33.050202" lon="35.21649">
			<ele>259</ele>
		</rtept>
		<rtept lat="33.050346" lon="35.216176">
			<ele>257</ele>
		</rtept>
		<rtept lat="33.050373" lon="35.216063">
			<ele>256</ele>
		</rtept>
		<rtept lat="33.050373" lon="35.215961">
			<ele>256</ele>
		</rtept>
		<rtept lat="33.050342" lon="35.215916">
			<ele>255</ele>
		</rtept>
		<rtept lat="33.050229" lon="35.215913">
			<ele>255</ele>
		</rtept>
		<rtept lat="33.05016" lon="35.215878">
			<ele>255</ele>
		</rtept>
		<rtept lat="33.050034" lon="35.2158">
			<ele>254</ele>
		</rtept>
		<rtept lat="33.049966" lon="35.215739">
			<ele>254</ele>
		</rtept>
		<rtept lat="33.049926" lon="35.215629">
			<ele>253</ele>
		</rtept>
		<rtept lat="33.049919" lon="35.215481">
			<ele>253</ele>
		</rtept>
		<rtept lat="33.049939" lon="35.215342">
			<ele>253</ele>
		</rtept>
		<rtept lat="33.049928" lon="35.215259">
			<ele>252</ele>
		</rtept>
		<rtept lat="33.049885" lon="35.215154">
			<ele>252</ele>
		</rtept>
		<rtept lat="33.04982" lon="35.215071">
			<ele>253</ele>
		</rtept>
		<rtept lat="33.049795" lon="35.214964">
			<ele>252</ele>
		</rtept>
		<rtept lat="33.049872" lon="35.214768">
			<ele>250</ele>
		</rtept>
		<rtept lat="33.049946" lon="35.214749">
			<ele>248</ele>
		</rtept>
		<rtept lat="33.050007" lon="35.214773">
			<ele>249</ele>
		</rtept>
		<rtept lat="33.050099" lon="35.214779">
			<ele>248</ele>
		</rtept>
		<rtept lat="33.050166" lon="35.214741">
			<ele>246</ele>
		</rtept>
		<rtept lat="33.05036" lon="35.214569">
			<ele>244</ele>
		</rtept>
		<rtept lat="33.050371" lon="35.214518">
			<ele>244</ele>
		</rtept>
		<rtept lat="33.050337" lon="35.214481">
			<ele>243</ele>
		</rtept>
		<rtept lat="33.050209" lon="35.214433">
			<ele>244</ele>
		</rtept>
		<rtept lat="33.050151" lon="35.214323">
			<ele>244</ele>
		</rtept>
		<rtept lat="33.050115" lon="35.214175">
			<ele>243</ele>
		</rtept>
		<rtept lat="33.050147" lon="35.214116">
			<ele>241</ele>
		</rtept>
		<rtept lat="33.05037" lon="35.213267">
			<ele>234</ele>
		</rtept>
		<rtept lat="33.0505" lon="35.212838">
			<ele>230</ele>
		</rtept>
		<rtept lat="33.050551" lon="35.212544">
			<ele>229</ele>
		</rtept>
		<rtept lat="33.050656" lon="35.212456">
			<ele>228</ele>
		</rtept>
		<rtept lat="33.050724" lon="35.212448">
			<ele>227</ele>
		</rtept>
		<rtept lat="33.050776" lon="35.212405">
			<ele>226</ele>
		</rtept>
		<rtept lat="33.050852" lon="35.212281">
			<ele>225</ele>
		</rtept>
		<rtept lat="33.05089" lon="35.212185">
			<ele>225</ele>
		</rtept>
		<rtept lat="33.050901" lon="35.212088">
			<ele>224</ele>
		</rtept>
		<rtept lat="33.050868" lon="35.211914">
			<ele>223</ele>
		</rtept>
		<rtept lat="33.050883" lon="35.211855">
			<ele>222</ele>
		</rtept>
		<rtept lat="33.050856" lon="35.211723">
			<ele>222</ele>
		</rtept>
		<rtept lat="33.050872" lon="35.211675">
			<ele>221</ele>
		</rtept>
		<rtept lat="33.050856" lon="35.211482">
			<ele>220</ele>
		</rtept>
		<rtept lat="33.050814" lon="35.211356">
			<ele>221</ele>
		</rtept>
		<rtept lat="33.050832" lon="35.211324">
			<ele>221</ele>
		</rtept>
		<rtept lat="33.050859" lon="35.211109">
			<ele>219</ele>
		</rtept>
		<rtept lat="33.050834" lon="35.210924">
			<ele>219</ele>
		</rtept>
		<rtept lat="33.050852" lon="35.210812">
			<ele>217</ele>
		</rtept>
		<rtept lat="33.050816" lon="35.210731">
			<ele>219</ele>
		</rtept>
		<rtept lat="33.050854" lon="35.210543">
			<ele>217</ele>
		</rtept>
		<rtept lat="33.05091" lon="35.210404">
			<ele>217</ele>
		</rtept>
		<rtept lat="33.050996" lon="35.210275">
			<ele>216</ele>
		</rtept>
		<rtept lat="33.051021" lon="35.210197">
			<ele>215</ele>
		</rtept>
		<rtept lat="33.051014" lon="35.210087">
			<ele>216</ele>
		</rtept>
		<rtept lat="33.05103" lon="35.21001">
			<ele>215</ele>
		</rtept>
		<rtept lat="33.051052" lon="35.209945">
			<ele>215</ele>
		</rtept>
		<rtept lat="33.051086" lon="35.209921">
			<ele>215</ele>
		</rtept>
		<rtept lat="33.051146" lon="35.209779">
			<ele>214</ele>
		</rtept>
		<rtept lat="33.05118" lon="35.209741">
			<ele>214</ele>
		</rtept>
		<rtept lat="33.0512" lon="35.209696">
			<ele>213</ele>
		</rtept>
		<rtept lat="33.0512" lon="35.209629">
			<ele>214</ele>
		</rtept>
		<rtept lat="33.051324" lon="35.209454">
			<ele>214</ele>
		</rtept>
		<rtept lat="33.051414" lon="35.209358">
			<ele>212</ele>
		</rtept>
		<rtept lat="33.051452" lon="35.209285">
			<ele>213</ele>
		</rtept>
		<rtept lat="33.051502" lon="35.209092">
			<ele>211</ele>
		</rtept>
		<rtept lat="33.051542" lon="35.208998">
			<ele>211</ele>
		</rtept>
		<rtept lat="33.051596" lon="35.208921">
			<ele>209</ele>
		</rtept>
		<rtept lat="33.051706" lon="35.208663">
			<ele>208</ele>
		</rtept>
		<rtept lat="33.051756" lon="35.208564">
			<ele>208</ele>
		</rtept>
		<rtept lat="33.051913" lon="35.208349">
			<ele>207</ele>
		</rtept>
		<rtept lat="33.051949" lon="35.208258">
			<ele>206</ele>
		</rtept>
		<rtept lat="33.051954" lon="35.207923">
			<ele>207</ele>
		</rtept>
		<rtept lat="33.052068" lon="35.207604">
			<ele>204</ele>
		</rtept>
		<rtept lat="33.052075" lon="35.20752">
			<ele>204</ele>
		</rtept>
		<rtept lat="33.052183" lon="35.207327">
			<ele>202</ele>
		</rtept>
		<rtept lat="33.052183" lon="35.207239">
			<ele>202</ele>
		</rtept>
		<rtept lat="33.052334" lon="35.207054">
			<ele>204</ele>
		</rtept>
		<rtept lat="33.052347" lon="35.206971">
			<ele>206</ele>
		</rtept>
		<rtept lat="33.052426" lon="35.206866">
			<ele>205</ele>
		</rtept>
		<rtept lat="33.052464" lon="35.206756">
			<ele>205</ele>
		</rtept>
		<rtept lat="33.052588" lon="35.206678">
			<ele>206</ele>
		</rtept>
		<rtept lat="33.052637" lon="35.206617">
			<ele>205</ele>
		</rtept>
		<rtept lat="33.052666" lon="35.206525">
			<ele>208</ele>
		</rtept>
		<rtept lat="33.052765" lon="35.206397">
			<ele>209</ele>
		</rtept>
		<rtept lat="33.052828" lon="35.20626">
			<ele>205</ele>
		</rtept>
		<rtept lat="33.053019" lon="35.20601">
			<ele>210</ele>
		</rtept>
		<rtept lat="33.053111" lon="35.205823">
			<ele>212</ele>
		</rtept>
		<rtept lat="33.053163" lon="35.20578">
			<ele>214</ele>
		</rtept>
		<rtept lat="33.053222" lon="35.205758">
			<ele>206</ele>
		</rtept>
		<rtept lat="33.053293" lon="35.20568">
			<ele>204</ele>
		</rtept>
		<rtept lat="33.053361" lon="35.205565">
			<ele>205</ele>
		</rtept>
		<rtept lat="33.053469" lon="35.205477">
			<ele>208</ele>
		</rtept>
		<rtept lat="33.053527" lon="35.205396">
			<ele>214</ele>
		</rtept>
		<rtept lat="33.053586" lon="35.205377">
			<ele>209</ele>
		</rtept>
		<rtept lat="33.053748" lon="35.205179">
			<ele>201</ele>
		</rtept>
		<rtept lat="33.053779" lon="35.20512">
			<ele>203</ele>
		</rtept>
		<rtept lat="33.054002" lon="35.204962">
			<ele>202</ele>
		</rtept>
		<rtept lat="33.054141" lon="35.204935">
			<ele>197</ele>
		</rtept>
		<rtept lat="33.054312" lon="35.20486">
			<ele>193</ele>
		</rtept>
		<rtept lat="33.054597" lon="35.204795">
			<ele>192</ele>
		</rtept>
		<rtept lat="33.054678" lon="35.204744">
			<ele>191</ele>
		</rtept>
		<rtept lat="33.054723" lon="35.204691">
			<ele>189</ele>
		</rtept>
		<rtept lat="33.054973" lon="35.204543">
			<ele>187</ele>
		</rtept>
		<rtept lat="33.055299" lon="35.204248">
			<ele>186</ele>
		</rtept>
		<rtept lat="33.0554" lon="35.204136">
			<ele>185</ele>
		</rtept>
		<rtept lat="33.055447" lon="35.203945">
			<ele>183</ele>
		</rtept>
		<rtept lat="33.055458" lon="35.203704">
			<ele>185</ele>
		</rtept>
		<rtept lat="33.055494" lon="35.203634">
			<ele>185</ele>
		</rtept>
		<rtept lat="33.055489" lon="35.20348">
			<ele>186</ele>
		</rtept>
		<rtept lat="33.055481" lon="35.203226">
			<ele>187</ele>
		</rtept>
		<rtept lat="33.055492" lon="35.203151">
			<ele>188</ele>
		</rtept>
		<rtept lat="33.055465" lon="35.203004">
			<ele>188</ele>
		</rtept>
		<rtept lat="33.055481" lon="35.202963">
			<ele>188</ele>
		</rtept>
		<rtept lat="33.055492" lon="35.202773">
			<ele>188</ele>
		</rtept>
		<rtept lat="33.055474" lon="35.202507">
			<ele>188</ele>
		</rtept>
		<rtept lat="33.055501" lon="35.202245">
			<ele>190</ele>
		</rtept>
		<rtept lat="33.055571" lon="35.201998">
			<ele>188</ele>
		</rtept>
		<rtept lat="33.055584" lon="35.201853">
			<ele>189</ele>
		</rtept>
		<rtept lat="33.055658" lon="35.20163">
			<ele>189</ele>
		</rtept>
		<rtept lat="33.055685" lon="35.201429">
			<ele>193</ele>
		</rtept>
		<rtept lat="33.055708" lon="35.201341">
			<ele>190</ele>
		</rtept>
		<rtept lat="33.055766" lon="35.201225">
			<ele>192</ele>
		</rtept>
		<rtept lat="33.0558" lon="35.201043">
			<ele>189</ele>
		</rtept>
		<rtept lat="33.055897" lon="35.200831">
			<ele>187</ele>
		</rtept>
		<rtept lat="33.055953" lon="35.200619">
			<ele>189</ele>
		</rtept>
		<rtept lat="33.055989" lon="35.200595">
			<ele>185</ele>
		</rtept>
		<rtept lat="33.056096" lon="35.200418">
			<ele>186</ele>
		</rtept>
		<rtept lat="33.056246" lon="35.199896">
			<ele>188</ele>
		</rtept>
		<rtept lat="33.056326" lon="35.199334">
			<ele>193</ele>
		</rtept>
		<rtept lat="33.056407" lon="35.198989">
			<ele>197</ele>
		</rtept>
		<rtept lat="33.056704" lon="35.198649">
			<ele>194</ele>
		</rtept>
		<rtept lat="33.056883" lon="35.1982">
			<ele>194</ele>
		</rtept>
		<rtept lat="33.057099" lon="35.197823">
			<ele>193</ele>
		</rtept>
		<rtept lat="33.057583" lon="35.196423">
			<ele>188</ele>
		</rtept>
		<rtept lat="33.057835" lon="35.195795">
			<ele>185</ele>
		</rtept>
		<rtept lat="33.058068" lon="35.195311">
			<ele>180</ele>
		</rtept>
		<rtept lat="33.058427" lon="35.194844">
			<ele>176</ele>
		</rtept>
		<rtept lat="33.059037" lon="35.194431">
			<ele>173</ele>
		</rtept>
		<rtept lat="33.05945" lon="35.193983">
			<ele>170</ele>
		</rtept>
		<rtept lat="33.059611" lon="35.19366">
			<ele>167</ele>
		</rtept>
		<rtept lat="33.059898" lon="35.193157">
			<ele>165</ele>
		</rtept>
		<rtept lat="33.0599" lon="35.192963">
			<ele>165</ele>
		</rtept>
		<rtept lat="33.059968" lon="35.192819">
			<ele>164</ele>
		</rtept>
		<rtept lat="33.059994" lon="35.192678">
			<ele>164</ele>
		</rtept>
		<rtept lat="33.060099" lon="35.192535">
			<ele>163</ele>
		</rtept>
		<rtept lat="33.060138" lon="35.192416">
			<ele>163</ele>
		</rtept>
		<rtept lat="33.060326" lon="35.192063">
			<ele>161</ele>
		</rtept>
		<rtept lat="33.060352" lon="35.191958">
			<ele>161</ele>
		</rtept>
		<rtept lat="33.060422" lon="35.191844">
			<ele>160</ele>
		</rtept>
		<rtept lat="33.060531" lon="35.191577">
			<ele>160</ele>
		</rtept>
		<rtept lat="33.060533" lon="35.191486">
			<ele>161</ele>
		</rtept>
		<rtept lat="33.060591" lon="35.191321">
			<ele>162</ele>
		</rtept>
		<rtept lat="33.060679" lon="35.191112">
			<ele>162</ele>
		</rtept>
		<rtept lat="33.06079" lon="35.190924">
			<ele>164</ele>
		</rtept>
		<rtept lat="33.060869" lon="35.190648">
			<ele>164</ele>
		</rtept>
		<rtept lat="33.061002" lon="35.190541">
			<ele>164</ele>
		</rtept>
		<rtept lat="33.061068" lon="35.190376">
			<ele>164</ele>
		</rtept>
		<rtept lat="33.061221" lon="35.190153">
			<ele>164</ele>
		</rtept>
		<rtept lat="33.061303" lon="35.189979">
			<ele>164</ele>
		</rtept>
		<rtept lat="33.061308" lon="35.189759">
			<ele>164</ele>
		</rtept>
		<rtept lat="33.061286" lon="35.18945">
			<ele>163</ele>
		</rtept>
		<rtept lat="33.061239" lon="35.189323">
			<ele>161</ele>
		</rtept>
		<rtept lat="33.06124" lon="35.189273">
			<ele>161</ele>
		</rtept>
		<rtept lat="33.061277" lon="35.189166">
			<ele>160</ele>
		</rtept>
		<rtept lat="33.061282" lon="35.18904">
			<ele>159</ele>
		</rtept>
		<rtept lat="33.061437" lon="35.188884">
			<ele>158</ele>
		</rtept>
		<rtept lat="33.061472" lon="35.188824">
			<ele>159</ele>
		</rtept>
		<rtept lat="33.061476" lon="35.188766">
			<ele>158</ele>
		</rtept>
		<rtept lat="33.061399" lon="35.188564">
			<ele>155</ele>
		</rtept>
		<rtept lat="33.061367" lon="35.188525">
			<ele>154</ele>
		</rtept>
		<rtept lat="33.061293" lon="35.188483">
			<ele>154</ele>
		</rtept>
		<rtept lat="33.061277" lon="35.188454">
			<ele>154</ele>
		</rtept>
		<rtept lat="33.061264" lon="35.188352">
			<ele>152</ele>
		</rtept>
		<rtept lat="33.061296" lon="35.188241">
			<ele>152</ele>
		</rtept>
		<rtept lat="33.061367" lon="35.188187">
			<ele>151</ele>
		</rtept>
		<rtept lat="33.061402" lon="35.188198">
			<ele>151</ele>
		</rtept>
		<rtept lat="33.061425" lon="35.188184">
			<ele>151</ele>
		</rtept>
		<rtept lat="33.061479" lon="35.188089">
			<ele>150</ele>
		</rtept>
		<rtept lat="33.061548" lon="35.188019">
			<ele>150</ele>
		</rtept>
		<rtept lat="33.061597" lon="35.187923">
			<ele>150</ele>
		</rtept>
		<rtept lat="33.061744" lon="35.187884">
			<ele>149</ele>
		</rtept>
		<rtept lat="33.061871" lon="35.1879">
			<ele>149</ele>
		</rtept>
		<rtept lat="33.062064" lon="35.187995">
			<ele>147</ele>
		</rtept>
		<rtept lat="33.062256" lon="35.188044">
			<ele>145</ele>
		</rtept>
		<rtept lat="33.062344" lon="35.188046">
			<ele>144</ele>
		</rtept>
		<rtept lat="33.06247" lon="35.188083">
			<ele>143</ele>
		</rtept>
		<rtept lat="33.062525" lon="35.188072">
			<ele>142</ele>
		</rtept>
		<rtept lat="33.062805" lon="35.188087">
			<ele>138</ele>
		</rtept>
		<rtept lat="33.062968" lon="35.188022">
			<ele>136</ele>
		</rtept>
		<rtept lat="33.063069" lon="35.187932">
			<ele>136</ele>
		</rtept>
		<rtept lat="33.063194" lon="35.187887">
			<ele>135</ele>
		</rtept>
		<rtept lat="33.063249" lon="35.187832">
			<ele>134</ele>
		</rtept>
		<rtept lat="33.063379" lon="35.187647">
			<ele>133</ele>
		</rtept>
		<rtept lat="33.063476" lon="35.187421">
			<ele>131</ele>
		</rtept>
		<rtept lat="33.063457" lon="35.18723">
			<ele>130</ele>
		</rtept>
		<rtept lat="33.063342" lon="35.186842">
			<ele>129</ele>
		</rtept>
		<rtept lat="33.063343" lon="35.186732">
			<ele>127</ele>
		</rtept>
		<rtept lat="33.063304" lon="35.186538">
			<ele>126</ele>
		</rtept>
		<rtept lat="33.063144" lon="35.18617">
			<ele>124</ele>
		</rtept>
		<rtept lat="33.063125" lon="35.186158">
			<ele>124</ele>
		</rtept>
		<rtept lat="33.063063" lon="35.18619">
			<ele>124</ele>
		</rtept>
		<rtept lat="33.06296" lon="35.186137">
			<ele>128</ele>
		</rtept>
		<rtept lat="33.062921" lon="35.186056">
			<ele>127</ele>
		</rtept>
		<rtept lat="33.062892" lon="35.185831">
			<ele>125</ele>
		</rtept>
		<rtept lat="33.062906" lon="35.185666">
			<ele>124</ele>
		</rtept>
		<rtept lat="33.062993" lon="35.185493">
			<ele>121</ele>
		</rtept>
		<rtept lat="33.062986" lon="35.18524">
			<ele>121</ele>
		</rtept>
		<rtept lat="33.063008" lon="35.185176">
			<ele>120</ele>
		</rtept>
		<rtept lat="33.063002" lon="35.185075">
			<ele>120</ele>
		</rtept>
		<rtept lat="33.062971" lon="35.185006">
			<ele>120</ele>
		</rtept>
		<rtept lat="33.062971" lon="35.184954">
			<ele>120</ele>
		</rtept>
		<rtept lat="33.062989" lon="35.184839">
			<ele>120</ele>
		</rtept>
		<rtept lat="33.063017" lon="35.184791">
			<ele>120</ele>
		</rtept>
		<rtept lat="33.063034" lon="35.184692">
			<ele>120</ele>
		</rtept>
		<rtept lat="33.063069" lon="35.184646">
			<ele>121</ele>
		</rtept>
		<rtept lat="33.063105" lon="35.184478">
			<ele>120</ele>
		</rtept>
		<rtept lat="33.063126" lon="35.184366">
			<ele>120</ele>
		</rtept>
		<rtept lat="33.063118" lon="35.184159">
			<ele>120</ele>
		</rtept>
		<rtept lat="33.063157" lon="35.18401">
			<ele>119</ele>
		</rtept>
		<rtept lat="33.063295" lon="35.183909">
			<ele>118</ele>
		</rtept>
		<rtept lat="33.063356" lon="35.183893">
			<ele>119</ele>
		</rtept>
		<rtept lat="33.063504" lon="35.183775">
			<ele>117</ele>
		</rtept>
		<rtept lat="33.063526" lon="35.183775">
			<ele>117</ele>
		</rtept>
		<rtept lat="33.063577" lon="35.183667">
			<ele>116</ele>
		</rtept>
		<rtept lat="33.063564" lon="35.183612">
			<ele>116</ele>
		</rtept>
		<rtept lat="33.063583" lon="35.18355">
			<ele>117</ele>
		</rtept>
		<rtept lat="33.063625" lon="35.183491">
			<ele>117</ele>
		</rtept>
		<rtept lat="33.063638" lon="35.183442">
			<ele>117</ele>
		</rtept>
		<rtept lat="33.063719" lon="35.183361">
			<ele>117</ele>
		</rtept>
		<rtept lat="33.063767" lon="35.183354">
			<ele>117</ele>
		</rtept>
		<rtept lat="33.063902" lon="35.183286">
			<ele>115</ele>
		</rtept>
		<rtept lat="33.064114" lon="35.183057">
			<ele>116</ele>
		</rtept>
		<rtept lat="33.064252" lon="35.182782">
			<ele>115</ele>
		</rtept>
		<rtept lat="33.064379" lon="35.182617">
			<ele>114</ele>
		</rtept>
		<rtept lat="33.064442" lon="35.182573">
			<ele>113</ele>
		</rtept>
		<rtept lat="33.064472" lon="35.182496">
			<ele>114</ele>
		</rtept>
		<rtept lat="33.064501" lon="35.182279">
			<ele>112</ele>
		</rtept>
		<rtept lat="33.064577" lon="35.182017">
			<ele>112</ele>
		</rtept>
		<rtept lat="33.064567" lon="35.181933">
			<ele>111</ele>
		</rtept>
		<rtept lat="33.064527" lon="35.1819">
			<ele>111</ele>
		</rtept>
		<rtept lat="33.064455" lon="35.181751">
			<ele>111</ele>
		</rtept>
		<rtept lat="33.064359" lon="35.181621">
			<ele>111</ele>
		</rtept>
		<rtept lat="33.064237" lon="35.181478">
			<ele>111</ele>
		</rtept>
		<rtept lat="33.064121" lon="35.181399">
			<ele>111</ele>
		</rtept>
		<rtept lat="33.063928" lon="35.181192">
			<ele>110</ele>
		</rtept>
		<rtept lat="33.063872" lon="35.181104">
			<ele>109</ele>
		</rtept>
		<rtept lat="33.063729" lon="35.181014">
			<ele>109</ele>
		</rtept>
		<rtept lat="33.063644" lon="35.180939">
			<ele>108</ele>
		</rtept>
		<rtept lat="33.063555" lon="35.180899">
			<ele>107</ele>
		</rtept>
		<rtept lat="33.063356" lon="35.180851">
			<ele>106</ele>
		</rtept>
		<rtept lat="33.063271" lon="35.180794">
			<ele>106</ele>
		</rtept>
		<rtept lat="33.063182" lon="35.180639">
			<ele>105</ele>
		</rtept>
		<rtept lat="33.063067" lon="35.180499">
			<ele>105</ele>
		</rtept>
		<rtept lat="33.062978" lon="35.180444">
			<ele>105</ele>
		</rtept>
		<rtept lat="33.062919" lon="35.180312">
			<ele>106</ele>
		</rtept>
		<rtept lat="33.06288" lon="35.180277">
			<ele>106</ele>
		</rtept>
		<rtept lat="33.062855" lon="35.180191">
			<ele>106</ele>
		</rtept>
		<rtept lat="33.062774" lon="35.180061">
			<ele>105</ele>
		</rtept>
		<rtept lat="33.06275" lon="35.17996">
			<ele>104</ele>
		</rtept>
		<rtept lat="33.062639" lon="35.179762">
			<ele>103</ele>
		</rtept>
		<rtept lat="33.062659" lon="35.179566">
			<ele>101</ele>
		</rtept>
		<rtept lat="33.062635" lon="35.179487">
			<ele>101</ele>
		</rtept>
		<rtept lat="33.062644" lon="35.179322">
			<ele>100</ele>
		</rtept>
		<rtept lat="33.062731" lon="35.179135">
			<ele>100</ele>
		</rtept>
		<rtept lat="33.062737" lon="35.179043">
			<ele>100</ele>
		</rtept>
		<rtept lat="33.062759" lon="35.179016">
			<ele>101</ele>
		</rtept>
		<rtept lat="33.062936" lon="35.178919">
			<ele>99</ele>
		</rtept>
		<rtept lat="33.063103" lon="35.178642">
			<ele>98</ele>
		</rtept>
		<rtept lat="33.063161" lon="35.178528">
			<ele>98</ele>
		</rtept>
		<rtept lat="33.06317" lon="35.178462">
			<ele>98</ele>
		</rtept>
		<rtept lat="33.063164" lon="35.178301">
			<ele>98</ele>
		</rtept>
		<rtept lat="33.063137" lon="35.178222">
			<ele>99</ele>
		</rtept>
		<rtept lat="33.063072" lon="35.178136">
			<ele>99</ele>
		</rtept>
		<rtept lat="33.063059" lon="35.178077">
			<ele>99</ele>
		</rtept>
		<rtept lat="33.063074" lon="35.178031">
			<ele>99</ele>
		</rtept>
		<rtept lat="33.063004" lon="35.177951">
			<ele>101</ele>
		</rtept>
		<rtept lat="33.062951" lon="35.177817">
			<ele>103</ele>
		</rtept>
		<rtept lat="33.062947" lon="35.177624">
			<ele>101</ele>
		</rtept>
		<rtept lat="33.062893" lon="35.177476">
			<ele>99</ele>
		</rtept>
		<rtept lat="33.06291" lon="35.177351">
			<ele>98</ele>
		</rtept>
		<rtept lat="33.062895" lon="35.177276">
			<ele>97</ele>
		</rtept>
		<rtept lat="33.062919" lon="35.177208">
			<ele>96</ele>
		</rtept>
		<rtept lat="33.062932" lon="35.177076">
			<ele>95</ele>
		</rtept>
		<rtept lat="33.062917" lon="35.177025">
			<ele>94</ele>
		</rtept>
		<rtept lat="33.062794" lon="35.1769">
			<ele>96</ele>
		</rtept>
		<rtept lat="33.062786" lon="35.176845">
			<ele>94</ele>
		</rtept>
		<rtept lat="33.062762" lon="35.176803">
			<ele>97</ele>
		</rtept>
		<rtept lat="33.062768" lon="35.176698">
			<ele>96</ele>
		</rtept>
		<rtept lat="33.062727" lon="35.176625">
			<ele>94</ele>
		</rtept>
		<rtept lat="33.062788" lon="35.176535">
			<ele>92</ele>
		</rtept>
		<rtept lat="33.062807" lon="35.176434">
			<ele>92</ele>
		</rtept>
		<rtept lat="33.062798" lon="35.176401">
			<ele>92</ele>
		</rtept>
		<rtept lat="33.06282" lon="35.176361">
			<ele>92</ele>
		</rtept>
		<rtept lat="33.062798" lon="35.176266">
			<ele>92</ele>
		</rtept>
		<rtept lat="33.062816" lon="35.176225">
			<ele>92</ele>
		</rtept>
		<rtept lat="33.062777" lon="35.176117">
			<ele>92</ele>
		</rtept>
		<rtept lat="33.062785" lon="35.176077">
			<ele>92</ele>
		</rtept>
		<rtept lat="33.06275" lon="35.176027">
			<ele>92</ele>
		</rtept>
		<rtept lat="33.062709" lon="35.175897">
			<ele>92</ele>
		</rtept>
		<rtept lat="33.062746" lon="35.175793">
			<ele>91</ele>
		</rtept>
		<rtept lat="33.062742" lon="35.175734">
			<ele>92</ele>
		</rtept>
		<rtept lat="33.062761" lon="35.175705">
			<ele>92</ele>
		</rtept>
		<rtept lat="33.062768" lon="35.175648">
			<ele>92</ele>
		</rtept>
		<rtept lat="33.062751" lon="35.175589">
			<ele>92</ele>
		</rtept>
		<rtept lat="33.062847" lon="35.175334">
			<ele>92</ele>
		</rtept>
		<rtept lat="33.063011" lon="35.175151">
			<ele>90</ele>
		</rtept>
		<rtept lat="33.063078" lon="35.174946">
			<ele>89</ele>
		</rtept>
		<rtept lat="33.063221" lon="35.174786">
			<ele>89</ele>
		</rtept>
		<rtept lat="33.063327" lon="35.174597">
			<ele>87</ele>
		</rtept>
		<rtept lat="33.063445" lon="35.174445">
			<ele>86</ele>
		</rtept>
		<rtept lat="33.063548" lon="35.17428">
			<ele>86</ele>
		</rtept>
		<rtept lat="33.063657" lon="35.173972">
			<ele>86</ele>
		</rtept>
		<rtept lat="33.063681" lon="35.173851">
			<ele>87</ele>
		</rtept>
		<rtept lat="33.063687" lon="35.173596">
			<ele>88</ele>
		</rtept>
		<rtept lat="33.063701" lon="35.173413">
			<ele>90</ele>
		</rtept>
		<rtept lat="33.063738" lon="35.173288">
			<ele>91</ele>
		</rtept>
		<rtept lat="33.063942" lon="35.172876">
			<ele>88</ele>
		</rtept>
		<rtept lat="33.064081" lon="35.172841">
			<ele>83</ele>
		</rtept>
		<rtept lat="33.064141" lon="35.172807">
			<ele>83</ele>
		</rtept>
		<rtept lat="33.064164" lon="35.172773">
			<ele>83</ele>
		</rtept>
		<rtept lat="33.064208" lon="35.17259">
			<ele>83</ele>
		</rtept>
		<rtept lat="33.064251" lon="35.172513">
			<ele>82</ele>
		</rtept>
		<rtept lat="33.064337" lon="35.172473">
			<ele>82</ele>
		</rtept>
		<rtept lat="33.064353" lon="35.17243">
			<ele>81</ele>
		</rtept>
		<rtept lat="33.064403" lon="35.172448">
			<ele>81</ele>
		</rtept>
		<rtept lat="33.064514" lon="35.172423">
			<ele>82</ele>
		</rtept>
		<rtept lat="33.064793" lon="35.172199">
			<ele>80</ele>
		</rtept>
		<rtept lat="33.065108" lon="35.172024">
			<ele>78</ele>
		</rtept>
		<rtept lat="33.065268" lon="35.171975">
			<ele>77</ele>
		</rtept>
		<rtept lat="33.065404" lon="35.171963">
			<ele>78</ele>
		</rtept>
		<rtept lat="33.065613" lon="35.172042">
			<ele>79</ele>
		</rtept>
		<rtept lat="33.065727" lon="35.172002">
			<ele>79</ele>
		</rtept>
		<rtept lat="33.065838" lon="35.172024">
			<ele>79</ele>
		</rtept>
		<rtept lat="33.065855" lon="35.17208">
			<ele>80</ele>
		</rtept>
		<rtept lat="33.065818" lon="35.17218">
			<ele>80</ele>
		</rtept>
		<rtept lat="33.065817" lon="35.172229">
			<ele>81</ele>
		</rtept>
		<rtept lat="33.065905" lon="35.172266">
			<ele>82</ele>
		</rtept>
		<rtept lat="33.065943" lon="35.172316">
			<ele>83</ele>
		</rtept>
		<rtept lat="33.065805" lon="35.17239">
			<ele>85</ele>
		</rtept>
		<rtept lat="33.065835" lon="35.172435">
			<ele>85</ele>
		</rtept>
		<rtept lat="33.065932" lon="35.172489">
			<ele>86</ele>
		</rtept>
		<rtept lat="33.066003" lon="35.172591">
			<ele>87</ele>
		</rtept>
		<rtept lat="33.06614" lon="35.1729">
			<ele>89</ele>
		</rtept>
		<rtept lat="33.066222" lon="35.172969">
			<ele>90</ele>
		</rtept>
		<rtept lat="33.066268" lon="35.172967">
			<ele>90</ele>
		</rtept>
		<rtept lat="33.066319" lon="35.172915">
			<ele>90</ele>
		</rtept>
		<rtept lat="33.066461" lon="35.172706">
			<ele>87</ele>
		</rtept>
		<rtept lat="33.066612" lon="35.172409">
			<ele>85</ele>
		</rtept>
		<rtept lat="33.066861" lon="35.171978">
			<ele>80</ele>
		</rtept>
		<rtept lat="33.066952" lon="35.171878">
			<ele>80</ele>
		</rtept>
		<rtept lat="33.067001" lon="35.171779">
			<ele>79</ele>
		</rtept>
		<rtept lat="33.067128" lon="35.171649">
			<ele>79</ele>
		</rtept>
		<rtept lat="33.067213" lon="35.171583">
			<ele>80</ele>
		</rtept>
		<rtept lat="33.067302" lon="35.171567">
			<ele>80</ele>
		</rtept>
		<rtept lat="33.067368" lon="35.171591">
			<ele>81</ele>
		</rtept>
		<rtept lat="33.067462" lon="35.171654">
			<ele>83</ele>
		</rtept>
		<rtept lat="33.067533" lon="35.171667">
			<ele>83</ele>
		</rtept>
		<rtept lat="33.067587" lon="35.171631">
			<ele>82.5</ele>
		</rtept>
		<rtept lat="33.067629" lon="35.171525">
			<ele>82</ele>
		</rtept>
		<rtept lat="33.067671" lon="35.171493">
			<ele>83</ele>
		</rtept>
		<rtept lat="33.06772" lon="35.171493">
			<ele>83</ele>
		</rtept>
		<rtept lat="33.067971" lon="35.171696">
			<ele>86</ele>
		</rtept>
		<rtept lat="33.068074" lon="35.171868">
			<ele>89</ele>
		</rtept>
		<rtept lat="33.068166" lon="35.171868">
			<ele>89</ele>
		</rtept>
		<rtept lat="33.068262" lon="35.171815">
			<ele>89</ele>
		</rtept>
		<rtept lat="33.068344" lon="35.171818">
			<ele>89</ele>
		</rtept>
		<rtept lat="33.068446" lon="35.17193">
			<ele>93</ele>
		</rtept>
		<rtept lat="33.068428" lon="35.172085">
			<ele>94</ele>
		</rtept>
		<rtept lat="33.068503" lon="35.172275">
			<ele>96</ele>
		</rtept>
		<rtept lat="33.068607" lon="35.172382">
			<ele>98</ele>
		</rtept>
		<rtept lat="33.068948" lon="35.172664">
			<ele>97</ele>
		</rtept>
		<rtept lat="33.069035" lon="35.172757">
			<ele>96</ele>
		</rtept>
		<rtept lat="33.06917" lon="35.173132">
			<ele>92</ele>
		</rtept>
		<rtept lat="33.069214" lon="35.173302">
			<ele>93</ele>
		</rtept>
		<rtept lat="33.069219" lon="35.173502">
			<ele>93</ele>
		</rtept>
		<rtept lat="33.069247" lon="35.1735">
			<ele>93</ele>
		</rtept>
		<rtept lat="33.069283" lon="35.17346">
			<ele>90</ele>
		</rtept>
		<rtept lat="33.069303" lon="35.173358">
			<ele>90</ele>
		</rtept>
		<rtept lat="33.069283" lon="35.173208">
			<ele>90</ele>
		</rtept>
		<rtept lat="33.069175" lon="35.172876">
			<ele>91</ele>
		</rtept>
		<rtept lat="33.069173" lon="35.172635">
			<ele>91</ele>
		</rtept>
		<rtept lat="33.069145" lon="35.172499">
			<ele>92</ele>
		</rtept>
		<rtept lat="33.069132" lon="35.172312">
			<ele>91</ele>
		</rtept>
		<rtept lat="33.069106" lon="35.172185">
			<ele>90</ele>
		</rtept>
		<rtept lat="33.069069" lon="35.172092">
			<ele>91</ele>
		</rtept>
		<rtept lat="33.069094" lon="35.172053">
			<ele>89</ele>
		</rtept>
		<rtept lat="33.069139" lon="35.17208">
			<ele>89</ele>
		</rtept>
		<rtept lat="33.069249" lon="35.172418">
			<ele>90</ele>
		</rtept>
		<rtept lat="33.069341" lon="35.172786">
			<ele>89</ele>
		</rtept>
		<rtept lat="33.069462" lon="35.173068">
			<ele>85</ele>
		</rtept>
		<rtept lat="33.069429" lon="35.173191">
			<ele>88</ele>
		</rtept>
		<rtept lat="33.069422" lon="35.173312">
			<ele>88</ele>
		</rtept>
		<rtept lat="33.069456" lon="35.173422">
			<ele>85</ele>
		</rtept>
		<rtept lat="33.069452" lon="35.173516">
			<ele>85</ele>
		</rtept>
		<rtept lat="33.069496" lon="35.173585">
			<ele>85</ele>
		</rtept>
		<rtept lat="33.069531" lon="35.17359">
			<ele>82</ele>
		</rtept>
		<rtept lat="33.069586" lon="35.173558">
			<ele>82</ele>
		</rtept>
		<rtept lat="33.06962" lon="35.17349">
			<ele>80</ele>
		</rtept>
		<rtept lat="33.069651" lon="35.17331">
			<ele>80</ele>
		</rtept>
		<rtept lat="33.069649" lon="35.173173">
			<ele>80</ele>
		</rtept>
		<rtept lat="33.069698" lon="35.172913">
			<ele>80</ele>
		</rtept>
		<rtept lat="33.069679" lon="35.172489">
			<ele>78</ele>
		</rtept>
		<rtept lat="33.069621" lon="35.172171">
			<ele>78</ele>
		</rtept>
		<rtept lat="33.069657" lon="35.171949">
			<ele>77</ele>
		</rtept>
		<rtept lat="33.069635" lon="35.171764">
			<ele>77</ele>
		</rtept>
		<rtept lat="33.069483" lon="35.171408">
			<ele>80</ele>
		</rtept>
		<rtept lat="33.069445" lon="35.171124">
			<ele>79</ele>
		</rtept>
		<rtept lat="33.06945" lon="35.170911">
			<ele>80</ele>
		</rtept>
		<rtept lat="33.069432" lon="35.170722">
			<ele>82</ele>
		</rtept>
		<rtept lat="33.069386" lon="35.170493">
			<ele>82</ele>
		</rtept>
		<rtept lat="33.069246" lon="35.170182">
			<ele>81</ele>
		</rtept>
		<rtept lat="33.069167" lon="35.170082">
			<ele>80</ele>
		</rtept>
		<rtept lat="33.068967" lon="35.169894">
			<ele>81</ele>
		</rtept>
		<rtept lat="33.068886" lon="35.169909">
			<ele>81</ele>
		</rtept>
		<rtept lat="33.068816" lon="35.169865">
			<ele>81</ele>
		</rtept>
		<rtept lat="33.068751" lon="35.169857">
			<ele>82</ele>
		</rtept>
		<rtept lat="33.068688" lon="35.169875">
			<ele>82</ele>
		</rtept>
		<rtept lat="33.06864" lon="35.169867">
			<ele>82</ele>
		</rtept>
		<rtept lat="33.068593" lon="35.169835">
			<ele>82</ele>
		</rtept>
		<rtept lat="33.068489" lon="35.169572">
			<ele>81</ele>
		</rtept>
		<rtept lat="33.068391" lon="35.169434">
			<ele>80</ele>
		</rtept>
		<rtept lat="33.068444" lon="35.169299">
			<ele>79</ele>
		</rtept>
		<rtept lat="33.068396" lon="35.169116">
			<ele>79</ele>
		</rtept>
		<rtept lat="33.068219" lon="35.168786">
			<ele>76</ele>
		</rtept>
		<rtept lat="33.06819" lon="35.168632">
			<ele>74</ele>
		</rtept>
		<rtept lat="33.068253" lon="35.16841">
			<ele>73</ele>
		</rtept>
		<rtept lat="33.068372" lon="35.168148">
			<ele>73</ele>
		</rtept>
		<rtept lat="33.068377" lon="35.167874">
			<ele>73</ele>
		</rtept>
		<rtept lat="33.068396" lon="35.16776">
			<ele>72</ele>
		</rtept>
		<rtept lat="33.068553" lon="35.167504">
			<ele>70</ele>
		</rtept>
		<rtept lat="33.068625" lon="35.167305">
			<ele>68</ele>
		</rtept>
		<rtept lat="33.068625" lon="35.167082">
			<ele>67</ele>
		</rtept>
		<rtept lat="33.068553" lon="35.166877">
			<ele>67</ele>
		</rtept>
		<rtept lat="33.068587" lon="35.166627">
			<ele>66</ele>
		</rtept>
		<rtept lat="33.068577" lon="35.166393">
			<ele>66</ele>
		</rtept>
		<rtept lat="33.068534" lon="35.166245">
			<ele>67</ele>
		</rtept>
		<rtept lat="33.068568" lon="35.16604">
			<ele>65</ele>
		</rtept>
		<rtept lat="33.068654" lon="35.165892">
			<ele>63</ele>
		</rtept>
		<rtept lat="33.068692" lon="35.165755">
			<ele>63</ele>
		</rtept>
		<rtept lat="33.068649" lon="35.165555">
			<ele>63</ele>
		</rtept>
		<rtept lat="33.068716" lon="35.165316">
			<ele>62</ele>
		</rtept>
		<rtept lat="33.068871" lon="35.164345">
			<ele>63</ele>
		</rtept>
		<rtept lat="33.068888" lon="35.164188">
			<ele>64</ele>
		</rtept>
		<rtept lat="33.068873" lon="35.163954">
			<ele>64</ele>
		</rtept>
		<rtept lat="33.068845" lon="35.163818">
			<ele>65</ele>
		</rtept>
		<rtept lat="33.06895" lon="35.163481">
			<ele>65</ele>
		</rtept>
		<rtept lat="33.069036" lon="35.163048">
			<ele>65</ele>
		</rtept>
		<rtept lat="33.068997" lon="35.162855">
			<ele>65</ele>
		</rtept>
		<rtept lat="33.069145" lon="35.162604">
			<ele>65</ele>
		</rtept>
		<rtept lat="33.069184" lon="35.162439">
			<ele>64</ele>
		</rtept>
		<rtept lat="33.069131" lon="35.162239">
			<ele>63</ele>
		</rtept>
		<rtept lat="33.069169" lon="35.162074">
			<ele>64</ele>
		</rtept>
		<rtept lat="33.069169" lon="35.161914">
			<ele>63</ele>
		</rtept>
		<rtept lat="33.069088" lon="35.161749">
			<ele>63</ele>
		</rtept>
		<rtept lat="33.06906" lon="35.161618">
			<ele>62</ele>
		</rtept>
		<rtept lat="33.069198" lon="35.161519">
			<ele>63</ele>
		</rtept>
		<rtept lat="33.069279" lon="35.161553">
			<ele>63</ele>
		</rtept>
		<rtept lat="33.069346" lon="35.161629">
			<ele>63</ele>
		</rtept>
		<rtept lat="33.06936" lon="35.161726">
			<ele>63</ele>
		</rtept>
		<rtept lat="33.069422" lon="35.161721">
			<ele>63</ele>
		</rtept>
		<rtept lat="33.06947" lon="35.161601">
			<ele>62</ele>
		</rtept>
		<rtept lat="33.069411" lon="35.161331">
			<ele>62</ele>
		</rtept>
		<rtept lat="33.069404" lon="35.161218">
			<ele>62</ele>
		</rtept>
		<rtept lat="33.069367" lon="35.161146">
			<ele>62</ele>
		</rtept>
		<rtept lat="33.069314" lon="35.161096">
			<ele>61</ele>
		</rtept>
		<rtept lat="33.069157" lon="35.161023">
			<ele>60</ele>
		</rtept>
		<rtept lat="33.069043" lon="35.161045">
			<ele>60</ele>
		</rtept>
		<rtept lat="33.068941" lon="35.161038">
			<ele>59</ele>
		</rtept>
		<rtept lat="33.068896" lon="35.161015">
			<ele>59</ele>
		</rtept>
		<rtept lat="33.068809" lon="35.160913">
			<ele>59</ele>
		</rtept>
		<rtept lat="33.068749" lon="35.160893">
			<ele>58</ele>
		</rtept>
		<rtept lat="33.068639" lon="35.160923">
			<ele>57</ele>
		</rtept>
		<rtept lat="33.068521" lon="35.161032">
			<ele>57</ele>
		</rtept>
		<rtept lat="33.068315" lon="35.161377">
			<ele>57</ele>
		</rtept>
		<rtept lat="33.068131" lon="35.161764">
			<ele>59</ele>
		</rtept>
		<rtept lat="33.067952" lon="35.162217">
			<ele>59</ele>
		</rtept>
		<rtept lat="33.067874" lon="35.162372">
			<ele>59</ele>
		</rtept>
		<rtept lat="33.067814" lon="35.162431">
			<ele>59</ele>
		</rtept>
		<rtept lat="33.067623" lon="35.162513">
			<ele>59</ele>
		</rtept>
		<rtept lat="33.067456" lon="35.162534">
			<ele>61</ele>
		</rtept>
		<rtept lat="33.067198" lon="35.162516">
			<ele>62</ele>
		</rtept>
		<rtept lat="33.065962" lon="35.162174">
			<ele>72</ele>
		</rtept>
		<rtept lat="33.065639" lon="35.162009">
			<ele>78</ele>
		</rtept>
		<rtept lat="33.065448" lon="35.161653">
			<ele>79</ele>
		</rtept>
		<rtept lat="33.065534" lon="35.161545">
			<ele>78</ele>
		</rtept>
		<rtept lat="33.065693" lon="35.161411">
			<ele>76</ele>
		</rtept>
		<rtept lat="33.065918" lon="35.161346">
			<ele>74</ele>
		</rtept>
		<rtept lat="33.066062" lon="35.161258">
			<ele>74</ele>
		</rtept>
		<rtept lat="33.066136" lon="35.161274">
			<ele>73</ele>
		</rtept>
		<rtept lat="33.066435" lon="35.161049">
			<ele>73</ele>
		</rtept>
		<rtept lat="33.066449" lon="35.160909">
			<ele>73</ele>
		</rtept>
		<rtept lat="33.066421" lon="35.160783">
			<ele>74</ele>
		</rtept>
		<rtept lat="33.066437" lon="35.160491">
			<ele>75</ele>
		</rtept>
		<rtept lat="33.066458" lon="35.160316">
			<ele>75</ele>
		</rtept>
		<rtept lat="33.066543" lon="35.160111">
			<ele>73</ele>
		</rtept>
		<rtept lat="33.066526" lon="35.159796">
			<ele>73.5</ele>
		</rtept>
		<rtept lat="33.066523" lon="35.159751">
			<ele>74</ele>
		</rtept>
		<rtept lat="33.066609" lon="35.159482">
			<ele>72</ele>
		</rtept>
		<rtept lat="33.066577" lon="35.159327">
			<ele>71</ele>
		</rtept>
		<rtept lat="33.066629" lon="35.15913">
			<ele>71</ele>
		</rtept>
		<rtept lat="33.066663" lon="35.159076">
			<ele>69</ele>
		</rtept>
		<rtept lat="33.066739" lon="35.159035">
			<ele>67</ele>
		</rtept>
		<rtept lat="33.066916" lon="35.158854">
			<ele>66</ele>
		</rtept>
		<rtept lat="33.067044" lon="35.158515">
			<ele>64</ele>
		</rtept>
		<rtept lat="33.067052" lon="35.158312">
			<ele>66</ele>
		</rtept>
		<rtept lat="33.067078" lon="35.158163">
			<ele>67</ele>
		</rtept>
		<rtept lat="33.067111" lon="35.158091">
			<ele>64</ele>
		</rtept>
		<rtept lat="33.067362" lon="35.157861">
			<ele>61</ele>
		</rtept>
		<rtept lat="33.067478" lon="35.157524">
			<ele>58</ele>
		</rtept>
		<rtept lat="33.067591" lon="35.157248">
			<ele>57</ele>
		</rtept>
		<rtept lat="33.067549" lon="35.156856">
			<ele>56</ele>
		</rtept>
		<rtept lat="33.06746" lon="35.156621">
			<ele>56</ele>
		</rtept>
		<rtept lat="33.067382" lon="35.156486">
			<ele>58</ele>
		</rtept>
		<rtept lat="33.067206" lon="35.155986">
			<ele>61</ele>
		</rtept>
		<rtept lat="33.067174" lon="35.155487">
			<ele>61</ele>
		</rtept>
		<rtept lat="33.067111" lon="35.155089">
			<ele>59</ele>
		</rtept>
		<rtept lat="33.067066" lon="35.154906">
			<ele>61</ele>
		</rtept>
		<rtept lat="33.067078" lon="35.154786">
			<ele>61</ele>
		</rtept>
		<rtept lat="33.067052" lon="35.154669">
			<ele>59</ele>
		</rtept>
		<rtept lat="33.06702" lon="35.154595">
			<ele>59</ele>
		</rtept>
		<rtept lat="33.06702" lon="35.154422">
			<ele>59</ele>
		</rtept>
		<rtept lat="33.066948" lon="35.154056">
			<ele>59</ele>
		</rtept>
		<rtept lat="33.066911" lon="35.15371">
			<ele>60</ele>
		</rtept>
		<rtept lat="33.066813" lon="35.153284">
			<ele>59</ele>
		</rtept>
		<rtept lat="33.066751" lon="35.153083">
			<ele>57</ele>
		</rtept>
		<rtept lat="33.066594" lon="35.152948">
			<ele>59</ele>
		</rtept>
		<rtept lat="33.066492" lon="35.152924">
			<ele>60</ele>
		</rtept>
		<rtept lat="33.066365" lon="35.152894">
			<ele>61</ele>
		</rtept>
		<rtept lat="33.066134" lon="35.152976">
			<ele>63</ele>
		</rtept>
		<rtept lat="33.066008" lon="35.152962">
			<ele>62</ele>
		</rtept>
		<rtept lat="33.065913" lon="35.15299">
			<ele>63</ele>
		</rtept>
		<rtept lat="33.065834" lon="35.153045">
			<ele>63</ele>
		</rtept>
		<rtept lat="33.065806" lon="35.153107">
			<ele>64</ele>
		</rtept>
		<rtept lat="33.065846" lon="35.15316">
			<ele>65</ele>
		</rtept>
		<rtept lat="33.065849" lon="35.153216">
			<ele>65</ele>
		</rtept>
		<rtept lat="33.065703" lon="35.153231">
			<ele>66</ele>
		</rtept>
		<rtept lat="33.065645" lon="35.1532">
			<ele>66</ele>
		</rtept>
		<rtept lat="33.065465" lon="35.15305">
			<ele>65</ele>
		</rtept>
		<rtept lat="33.065362" lon="35.152916">
			<ele>65</ele>
		</rtept>
		<rtept lat="33.065398" lon="35.152658">
			<ele>63</ele>
		</rtept>
		<rtept lat="33.065412" lon="35.152542">
			<ele>63</ele>
		</rtept>
		<rtept lat="33.06546" lon="35.152395">
			<ele>62</ele>
		</rtept>
		<rtept lat="33.065556" lon="35.152201">
			<ele>60</ele>
		</rtept>
		<rtept lat="33.065639" lon="35.151853">
			<ele>58</ele>
		</rtept>
		<rtept lat="33.06565" lon="35.151698">
			<ele>57</ele>
		</rtept>
		<rtept lat="33.065639" lon="35.151573">
			<ele>56</ele>
		</rtept>
		<rtept lat="33.065591" lon="35.151385">
			<ele>55</ele>
		</rtept>
		<rtept lat="33.065499" lon="35.150852">
			<ele>50</ele>
		</rtept>
		<rtept lat="33.065254" lon="35.150503">
			<ele>50</ele>
		</rtept>
		<rtept lat="33.065186" lon="35.150369">
			<ele>50</ele>
		</rtept>
		<rtept lat="33.065103" lon="35.150268">
			<ele>50</ele>
		</rtept>
		<rtept lat="33.065027" lon="35.150242">
			<ele>51</ele>
		</rtept>
		<rtept lat="33.064822" lon="35.150227">
			<ele>52</ele>
		</rtept>
		<rtept lat="33.064665" lon="35.150302">
			<ele>52.5</ele>
		</rtept>
		<rtept lat="33.064525" lon="35.150389">
			<ele>53</ele>
		</rtept>
		<rtept lat="33.064157" lon="35.150505">
			<ele>56</ele>
		</rtept>
		<rtept lat="33.063967" lon="35.150491">
			<ele>57</ele>
		</rtept>
		<rtept lat="33.063933" lon="35.150524">
			<ele>58</ele>
		</rtept>
		<rtept lat="33.063938" lon="35.150591">
			<ele>59</ele>
		</rtept>
		<rtept lat="33.06408" lon="35.150857">
			<ele>59.5</ele>
		</rtept>
		<rtept lat="33.064203" lon="35.15106">
			<ele>60</ele>
		</rtept>
		<rtept lat="33.064268" lon="35.15113">
			<ele>60</ele>
		</rtept>
		<rtept lat="33.064322" lon="35.15125">
			<ele>61</ele>
		</rtept>
		<rtept lat="33.064495" lon="35.151207">
			<ele>60</ele>
		</rtept>
		<rtept lat="33.064581" lon="35.151234">
			<ele>60</ele>
		</rtept>
		<rtept lat="33.06465" lon="35.151283">
			<ele>60</ele>
		</rtept>
		<rtept lat="33.064682" lon="35.151328">
			<ele>60</ele>
		</rtept>
		<rtept lat="33.064875" lon="35.151398">
			<ele>60</ele>
		</rtept>
		<rtept lat="33.064956" lon="35.151457">
			<ele>60</ele>
		</rtept>
		<rtept lat="33.064992" lon="35.151556">
			<ele>61</ele>
		</rtept>
		<rtept lat="33.065028" lon="35.151752">
			<ele>63</ele>
		</rtept>
		<rtept lat="33.065084" lon="35.151854">
			<ele>63</ele>
		</rtept>
		<rtept lat="33.065102" lon="35.151993">
			<ele>65</ele>
		</rtept>
		<rtept lat="33.065064" lon="35.152093">
			<ele>65</ele>
		</rtept>
		<rtept lat="33.065057" lon="35.152372">
			<ele>67</ele>
		</rtept>
		<rtept lat="33.065028" lon="35.152533">
			<ele>68</ele>
		</rtept>
		<rtept lat="33.064965" lon="35.152728">
			<ele>68</ele>
		</rtept>
		<rtept lat="33.064958" lon="35.152836">
			<ele>67</ele>
		</rtept>
		<rtept lat="33.065003" lon="35.153023">
			<ele>67</ele>
		</rtept>
		<rtept lat="33.065071" lon="35.153152">
			<ele>68</ele>
		</rtept>
		<rtept lat="33.065131" lon="35.153206">
			<ele>68</ele>
		</rtept>
		<rtept lat="33.065266" lon="35.153275">
			<ele>69</ele>
		</rtept>
		<rtept lat="33.065412" lon="35.15345">
			<ele>71</ele>
		</rtept>
		<rtept lat="33.065433" lon="35.153506">
			<ele>71</ele>
		</rtept>
		<rtept lat="33.065785" lon="35.153643">
			<ele>72</ele>
		</rtept>
		<rtept lat="33.065812" lon="35.153667">
			<ele>72</ele>
		</rtept>
		<rtept lat="33.065925" lon="35.15368">
			<ele>71</ele>
		</rtept>
		<rtept lat="33.066015" lon="35.153667">
			<ele>71</ele>
		</rtept>
		<rtept lat="33.066123" lon="35.153689">
			<ele>72</ele>
		</rtept>
		<rtept lat="33.066359" lon="35.153852">
			<ele>72</ele>
		</rtept>
		<rtept lat="33.066449" lon="35.154032">
			<ele>73</ele>
		</rtept>
		<rtept lat="33.066482" lon="35.154177">
			<ele>73</ele>
		</rtept>
		<rtept lat="33.066759" lon="35.154697">
			<ele>69</ele>
		</rtept>
		<rtept lat="33.066752" lon="35.154957">
			<ele>70</ele>
		</rtept>
		<rtept lat="33.066732" lon="35.15504">
			<ele>72</ele>
		</rtept>
		<rtept lat="33.066664" lon="35.155145">
			<ele>73</ele>
		</rtept>
		<rtept lat="33.066655" lon="35.155314">
			<ele>74</ele>
		</rtept>
		<rtept lat="33.066702" lon="35.15542">
			<ele>75</ele>
		</rtept>
		<rtept lat="33.066786" lon="35.155689">
			<ele>75</ele>
		</rtept>
		<rtept lat="33.066822" lon="35.155872">
			<ele>76</ele>
		</rtept>
		<rtept lat="33.066846" lon="35.156151">
			<ele>75</ele>
		</rtept>
		<rtept lat="33.066826" lon="35.156462">
			<ele>80</ele>
		</rtept>
		<rtept lat="33.066822" lon="35.156752">
			<ele>81</ele>
		</rtept>
		<rtept lat="33.066833" lon="35.15687">
			<ele>77</ele>
		</rtept>
		<rtept lat="33.066844" lon="35.156942">
			<ele>78</ele>
		</rtept>
		<rtept lat="33.066918" lon="35.157135">
			<ele>75</ele>
		</rtept>
		<rtept lat="33.066986" lon="35.157377">
			<ele>75</ele>
		</rtept>
		<rtept lat="33.066966" lon="35.157457">
			<ele>75</ele>
		</rtept>
		<rtept lat="33.066923" lon="35.157521">
			<ele>74</ele>
		</rtept>
		<rtept lat="33.066797" lon="35.157645">
			<ele>78</ele>
		</rtept>
		<rtept lat="33.066735" lon="35.157785">
			<ele>80</ele>
		</rtept>
		<rtept lat="33.066637" lon="35.158138">
			<ele>79</ele>
		</rtept>
		<rtept lat="33.066567" lon="35.158314">
			<ele>77</ele>
		</rtept>
		<rtept lat="33.066533" lon="35.158338">
			<ele>79</ele>
		</rtept>
		<rtept lat="33.06646" lon="35.158485">
			<ele>81</ele>
		</rtept>
		<rtept lat="33.066393" lon="35.158547">
			<ele>80</ele>
		</rtept>
		<rtept lat="33.066378" lon="35.158618">
			<ele>83</ele>
		</rtept>
		<rtept lat="33.066382" lon="35.158689">
			<ele>79</ele>
		</rtept>
		<rtept lat="33.066254" lon="35.159017">
			<ele>82</ele>
		</rtept>
		<rtept lat="33.066149" lon="35.15911">
			<ele>84</ele>
		</rtept>
		<rtept lat="33.066114" lon="35.159295">
			<ele>83</ele>
		</rtept>
		<rtept lat="33.066023" lon="35.159555">
			<ele>84</ele>
		</rtept>
		<rtept lat="33.065998" lon="35.159825">
			<ele>86</ele>
		</rtept>
		<rtept lat="33.065916" lon="35.16005">
			<ele>86.5</ele>
		</rtept>
		<rtept lat="33.065888" lon="35.160193">
			<ele>86</ele>
		</rtept>
		<rtept lat="33.065838" lon="35.160349">
			<ele>87</ele>
		</rtept>
		<rtept lat="33.065666" lon="35.160474">
			<ele>87</ele>
		</rtept>
		<rtept lat="33.065513" lon="35.160641">
			<ele>85</ele>
		</rtept>
		<rtept lat="33.065494" lon="35.160621">
			<ele>85</ele>
		</rtept>
		<rtept lat="33.065322" lon="35.16065">
			<ele>85</ele>
		</rtept>
		<rtept lat="33.065168" lon="35.160657">
			<ele>86</ele>
		</rtept>
		<rtept lat="33.065037" lon="35.160642">
			<ele>87</ele>
		</rtept>
		<rtept lat="33.064856" lon="35.160748">
			<ele>89</ele>
		</rtept>
		<rtept lat="33.064853" lon="35.160743">
			<ele>89</ele>
		</rtept>
		<rtept lat="33.064814" lon="35.16081">
			<ele>90</ele>
		</rtept>
		<rtept lat="33.064852" lon="35.161089">
			<ele>91</ele>
		</rtept>
		<rtept lat="33.064833" lon="35.161367">
			<ele>92</ele>
		</rtept>
		<rtept lat="33.064758" lon="35.161531">
			<ele>95</ele>
		</rtept>
		<rtept lat="33.06476" lon="35.161684">
			<ele>96</ele>
		</rtept>
		<rtept lat="33.064812" lon="35.16188">
			<ele>94.5</ele>
		</rtept>
		<rtept lat="33.064829" lon="35.162006">
			<ele>95</ele>
		</rtept>
		<rtept lat="33.064827" lon="35.162161">
			<ele>95</ele>
		</rtept>
		<rtept lat="33.064797" lon="35.162271">
			<ele>96</ele>
		</rtept>
		<rtept lat="33.064815" lon="35.162478">
			<ele>96</ele>
		</rtept>
		<rtept lat="33.064733" lon="35.162825">
			<ele>99</ele>
		</rtept>
		<rtept lat="33.064744" lon="35.163196">
			<ele>98</ele>
		</rtept>
		<rtept lat="33.064682" lon="35.163384">
			<ele>97</ele>
		</rtept>
		<rtept lat="33.064586" lon="35.163193">
			<ele>100</ele>
		</rtept>
		<rtept lat="33.064614" lon="35.162956">
			<ele>101</ele>
		</rtept>
		<rtept lat="33.06457" lon="35.162789">
			<ele>104</ele>
		</rtept>
		<rtept lat="33.064547" lon="35.1625">
			<ele>104</ele>
		</rtept>
		<rtept lat="33.064486" lon="35.162298">
			<ele>107</ele>
		</rtept>
		<rtept lat="33.064463" lon="35.162028">
			<ele>107</ele>
		</rtept>
		<rtept lat="33.064415" lon="35.161992">
			<ele>107</ele>
		</rtept>
		<rtept lat="33.064383" lon="35.162044">
			<ele>109</ele>
		</rtept>
		<rtept lat="33.064383" lon="35.16214">
			<ele>109</ele>
		</rtept>
		<rtept lat="33.064328" lon="35.162312">
			<ele>109</ele>
		</rtept>
		<rtept lat="33.064348" lon="35.162595">
			<ele>109</ele>
		</rtept>
		<rtept lat="33.064291" lon="35.162754">
			<ele>111</ele>
		</rtept>
		<rtept lat="33.064259" lon="35.162937">
			<ele>112</ele>
		</rtept>
		<rtept lat="33.064177" lon="35.163111">
			<ele>114</ele>
		</rtept>
		<rtept lat="33.064111" lon="35.163081">
			<ele>115</ele>
		</rtept>
		<rtept lat="33.064099" lon="35.162953">
			<ele>116</ele>
		</rtept>
		<rtept lat="33.064012" lon="35.162745">
			<ele>117.5</ele>
		</rtept>
		<rtept lat="33.063909" lon="35.16226">
			<ele>118</ele>
		</rtept>
		<rtept lat="33.063852" lon="35.162208">
			<ele>119</ele>
		</rtept>
		<rtept lat="33.063767" lon="35.162257">
			<ele>121</ele>
		</rtept>
		<rtept lat="33.063733" lon="35.162363">
			<ele>121</ele>
		</rtept>
		<rtept lat="33.063744" lon="35.162538">
			<ele>121</ele>
		</rtept>
		<rtept lat="33.063646" lon="35.163076">
			<ele>122</ele>
		</rtept>
		<rtept lat="33.063564" lon="35.163204">
			<ele>123</ele>
		</rtept>
		<rtept lat="33.063431" lon="35.1633">
			<ele>122</ele>
		</rtept>
		<rtept lat="33.063166" lon="35.16342">
			<ele>121</ele>
		</rtept>
		<rtept lat="33.06306" lon="35.163491">
			<ele>120</ele>
		</rtept>
		<rtept lat="33.063074" lon="35.163611">
			<ele>119</ele>
		</rtept>
		<rtept lat="33.063175" lon="35.163712">
			<ele>119</ele>
		</rtept>
		<rtept lat="33.063305" lon="35.16381">
			<ele>118</ele>
		</rtept>
		<rtept lat="33.063399" lon="35.163824">
			<ele>118</ele>
		</rtept>
		<rtept lat="33.063474" lon="35.163742">
			<ele>119</ele>
		</rtept>
		<rtept lat="33.06355" lon="35.16378">
			<ele>117</ele>
		</rtept>
		<rtept lat="33.063516" lon="35.163859">
			<ele>116</ele>
		</rtept>
		<rtept lat="33.063376" lon="35.163985">
			<ele>115</ele>
		</rtept>
		<rtept lat="33.063321" lon="35.164008">
			<ele>113.5</ele>
		</rtept>
		<rtept lat="33.063141" lon="35.164086">
			<ele>112</ele>
		</rtept>
		<rtept lat="33.063021" lon="35.1641">
			<ele>112</ele>
		</rtept>
		<rtept lat="33.062818" lon="35.16408">
			<ele>111</ele>
		</rtept>
		<rtept lat="33.062571" lon="35.163892">
			<ele>109</ele>
		</rtept>
		<rtept lat="33.062424" lon="35.163848">
			<ele>106</ele>
		</rtept>
		<rtept lat="33.062306" lon="35.163723">
			<ele>107</ele>
		</rtept>
		<rtept lat="33.062182" lon="35.163666">
			<ele>106</ele>
		</rtept>
		<rtept lat="33.06201" lon="35.163614">
			<ele>105</ele>
		</rtept>
		<rtept lat="33.061896" lon="35.1636">
			<ele>104</ele>
		</rtept>
		<rtept lat="33.061805" lon="35.163608">
			<ele>103</ele>
		</rtept>
		<rtept lat="33.061566" lon="35.16369">
			<ele>99</ele>
		</rtept>
		<rtept lat="33.061525" lon="35.163753">
			<ele>99</ele>
		</rtept>
		<rtept lat="33.061576" lon="35.163816">
			<ele>99</ele>
		</rtept>
		<rtept lat="33.061562" lon="35.163848">
			<ele>99</ele>
		</rtept>
		<rtept lat="33.061422" lon="35.163783">
			<ele>98</ele>
		</rtept>
		<rtept lat="33.06123" lon="35.163592">
			<ele>97</ele>
		</rtept>
		<rtept lat="33.061164" lon="35.163526">
			<ele>96</ele>
		</rtept>
		<rtept lat="33.061075" lon="35.163395">
			<ele>96</ele>
		</rtept>
		<rtept lat="33.061015" lon="35.163256">
			<ele>94</ele>
		</rtept>
		<rtept lat="33.060981" lon="35.162969">
			<ele>93</ele>
		</rtept>
		<rtept lat="33.060903" lon="35.162773">
			<ele>93</ele>
		</rtept>
		<rtept lat="33.060558" lon="35.162322">
			<ele>92</ele>
		</rtept>
		<rtept lat="33.060361" lon="35.161943">
			<ele>92</ele>
		</rtept>
		<rtept lat="33.060274" lon="35.161823">
			<ele>92</ele>
		</rtept>
		<rtept lat="33.060235" lon="35.161719">
			<ele>92</ele>
		</rtept>
		<rtept lat="33.060221" lon="35.161588">
			<ele>91</ele>
		</rtept>
		<rtept lat="33.060106" lon="35.161494">
			<ele>91</ele>
		</rtept>
		<rtept lat="33.060065" lon="35.161399">
			<ele>92</ele>
		</rtept>
		<rtept lat="33.060044" lon="35.161301">
			<ele>91</ele>
		</rtept>
		<rtept lat="33.060048" lon="35.161185">
			<ele>90</ele>
		</rtept>
		<rtept lat="33.060019" lon="35.160873">
			<ele>86</ele>
		</rtept>
		<rtept lat="33.059976" lon="35.160747">
			<ele>86</ele>
		</rtept>
		<rtept lat="33.059902" lon="35.160596">
			<ele>85</ele>
		</rtept>
		<rtept lat="33.059799" lon="35.160243">
			<ele>82</ele>
		</rtept>
		<rtept lat="33.059689" lon="35.159746">
			<ele>81</ele>
		</rtept>
		<rtept lat="33.059686" lon="35.159663">
			<ele>80</ele>
		</rtept>
		<rtept lat="33.059637" lon="35.159565">
			<ele>80</ele>
		</rtept>
		<rtept lat="33.059444" lon="35.159325">
			<ele>78</ele>
		</rtept>
		<rtept lat="33.059405" lon="35.159264">
			<ele>78</ele>
		</rtept>
		<rtept lat="33.059404" lon="35.159231">
			<ele>77</ele>
		</rtept>
		<rtept lat="33.059308" lon="35.159107">
			<ele>76</ele>
		</rtept>
		<rtept lat="33.059287" lon="35.158955">
			<ele>75</ele>
		</rtept>
		<rtept lat="33.059274" lon="35.158869">
			<ele>74</ele>
		</rtept>
		<rtept lat="33.059213" lon="35.158696">
			<ele>72</ele>
		</rtept>
		<rtept lat="33.059204" lon="35.158581">
			<ele>72</ele>
		</rtept>
		<rtept lat="33.059246" lon="35.158302">
			<ele>72</ele>
		</rtept>
		<rtept lat="33.059215" lon="35.158082">
			<ele>72</ele>
		</rtept>
		<rtept lat="33.05921" lon="35.157803">
			<ele>74</ele>
		</rtept>
		<rtept lat="33.059329" lon="35.157527">
			<ele>73</ele>
		</rtept>
		<rtept lat="33.05946" lon="35.157315">
			<ele>73</ele>
		</rtept>
		<rtept lat="33.05948" lon="35.157181">
			<ele>72</ele>
		</rtept>
		<rtept lat="33.059458" lon="35.157014">
			<ele>72</ele>
		</rtept>
		<rtept lat="33.05941" lon="35.156862">
			<ele>71</ele>
		</rtept>
		<rtept lat="33.059255" lon="35.156714">
			<ele>70</ele>
		</rtept>
		<rtept lat="33.059102" lon="35.156666">
			<ele>72</ele>
		</rtept>
		<rtept lat="33.05901" lon="35.156612">
			<ele>72</ele>
		</rtept>
		<rtept lat="33.058893" lon="35.156534">
			<ele>72</ele>
		</rtept>
		<rtept lat="33.058768" lon="35.156416">
			<ele>71</ele>
		</rtept>
		<rtept lat="33.058567" lon="35.156298">
			<ele>71</ele>
		</rtept>
		<rtept lat="33.058459" lon="35.156336">
			<ele>71</ele>
		</rtept>
		<rtept lat="33.058412" lon="35.156328">
			<ele>71</ele>
		</rtept>
		<rtept lat="33.058361" lon="35.15629">
			<ele>71</ele>
		</rtept>
		<rtept lat="33.058259" lon="35.156406">
			<ele>71</ele>
		</rtept>
		<rtept lat="33.058194" lon="35.15654">
			<ele>71</ele>
		</rtept>
		<rtept lat="33.058127" lon="35.156599">
			<ele>71</ele>
		</rtept>
		<rtept lat="33.05799" lon="35.15677">
			<ele>68</ele>
		</rtept>
		<rtept lat="33.057792" lon="35.15684">
			<ele>65</ele>
		</rtept>
		<rtept lat="33.057765" lon="35.156891">
			<ele>65</ele>
		</rtept>
		<rtept lat="33.05774" lon="35.156996">
			<ele>64</ele>
		</rtept>
		<rtept lat="33.057697" lon="35.157071">
			<ele>64</ele>
		</rtept>
		<rtept lat="33.057513" lon="35.157159">
			<ele>62</ele>
		</rtept>
		<rtept lat="33.057322" lon="35.157355">
			<ele>64</ele>
		</rtept>
		<rtept lat="33.057189" lon="35.157387">
			<ele>66</ele>
		</rtept>
		<rtept lat="33.057113" lon="35.157293">
			<ele>66</ele>
		</rtept>
		<rtept lat="33.057046" lon="35.157267">
			<ele>66</ele>
		</rtept>
		<rtept lat="33.056899" lon="35.157165">
			<ele>67</ele>
		</rtept>
		<rtept lat="33.056825" lon="35.157138">
			<ele>68</ele>
		</rtept>
		<rtept lat="33.056758" lon="35.157151">
			<ele>69</ele>
		</rtept>
		<rtept lat="33.056641" lon="35.157114">
			<ele>70</ele>
		</rtept>
		<rtept lat="33.056472" lon="35.157183">
			<ele>72</ele>
		</rtept>
		<rtept lat="33.056427" lon="35.15714">
			<ele>72</ele>
		</rtept>
		<rtept lat="33.056353" lon="35.157122">
			<ele>73</ele>
		</rtept>
		<rtept lat="33.056238" lon="35.157022">
			<ele>73</ele>
		</rtept>
		<rtept lat="33.056182" lon="35.156998">
			<ele>74</ele>
		</rtept>
		<rtept lat="33.056159" lon="35.156934">
			<ele>74</ele>
		</rtept>
		<rtept lat="33.056131" lon="35.156668">
			<ele>74</ele>
		</rtept>
		<rtept lat="33.056112" lon="35.156628">
			<ele>73</ele>
		</rtept>
		<rtept lat="33.05607" lon="35.156615">
			<ele>73</ele>
		</rtept>
		<rtept lat="33.056034" lon="35.156644">
			<ele>74</ele>
		</rtept>
		<rtept lat="33.055998" lon="35.156722">
			<ele>75</ele>
		</rtept>
		<rtept lat="33.055957" lon="35.156714">
			<ele>76</ele>
		</rtept>
		<rtept lat="33.055881" lon="35.156585">
			<ele>75</ele>
		</rtept>
		<rtept lat="33.05582" lon="35.156234">
			<ele>74</ele>
		</rtept>
		<rtept lat="33.055829" lon="35.156041">
			<ele>73</ele>
		</rtept>
		<rtept lat="33.055735" lon="35.15563">
			<ele>72</ele>
		</rtept>
		<rtept lat="33.055689" lon="35.1555">
			<ele>72</ele>
		</rtept>
		<rtept lat="33.055623" lon="35.155507">
			<ele>72</ele>
		</rtept>
		<rtept lat="33.055571" lon="35.155585">
			<ele>73</ele>
		</rtept>
		<rtept lat="33.0556" lon="35.155738">
			<ele>73</ele>
		</rtept>
		<rtept lat="33.055584" lon="35.155891">
			<ele>73</ele>
		</rtept>
		<rtept lat="33.055611" lon="35.155931">
			<ele>73</ele>
		</rtept>
		<rtept lat="33.055611" lon="35.156108">
			<ele>74</ele>
		</rtept>
		<rtept lat="33.055519" lon="35.156186">
			<ele>75</ele>
		</rtept>
		<rtept lat="33.05547" lon="35.156392">
			<ele>76</ele>
		</rtept>
		<rtept lat="33.05544" lon="35.156449">
			<ele>76</ele>
		</rtept>
		<rtept lat="33.05538" lon="35.156499">
			<ele>76</ele>
		</rtept>
		<rtept lat="33.055301" lon="35.156639">
			<ele>77</ele>
		</rtept>
		<rtept lat="33.055267" lon="35.15665">
			<ele>77</ele>
		</rtept>
		<rtept lat="33.055236" lon="35.156722">
			<ele>77</ele>
		</rtept>
		<rtept lat="33.055225" lon="35.15687">
			<ele>78</ele>
		</rtept>
		<rtept lat="33.05513" lon="35.156961">
			<ele>78</ele>
		</rtept>
		<rtept lat="33.055067" lon="35.157076">
			<ele>79</ele>
		</rtept>
		<rtept lat="33.055092" lon="35.157328">
			<ele>80</ele>
		</rtept>
		<rtept lat="33.05522" lon="35.157588">
			<ele>81</ele>
		</rtept>
		<rtept lat="33.055279" lon="35.15769">
			<ele>82</ele>
		</rtept>
		<rtept lat="33.05533" lon="35.157747">
			<ele>82</ele>
		</rtept>
		<rtept lat="33.055328" lon="35.158093">
			<ele>83</ele>
		</rtept>
		<rtept lat="33.055371" lon="35.158221">
			<ele>84</ele>
		</rtept>
		<rtept lat="33.055326" lon="35.158436">
			<ele>83</ele>
		</rtept>
		<rtept lat="33.055341" lon="35.158492">
			<ele>84</ele>
		</rtept>
		<rtept lat="33.055321" lon="35.158624">
			<ele>83</ele>
		</rtept>
		<rtept lat="33.05529" lon="35.158675">
			<ele>83</ele>
		</rtept>
		<rtept lat="33.055272" lon="35.158761">
			<ele>83</ele>
		</rtept>
		<rtept lat="33.055312" lon="35.158825">
			<ele>83</ele>
		</rtept>
		<rtept lat="33.055465" lon="35.158865">
			<ele>84</ele>
		</rtept>
		<rtept lat="33.055533" lon="35.158999">
			<ele>85</ele>
		</rtept>
		<rtept lat="33.055573" lon="35.159045">
			<ele>85</ele>
		</rtept>
		<rtept lat="33.055647" lon="35.159064">
			<ele>85</ele>
		</rtept>
		<rtept lat="33.055674" lon="35.159096">
			<ele>85</ele>
		</rtept>
		<rtept lat="33.05569" lon="35.159195">
			<ele>85</ele>
		</rtept>
		<rtept lat="33.055798" lon="35.159276">
			<ele>86</ele>
		</rtept>
		<rtept lat="33.055865" lon="35.159431">
			<ele>86</ele>
		</rtept>
		<rtept lat="33.055879" lon="35.159509">
			<ele>86</ele>
		</rtept>
		<rtept lat="33.055879" lon="35.159576">
			<ele>86</ele>
		</rtept>
		<rtept lat="33.055834" lon="35.15963">
			<ele>85</ele>
		</rtept>
		<rtept lat="33.055802" lon="35.159726">
			<ele>85</ele>
		</rtept>
		<rtept lat="33.055809" lon="35.159788">
			<ele>85</ele>
		</rtept>
		<rtept lat="33.055841" lon="35.159855">
			<ele>84</ele>
		</rtept>
		<rtept lat="33.055886" lon="35.159911">
			<ele>85</ele>
		</rtept>
		<rtept lat="33.056023" lon="35.159922">
			<ele>85</ele>
		</rtept>
		<rtept lat="33.056083" lon="35.159973">
			<ele>85</ele>
		</rtept>
		<rtept lat="33.05616" lon="35.160051">
			<ele>86</ele>
		</rtept>
		<rtept lat="33.056454" lon="35.160445">
			<ele>88</ele>
		</rtept>
		<rtept lat="33.056643" lon="35.160606">
			<ele>90</ele>
		</rtept>
		<rtept lat="33.056737" lon="35.160606">
			<ele>91</ele>
		</rtept>
		<rtept lat="33.056899" lon="35.160391">
			<ele>93</ele>
		</rtept>
		<rtept lat="33.056987" lon="35.16044">
			<ele>95</ele>
		</rtept>
		<rtept lat="33.057284" lon="35.160212">
			<ele>97</ele>
		</rtept>
		<rtept lat="33.057572" lon="35.16008">
			<ele>98</ele>
		</rtept>
		<rtept lat="33.057639" lon="35.16015">
			<ele>99</ele>
		</rtept>
		<rtept lat="33.057581" lon="35.160338">
			<ele>101</ele>
		</rtept>
		<rtept lat="33.057605" lon="35.160378">
			<ele>101</ele>
		</rtept>
		<rtept lat="33.057653" lon="35.160399">
			<ele>101</ele>
		</rtept>
		<rtept lat="33.057655" lon="35.160442">
			<ele>102</ele>
		</rtept>
		<rtept lat="33.057626" lon="35.160544">
			<ele>102</ele>
		</rtept>
		<rtept lat="33.057553" lon="35.160652">
			<ele>102</ele>
		</rtept>
		<rtept lat="33.057542" lon="35.160981">
			<ele>104</ele>
		</rtept>
		<rtept lat="33.057623" lon="35.160998">
			<ele>105</ele>
		</rtept>
		<rtept lat="33.057646" lon="35.161016">
			<ele>105</ele>
		</rtept>
		<rtept lat="33.05765" lon="35.161057">
			<ele>105</ele>
		</rtept>
		<rtept lat="33.057632" lon="35.161097">
			<ele>105</ele>
		</rtept>
		<rtept lat="33.05765" lon="35.161142">
			<ele>105</ele>
		</rtept>
		<rtept lat="33.057679" lon="35.161161">
			<ele>107</ele>
		</rtept>
		<rtept lat="33.057799" lon="35.161142">
			<ele>107</ele>
		</rtept>
		<rtept lat="33.057864" lon="35.161175">
			<ele>109</ele>
		</rtept>
		<rtept lat="33.058008" lon="35.161156">
			<ele>110</ele>
		</rtept>
		<rtept lat="33.058062" lon="35.161175">
			<ele>110</ele>
		</rtept>
		<rtept lat="33.058122" lon="35.161279">
			<ele>112</ele>
		</rtept>
		<rtept lat="33.058109" lon="35.16136">
			<ele>111</ele>
		</rtept>
		<rtept lat="33.058116" lon="35.161585">
			<ele>112</ele>
		</rtept>
		<rtept lat="33.058197" lon="35.161636">
			<ele>113</ele>
		</rtept>
		<rtept lat="33.058215" lon="35.161698">
			<ele>114</ele>
		</rtept>
		<rtept lat="33.058212" lon="35.161749">
			<ele>114</ele>
		</rtept>
		<rtept lat="33.058156" lon="35.161778">
			<ele>114</ele>
		</rtept>
		<rtept lat="33.058113" lon="35.161824">
			<ele>113</ele>
		</rtept>
		<rtept lat="33.058082" lon="35.161912">
			<ele>113</ele>
		</rtept>
		<rtept lat="33.05812" lon="35.162156">
			<ele>113</ele>
		</rtept>
		<rtept lat="33.058021" lon="35.162449">
			<ele>109</ele>
		</rtept>
		<rtept lat="33.058075" lon="35.162513">
			<ele>109</ele>
		</rtept>
		<rtept lat="33.058154" lon="35.162516">
			<ele>110</ele>
		</rtept>
		<rtept lat="33.058309" lon="35.162596">
			<ele>111</ele>
		</rtept>
		<rtept lat="33.05859" lon="35.162757">
			<ele>113</ele>
		</rtept>
		<rtept lat="33.058716" lon="35.162862">
			<ele>112</ele>
		</rtept>
		<rtept lat="33.058963" lon="35.16313">
			<ele>114</ele>
		</rtept>
		<rtept lat="33.059186" lon="35.163497">
			<ele>113</ele>
		</rtept>
		<rtept lat="33.059422" lon="35.163709">
			<ele>114</ele>
		</rtept>
		<rtept lat="33.059559" lon="35.163787">
			<ele>112.5</ele>
		</rtept>
		<rtept lat="33.059559" lon="35.163788">
			<ele>112.5</ele>
		</rtept>
		<rtept lat="33.059712" lon="35.163921">
			<ele>112</ele>
		</rtept>
		<rtept lat="33.060038" lon="35.164066">
			<ele>108</ele>
		</rtept>
		<rtept lat="33.06011" lon="35.164028">
			<ele>106</ele>
		</rtept>
		<rtept lat="33.060202" lon="35.163913">
			<ele>107</ele>
		</rtept>
		<rtept lat="33.060368" lon="35.16379">
			<ele>105</ele>
		</rtept>
		<rtept lat="33.060444" lon="35.163618">
			<ele>105</ele>
		</rtept>
		<rtept lat="33.060453" lon="35.163567">
			<ele>103</ele>
		</rtept>
		<rtept lat="33.060433" lon="35.163532">
			<ele>105</ele>
		</rtept>
		<rtept lat="33.060433" lon="35.163484">
			<ele>105</ele>
		</rtept>
		<rtept lat="33.060469" lon="35.163479">
			<ele>103</ele>
		</rtept>
		<rtept lat="33.06051" lon="35.163511">
			<ele>103</ele>
		</rtept>
		<rtept lat="33.060595" lon="35.163631">
			<ele>102</ele>
		</rtept>
		<rtept lat="33.060649" lon="35.163763">
			<ele>100</ele>
		</rtept>
		<rtept lat="33.060642" lon="35.163849">
			<ele>100</ele>
		</rtept>
		<rtept lat="33.060604" lon="35.163932">
			<ele>101</ele>
		</rtept>
		<rtept lat="33.060602" lon="35.16398">
			<ele>101</ele>
		</rtept>
		<rtept lat="33.060638" lon="35.164052">
			<ele>100</ele>
		</rtept>
		<rtept lat="33.060809" lon="35.164055">
			<ele>99</ele>
		</rtept>
		<rtept lat="33.061011" lon="35.164002">
			<ele>98</ele>
		</rtept>
		<rtept lat="33.061063" lon="35.164047">
			<ele>98</ele>
		</rtept>
		<rtept lat="33.061083" lon="35.164098">
			<ele>98</ele>
		</rtept>
		<rtept lat="33.061085" lon="35.16416">
			<ele>98</ele>
		</rtept>
		<rtept lat="33.06118" lon="35.164221">
			<ele>98</ele>
		</rtept>
		<rtept lat="33.0612" lon="35.164256">
			<ele>98</ele>
		</rtept>
		<rtept lat="33.061217" lon="35.164223">
			<ele>98</ele>
		</rtept>
		<rtept lat="33.061065" lon="35.164476">
			<ele>99</ele>
		</rtept>
		<rtept lat="33.060849" lon="35.164572">
			<ele>99</ele>
		</rtept>
		<rtept lat="33.060585" lon="35.164756">
			<ele>101</ele>
		</rtept>
		<rtept lat="33.060361" lon="35.16486">
			<ele>102</ele>
		</rtept>
		<rtept lat="33.060193" lon="35.165012">
			<ele>102</ele>
		</rtept>
		<rtept lat="33.060041" lon="35.165244">
			<ele>103</ele>
		</rtept>
		<rtept lat="33.059873" lon="35.1653">
			<ele>104</ele>
		</rtept>
		<rtept lat="33.059714" lon="35.165316">
			<ele>103</ele>
		</rtept>
		<rtept lat="33.05933" lon="35.165596">
			<ele>101</ele>
		</rtept>
		<rtept lat="33.05897" lon="35.165612">
			<ele>98</ele>
		</rtept>
		<rtept lat="33.05881" lon="35.165596">
			<ele>96</ele>
		</rtept>
		<rtept lat="33.058082" lon="35.166068">
			<ele>92</ele>
		</rtept>
		<rtept lat="33.057938" lon="35.165484">
			<ele>88</ele>
		</rtept>
		<rtept lat="33.057842" lon="35.165252">
			<ele>86</ele>
		</rtept>
		<rtept lat="33.057618" lon="35.165084">
			<ele>85</ele>
		</rtept>
		<rtept lat="33.057362" lon="35.164932">
			<ele>83</ele>
		</rtept>
		<rtept lat="33.057179" lon="35.164748">
			<ele>81</ele>
		</rtept>
		<rtept lat="33.056699" lon="35.164204">
			<ele>79</ele>
		</rtept>
		<rtept lat="33.056307" lon="35.164108">
			<ele>76</ele>
		</rtept>
		<rtept lat="33.056179" lon="35.163973">
			<ele>75</ele>
		</rtept>
		<rtept lat="33.056019" lon="35.163357">
			<ele>75</ele>
		</rtept>
		<rtept lat="33.055835" lon="35.163237">
			<ele>73</ele>
		</rtept>
		<rtept lat="33.055651" lon="35.162957">
			<ele>73</ele>
		</rtept>
		<rtept lat="33.055323" lon="35.16239">
			<ele>70.5</ele>
		</rtept>
		<rtept lat="33.055083" lon="35.161933">
			<ele>70</ele>
		</rtept>
		<rtept lat="33.054172" lon="35.160486">
			<ele>64</ele>
		</rtept>
		<rtept lat="33.053804" lon="35.159678">
			<ele>62</ele>
		</rtept>
		<rtept lat="33.053363" lon="35.159151">
			<ele>60</ele>
		</rtept>
		<rtept lat="33.052827" lon="35.158383">
			<ele>57</ele>
		</rtept>
		<rtept lat="33.052446" lon="35.158111">
			<ele>57</ele>
		</rtept>
		<rtept lat="33.052253" lon="35.157999">
			<ele>58</ele>
		</rtept>
		<rtept lat="33.052231" lon="35.157789">
			<ele>58</ele>
		</rtept>
		<rtept lat="33.052011" lon="35.158007">
			<ele>59</ele>
		</rtept>
		<rtept lat="33.051956" lon="35.158035">
			<ele>60</ele>
		</rtept>
		<rtept lat="33.051714" lon="35.157959">
			<ele>64</ele>
		</rtept>
		<rtept lat="33.051662" lon="35.157991">
			<ele>64</ele>
		</rtept>
		<rtept lat="33.05143" lon="35.158315">
			<ele>67</ele>
		</rtept>
		<rtept lat="33.051389" lon="35.158535">
			<ele>66</ele>
		</rtept>
		<rtept lat="33.05138" lon="35.158739">
			<ele>65</ele>
		</rtept>
		<rtept lat="33.051326" lon="35.159115">
			<ele>64</ele>
		</rtept>
		<rtept lat="33.051274" lon="35.159224">
			<ele>65</ele>
		</rtept>
		<rtept lat="33.051019" lon="35.159545">
			<ele>67</ele>
		</rtept>
		<rtept lat="33.050811" lon="35.159867">
			<ele>70</ele>
		</rtept>
		<rtept lat="33.050791" lon="35.160072">
			<ele>68</ele>
		</rtept>
		<rtept lat="33.050739" lon="35.160224">
			<ele>68</ele>
		</rtept>
		<rtept lat="33.050482" lon="35.16053">
			<ele>70</ele>
		</rtept>
		<rtept lat="33.050119" lon="35.160917">
			<ele>76</ele>
		</rtept>
		<rtept lat="33.050002" lon="35.161227">
			<ele>76.5</ele>
		</rtept>
		<rtept lat="33.050001" lon="35.161227">
			<ele>76.5</ele>
		</rtept>
		<rtept lat="33.04967" lon="35.162005">
			<ele>82</ele>
		</rtept>
		<rtept lat="33.049577" lon="35.162304">
			<ele>84</ele>
		</rtept>
		<rtept lat="33.049615" lon="35.16259">
			<ele>81</ele>
		</rtept>
		<rtept lat="33.049588" lon="35.162749">
			<ele>81</ele>
		</rtept>
		<rtept lat="33.049411" lon="35.16309">
			<ele>84</ele>
		</rtept>
		<rtept lat="33.049245" lon="35.163648">
			<ele>89</ele>
		</rtept>
		<rtept lat="33.049271" lon="35.16385">
			<ele>89</ele>
		</rtept>
		<rtept lat="33.049417" lon="35.164168">
			<ele>87</ele>
		</rtept>
		<rtept lat="33.049415" lon="35.164531">
			<ele>88</ele>
		</rtept>
		<rtept lat="33.049348" lon="35.164782">
			<ele>90</ele>
		</rtept>
		<rtept lat="33.049222" lon="35.164921">
			<ele>92</ele>
		</rtept>
		<rtept lat="33.048666" lon="35.165239">
			<ele>98</ele>
		</rtept>
		<rtept lat="33.04748" lon="35.165542">
			<ele>98</ele>
		</rtept>
		<rtept lat="33.046891" lon="35.165871">
			<ele>94</ele>
		</rtept>
		<rtept lat="33.046727" lon="35.165931">
			<ele>93</ele>
		</rtept>
		<rtept lat="33.046484" lon="35.16614">
			<ele>90.5</ele>
		</rtept>
		<rtept lat="33.046396" lon="35.166215">
			<ele>88</ele>
		</rtept>
		<rtept lat="33.046002" lon="35.166445">
			<ele>83</ele>
		</rtept>
		<rtept lat="33.045726" lon="35.166451">
			<ele>79</ele>
		</rtept>
		<rtept lat="33.04551" lon="35.166324">
			<ele>77</ele>
		</rtept>
		<rtept lat="33.045459" lon="35.166365">
			<ele>76</ele>
		</rtept>
		<rtept lat="33.044978" lon="35.166455">
			<ele>74</ele>
		</rtept>
		<rtept lat="33.045111" lon="35.166743">
			<ele>75</ele>
		</rtept>
		<rtept lat="33.045019" lon="35.16675">
			<ele>76</ele>
		</rtept>
		<rtept lat="33.044662" lon="35.166658">
			<ele>75</ele>
		</rtept>
		<rtept lat="33.044547" lon="35.1667">
			<ele>74</ele>
		</rtept>
		<rtept lat="33.044342" lon="35.166889">
			<ele>74</ele>
		</rtept>
		<rtept lat="33.044287" lon="35.16697">
			<ele>75</ele>
		</rtept>
		<rtept lat="33.044204" lon="35.167159">
			<ele>76</ele>
		</rtept>
		<rtept lat="33.044014" lon="35.167691">
			<ele>77</ele>
		</rtept>
		<rtept lat="33.043867" lon="35.167979">
			<ele>78</ele>
		</rtept>
		<rtept lat="33.043319" lon="35.168798">
			<ele>78</ele>
		</rtept>
		<rtept lat="33.042898" lon="35.169652">
			<ele>78</ele>
		</rtept>
		<rtept lat="33.0428" lon="35.169915">
			<ele>79</ele>
		</rtept>
		<rtept lat="33.042755" lon="35.170109">
			<ele>78</ele>
		</rtept>
		<rtept lat="33.042749" lon="35.170298">
			<ele>78</ele>
		</rtept>
		<rtept lat="33.042778" lon="35.170475">
			<ele>79</ele>
		</rtept>
		<rtept lat="33.042849" lon="35.170682">
			<ele>80.5</ele>
		</rtept>
		<rtept lat="33.043028" lon="35.171074">
			<ele>82</ele>
		</rtept>
		<rtept lat="33.043244" lon="35.171714">
			<ele>80</ele>
		</rtept>
		<rtept lat="33.043324" lon="35.172128">
			<ele>80</ele>
		</rtept>
		<rtept lat="33.043127" lon="35.172201">
			<ele>80</ele>
		</rtept>
		<rtept lat="33.042315" lon="35.172415">
			<ele>88</ele>
		</rtept>
		<rtept lat="33.042388" lon="35.173346">
			<ele>93</ele>
		</rtept>
		<rtept lat="33.042628" lon="35.174315">
			<ele>92</ele>
		</rtept>
		<rtept lat="33.042488" lon="35.176111">
			<ele>93</ele>
		</rtept>
		<rtept lat="33.042256" lon="35.176987">
			<ele>94</ele>
		</rtept>
		<rtept lat="33.042225" lon="35.177775">
			<ele>94</ele>
		</rtept>
	</rte>
</gpx>