<?xml version="1.0" encoding="utf-8"?>
<gpx version="1.1"><trk><trkseg>
<trkpt lat="33.0542693" lon="35.1152752"><ele>22.6</ele><time>2026-07-10T07:09:14Z</time></trkpt>
<trkpt lat="33.0543018" lon="35.1152691"><ele>22.0</ele><time>2026-07-10T07:09:15Z</time></trkpt>
<trkpt lat="33.0543349" lon="35.1152626"><ele>21.4</ele><time>2026-07-10T07:09:16Z</time></trkpt>
<trkpt lat="33.0543685" lon="35.1152555"><ele>20.9</ele><time>2026-07-10T07:09:17Z</time></trkpt>
<trkpt lat="33.0544022" lon="35.1152479"><ele>20.4</ele><time>2026-07-10T07:09:18Z</time></trkpt>
<trkpt lat="33.0544352" lon="35.1152384"><ele>20.0</ele><time>2026-07-10T07:09:19Z</time></trkpt>
<trkpt lat="33.054467" lon="35.1152275"><ele>19.6</ele><time>2026-07-10T07:09:20Z</time></trkpt>
<trkpt lat="33.0544978" lon="35.115217"><ele>19.4</ele><time>2026-07-10T07:09:21Z</time></trkpt>
<trkpt lat="33.0545286" lon="35.1152077"><ele>19.1</ele><time>2026-07-10T07:09:22Z</time></trkpt>
<trkpt lat="33.0545601" lon="35.1152009"><ele>19.0</ele><time>2026-07-10T07:09:23Z</time></trkpt>
<trkpt lat="33.0545942" lon="35.1151957"><ele>18.9</ele><time>2026-07-10T07:09:24Z</time></trkpt>
<trkpt lat="33.0546291" lon="35.1151903"><ele>18.9</ele><time>2026-07-10T07:09:25Z</time></trkpt>
<trkpt lat="33.0546643" lon="35.1151842"><ele>19.0</ele><time>2026-07-10T07:09:26Z</time></trkpt>
<trkpt lat="33.0547" lon="35.1151771"><ele>19.0</ele><time>2026-07-10T07:09:27Z</time></trkpt>
<trkpt lat="33.0547363" lon="35.1151695"><ele>19.1</ele><time>2026-07-10T07:09:28Z</time></trkpt>
<trkpt lat="33.0547729" lon="35.1151604"><ele>19.3</ele><time>2026-07-10T07:09:29Z</time></trkpt>
<trkpt lat="33.0548098" lon="35.11515"><ele>19.4</ele><time>2026-07-10T07:09:30Z</time></trkpt>
<trkpt lat="33.0548469" lon="35.1151394"><ele>19.5</ele><time>2026-07-10T07:09:31Z</time></trkpt>
<trkpt lat="33.0548837" lon="35.1151279"><ele>19.6</ele><time>2026-07-10T07:09:32Z</time></trkpt>
<trkpt lat="33.0549216" lon="35.1151156"><ele>19.7</ele><time>2026-07-10T07:09:33Z</time></trkpt>
<trkpt lat="33.0549612" lon="35.1151037"><ele>19.8</ele><time>2026-07-10T07:09:34Z</time></trkpt>
<trkpt lat="33.0550012" lon="35.1150925"><ele>19.8</ele><time>2026-07-10T07:09:35Z</time></trkpt>
<trkpt lat="33.0550406" lon="35.1150799"><ele>19.9</ele><time>2026-07-10T07:09:36Z</time></trkpt>
<trkpt lat="33.055079" lon="35.1150664"><ele>19.9</ele><time>2026-07-10T07:09:37Z</time></trkpt>
<trkpt lat="33.0551173" lon="35.1150525"><ele>20.0</ele><time>2026-07-10T07:09:38Z</time></trkpt>
<trkpt lat="33.0551556" lon="35.1150368"><ele>20.0</ele><time>2026-07-10T07:09:39Z</time></trkpt>
<trkpt lat="33.0551943" lon="35.1150208"><ele>20.1</ele><time>2026-07-10T07:09:40Z</time></trkpt>
<trkpt lat="33.0552336" lon="35.1150053"><ele>20.1</ele><time>2026-07-10T07:09:41Z</time></trkpt>
<trkpt lat="33.0552728" lon="35.1149899"><ele>20.1</ele><time>2026-07-10T07:09:42Z</time></trkpt>
<trkpt lat="33.0553112" lon="35.1149746"><ele>20.1</ele><time>2026-07-10T07:09:43Z</time></trkpt>
<trkpt lat="33.0553462" lon="35.1149586"><ele>20.2</ele><time>2026-07-10T07:09:44Z</time></trkpt>
<trkpt lat="33.0553773" lon="35.1149397"><ele>20.2</ele><time>2026-07-10T07:09:45Z</time></trkpt>
<trkpt lat="33.055407" lon="35.1149194"><ele>20.2</ele><time>2026-07-10T07:09:46Z</time></trkpt>
<trkpt lat="33.0554367" lon="35.1148998"><ele>20.3</ele><time>2026-07-10T07:09:47Z</time></trkpt>
<trkpt lat="33.0554671" lon="35.1148817"><ele>20.3</ele><time>2026-07-10T07:09:48Z</time></trkpt>
<trkpt lat="33.0554981" lon="35.1148662"><ele>20.3</ele><time>2026-07-10T07:09:49Z</time></trkpt>
<trkpt lat="33.055529" lon="35.1148538"><ele>20.3</ele><time>2026-07-10T07:09:50Z</time></trkpt>
<trkpt lat="33.0555593" lon="35.1148428"><ele>20.4</ele><time>2026-07-10T07:09:51Z</time></trkpt>
<trkpt lat="33.055589" lon="35.1148307"><ele>20.4</ele><time>2026-07-10T07:09:52Z</time></trkpt>
<trkpt lat="33.0556186" lon="35.1148173"><ele>20.4</ele><time>2026-07-10T07:09:53Z</time></trkpt>
<trkpt lat="33.0556476" lon="35.1148033"><ele>20.4</ele><time>2026-07-10T07:09:54Z</time></trkpt>
<trkpt lat="33.0556759" lon="35.1147894"><ele>20.5</ele><time>2026-07-10T07:09:55Z</time></trkpt>
<trkpt lat="33.0557037" lon="35.1147752"><ele>20.5</ele><time>2026-07-10T07:09:56Z</time></trkpt>
<trkpt lat="33.0557306" lon="35.1147609"><ele>20.5</ele><time>2026-07-10T07:09:57Z</time></trkpt>
<trkpt lat="33.0557573" lon="35.1147456"><ele>20.4</ele><time>2026-07-10T07:09:58Z</time></trkpt>
<trkpt lat="33.0557868" lon="35.1147257"><ele>20.4</ele><time>2026-07-10T07:09:59Z</time></trkpt>
<trkpt lat="33.0558205" lon="35.1147031"><ele>20.4</ele><time>2026-07-10T07:10:00Z</time></trkpt>
<trkpt lat="33.0558571" lon="35.1146799"><ele>20.4</ele><time>2026-07-10T07:10:01Z</time></trkpt>
<trkpt lat="33.0558948" lon="35.1146559"><ele>20.3</ele><time>2026-07-10T07:10:02Z</time></trkpt>
<trkpt lat="33.0559333" lon="35.1146328"><ele>20.3</ele><time>2026-07-10T07:10:03Z</time></trkpt>
<trkpt lat="33.055972" lon="35.1146107"><ele>20.2</ele><time>2026-07-10T07:10:04Z</time></trkpt>
<trkpt lat="33.0560107" lon="35.1145894"><ele>20.2</ele><time>2026-07-10T07:10:05Z</time></trkpt>
<trkpt lat="33.0560502" lon="35.1145677"><ele>20.1</ele><time>2026-07-10T07:10:06Z</time></trkpt>
<trkpt lat="33.05609" lon="35.1145469"><ele>20.1</ele><time>2026-07-10T07:10:07Z</time></trkpt>
<trkpt lat="33.0561293" lon="35.1145278"><ele>20.0</ele><time>2026-07-10T07:10:08Z</time></trkpt>
<trkpt lat="33.0561681" lon="35.1145089"><ele>20.0</ele><time>2026-07-10T07:10:09Z</time></trkpt>
<trkpt lat="33.056207" lon="35.1144878"><ele>20.0</ele><time>2026-07-10T07:10:10Z</time></trkpt>
<trkpt lat="33.0562475" lon="35.1144635"><ele>19.9</ele><time>2026-07-10T07:10:11Z</time></trkpt>
<trkpt lat="33.0562889" lon="35.1144384"><ele>19.9</ele><time>2026-07-10T07:10:12Z</time></trkpt>
<trkpt lat="33.0563305" lon="35.1144142"><ele>19.9</ele><time>2026-07-10T07:10:13Z</time></trkpt>
<trkpt lat="33.056372" lon="35.1143908"><ele>19.9</ele><time>2026-07-10T07:10:14Z</time></trkpt>
<trkpt lat="33.0564126" lon="35.1143687"><ele>19.8</ele><time>2026-07-10T07:10:15Z</time></trkpt>
<trkpt lat="33.0564514" lon="35.1143459"><ele>19.8</ele><time>2026-07-10T07:10:16Z</time></trkpt>
<trkpt lat="33.0564906" lon="35.1143202"><ele>19.8</ele><time>2026-07-10T07:10:17Z</time></trkpt>
<trkpt lat="33.0565322" lon="35.114292"><ele>19.7</ele><time>2026-07-10T07:10:18Z</time></trkpt>
<trkpt lat="33.0565763" lon="35.1142612"><ele>19.7</ele><time>2026-07-10T07:10:19Z</time></trkpt>
<trkpt lat="33.0566229" lon="35.1142284"><ele>19.6</ele><time>2026-07-10T07:10:20Z</time></trkpt>
<trkpt lat="33.0566701" lon="35.1141957"><ele>19.5</ele><time>2026-07-10T07:10:21Z</time></trkpt>
<trkpt lat="33.0567172" lon="35.1141641"><ele>19.5</ele><time>2026-07-10T07:10:22Z</time></trkpt>
<trkpt lat="33.0567636" lon="35.1141334"><ele>19.4</ele><time>2026-07-10T07:10:23Z</time></trkpt>
<trkpt lat="33.0568095" lon="35.114103"><ele>19.3</ele><time>2026-07-10T07:10:24Z</time></trkpt>
<trkpt lat="33.0568543" lon="35.1140733"><ele>19.2</ele><time>2026-07-10T07:10:25Z</time></trkpt>
<trkpt lat="33.0568965" lon="35.1140452"><ele>19.2</ele><time>2026-07-10T07:10:26Z</time></trkpt>
<trkpt lat="33.0569377" lon="35.1140178"><ele>19.1</ele><time>2026-07-10T07:10:27Z</time></trkpt>
<trkpt lat="33.0569792" lon="35.1139905"><ele>19.0</ele><time>2026-07-10T07:10:28Z</time></trkpt>
<trkpt lat="33.0570209" lon="35.1139638"><ele>19.0</ele><time>2026-07-10T07:10:29Z</time></trkpt>
<trkpt lat="33.057063" lon="35.1139387"><ele>19.0</ele><time>2026-07-10T07:10:30Z</time></trkpt>
<trkpt lat="33.057107" lon="35.1139162"><ele>18.9</ele><time>2026-07-10T07:10:31Z</time></trkpt>
<trkpt lat="33.0571528" lon="35.1138956"><ele>18.9</ele><time>2026-07-10T07:10:32Z</time></trkpt>
<trkpt lat="33.0571978" lon="35.1138753"><ele>18.9</ele><time>2026-07-10T07:10:33Z</time></trkpt>
<trkpt lat="33.0572418" lon="35.1138532"><ele>18.9</ele><time>2026-07-10T07:10:34Z</time></trkpt>
<trkpt lat="33.0572856" lon="35.113828"><ele>18.8</ele><time>2026-07-10T07:10:35Z</time></trkpt>
<trkpt lat="33.0573274" lon="35.1138012"><ele>18.8</ele><time>2026-07-10T07:10:36Z</time></trkpt>
<trkpt lat="33.0573655" lon="35.1137748"><ele>18.8</ele><time>2026-07-10T07:10:37Z</time></trkpt>
<trkpt lat="33.0574013" lon="35.1137491"><ele>18.8</ele><time>2026-07-10T07:10:38Z</time></trkpt>
<trkpt lat="33.0574363" lon="35.113725"><ele>18.8</ele><time>2026-07-10T07:10:39Z</time></trkpt>
<trkpt lat="33.0574719" lon="35.1137027"><ele>18.9</ele><time>2026-07-10T07:10:40Z</time></trkpt>
<trkpt lat="33.0575088" lon="35.1136819"><ele>18.9</ele><time>2026-07-10T07:10:41Z</time></trkpt>
<trkpt lat="33.057606" lon="35.1136418"><ele>19.0</ele><time>2026-07-10T07:10:43Z</time></trkpt>
<trkpt lat="33.0576519" lon="35.1136271"><ele>19.1</ele><time>2026-07-10T07:10:44Z</time></trkpt>
<trkpt lat="33.0576941" lon="35.113613"><ele>19.1</ele><time>2026-07-10T07:10:45Z</time></trkpt>
<trkpt lat="33.0577349" lon="35.1136006"><ele>19.1</ele><time>2026-07-10T07:10:46Z</time></trkpt>
<trkpt lat="33.0577744" lon="35.113589"><ele>19.0</ele><time>2026-07-10T07:10:47Z</time></trkpt>
<trkpt lat="33.0578136" lon="35.1135766"><ele>19.0</ele><time>2026-07-10T07:10:48Z</time></trkpt>
<trkpt lat="33.0578534" lon="35.113564"><ele>19.0</ele><time>2026-07-10T07:10:49Z</time></trkpt>
<trkpt lat="33.0578938" lon="35.1135521"><ele>19.0</ele><time>2026-07-10T07:10:50Z</time></trkpt>
<trkpt lat="33.0579356" lon="35.1135416"><ele>19.0</ele><time>2026-07-10T07:10:51Z</time></trkpt>
<trkpt lat="33.0579792" lon="35.113532"><ele>19.0</ele><time>2026-07-10T07:10:52Z</time></trkpt>
<trkpt lat="33.0580241" lon="35.1135232"><ele>19.0</ele><time>2026-07-10T07:10:53Z</time></trkpt>
<trkpt lat="33.0580698" lon="35.1135171"><ele>19.0</ele><time>2026-07-10T07:10:54Z</time></trkpt>
<trkpt lat="33.0581148" lon="35.1135132"><ele>19.1</ele><time>2026-07-10T07:10:55Z</time></trkpt>
<trkpt lat="33.0581593" lon="35.1135099"><ele>19.1</ele><time>2026-07-10T07:10:56Z</time></trkpt>
<trkpt lat="33.0582039" lon="35.1135085"><ele>19.2</ele><time>2026-07-10T07:10:57Z</time></trkpt>
<trkpt lat="33.0582482" lon="35.1135084"><ele>19.2</ele><time>2026-07-10T07:10:58Z</time></trkpt>
<trkpt lat="33.0582926" lon="35.1135115"><ele>19.3</ele><time>2026-07-10T07:10:59Z</time></trkpt>
<trkpt lat="33.0583375" lon="35.1135178"><ele>19.3</ele><time>2026-07-10T07:11:00Z</time></trkpt>
<trkpt lat="33.0583827" lon="35.1135236"><ele>19.4</ele><time>2026-07-10T07:11:01Z</time></trkpt>
<trkpt lat="33.0584282" lon="35.113528"><ele>19.5</ele><time>2026-07-10T07:11:02Z</time></trkpt>
<trkpt lat="33.0584733" lon="35.113533"><ele>19.5</ele><time>2026-07-10T07:11:03Z</time></trkpt>
<trkpt lat="33.0585175" lon="35.1135393"><ele>19.6</ele><time>2026-07-10T07:11:04Z</time></trkpt>
<trkpt lat="33.0585612" lon="35.1135485"><ele>19.6</ele><time>2026-07-10T07:11:05Z</time></trkpt>
<trkpt lat="33.0586048" lon="35.1135592"><ele>19.7</ele><time>2026-07-10T07:11:06Z</time></trkpt>
<trkpt lat="33.0586486" lon="35.1135693"><ele>19.7</ele><time>2026-07-10T07:11:07Z</time></trkpt>
<trkpt lat="33.0586926" lon="35.1135789"><ele>19.8</ele><time>2026-07-10T07:11:08Z</time></trkpt>
<trkpt lat="33.0587365" lon="35.1135882"><ele>19.8</ele><time>2026-07-10T07:11:09Z</time></trkpt>
<trkpt lat="33.0587803" lon="35.1135988"><ele>19.9</ele><time>2026-07-10T07:11:10Z</time></trkpt>
<trkpt lat="33.0588235" lon="35.1136117"><ele>20.0</ele><time>2026-07-10T07:11:11Z</time></trkpt>
<trkpt lat="33.0588666" lon="35.1136254"><ele>20.1</ele><time>2026-07-10T07:11:12Z</time></trkpt>
<trkpt lat="33.0589095" lon="35.1136397"><ele>20.1</ele><time>2026-07-10T07:11:13Z</time></trkpt>
<trkpt lat="33.0589518" lon="35.1136548"><ele>20.2</ele><time>2026-07-10T07:11:14Z</time></trkpt>
<trkpt lat="33.0589939" lon="35.1136706"><ele>20.3</ele><time>2026-07-10T07:11:15Z</time></trkpt>
<trkpt lat="33.0590364" lon="35.113687"><ele>20.4</ele><time>2026-07-10T07:11:16Z</time></trkpt>
<trkpt lat="33.0590795" lon="35.1137026"><ele>20.5</ele><time>2026-07-10T07:11:17Z</time></trkpt>
<trkpt lat="33.059123" lon="35.1137167"><ele>20.6</ele><time>2026-07-10T07:11:18Z</time></trkpt>
<trkpt lat="33.0591667" lon="35.1137294"><ele>20.7</ele><time>2026-07-10T07:11:19Z</time></trkpt>
<trkpt lat="33.0592099" lon="35.1137412"><ele>20.8</ele><time>2026-07-10T07:11:20Z</time></trkpt>
<trkpt lat="33.0592519" lon="35.1137536"><ele>20.9</ele><time>2026-07-10T07:11:21Z</time></trkpt>
<trkpt lat="33.0592922" lon="35.113767"><ele>21.0</ele><time>2026-07-10T07:11:22Z</time></trkpt>
<trkpt lat="33.0593317" lon="35.1137815"><ele>21.1</ele><time>2026-07-10T07:11:23Z</time></trkpt>
<trkpt lat="33.0593717" lon="35.1137956"><ele>21.1</ele><time>2026-07-10T07:11:24Z</time></trkpt>
<trkpt lat="33.0594121" lon="35.1138086"><ele>21.2</ele><time>2026-07-10T07:11:25Z</time></trkpt>
<trkpt lat="33.0594534" lon="35.1138222"><ele>21.3</ele><time>2026-07-10T07:11:26Z</time></trkpt>
<trkpt lat="33.0594936" lon="35.113836"><ele>21.3</ele><time>2026-07-10T07:11:27Z</time></trkpt>
<trkpt lat="33.0595314" lon="35.1138488"><ele>21.3</ele><time>2026-07-10T07:11:28Z</time></trkpt>
<trkpt lat="33.0595676" lon="35.1138591"><ele>21.4</ele><time>2026-07-10T07:11:29Z</time></trkpt>
<trkpt lat="33.0596036" lon="35.1138676"><ele>21.4</ele><time>2026-07-10T07:11:30Z</time></trkpt>
<trkpt lat="33.0596389" lon="35.1138757"><ele>21.4</ele><time>2026-07-10T07:11:31Z</time></trkpt>
<trkpt lat="33.059672" lon="35.1138839"><ele>21.5</ele><time>2026-07-10T07:11:32Z</time></trkpt>
<trkpt lat="33.0597023" lon="35.1138923"><ele>21.5</ele><time>2026-07-10T07:11:33Z</time></trkpt>
<trkpt lat="33.0597311" lon="35.1139004"><ele>21.6</ele><time>2026-07-10T07:11:34Z</time></trkpt>
<trkpt lat="33.0597585" lon="35.1139072"><ele>21.6</ele><time>2026-07-10T07:11:35Z</time></trkpt>
<trkpt lat="33.0597849" lon="35.1139117"><ele>21.6</ele><time>2026-07-10T07:11:36Z</time></trkpt>
<trkpt lat="33.0598126" lon="35.1139143"><ele>21.7</ele><time>2026-07-10T07:11:37Z</time></trkpt>
<trkpt lat="33.0598424" lon="35.1139177"><ele>21.7</ele><time>2026-07-10T07:11:38Z</time></trkpt>
<trkpt lat="33.059873" lon="35.1139223"><ele>21.7</ele><time>2026-07-10T07:11:39Z</time></trkpt>
<trkpt lat="33.0599042" lon="35.1139261"><ele>21.7</ele><time>2026-07-10T07:11:40Z</time></trkpt>
<trkpt lat="33.0599348" lon="35.1139273"><ele>21.6</ele><time>2026-07-10T07:11:41Z</time></trkpt>
<trkpt lat="33.0599641" lon="35.1139237"><ele>21.6</ele><time>2026-07-10T07:11:42Z</time></trkpt>
<trkpt lat="33.0599919" lon="35.1139142"><ele>21.5</ele><time>2026-07-10T07:11:43Z</time></trkpt>
<trkpt lat="33.0600207" lon="35.1138975"><ele>21.5</ele><time>2026-07-10T07:11:44Z</time></trkpt>
<trkpt lat="33.0600514" lon="35.1138725"><ele>21.4</ele><time>2026-07-10T07:11:45Z</time></trkpt>
<trkpt lat="33.0600801" lon="35.1138421"><ele>21.3</ele><time>2026-07-10T07:11:46Z</time></trkpt>
<trkpt lat="33.0601042" lon="35.1138091"><ele>21.2</ele><time>2026-07-10T07:11:47Z</time></trkpt>
<trkpt lat="33.0601223" lon="35.1137765"><ele>21.1</ele><time>2026-07-10T07:11:48Z</time></trkpt>
<trkpt lat="33.0601356" lon="35.1137426"><ele>21.0</ele><time>2026-07-10T07:11:49Z</time></trkpt>
<trkpt lat="33.0601482" lon="35.1137023"><ele>20.9</ele><time>2026-07-10T07:11:50Z</time></trkpt>
<trkpt lat="33.0601615" lon="35.1136575"><ele>20.8</ele><time>2026-07-10T07:11:51Z</time></trkpt>
<trkpt lat="33.0601764" lon="35.1136144"><ele>20.8</ele><time>2026-07-10T07:11:52Z</time></trkpt>
<trkpt lat="33.0601935" lon="35.1135771"><ele>20.7</ele><time>2026-07-10T07:11:53Z</time></trkpt>
<trkpt lat="33.060214" lon="35.1135458"><ele>20.6</ele><time>2026-07-10T07:11:54Z</time></trkpt>
<trkpt lat="33.0602391" lon="35.1135175"><ele>20.5</ele><time>2026-07-10T07:11:55Z</time></trkpt>
<trkpt lat="33.0602683" lon="35.1134903"><ele>20.5</ele><time>2026-07-10T07:11:56Z</time></trkpt>
<trkpt lat="33.0602994" lon="35.1134641"><ele>20.4</ele><time>2026-07-10T07:11:57Z</time></trkpt>
<trkpt lat="33.0603316" lon="35.1134381"><ele>20.3</ele><time>2026-07-10T07:11:58Z</time></trkpt>
<trkpt lat="33.0603657" lon="35.1134109"><ele>20.3</ele><time>2026-07-10T07:11:59Z</time></trkpt>
<trkpt lat="33.0603997" lon="35.1133814"><ele>20.2</ele><time>2026-07-10T07:12:00Z</time></trkpt>
<trkpt lat="33.0604305" lon="35.1133478"><ele>20.1</ele><time>2026-07-10T07:12:01Z</time></trkpt>
<trkpt lat="33.0604582" lon="35.1133088"><ele>20.0</ele><time>2026-07-10T07:12:02Z</time></trkpt>
<trkpt lat="33.0604831" lon="35.1132651"><ele>19.9</ele><time>2026-07-10T07:12:03Z</time></trkpt>
<trkpt lat="33.0605058" lon="35.1132183"><ele>19.7</ele><time>2026-07-10T07:12:04Z</time></trkpt>
<trkpt lat="33.0605268" lon="35.11317"><ele>19.6</ele><time>2026-07-10T07:12:05Z</time></trkpt>
<trkpt lat="33.0605459" lon="35.1131214"><ele>19.5</ele><time>2026-07-10T07:12:06Z</time></trkpt>
<trkpt lat="33.0605631" lon="35.1130722"><ele>19.3</ele><time>2026-07-10T07:12:07Z</time></trkpt>
<trkpt lat="33.0605786" lon="35.1130242"><ele>19.2</ele><time>2026-07-10T07:12:08Z</time></trkpt>
<trkpt lat="33.0605931" lon="35.1129803"><ele>19.1</ele><time>2026-07-10T07:12:09Z</time></trkpt>
<trkpt lat="33.0606077" lon="35.1129414"><ele>18.9</ele><time>2026-07-10T07:12:10Z</time></trkpt>
<trkpt lat="33.0606227" lon="35.1129088"><ele>18.8</ele><time>2026-07-10T07:12:11Z</time></trkpt>
<trkpt lat="33.0606368" lon="35.1128839"><ele>18.7</ele><time>2026-07-10T07:12:12Z</time></trkpt>
<trkpt lat="33.0606491" lon="35.1128656"><ele>18.6</ele><time>2026-07-10T07:12:13Z</time></trkpt>
<trkpt lat="33.060659" lon="35.1128533"><ele>18.5</ele><time>2026-07-10T07:12:14Z</time></trkpt>
<trkpt lat="33.0606659" lon="35.1128457"><ele>18.4</ele><time>2026-07-10T07:12:15Z</time></trkpt>
<trkpt lat="33.0606703" lon="35.1128415"><ele>18.4</ele><time>2026-07-10T07:12:16Z</time></trkpt>
<trkpt lat="33.0606724" lon="35.1128401"><ele>18.3</ele><time>2026-07-10T07:12:17Z</time></trkpt>
<trkpt lat="33.060673" lon="35.1128404"><ele>18.2</ele><time>2026-07-10T07:12:18Z</time></trkpt>
<trkpt lat="33.060673" lon="35.1128413"><ele>18.2</ele><time>2026-07-10T07:12:19Z</time></trkpt>
<trkpt lat="33.060673" lon="35.1128422"><ele>18.2</ele><time>2026-07-10T07:12:20Z</time></trkpt>
<trkpt lat="33.0606731" lon="35.112843"><ele>18.1</ele><time>2026-07-10T07:12:21Z</time></trkpt>
<trkpt lat="33.0606733" lon="35.1128436"><ele>18.1</ele><time>2026-07-10T07:12:22Z</time></trkpt>
<trkpt lat="33.0606737" lon="35.1128441"><ele>18.1</ele><time>2026-07-10T07:12:23Z</time></trkpt>
<trkpt lat="33.0606741" lon="35.1128447"><ele>18.1</ele><time>2026-07-10T07:12:24Z</time></trkpt>
<trkpt lat="33.0606746" lon="35.1128451"><ele>18.1</ele><time>2026-07-10T07:12:25Z</time></trkpt>
<trkpt lat="33.0606752" lon="35.1128456"><ele>18.1</ele><time>2026-07-10T07:12:26Z</time></trkpt>
<trkpt lat="33.060676" lon="35.1128459"><ele>18.1</ele><time>2026-07-10T07:12:27Z</time></trkpt>
<trkpt lat="33.0606769" lon="35.1128463"><ele>18.1</ele><time>2026-07-10T07:12:28Z</time></trkpt>
<trkpt lat="33.0606782" lon="35.1128466"><ele>18.1</ele><time>2026-07-10T07:12:29Z</time></trkpt>
<trkpt lat="33.0606798" lon="35.1128468"><ele>18.1</ele><time>2026-07-10T07:12:30Z</time></trkpt>
<trkpt lat="33.0606823" lon="35.1128466"><ele>18.1</ele><time>2026-07-10T07:12:31Z</time></trkpt>
<trkpt lat="33.0606864" lon="35.1128453"><ele>18.1</ele><time>2026-07-10T07:12:32Z</time></trkpt>
<trkpt lat="33.0606934" lon="35.1128421"><ele>18.1</ele><time>2026-07-10T07:12:33Z</time></trkpt>
<trkpt lat="33.0607038" lon="35.1128375"><ele>18.0</ele><time>2026-07-10T07:12:34Z</time></trkpt>
<trkpt lat="33.060718" lon="35.1128322"><ele>18.0</ele><time>2026-07-10T07:12:35Z</time></trkpt>
<trkpt lat="33.0607361" lon="35.1128264"><ele>18.0</ele><time>2026-07-10T07:12:36Z</time></trkpt>
<trkpt lat="33.060758" lon="35.1128204"><ele>18.0</ele><time>2026-07-10T07:12:37Z</time></trkpt>
<trkpt lat="33.0607836" lon="35.1128154"><ele>18.0</ele><time>2026-07-10T07:12:38Z</time></trkpt>
<trkpt lat="33.0608126" lon="35.1128111"><ele>18.0</ele><time>2026-07-10T07:12:39Z</time></trkpt>
<trkpt lat="33.0608442" lon="35.1128062"><ele>18.0</ele><time>2026-07-10T07:12:40Z</time></trkpt>
<trkpt lat="33.0608779" lon="35.1128016"><ele>18.0</ele><time>2026-07-10T07:12:41Z</time></trkpt>
<trkpt lat="33.060971" lon="35.112798"><ele>18.1</ele><time>2026-07-10T07:12:43Z</time></trkpt>
<trkpt lat="33.0610142" lon="35.1127978"><ele>18.2</ele><time>2026-07-10T07:12:44Z</time></trkpt>
<trkpt lat="33.0610551" lon="35.1127947"><ele>18.2</ele><time>2026-07-10T07:12:45Z</time></trkpt>
<trkpt lat="33.0610958" lon="35.1127883"><ele>18.2</ele><time>2026-07-10T07:12:46Z</time></trkpt>
<trkpt lat="33.0611369" lon="35.1127805"><ele>18.2</ele><time>2026-07-10T07:12:47Z</time></trkpt>
<trkpt lat="33.0611793" lon="35.1127733"><ele>18.2</ele><time>2026-07-10T07:12:48Z</time></trkpt>
<trkpt lat="33.0612233" lon="35.1127683"><ele>18.2</ele><time>2026-07-10T07:12:49Z</time></trkpt>
<trkpt lat="33.0612682" lon="35.1127658"><ele>18.2</ele><time>2026-07-10T07:12:50Z</time></trkpt>
<trkpt lat="33.061313" lon="35.1127621"><ele>18.2</ele><time>2026-07-10T07:12:51Z</time></trkpt>
<trkpt lat="33.061357" lon="35.1127557"><ele>18.2</ele><time>2026-07-10T07:12:52Z</time></trkpt>
<trkpt lat="33.0614022" lon="35.1127481"><ele>18.3</ele><time>2026-07-10T07:12:53Z</time></trkpt>
<trkpt lat="33.0614473" lon="35.1127385"><ele>18.3</ele><time>2026-07-10T07:12:54Z</time></trkpt>
<trkpt lat="33.061493" lon="35.1127288"><ele>18.3</ele><time>2026-07-10T07:12:55Z</time></trkpt>
<trkpt lat="33.061539" lon="35.1127219"><ele>18.4</ele><time>2026-07-10T07:12:56Z</time></trkpt>
<trkpt lat="33.0615853" lon="35.1127177"><ele>18.4</ele><time>2026-07-10T07:12:57Z</time></trkpt>
<trkpt lat="33.0616325" lon="35.112716"><ele>18.4</ele><time>2026-07-10T07:12:58Z</time></trkpt>
<trkpt lat="33.0616801" lon="35.112714"><ele>18.5</ele><time>2026-07-10T07:12:59Z</time></trkpt>
<trkpt lat="33.0617271" lon="35.1127121"><ele>18.5</ele><time>2026-07-10T07:13:00Z</time></trkpt>
<trkpt lat="33.0617731" lon="35.1127103"><ele>18.6</ele><time>2026-07-10T07:13:01Z</time></trkpt>
<trkpt lat="33.0618191" lon="35.1127076"><ele>18.6</ele><time>2026-07-10T07:13:02Z</time></trkpt>
<trkpt lat="33.061867" lon="35.1127068"><ele>18.6</ele><time>2026-07-10T07:13:03Z</time></trkpt>
<trkpt lat="33.0619165" lon="35.1127085"><ele>18.7</ele><time>2026-07-10T07:13:04Z</time></trkpt>
<trkpt lat="33.0619659" lon="35.1127111"><ele>18.7</ele><time>2026-07-10T07:13:05Z</time></trkpt>
<trkpt lat="33.0620155" lon="35.1127135"><ele>18.8</ele><time>2026-07-10T07:13:06Z</time></trkpt>
<trkpt lat="33.0620654" lon="35.1127157"><ele>18.8</ele><time>2026-07-10T07:13:07Z</time></trkpt>
<trkpt lat="33.0621162" lon="35.1127175"><ele>18.9</ele><time>2026-07-10T07:13:08Z</time></trkpt>
<trkpt lat="33.0621673" lon="35.1127186"><ele>19.0</ele><time>2026-07-10T07:13:09Z</time></trkpt>
<trkpt lat="33.0622187" lon="35.1127196"><ele>19.0</ele><time>2026-07-10T07:13:10Z</time></trkpt>
<trkpt lat="33.0622702" lon="35.1127209"><ele>19.1</ele><time>2026-07-10T07:13:11Z</time></trkpt>
<trkpt lat="33.062322" lon="35.1127224"><ele>19.2</ele><time>2026-07-10T07:13:12Z</time></trkpt>
<trkpt lat="33.0623737" lon="35.1127231"><ele>19.2</ele><time>2026-07-10T07:13:13Z</time></trkpt>
<trkpt lat="33.0624256" lon="35.1127228"><ele>19.3</ele><time>2026-07-10T07:13:14Z</time></trkpt>
<trkpt lat="33.0624776" lon="35.1127227"><ele>19.4</ele><time>2026-07-10T07:13:15Z</time></trkpt>
<trkpt lat="33.062531" lon="35.1127243"><ele>19.4</ele><time>2026-07-10T07:13:16Z</time></trkpt>
<trkpt lat="33.0625861" lon="35.1127266"><ele>19.5</ele><time>2026-07-10T07:13:17Z</time></trkpt>
<trkpt lat="33.0626418" lon="35.1127283"><ele>19.5</ele><time>2026-07-10T07:13:18Z</time></trkpt>
<trkpt lat="33.0626967" lon="35.112729"><ele>19.5</ele><time>2026-07-10T07:13:19Z</time></trkpt>
<trkpt lat="33.0627496" lon="35.1127294"><ele>19.5</ele><time>2026-07-10T07:13:20Z</time></trkpt>
<trkpt lat="33.0628009" lon="35.1127302"><ele>19.5</ele><time>2026-07-10T07:13:21Z</time></trkpt>
<trkpt lat="33.0628517" lon="35.1127312"><ele>19.5</ele><time>2026-07-10T07:13:22Z</time></trkpt>
<trkpt lat="33.0629024" lon="35.1127318"><ele>19.5</ele><time>2026-07-10T07:13:23Z</time></trkpt>
<trkpt lat="33.0629525" lon="35.1127324"><ele>19.4</ele><time>2026-07-10T07:13:24Z</time></trkpt>
<trkpt lat="33.0630025" lon="35.1127339"><ele>19.4</ele><time>2026-07-10T07:13:25Z</time></trkpt>
<trkpt lat="33.0630535" lon="35.112737"><ele>19.4</ele><time>2026-07-10T07:13:26Z</time></trkpt>
<trkpt lat="33.0631056" lon="35.1127408"><ele>19.3</ele><time>2026-07-10T07:13:27Z</time></trkpt>
<trkpt lat="33.0631583" lon="35.1127448"><ele>19.3</ele><time>2026-07-10T07:13:28Z</time></trkpt>
<trkpt lat="33.0632124" lon="35.1127499"><ele>19.2</ele><time>2026-07-10T07:13:29Z</time></trkpt>
<trkpt lat="33.0632687" lon="35.112756"><ele>19.2</ele><time>2026-07-10T07:13:30Z</time></trkpt>
<trkpt lat="33.0633257" lon="35.1127618"><ele>19.1</ele><time>2026-07-10T07:13:31Z</time></trkpt>
<trkpt lat="33.0633817" lon="35.1127679"><ele>19.1</ele><time>2026-07-10T07:13:32Z</time></trkpt>
<trkpt lat="33.0634372" lon="35.1127754"><ele>19.0</ele><time>2026-07-10T07:13:33Z</time></trkpt>
<trkpt lat="33.0634925" lon="35.1127843"><ele>18.9</ele><time>2026-07-10T07:13:34Z</time></trkpt>
<trkpt lat="33.0635474" lon="35.112795"><ele>18.9</ele><time>2026-07-10T07:13:35Z</time></trkpt>
<trkpt lat="33.0636026" lon="35.112807"><ele>18.8</ele><time>2026-07-10T07:13:36Z</time></trkpt>
<trkpt lat="33.0636585" lon="35.1128197"><ele>18.7</ele><time>2026-07-10T07:13:37Z</time></trkpt>
<trkpt lat="33.0637143" lon="35.1128341"><ele>18.7</ele><time>2026-07-10T07:13:38Z</time></trkpt>
<trkpt lat="33.0637705" lon="35.1128504"><ele>18.6</ele><time>2026-07-10T07:13:39Z</time></trkpt>
<trkpt lat="33.0638272" lon="35.1128677"><ele>18.6</ele><time>2026-07-10T07:13:40Z</time></trkpt>
<trkpt lat="33.0638836" lon="35.1128859"><ele>18.6</ele><time>2026-07-10T07:13:41Z</time></trkpt>
<trkpt lat="33.0640082" lon="35.1129257"><ele>18.6</ele><time>2026-07-10T07:13:43Z</time></trkpt>
<trkpt lat="33.0640591" lon="35.1129404"><ele>18.6</ele><time>2026-07-10T07:13:44Z</time></trkpt>
<trkpt lat="33.0641078" lon="35.1129536"><ele>18.6</ele><time>2026-07-10T07:13:45Z</time></trkpt>
<trkpt lat="33.0641563" lon="35.1129665"><ele>18.6</ele><time>2026-07-10T07:13:46Z</time></trkpt>
<trkpt lat="33.0642046" lon="35.1129803"><ele>18.5</ele><time>2026-07-10T07:13:47Z</time></trkpt>
<trkpt lat="33.0642534" lon="35.112995"><ele>18.5</ele><time>2026-07-10T07:13:48Z</time></trkpt>
<trkpt lat="33.0643023" lon="35.1130104"><ele>18.4</ele><time>2026-07-10T07:13:49Z</time></trkpt>
<trkpt lat="33.0643497" lon="35.1130262"><ele>18.4</ele><time>2026-07-10T07:13:50Z</time></trkpt>
<trkpt lat="33.064395" lon="35.1130414"><ele>18.4</ele><time>2026-07-10T07:13:51Z</time></trkpt>
<trkpt lat="33.0644402" lon="35.1130468"><ele>18.3</ele><time>2026-07-10T07:13:52Z</time></trkpt>
<trkpt lat="33.0644838" lon="35.1130326"><ele>18.3</ele><time>2026-07-10T07:13:53Z</time></trkpt>
<trkpt lat="33.0645217" lon="35.1129997"><ele>18.2</ele><time>2026-07-10T07:13:54Z</time></trkpt>
<trkpt lat="33.0645514" lon="35.1129528"><ele>18.2</ele><time>2026-07-10T07:13:55Z</time></trkpt>
<trkpt lat="33.0645745" lon="35.112898"><ele>18.1</ele><time>2026-07-10T07:13:56Z</time></trkpt>
<trkpt lat="33.0645927" lon="35.1128382"><ele>18.0</ele><time>2026-07-10T07:13:57Z</time></trkpt>
<trkpt lat="33.0646072" lon="35.112775"><ele>17.9</ele><time>2026-07-10T07:13:58Z</time></trkpt>
<trkpt lat="33.0646208" lon="35.1127066"><ele>17.7</ele><time>2026-07-10T07:13:59Z</time></trkpt>
<trkpt lat="33.0646348" lon="35.1126355"><ele>17.6</ele><time>2026-07-10T07:14:00Z</time></trkpt>
<trkpt lat="33.0646484" lon="35.1125646"><ele>17.4</ele><time>2026-07-10T07:14:01Z</time></trkpt>
<trkpt lat="33.0646626" lon="35.1124918"><ele>17.1</ele><time>2026-07-10T07:14:02Z</time></trkpt>
<trkpt lat="33.0646781" lon="35.1124187"><ele>16.9</ele><time>2026-07-10T07:14:03Z</time></trkpt>
<trkpt lat="33.0646929" lon="35.1123454"><ele>16.6</ele><time>2026-07-10T07:14:04Z</time></trkpt>
<trkpt lat="33.0647064" lon="35.112271"><ele>16.4</ele><time>2026-07-10T07:14:05Z</time></trkpt>
<trkpt lat="33.0647192" lon="35.1121955"><ele>16.1</ele><time>2026-07-10T07:14:06Z</time></trkpt>
<trkpt lat="33.0647332" lon="35.1121188"><ele>15.8</ele><time>2026-07-10T07:14:07Z</time></trkpt>
<trkpt lat="33.0647503" lon="35.1120405"><ele>15.6</ele><time>2026-07-10T07:14:08Z</time></trkpt>
<trkpt lat="33.0647691" lon="35.1119628"><ele>15.3</ele><time>2026-07-10T07:14:09Z</time></trkpt>
<trkpt lat="33.0647867" lon="35.1118857"><ele>15.0</ele><time>2026-07-10T07:14:10Z</time></trkpt>
<trkpt lat="33.0648032" lon="35.1118084"><ele>14.8</ele><time>2026-07-10T07:14:11Z</time></trkpt>
<trkpt lat="33.0648211" lon="35.1117311"><ele>14.5</ele><time>2026-07-10T07:14:12Z</time></trkpt>
<trkpt lat="33.0648408" lon="35.1116533"><ele>14.3</ele><time>2026-07-10T07:14:13Z</time></trkpt>
<trkpt lat="33.0648604" lon="35.111575"><ele>14.0</ele><time>2026-07-10T07:14:14Z</time></trkpt>
<trkpt lat="33.0648774" lon="35.1114961"><ele>13.8</ele><time>2026-07-10T07:14:15Z</time></trkpt>
<trkpt lat="33.0648921" lon="35.1114168"><ele>13.6</ele><time>2026-07-10T07:14:16Z</time></trkpt>
<trkpt lat="33.0649067" lon="35.1113369"><ele>13.3</ele><time>2026-07-10T07:14:17Z</time></trkpt>
<trkpt lat="33.0649228" lon="35.1112575"><ele>13.1</ele><time>2026-07-10T07:14:18Z</time></trkpt>
<trkpt lat="33.0649397" lon="35.111178"><ele>12.8</ele><time>2026-07-10T07:14:19Z</time></trkpt>
<trkpt lat="33.0649557" lon="35.1110941"><ele>12.6</ele><time>2026-07-10T07:14:20Z</time></trkpt>
<trkpt lat="33.0649721" lon="35.1110068"><ele>12.3</ele><time>2026-07-10T07:14:21Z</time></trkpt>
<trkpt lat="33.0649918" lon="35.1109209"><ele>12.1</ele><time>2026-07-10T07:14:22Z</time></trkpt>
<trkpt lat="33.0650132" lon="35.1108386"><ele>11.8</ele><time>2026-07-10T07:14:23Z</time></trkpt>
<trkpt lat="33.065033" lon="35.1107563"><ele>11.5</ele><time>2026-07-10T07:14:24Z</time></trkpt>
<trkpt lat="33.065052" lon="35.1106731"><ele>11.3</ele><time>2026-07-10T07:14:25Z</time></trkpt>
<trkpt lat="33.06507" lon="35.1105926"><ele>11.0</ele><time>2026-07-10T07:14:26Z</time></trkpt>
<trkpt lat="33.0650867" lon="35.1105169"><ele>10.7</ele><time>2026-07-10T07:14:27Z</time></trkpt>
<trkpt lat="33.0651027" lon="35.1104443"><ele>10.5</ele><time>2026-07-10T07:14:28Z</time></trkpt>
<trkpt lat="33.0651173" lon="35.1103742"><ele>10.2</ele><time>2026-07-10T07:14:29Z</time></trkpt>
<trkpt lat="33.0651352" lon="35.1103025"><ele>10.0</ele><time>2026-07-10T07:14:30Z</time></trkpt>
<trkpt lat="33.065153" lon="35.1102321"><ele>9.8</ele><time>2026-07-10T07:14:31Z</time></trkpt>
<trkpt lat="33.0651665" lon="35.1101684"><ele>9.6</ele><time>2026-07-10T07:14:32Z</time></trkpt>
<trkpt lat="33.06518" lon="35.1101062"><ele>9.4</ele><time>2026-07-10T07:14:33Z</time></trkpt>
<trkpt lat="33.0651951" lon="35.110045"><ele>9.2</ele><time>2026-07-10T07:14:34Z</time></trkpt>
<trkpt lat="33.0652125" lon="35.1099915"><ele>9.0</ele><time>2026-07-10T07:14:35Z</time></trkpt>
<trkpt lat="33.0652292" lon="35.1099496"><ele>8.9</ele><time>2026-07-10T07:14:36Z</time></trkpt>
<trkpt lat="33.0652427" lon="35.1099168"><ele>8.7</ele><time>2026-07-10T07:14:37Z</time></trkpt>
<trkpt lat="33.0652546" lon="35.1098901"><ele>8.6</ele><time>2026-07-10T07:14:38Z</time></trkpt>
<trkpt lat="33.0652674" lon="35.1098679"><ele>8.5</ele><time>2026-07-10T07:14:39Z</time></trkpt>
<trkpt lat="33.0652815" lon="35.1098484"><ele>8.5</ele><time>2026-07-10T07:14:40Z</time></trkpt>
<trkpt lat="33.0652961" lon="35.1098317"><ele>8.5</ele><time>2026-07-10T07:14:41Z</time></trkpt>
<trkpt lat="33.065341" lon="35.1097904"><ele>8.6</ele><time>2026-07-10T07:14:44Z</time></trkpt>
<trkpt lat="33.0653567" lon="35.1097767"><ele>8.6</ele><time>2026-07-10T07:14:45Z</time></trkpt>
<trkpt lat="33.0653683" lon="35.1097649"><ele>8.6</ele><time>2026-07-10T07:14:46Z</time></trkpt>
<trkpt lat="33.0653766" lon="35.1097548"><ele>8.5</ele><time>2026-07-10T07:14:47Z</time></trkpt>
<trkpt lat="33.0653848" lon="35.1097462"><ele>8.4</ele><time>2026-07-10T07:14:48Z</time></trkpt>
<trkpt lat="33.0653963" lon="35.1097389"><ele>8.3</ele><time>2026-07-10T07:14:49Z</time></trkpt>
<trkpt lat="33.0654126" lon="35.1097331"><ele>8.2</ele><time>2026-07-10T07:14:50Z</time></trkpt>
<trkpt lat="33.0654524" lon="35.1097342"><ele>8.0</ele><time>2026-07-10T07:14:51Z</time></trkpt>
<trkpt lat="33.0654729" lon="35.1097417"><ele>7.9</ele><time>2026-07-10T07:14:52Z</time></trkpt>
<trkpt lat="33.0654949" lon="35.1097509"><ele>7.8</ele><time>2026-07-10T07:14:53Z</time></trkpt>
<trkpt lat="33.065519" lon="35.1097607"><ele>7.8</ele><time>2026-07-10T07:14:54Z</time></trkpt>
<trkpt lat="33.0655451" lon="35.1097708"><ele>7.7</ele><time>2026-07-10T07:14:55Z</time></trkpt>
<trkpt lat="33.0655728" lon="35.1097816"><ele>7.7</ele><time>2026-07-10T07:14:56Z</time></trkpt>
<trkpt lat="33.0656026" lon="35.1097945"><ele>7.6</ele><time>2026-07-10T07:14:57Z</time></trkpt>
<trkpt lat="33.0656342" lon="35.1098105"><ele>7.6</ele><time>2026-07-10T07:14:58Z</time></trkpt>
<trkpt lat="33.065667" lon="35.1098303"><ele>7.7</ele><time>2026-07-10T07:14:59Z</time></trkpt>
<trkpt lat="33.0657015" lon="35.1098534"><ele>7.7</ele><time>2026-07-10T07:15:00Z</time></trkpt>
<trkpt lat="33.065738" lon="35.1098763"><ele>7.7</ele><time>2026-07-10T07:15:01Z</time></trkpt>
<trkpt lat="33.0657761" lon="35.1098969"><ele>7.8</ele><time>2026-07-10T07:15:02Z</time></trkpt>
<trkpt lat="33.0658143" lon="35.109918"><ele>7.8</ele><time>2026-07-10T07:15:03Z</time></trkpt>
<trkpt lat="33.0658529" lon="35.1099407"><ele>7.9</ele><time>2026-07-10T07:15:04Z</time></trkpt>
<trkpt lat="33.0658909" lon="35.1099628"><ele>7.9</ele><time>2026-07-10T07:15:05Z</time></trkpt>
<trkpt lat="33.0659284" lon="35.1099847"><ele>8.0</ele><time>2026-07-10T07:15:06Z</time></trkpt>
<trkpt lat="33.0659666" lon="35.1100071"><ele>8.1</ele><time>2026-07-10T07:15:07Z</time></trkpt>
<trkpt lat="33.0660056" lon="35.1100301"><ele>8.1</ele><time>2026-07-10T07:15:08Z</time></trkpt>
<trkpt lat="33.0660448" lon="35.1100535"><ele>8.2</ele><time>2026-07-10T07:15:09Z</time></trkpt>
<trkpt lat="33.0660839" lon="35.1100783"><ele>8.2</ele><time>2026-07-10T07:15:10Z</time></trkpt>
<trkpt lat="33.066122" lon="35.1101044"><ele>8.2</ele><time>2026-07-10T07:15:11Z</time></trkpt>
<trkpt lat="33.0661597" lon="35.1101321"><ele>8.3</ele><time>2026-07-10T07:15:12Z</time></trkpt>
<trkpt lat="33.0661977" lon="35.1101603"><ele>8.3</ele><time>2026-07-10T07:15:13Z</time></trkpt>
<trkpt lat="33.0662366" lon="35.1101876"><ele>8.3</ele><time>2026-07-10T07:15:14Z</time></trkpt>
<trkpt lat="33.0662763" lon="35.1102145"><ele>8.3</ele><time>2026-07-10T07:15:15Z</time></trkpt>
<trkpt lat="33.0663173" lon="35.1102424"><ele>8.3</ele><time>2026-07-10T07:15:16Z</time></trkpt>
<trkpt lat="33.0663592" lon="35.1102712"><ele>8.3</ele><time>2026-07-10T07:15:17Z</time></trkpt>
<trkpt lat="33.0663998" lon="35.1102998"><ele>8.3</ele><time>2026-07-10T07:15:18Z</time></trkpt>
<trkpt lat="33.0664392" lon="35.1103283"><ele>8.4</ele><time>2026-07-10T07:15:19Z</time></trkpt>
<trkpt lat="33.0664778" lon="35.1103567"><ele>8.4</ele><time>2026-07-10T07:15:20Z</time></trkpt>
<trkpt lat="33.0665154" lon="35.1103845"><ele>8.4</ele><time>2026-07-10T07:15:21Z</time></trkpt>
<trkpt lat="33.0665524" lon="35.1104119"><ele>8.4</ele><time>2026-07-10T07:15:22Z</time></trkpt>
<trkpt lat="33.0665888" lon="35.1104394"><ele>8.5</ele><time>2026-07-10T07:15:23Z</time></trkpt>
<trkpt lat="33.0666242" lon="35.1104672"><ele>8.5</ele><time>2026-07-10T07:15:24Z</time></trkpt>
<trkpt lat="33.0666588" lon="35.110495"><ele>8.6</ele><time>2026-07-10T07:15:25Z</time></trkpt>
<trkpt lat="33.0666933" lon="35.1105222"><ele>8.6</ele><time>2026-07-10T07:15:26Z</time></trkpt>
<trkpt lat="33.0667288" lon="35.1105488"><ele>8.7</ele><time>2026-07-10T07:15:27Z</time></trkpt>
<trkpt lat="33.0667659" lon="35.1105739"><ele>8.7</ele><time>2026-07-10T07:15:28Z</time></trkpt>
<trkpt lat="33.0668046" lon="35.1105957"><ele>8.8</ele><time>2026-07-10T07:15:29Z</time></trkpt>
<trkpt lat="33.0668438" lon="35.1106154"><ele>8.9</ele><time>2026-07-10T07:15:30Z</time></trkpt>
<trkpt lat="33.0668805" lon="35.1106355"><ele>9.0</ele><time>2026-07-10T07:15:31Z</time></trkpt>
<trkpt lat="33.0669139" lon="35.1106583"><ele>9.0</ele><time>2026-07-10T07:15:32Z</time></trkpt>
<trkpt lat="33.0669449" lon="35.1106847"><ele>9.1</ele><time>2026-07-10T07:15:33Z</time></trkpt>
<trkpt lat="33.0669744" lon="35.1107119"><ele>9.2</ele><time>2026-07-10T07:15:34Z</time></trkpt>
<trkpt lat="33.067005" lon="35.1107385"><ele>9.3</ele><time>2026-07-10T07:15:35Z</time></trkpt>
<trkpt lat="33.0670385" lon="35.1107645"><ele>9.3</ele><time>2026-07-10T07:15:36Z</time></trkpt>
<trkpt lat="33.0670739" lon="35.1107896"><ele>9.4</ele><time>2026-07-10T07:15:37Z</time></trkpt>
<trkpt lat="33.0671093" lon="35.1108144"><ele>9.4</ele><time>2026-07-10T07:15:38Z</time></trkpt>
<trkpt lat="33.0671446" lon="35.1108402"><ele>9.5</ele><time>2026-07-10T07:15:39Z</time></trkpt>
<trkpt lat="33.067179" lon="35.1108658"><ele>9.6</ele><time>2026-07-10T07:15:40Z</time></trkpt>
<trkpt lat="33.0672125" lon="35.1108899"><ele>9.7</ele><time>2026-07-10T07:15:41Z</time></trkpt>
<trkpt lat="33.0673175" lon="35.1109483"><ele>10.0</ele><time>2026-07-10T07:15:44Z</time></trkpt>
<trkpt lat="33.0673551" lon="35.1109619"><ele>10.1</ele><time>2026-07-10T07:15:45Z</time></trkpt>
<trkpt lat="33.0673848" lon="35.1109662"><ele>10.2</ele><time>2026-07-10T07:15:46Z</time></trkpt>
<trkpt lat="33.0674084" lon="35.1109608"><ele>10.2</ele><time>2026-07-10T07:15:47Z</time></trkpt>
<trkpt lat="33.0674261" lon="35.1109449"><ele>10.2</ele><time>2026-07-10T07:15:48Z</time></trkpt>
<trkpt lat="33.0674425" lon="35.1109214"><ele>10.2</ele><time>2026-07-10T07:15:49Z</time></trkpt>
<trkpt lat="33.0674621" lon="35.1108937"><ele>10.2</ele><time>2026-07-10T07:15:50Z</time></trkpt>
<trkpt lat="33.0675071" lon="35.1108305"><ele>10.1</ele><time>2026-07-10T07:15:51Z</time></trkpt>
<trkpt lat="33.0675328" lon="35.1107949"><ele>10.1</ele><time>2026-07-10T07:15:52Z</time></trkpt>
<trkpt lat="33.0675666" lon="35.1107626"><ele>10.1</ele><time>2026-07-10T07:15:53Z</time></trkpt>
<trkpt lat="33.0676071" lon="35.1107393"><ele>10.0</ele><time>2026-07-10T07:15:54Z</time></trkpt>
<trkpt lat="33.0676521" lon="35.1107268"><ele>10.0</ele><time>2026-07-10T07:15:55Z</time></trkpt>
<trkpt lat="33.067699" lon="35.110722"><ele>10.0</ele><time>2026-07-10T07:15:56Z</time></trkpt>
<trkpt lat="33.0677447" lon="35.1107198"><ele>9.9</ele><time>2026-07-10T07:15:57Z</time></trkpt>
<trkpt lat="33.0677895" lon="35.1107228"><ele>9.8</ele><time>2026-07-10T07:15:58Z</time></trkpt>
<trkpt lat="33.0678331" lon="35.1107333"><ele>9.8</ele><time>2026-07-10T07:15:59Z</time></trkpt>
<trkpt lat="33.0678749" lon="35.1107491"><ele>9.7</ele><time>2026-07-10T07:16:00Z</time></trkpt>
<trkpt lat="33.0679173" lon="35.1107697"><ele>9.6</ele><time>2026-07-10T07:16:01Z</time></trkpt>
<trkpt lat="33.0679581" lon="35.1107925"><ele>9.6</ele><time>2026-07-10T07:16:02Z</time></trkpt>
<trkpt lat="33.067996" lon="35.1108147"><ele>9.5</ele><time>2026-07-10T07:16:03Z</time></trkpt>
<trkpt lat="33.068034" lon="35.1108356"><ele>9.5</ele><time>2026-07-10T07:16:04Z</time></trkpt>
<trkpt lat="33.068074" lon="35.1108558"><ele>9.4</ele><time>2026-07-10T07:16:05Z</time></trkpt>
<trkpt lat="33.0681148" lon="35.1108774"><ele>9.3</ele><time>2026-07-10T07:16:06Z</time></trkpt>
<trkpt lat="33.0681554" lon="35.1109023"><ele>9.3</ele><time>2026-07-10T07:16:07Z</time></trkpt>
<trkpt lat="33.0681962" lon="35.1109303"><ele>9.2</ele><time>2026-07-10T07:16:08Z</time></trkpt>
<trkpt lat="33.0682385" lon="35.1109602"><ele>9.2</ele><time>2026-07-10T07:16:09Z</time></trkpt>
<trkpt lat="33.0682814" lon="35.1109915"><ele>9.1</ele><time>2026-07-10T07:16:10Z</time></trkpt>
<trkpt lat="33.0683243" lon="35.1110229"><ele>9.0</ele><time>2026-07-10T07:16:11Z</time></trkpt>
<trkpt lat="33.0683682" lon="35.1110538"><ele>9.0</ele><time>2026-07-10T07:16:12Z</time></trkpt>
<trkpt lat="33.0684127" lon="35.1110845"><ele>8.9</ele><time>2026-07-10T07:16:13Z</time></trkpt>
<trkpt lat="33.0684578" lon="35.1111155"><ele>8.9</ele><time>2026-07-10T07:16:14Z</time></trkpt>
<trkpt lat="33.0685034" lon="35.1111449"><ele>8.8</ele><time>2026-07-10T07:16:15Z</time></trkpt>
<trkpt lat="33.0685516" lon="35.1111714"><ele>8.8</ele><time>2026-07-10T07:16:16Z</time></trkpt>
<trkpt lat="33.0686026" lon="35.1111947"><ele>8.7</ele><time>2026-07-10T07:16:17Z</time></trkpt>
<trkpt lat="33.0686543" lon="35.1112144"><ele>8.7</ele><time>2026-07-10T07:16:18Z</time></trkpt>
<trkpt lat="33.0687052" lon="35.1112318"><ele>8.7</ele><time>2026-07-10T07:16:19Z</time></trkpt>
<trkpt lat="33.0687538" lon="35.111248"><ele>8.6</ele><time>2026-07-10T07:16:20Z</time></trkpt>
<trkpt lat="33.0688014" lon="35.1112649"><ele>8.6</ele><time>2026-07-10T07:16:21Z</time></trkpt>
<trkpt lat="33.0688511" lon="35.1112841"><ele>8.6</ele><time>2026-07-10T07:16:22Z</time></trkpt>
<trkpt lat="33.0689027" lon="35.1113055"><ele>8.6</ele><time>2026-07-10T07:16:23Z</time></trkpt>
<trkpt lat="33.0689554" lon="35.1113275"><ele>8.7</ele><time>2026-07-10T07:16:24Z</time></trkpt>
<trkpt lat="33.0690107" lon="35.1113489"><ele>8.7</ele><time>2026-07-10T07:16:25Z</time></trkpt>
<trkpt lat="33.0690665" lon="35.1113693"><ele>8.7</ele><time>2026-07-10T07:16:26Z</time></trkpt>
<trkpt lat="33.0691201" lon="35.1113893"><ele>8.7</ele><time>2026-07-10T07:16:27Z</time></trkpt>
<trkpt lat="33.0691712" lon="35.1114092"><ele>8.7</ele><time>2026-07-10T07:16:28Z</time></trkpt>
<trkpt lat="33.0692205" lon="35.1114271"><ele>8.7</ele><time>2026-07-10T07:16:29Z</time></trkpt>
<trkpt lat="33.0692687" lon="35.1114419"><ele>8.7</ele><time>2026-07-10T07:16:30Z</time></trkpt>
<trkpt lat="33.0693173" lon="35.1114533"><ele>8.7</ele><time>2026-07-10T07:16:31Z</time></trkpt>
<trkpt lat="33.0693691" lon="35.1114616"><ele>8.7</ele><time>2026-07-10T07:16:32Z</time></trkpt>
<trkpt lat="33.0694219" lon="35.1114686"><ele>8.7</ele><time>2026-07-10T07:16:33Z</time></trkpt>
<trkpt lat="33.0694745" lon="35.1114745"><ele>8.7</ele><time>2026-07-10T07:16:34Z</time></trkpt>
<trkpt lat="33.0695293" lon="35.1114784"><ele>8.7</ele><time>2026-07-10T07:16:35Z</time></trkpt>
<trkpt lat="33.0695857" lon="35.1114827"><ele>8.7</ele><time>2026-07-10T07:16:36Z</time></trkpt>
<trkpt lat="33.0696417" lon="35.1114881"><ele>8.7</ele><time>2026-07-10T07:16:37Z</time></trkpt>
<trkpt lat="33.0696971" lon="35.1114942"><ele>8.7</ele><time>2026-07-10T07:16:38Z</time></trkpt>
<trkpt lat="33.0697524" lon="35.1114991"><ele>8.7</ele><time>2026-07-10T07:16:39Z</time></trkpt>
<trkpt lat="33.0698076" lon="35.1114993"><ele>8.7</ele><time>2026-07-10T07:16:40Z</time></trkpt>
<trkpt lat="33.0698634" lon="35.1114934"><ele>8.7</ele><time>2026-07-10T07:16:41Z</time></trkpt>
<trkpt lat="33.0699192" lon="35.111483"><ele>8.7</ele><time>2026-07-10T07:16:42Z</time></trkpt>
<trkpt lat="33.0699741" lon="35.111472"><ele>8.7</ele><time>2026-07-10T07:16:43Z</time></trkpt>
<trkpt lat="33.0700288" lon="35.1114634"><ele>8.6</ele><time>2026-07-10T07:16:44Z</time></trkpt>
<trkpt lat="33.0700847" lon="35.1114569"><ele>8.6</ele><time>2026-07-10T07:16:45Z</time></trkpt>
<trkpt lat="33.0701409" lon="35.1114516"><ele>8.6</ele><time>2026-07-10T07:16:46Z</time></trkpt>
<trkpt lat="33.0701945" lon="35.1114477"><ele>8.6</ele><time>2026-07-10T07:16:47Z</time></trkpt>
<trkpt lat="33.0702454" lon="35.1114453"><ele>8.7</ele><time>2026-07-10T07:16:48Z</time></trkpt>
<trkpt lat="33.0702926" lon="35.1114435"><ele>8.7</ele><time>2026-07-10T07:16:49Z</time></trkpt>
<trkpt lat="33.0703338" lon="35.1114423"><ele>8.7</ele><time>2026-07-10T07:16:50Z</time></trkpt>
<trkpt lat="33.0703731" lon="35.1114424"><ele>8.8</ele><time>2026-07-10T07:16:51Z</time></trkpt>
<trkpt lat="33.0704149" lon="35.1114452"><ele>8.8</ele><time>2026-07-10T07:16:52Z</time></trkpt>
<trkpt lat="33.0704598" lon="35.1114519"><ele>8.8</ele><time>2026-07-10T07:16:53Z</time></trkpt>
<trkpt lat="33.0705085" lon="35.111459"><ele>8.9</ele><time>2026-07-10T07:16:54Z</time></trkpt>
<trkpt lat="33.0705622" lon="35.1114634"><ele>8.9</ele><time>2026-07-10T07:16:55Z</time></trkpt>
<trkpt lat="33.0706187" lon="35.1114654"><ele>8.9</ele><time>2026-07-10T07:16:56Z</time></trkpt>
<trkpt lat="33.0706753" lon="35.1114674"><ele>9.0</ele><time>2026-07-10T07:16:57Z</time></trkpt>
<trkpt lat="33.0707332" lon="35.1114715"><ele>9.0</ele><time>2026-07-10T07:16:58Z</time></trkpt>
<trkpt lat="33.070792" lon="35.1114781"><ele>9.0</ele><time>2026-07-10T07:16:59Z</time></trkpt>
<trkpt lat="33.0708505" lon="35.111488"><ele>9.0</ele><time>2026-07-10T07:17:00Z</time></trkpt>
<trkpt lat="33.0709074" lon="35.1115002"><ele>9.0</ele><time>2026-07-10T07:17:01Z</time></trkpt>
<trkpt lat="33.0709639" lon="35.1115126"><ele>9.1</ele><time>2026-07-10T07:17:02Z</time></trkpt>
<trkpt lat="33.0710207" lon="35.111525"><ele>9.1</ele><time>2026-07-10T07:17:03Z</time></trkpt>
<trkpt lat="33.0710762" lon="35.1115372"><ele>9.0</ele><time>2026-07-10T07:17:04Z</time></trkpt>
<trkpt lat="33.0711301" lon="35.1115491"><ele>9.0</ele><time>2026-07-10T07:17:05Z</time></trkpt>
<trkpt lat="33.0711822" lon="35.111561"><ele>9.0</ele><time>2026-07-10T07:17:06Z</time></trkpt>
<trkpt lat="33.0712326" lon="35.1115736"><ele>9.0</ele><time>2026-07-10T07:17:07Z</time></trkpt>
<trkpt lat="33.0712822" lon="35.1115875"><ele>9.0</ele><time>2026-07-10T07:17:08Z</time></trkpt>
<trkpt lat="33.071331" lon="35.111602"><ele>8.9</ele><time>2026-07-10T07:17:09Z</time></trkpt>
<trkpt lat="33.0713787" lon="35.1116165"><ele>8.9</ele><time>2026-07-10T07:17:10Z</time></trkpt>
<trkpt lat="33.0714274" lon="35.1116331"><ele>9.0</ele><time>2026-07-10T07:17:11Z</time></trkpt>
<trkpt lat="33.0715894" lon="35.1116955"><ele>9.1</ele><time>2026-07-10T07:17:14Z</time></trkpt>
<trkpt lat="33.0716495" lon="35.1117192"><ele>9.1</ele><time>2026-07-10T07:17:15Z</time></trkpt>
<trkpt lat="33.0717068" lon="35.1117419"><ele>9.1</ele><time>2026-07-10T07:17:16Z</time></trkpt>
<trkpt lat="33.0717604" lon="35.111764"><ele>9.0</ele><time>2026-07-10T07:17:17Z</time></trkpt>
<trkpt lat="33.0718123" lon="35.1117857"><ele>9.0</ele><time>2026-07-10T07:17:18Z</time></trkpt>
<trkpt lat="33.0718651" lon="35.1118051"><ele>9.0</ele><time>2026-07-10T07:17:19Z</time></trkpt>
<trkpt lat="33.0719734" lon="35.1118325"><ele>8.9</ele><time>2026-07-10T07:17:20Z</time></trkpt>
<trkpt lat="33.0720281" lon="35.1118443"><ele>8.8</ele><time>2026-07-10T07:17:21Z</time></trkpt>
<trkpt lat="33.0720825" lon="35.111856"><ele>8.8</ele><time>2026-07-10T07:17:22Z</time></trkpt>
<trkpt lat="33.0721358" lon="35.1118644"><ele>8.8</ele><time>2026-07-10T07:17:23Z</time></trkpt>
<trkpt lat="33.0721882" lon="35.1118688"><ele>8.7</ele><time>2026-07-10T07:17:24Z</time></trkpt>
<trkpt lat="33.0722407" lon="35.1118732"><ele>8.7</ele><time>2026-07-10T07:17:25Z</time></trkpt>
<trkpt lat="33.0722937" lon="35.1118803"><ele>8.7</ele><time>2026-07-10T07:17:26Z</time></trkpt>
<trkpt lat="33.0723481" lon="35.1118879"><ele>8.7</ele><time>2026-07-10T07:17:27Z</time></trkpt>
<trkpt lat="33.0724042" lon="35.1118949"><ele>8.7</ele><time>2026-07-10T07:17:28Z</time></trkpt>
<trkpt lat="33.0724639" lon="35.1119018"><ele>8.6</ele><time>2026-07-10T07:17:29Z</time></trkpt>
<trkpt lat="33.0725266" lon="35.1119026"><ele>8.6</ele><time>2026-07-10T07:17:30Z</time></trkpt>
<trkpt lat="33.0725871" lon="35.1118956"><ele>8.6</ele><time>2026-07-10T07:17:31Z</time></trkpt>
<trkpt lat="33.072644" lon="35.1118878"><ele>8.6</ele><time>2026-07-10T07:17:32Z</time></trkpt>
<trkpt lat="33.0726995" lon="35.1118794"><ele>8.6</ele><time>2026-07-10T07:17:33Z</time></trkpt>
<trkpt lat="33.0727539" lon="35.1118707"><ele>8.6</ele><time>2026-07-10T07:17:34Z</time></trkpt>
<trkpt lat="33.0728074" lon="35.1118619"><ele>8.7</ele><time>2026-07-10T07:17:35Z</time></trkpt>
<trkpt lat="33.0728613" lon="35.1118517"><ele>8.7</ele><time>2026-07-10T07:17:36Z</time></trkpt>
<trkpt lat="33.0729156" lon="35.1118402"><ele>8.7</ele><time>2026-07-10T07:17:37Z</time></trkpt>
<trkpt lat="33.0729696" lon="35.1118289"><ele>8.8</ele><time>2026-07-10T07:17:38Z</time></trkpt>
<trkpt lat="33.0730221" lon="35.1118162"><ele>8.8</ele><time>2026-07-10T07:17:39Z</time></trkpt>
<trkpt lat="33.0730737" lon="35.111799"><ele>8.8</ele><time>2026-07-10T07:17:40Z</time></trkpt>
<trkpt lat="33.0731248" lon="35.1117775"><ele>8.9</ele><time>2026-07-10T07:17:41Z</time></trkpt>
<trkpt lat="33.0731755" lon="35.1117538"><ele>8.9</ele><time>2026-07-10T07:17:42Z</time></trkpt>
<trkpt lat="33.073226" lon="35.1117269"><ele>9.0</ele><time>2026-07-10T07:17:43Z</time></trkpt>
<trkpt lat="33.073275" lon="35.1116962"><ele>9.0</ele><time>2026-07-10T07:17:44Z</time></trkpt>
<trkpt lat="33.0733222" lon="35.1116626"><ele>9.1</ele><time>2026-07-10T07:17:45Z</time></trkpt>
<trkpt lat="33.0733692" lon="35.1116274"><ele>9.1</ele><time>2026-07-10T07:17:46Z</time></trkpt>
<trkpt lat="33.0734168" lon="35.1115913"><ele>9.2</ele><time>2026-07-10T07:17:47Z</time></trkpt>
<trkpt lat="33.0734644" lon="35.1115543"><ele>9.2</ele><time>2026-07-10T07:17:48Z</time></trkpt>
<trkpt lat="33.0735108" lon="35.1115169"><ele>9.3</ele><time>2026-07-10T07:17:49Z</time></trkpt>
<trkpt lat="33.0735546" lon="35.1114803"><ele>9.3</ele><time>2026-07-10T07:17:50Z</time></trkpt>
<trkpt lat="33.0735974" lon="35.1114443"><ele>9.3</ele><time>2026-07-10T07:17:51Z</time></trkpt>
<trkpt lat="33.0736418" lon="35.111409"><ele>9.4</ele><time>2026-07-10T07:17:52Z</time></trkpt>
<trkpt lat="33.0736873" lon="35.1113741"><ele>9.4</ele><time>2026-07-10T07:17:53Z</time></trkpt>
<trkpt lat="33.0737319" lon="35.1113384"><ele>9.5</ele><time>2026-07-10T07:17:54Z</time></trkpt>
<trkpt lat="33.0737745" lon="35.1113012"><ele>9.5</ele><time>2026-07-10T07:17:55Z</time></trkpt>
<trkpt lat="33.0738155" lon="35.1112631"><ele>9.6</ele><time>2026-07-10T07:17:56Z</time></trkpt>
<trkpt lat="33.0738569" lon="35.1112244"><ele>9.6</ele><time>2026-07-10T07:17:57Z</time></trkpt>
<trkpt lat="33.0739013" lon="35.111186"><ele>9.6</ele><time>2026-07-10T07:17:58Z</time></trkpt>
<trkpt lat="33.0739491" lon="35.1111421"><ele>9.6</ele><time>2026-07-10T07:17:59Z</time></trkpt>
<trkpt lat="33.0739958" lon="35.1110933"><ele>9.6</ele><time>2026-07-10T07:18:00Z</time></trkpt>
<trkpt lat="33.0740373" lon="35.1110472"><ele>9.6</ele><time>2026-07-10T07:18:01Z</time></trkpt>
<trkpt lat="33.0740772" lon="35.1110027"><ele>9.6</ele><time>2026-07-10T07:18:02Z</time></trkpt>
<trkpt lat="33.0741194" lon="35.1109595"><ele>9.6</ele><time>2026-07-10T07:18:03Z</time></trkpt>
<trkpt lat="33.0741627" lon="35.1109184"><ele>9.5</ele><time>2026-07-10T07:18:04Z</time></trkpt>
<trkpt lat="33.0742049" lon="35.1108787"><ele>9.4</ele><time>2026-07-10T07:18:05Z</time></trkpt>
<trkpt lat="33.0742475" lon="35.1108371"><ele>9.4</ele><time>2026-07-10T07:18:06Z</time></trkpt>
<trkpt lat="33.0742907" lon="35.1107933"><ele>9.3</ele><time>2026-07-10T07:18:07Z</time></trkpt>
<trkpt lat="33.0743337" lon="35.1107484"><ele>9.2</ele><time>2026-07-10T07:18:08Z</time></trkpt>
<trkpt lat="33.0743797" lon="35.1107018"><ele>9.1</ele><time>2026-07-10T07:18:09Z</time></trkpt>
<trkpt lat="33.0744293" lon="35.1106551"><ele>9.0</ele><time>2026-07-10T07:18:10Z</time></trkpt>
<trkpt lat="33.07448" lon="35.11061"><ele>8.9</ele><time>2026-07-10T07:18:11Z</time></trkpt>
<trkpt lat="33.0746039" lon="35.1104982"><ele>8.7</ele><time>2026-07-10T07:18:13Z</time></trkpt>
<trkpt lat="33.0746591" lon="35.1104444"><ele>8.6</ele><time>2026-07-10T07:18:14Z</time></trkpt>
<trkpt lat="33.0747117" lon="35.1103909"><ele>8.4</ele><time>2026-07-10T07:18:15Z</time></trkpt>
<trkpt lat="33.0747664" lon="35.1103395"><ele>8.3</ele><time>2026-07-10T07:18:16Z</time></trkpt>
<trkpt lat="33.0748245" lon="35.1102931"><ele>8.1</ele><time>2026-07-10T07:18:17Z</time></trkpt>
<trkpt lat="33.074884" lon="35.1102513"><ele>7.9</ele><time>2026-07-10T07:18:18Z</time></trkpt>
<trkpt lat="33.0749441" lon="35.1102136"><ele>7.7</ele><time>2026-07-10T07:18:19Z</time></trkpt>
<trkpt lat="33.0750053" lon="35.1101846"><ele>7.5</ele><time>2026-07-10T07:18:20Z</time></trkpt>
<trkpt lat="33.0750682" lon="35.1101626"><ele>7.3</ele><time>2026-07-10T07:18:21Z</time></trkpt>
<trkpt lat="33.0751312" lon="35.1101391"><ele>7.1</ele><time>2026-07-10T07:18:22Z</time></trkpt>
<trkpt lat="33.0751913" lon="35.1101142"><ele>6.9</ele><time>2026-07-10T07:18:23Z</time></trkpt>
<trkpt lat="33.0752503" lon="35.1100926"><ele>6.8</ele><time>2026-07-10T07:18:24Z</time></trkpt>
<trkpt lat="33.0753088" lon="35.1100759"><ele>6.6</ele><time>2026-07-10T07:18:25Z</time></trkpt>
<trkpt lat="33.0753672" lon="35.1100631"><ele>6.5</ele><time>2026-07-10T07:18:26Z</time></trkpt>
<trkpt lat="33.0754262" lon="35.1100554"><ele>6.4</ele><time>2026-07-10T07:18:27Z</time></trkpt>
<trkpt lat="33.0754859" lon="35.1100538"><ele>6.2</ele><time>2026-07-10T07:18:28Z</time></trkpt>
<trkpt lat="33.0755467" lon="35.11006"><ele>6.2</ele><time>2026-07-10T07:18:29Z</time></trkpt>
<trkpt lat="33.0756074" lon="35.1100753"><ele>6.1</ele><time>2026-07-10T07:18:30Z</time></trkpt>
<trkpt lat="33.0756665" lon="35.1100972"><ele>6.0</ele><time>2026-07-10T07:18:31Z</time></trkpt>
<trkpt lat="33.0757246" lon="35.1101204"><ele>6.0</ele><time>2026-07-10T07:18:32Z</time></trkpt>
<trkpt lat="33.0757828" lon="35.110145"><ele>5.9</ele><time>2026-07-10T07:18:33Z</time></trkpt>
<trkpt lat="33.0758413" lon="35.1101701"><ele>5.8</ele><time>2026-07-10T07:18:34Z</time></trkpt>
<trkpt lat="33.0759003" lon="35.1101921"><ele>5.8</ele><time>2026-07-10T07:18:35Z</time></trkpt>
<trkpt lat="33.0759602" lon="35.1102113"><ele>5.7</ele><time>2026-07-10T07:18:36Z</time></trkpt>
<trkpt lat="33.0760204" lon="35.1102278"><ele>5.7</ele><time>2026-07-10T07:18:37Z</time></trkpt>
<trkpt lat="33.0760799" lon="35.1102423"><ele>5.7</ele><time>2026-07-10T07:18:38Z</time></trkpt>
<trkpt lat="33.0761389" lon="35.1102561"><ele>5.7</ele><time>2026-07-10T07:18:39Z</time></trkpt>
<trkpt lat="33.0761973" lon="35.1102698"><ele>5.6</ele><time>2026-07-10T07:18:40Z</time></trkpt>
<trkpt lat="33.0762545" lon="35.1102837"><ele>5.6</ele><time>2026-07-10T07:18:41Z</time></trkpt>
<trkpt lat="33.0763108" lon="35.1102982"><ele>5.6</ele><time>2026-07-10T07:18:42Z</time></trkpt>
<trkpt lat="33.0763665" lon="35.1103129"><ele>5.6</ele><time>2026-07-10T07:18:43Z</time></trkpt>
<trkpt lat="33.0764221" lon="35.1103269"><ele>5.7</ele><time>2026-07-10T07:18:44Z</time></trkpt>
<trkpt lat="33.0764771" lon="35.1103391"><ele>5.7</ele><time>2026-07-10T07:18:45Z</time></trkpt>
<trkpt lat="33.0765315" lon="35.1103492"><ele>5.7</ele><time>2026-07-10T07:18:46Z</time></trkpt>
<trkpt lat="33.0765855" lon="35.1103573"><ele>5.8</ele><time>2026-07-10T07:18:47Z</time></trkpt>
<trkpt lat="33.0766391" lon="35.110364"><ele>5.8</ele><time>2026-07-10T07:18:48Z</time></trkpt>
<trkpt lat="33.0766924" lon="35.1103689"><ele>5.9</ele><time>2026-07-10T07:18:49Z</time></trkpt>
<trkpt lat="33.0767452" lon="35.1103718"><ele>6.0</ele><time>2026-07-10T07:18:50Z</time></trkpt>
<trkpt lat="33.0767971" lon="35.1103719"><ele>6.0</ele><time>2026-07-10T07:18:51Z</time></trkpt>
<trkpt lat="33.0768482" lon="35.1103692"><ele>6.1</ele><time>2026-07-10T07:18:52Z</time></trkpt>
<trkpt lat="33.076898" lon="35.1103645"><ele>6.2</ele><time>2026-07-10T07:18:53Z</time></trkpt>
<trkpt lat="33.0769468" lon="35.1103572"><ele>6.3</ele><time>2026-07-10T07:18:54Z</time></trkpt>
<trkpt lat="33.0769967" lon="35.1103458"><ele>6.3</ele><time>2026-07-10T07:18:55Z</time></trkpt>
<trkpt lat="33.0770469" lon="35.1103318"><ele>6.4</ele><time>2026-07-10T07:18:56Z</time></trkpt>
<trkpt lat="33.0770964" lon="35.1103185"><ele>6.5</ele><time>2026-07-10T07:18:57Z</time></trkpt>
<trkpt lat="33.0771455" lon="35.1103066"><ele>6.6</ele><time>2026-07-10T07:18:58Z</time></trkpt>
<trkpt lat="33.0771929" lon="35.1102947"><ele>6.7</ele><time>2026-07-10T07:18:59Z</time></trkpt>
<trkpt lat="33.0772388" lon="35.1102819"><ele>6.8</ele><time>2026-07-10T07:19:00Z</time></trkpt>
<trkpt lat="33.0772846" lon="35.1102663"><ele>6.9</ele><time>2026-07-10T07:19:01Z</time></trkpt>
<trkpt lat="33.0773297" lon="35.1102467"><ele>7.0</ele><time>2026-07-10T07:19:02Z</time></trkpt>
<trkpt lat="33.0773733" lon="35.1102238"><ele>7.1</ele><time>2026-07-10T07:19:03Z</time></trkpt>
<trkpt lat="33.0774167" lon="35.110199"><ele>7.2</ele><time>2026-07-10T07:19:04Z</time></trkpt>
<trkpt lat="33.0774597" lon="35.1101728"><ele>7.4</ele><time>2026-07-10T07:19:05Z</time></trkpt>
<trkpt lat="33.0775012" lon="35.1101464"><ele>7.5</ele><time>2026-07-10T07:19:06Z</time></trkpt>
<trkpt lat="33.0775409" lon="35.1101208"><ele>7.6</ele><time>2026-07-10T07:19:07Z</time></trkpt>
<trkpt lat="33.0775796" lon="35.1100938"><ele>7.7</ele><time>2026-07-10T07:19:08Z</time></trkpt>
<trkpt lat="33.0776176" lon="35.1100648"><ele>7.8</ele><time>2026-07-10T07:19:09Z</time></trkpt>
<trkpt lat="33.0776553" lon="35.1100337"><ele>8.0</ele><time>2026-07-10T07:19:10Z</time></trkpt>
<trkpt lat="33.077693" lon="35.110001"><ele>8.1</ele><time>2026-07-10T07:19:11Z</time></trkpt>
<trkpt lat="33.0777306" lon="35.1099668"><ele>8.2</ele><time>2026-07-10T07:19:12Z</time></trkpt>
<trkpt lat="33.0777679" lon="35.1099308"><ele>8.3</ele><time>2026-07-10T07:19:13Z</time></trkpt>
<trkpt lat="33.0778046" lon="35.1098938"><ele>8.4</ele><time>2026-07-10T07:19:14Z</time></trkpt>
<trkpt lat="33.0778399" lon="35.1098549"><ele>8.5</ele><time>2026-07-10T07:19:15Z</time></trkpt>
<trkpt lat="33.0778719" lon="35.1098122"><ele>8.6</ele><time>2026-07-10T07:19:16Z</time></trkpt>
<trkpt lat="33.0778993" lon="35.1097668"><ele>8.7</ele><time>2026-07-10T07:19:17Z</time></trkpt>
<trkpt lat="33.0779236" lon="35.1097197"><ele>8.7</ele><time>2026-07-10T07:19:18Z</time></trkpt>
<trkpt lat="33.0779462" lon="35.1096717"><ele>8.8</ele><time>2026-07-10T07:19:19Z</time></trkpt>
<trkpt lat="33.0779683" lon="35.1096244"><ele>8.9</ele><time>2026-07-10T07:19:20Z</time></trkpt>
<trkpt lat="33.0779892" lon="35.1095773"><ele>8.9</ele><time>2026-07-10T07:19:21Z</time></trkpt>
<trkpt lat="33.0780069" lon="35.1095298"><ele>9.0</ele><time>2026-07-10T07:19:22Z</time></trkpt>
<trkpt lat="33.0780214" lon="35.1094818"><ele>9.0</ele><time>2026-07-10T07:19:23Z</time></trkpt>
<trkpt lat="33.0780336" lon="35.1094323"><ele>9.0</ele><time>2026-07-10T07:19:24Z</time></trkpt>
<trkpt lat="33.0780439" lon="35.1093812"><ele>9.1</ele><time>2026-07-10T07:19:25Z</time></trkpt>
<trkpt lat="33.0780521" lon="35.1093294"><ele>9.1</ele><time>2026-07-10T07:19:26Z</time></trkpt>
<trkpt lat="33.0780587" lon="35.1092776"><ele>9.1</ele><time>2026-07-10T07:19:27Z</time></trkpt>
<trkpt lat="33.0780654" lon="35.1092254"><ele>9.2</ele><time>2026-07-10T07:19:28Z</time></trkpt>
<trkpt lat="33.0780725" lon="35.1091733"><ele>9.2</ele><time>2026-07-10T07:19:29Z</time></trkpt>
<trkpt lat="33.0780796" lon="35.1091225"><ele>9.2</ele><time>2026-07-10T07:19:30Z</time></trkpt>
<trkpt lat="33.0780845" lon="35.1090731"><ele>9.2</ele><time>2026-07-10T07:19:31Z</time></trkpt>
<trkpt lat="33.078087" lon="35.1090238"><ele>9.2</ele><time>2026-07-10T07:19:32Z</time></trkpt>
<trkpt lat="33.0780894" lon="35.1089729"><ele>9.2</ele><time>2026-07-10T07:19:33Z</time></trkpt>
<trkpt lat="33.0780938" lon="35.1089204"><ele>9.3</ele><time>2026-07-10T07:19:34Z</time></trkpt>
<trkpt lat="33.0781013" lon="35.1088666"><ele>9.3</ele><time>2026-07-10T07:19:35Z</time></trkpt>
<trkpt lat="33.0781101" lon="35.108812"><ele>9.3</ele><time>2026-07-10T07:19:36Z</time></trkpt>
<trkpt lat="33.0781179" lon="35.1087569"><ele>9.3</ele><time>2026-07-10T07:19:37Z</time></trkpt>
<trkpt lat="33.0781242" lon="35.1087004"><ele>9.3</ele><time>2026-07-10T07:19:38Z</time></trkpt>
<trkpt lat="33.078129" lon="35.1086428"><ele>9.2</ele><time>2026-07-10T07:19:39Z</time></trkpt>
<trkpt lat="33.0781329" lon="35.1085844"><ele>9.2</ele><time>2026-07-10T07:19:40Z</time></trkpt>
<trkpt lat="33.0781369" lon="35.1085261"><ele>9.2</ele><time>2026-07-10T07:19:41Z</time></trkpt>
<trkpt lat="33.0781403" lon="35.1084691"><ele>9.2</ele><time>2026-07-10T07:19:42Z</time></trkpt>
<trkpt lat="33.0781425" lon="35.1084135"><ele>9.2</ele><time>2026-07-10T07:19:43Z</time></trkpt>
<trkpt lat="33.0781444" lon="35.1083585"><ele>9.1</ele><time>2026-07-10T07:19:44Z</time></trkpt>
<trkpt lat="33.078146" lon="35.1083048"><ele>9.1</ele><time>2026-07-10T07:19:45Z</time></trkpt>
<trkpt lat="33.0781468" lon="35.1082519"><ele>9.0</ele><time>2026-07-10T07:19:46Z</time></trkpt>
<trkpt lat="33.0781464" lon="35.1081993"><ele>9.0</ele><time>2026-07-10T07:19:47Z</time></trkpt>
<trkpt lat="33.0781464" lon="35.1081469"><ele>9.0</ele><time>2026-07-10T07:19:48Z</time></trkpt>
<trkpt lat="33.0781482" lon="35.1080954"><ele>8.9</ele><time>2026-07-10T07:19:49Z</time></trkpt>
<trkpt lat="33.0781515" lon="35.1080456"><ele>8.8</ele><time>2026-07-10T07:19:50Z</time></trkpt>
<trkpt lat="33.0781558" lon="35.107998"><ele>8.8</ele><time>2026-07-10T07:19:51Z</time></trkpt>
<trkpt lat="33.0781613" lon="35.1079522"><ele>8.7</ele><time>2026-07-10T07:19:52Z</time></trkpt>
<trkpt lat="33.0781677" lon="35.1079073"><ele>8.7</ele><time>2026-07-10T07:19:53Z</time></trkpt>
<trkpt lat="33.0781749" lon="35.1078627"><ele>8.6</ele><time>2026-07-10T07:19:54Z</time></trkpt>
<trkpt lat="33.0781838" lon="35.1078178"><ele>8.6</ele><time>2026-07-10T07:19:55Z</time></trkpt>
<trkpt lat="33.0781949" lon="35.1077729"><ele>8.5</ele><time>2026-07-10T07:19:56Z</time></trkpt>
<trkpt lat="33.0782088" lon="35.1077289"><ele>8.5</ele><time>2026-07-10T07:19:57Z</time></trkpt>
<trkpt lat="33.078226" lon="35.1076861"><ele>8.4</ele><time>2026-07-10T07:19:58Z</time></trkpt>
<trkpt lat="33.0782473" lon="35.1076444"><ele>8.4</ele><time>2026-07-10T07:19:59Z</time></trkpt>
<trkpt lat="33.0782739" lon="35.107605"><ele>8.4</ele><time>2026-07-10T07:20:00Z</time></trkpt>
<trkpt lat="33.0783062" lon="35.1075699"><ele>8.4</ele><time>2026-07-10T07:20:01Z</time></trkpt>
<trkpt lat="33.0783445" lon="35.1075398"><ele>8.3</ele><time>2026-07-10T07:20:02Z</time></trkpt>
<trkpt lat="33.0783878" lon="35.1075142"><ele>8.3</ele><time>2026-07-10T07:20:03Z</time></trkpt>
<trkpt lat="33.0784347" lon="35.107492"><ele>8.3</ele><time>2026-07-10T07:20:04Z</time></trkpt>
<trkpt lat="33.0784838" lon="35.1074715"><ele>8.2</ele><time>2026-07-10T07:20:05Z</time></trkpt>
<trkpt lat="33.078533" lon="35.1074503"><ele>8.2</ele><time>2026-07-10T07:20:06Z</time></trkpt>
<trkpt lat="33.078581" lon="35.1074243"><ele>8.1</ele><time>2026-07-10T07:20:07Z</time></trkpt>
<trkpt lat="33.0786271" lon="35.1073896"><ele>8.0</ele><time>2026-07-10T07:20:08Z</time></trkpt>
<trkpt lat="33.0786685" lon="35.1073459"><ele>7.9</ele><time>2026-07-10T07:20:09Z</time></trkpt>
<trkpt lat="33.078704" lon="35.1072948"><ele>7.8</ele><time>2026-07-10T07:20:10Z</time></trkpt>
<trkpt lat="33.0787364" lon="35.1072379"><ele>7.6</ele><time>2026-07-10T07:20:11Z</time></trkpt>
<trkpt lat="33.0787671" lon="35.1071775"><ele>7.5</ele><time>2026-07-10T07:20:12Z</time></trkpt>
<trkpt lat="33.0787959" lon="35.107115"><ele>7.3</ele><time>2026-07-10T07:20:13Z</time></trkpt>
<trkpt lat="33.078823" lon="35.107051"><ele>7.1</ele><time>2026-07-10T07:20:14Z</time></trkpt>
<trkpt lat="33.0788496" lon="35.1069883"><ele>6.9</ele><time>2026-07-10T07:20:15Z</time></trkpt>
<trkpt lat="33.0788788" lon="35.1069304"><ele>6.7</ele><time>2026-07-10T07:20:16Z</time></trkpt>
<trkpt lat="33.0789144" lon="35.1068809"><ele>6.5</ele><time>2026-07-10T07:20:17Z</time></trkpt>
<trkpt lat="33.0789569" lon="35.1068447"><ele>6.3</ele><time>2026-07-10T07:20:18Z</time></trkpt>
<trkpt lat="33.0790046" lon="35.1068241"><ele>6.1</ele><time>2026-07-10T07:20:19Z</time></trkpt>
<trkpt lat="33.0790545" lon="35.1068177"><ele>6.0</ele><time>2026-07-10T07:20:20Z</time></trkpt>
<trkpt lat="33.0791043" lon="35.1068223"><ele>5.8</ele><time>2026-07-10T07:20:21Z</time></trkpt>
<trkpt lat="33.0791534" lon="35.1068327"><ele>5.7</ele><time>2026-07-10T07:20:22Z</time></trkpt>
<trkpt lat="33.0792014" lon="35.1068426"><ele>5.7</ele><time>2026-07-10T07:20:23Z</time></trkpt>
<trkpt lat="33.0792474" lon="35.1068498"><ele>5.6</ele><time>2026-07-10T07:20:24Z</time></trkpt>
<trkpt lat="33.0792921" lon="35.1068557"><ele>5.5</ele><time>2026-07-10T07:20:25Z</time></trkpt>
<trkpt lat="33.0793362" lon="35.1068616"><ele>5.5</ele><time>2026-07-10T07:20:26Z</time></trkpt>
<trkpt lat="33.0793801" lon="35.106867"><ele>5.5</ele><time>2026-07-10T07:20:27Z</time></trkpt>
<trkpt lat="33.0794246" lon="35.1068716"><ele>5.4</ele><time>2026-07-10T07:20:28Z</time></trkpt>
<trkpt lat="33.0794689" lon="35.1068747"><ele>5.4</ele><time>2026-07-10T07:20:29Z</time></trkpt>
<trkpt lat="33.079512" lon="35.1068766"><ele>5.4</ele><time>2026-07-10T07:20:30Z</time></trkpt>
<trkpt lat="33.0795534" lon="35.1068773"><ele>5.4</ele><time>2026-07-10T07:20:31Z</time></trkpt>
<trkpt lat="33.0795936" lon="35.1068768"><ele>5.5</ele><time>2026-07-10T07:20:32Z</time></trkpt>
<trkpt lat="33.0796344" lon="35.106876"><ele>5.5</ele><time>2026-07-10T07:20:33Z</time></trkpt>
<trkpt lat="33.0796756" lon="35.1068756"><ele>5.6</ele><time>2026-07-10T07:20:34Z</time></trkpt>
<trkpt lat="33.0797169" lon="35.1068756"><ele>5.6</ele><time>2026-07-10T07:20:35Z</time></trkpt>
<trkpt lat="33.0797576" lon="35.1068771"><ele>5.7</ele><time>2026-07-10T07:20:36Z</time></trkpt>
<trkpt lat="33.0797977" lon="35.1068831"><ele>5.7</ele><time>2026-07-10T07:20:37Z</time></trkpt>
<trkpt lat="33.0798377" lon="35.1068958"><ele>5.8</ele><time>2026-07-10T07:20:38Z</time></trkpt>
<trkpt lat="33.079877" lon="35.1069133"><ele>5.8</ele><time>2026-07-10T07:20:39Z</time></trkpt>
<trkpt lat="33.0799155" lon="35.1069332"><ele>5.8</ele><time>2026-07-10T07:20:40Z</time></trkpt>
<trkpt lat="33.0799535" lon="35.1069514"><ele>5.8</ele><time>2026-07-10T07:20:41Z</time></trkpt>
<trkpt lat="33.0799913" lon="35.1069626"><ele>5.8</ele><time>2026-07-10T07:20:42Z</time></trkpt>
<trkpt lat="33.0800305" lon="35.1069661"><ele>5.8</ele><time>2026-07-10T07:20:43Z</time></trkpt>
<trkpt lat="33.0800705" lon="35.1069645"><ele>5.8</ele><time>2026-07-10T07:20:44Z</time></trkpt>
<trkpt lat="33.0801102" lon="35.1069598"><ele>5.8</ele><time>2026-07-10T07:20:45Z</time></trkpt>
<trkpt lat="33.0801498" lon="35.1069545"><ele>5.8</ele><time>2026-07-10T07:20:46Z</time></trkpt>
<trkpt lat="33.0801893" lon="35.1069491"><ele>5.8</ele><time>2026-07-10T07:20:47Z</time></trkpt>
<trkpt lat="33.0802286" lon="35.1069437"><ele>5.9</ele><time>2026-07-10T07:20:48Z</time></trkpt>
<trkpt lat="33.0802668" lon="35.1069392"><ele>5.9</ele><time>2026-07-10T07:20:49Z</time></trkpt>
<trkpt lat="33.0803039" lon="35.1069353"><ele>5.9</ele><time>2026-07-10T07:20:50Z</time></trkpt>
<trkpt lat="33.0803405" lon="35.1069316"><ele>5.9</ele><time>2026-07-10T07:20:51Z</time></trkpt>
<trkpt lat="33.080376" lon="35.1069283"><ele>5.9</ele><time>2026-07-10T07:20:52Z</time></trkpt>
<trkpt lat="33.0804092" lon="35.1069259"><ele>5.9</ele><time>2026-07-10T07:20:53Z</time></trkpt>
<trkpt lat="33.0804397" lon="35.1069243"><ele>5.9</ele><time>2026-07-10T07:20:54Z</time></trkpt>
<trkpt lat="33.0804674" lon="35.1069233"><ele>5.9</ele><time>2026-07-10T07:20:55Z</time></trkpt>
<trkpt lat="33.0804928" lon="35.1069227"><ele>5.9</ele><time>2026-07-10T07:20:56Z</time></trkpt>
<trkpt lat="33.0805161" lon="35.106923"><ele>5.9</ele><time>2026-07-10T07:20:57Z</time></trkpt>
<trkpt lat="33.0805366" lon="35.106925"><ele>5.9</ele><time>2026-07-10T07:20:58Z</time></trkpt>
<trkpt lat="33.0805546" lon="35.106929"><ele>5.9</ele><time>2026-07-10T07:20:59Z</time></trkpt>
<trkpt lat="33.0805696" lon="35.106935"><ele>5.9</ele><time>2026-07-10T07:21:00Z</time></trkpt>
<trkpt lat="33.080579" lon="35.1069413"><ele>5.9</ele><time>2026-07-10T07:21:01Z</time></trkpt>
<trkpt lat="33.0805829" lon="35.1069463"><ele>6.0</ele><time>2026-07-10T07:21:02Z</time></trkpt>
<trkpt lat="33.0805842" lon="35.1069502"><ele>6.0</ele><time>2026-07-10T07:21:03Z</time></trkpt>
<trkpt lat="33.0805845" lon="35.1069534"><ele>6.0</ele><time>2026-07-10T07:21:04Z</time></trkpt>
<trkpt lat="33.0805843" lon="35.1069562"><ele>6.1</ele><time>2026-07-10T07:21:05Z</time></trkpt>
<trkpt lat="33.0805841" lon="35.1069587"><ele>6.1</ele><time>2026-07-10T07:21:06Z</time></trkpt>
<trkpt lat="33.080584" lon="35.1069613"><ele>6.1</ele><time>2026-07-10T07:21:07Z</time></trkpt>
<trkpt lat="33.0805841" lon="35.1069641"><ele>6.2</ele><time>2026-07-10T07:21:08Z</time></trkpt>
<trkpt lat="33.0805845" lon="35.1069671"><ele>6.2</ele><time>2026-07-10T07:21:09Z</time></trkpt>
<trkpt lat="33.080585" lon="35.1069699"><ele>6.2</ele><time>2026-07-10T07:21:10Z</time></trkpt>
<trkpt lat="33.0805855" lon="35.1069723"><ele>6.2</ele><time>2026-07-10T07:21:11Z</time></trkpt>
<trkpt lat="33.0805859" lon="35.1069741"><ele>6.1</ele><time>2026-07-10T07:21:12Z</time></trkpt>
<trkpt lat="33.0805864" lon="35.1069759"><ele>6.1</ele><time>2026-07-10T07:21:13Z</time></trkpt>
<trkpt lat="33.0805869" lon="35.1069776"><ele>6.1</ele><time>2026-07-10T07:21:14Z</time></trkpt>
<trkpt lat="33.0805874" lon="35.1069792"><ele>6.1</ele><time>2026-07-10T07:21:15Z</time></trkpt>
<trkpt lat="33.0805879" lon="35.1069805"><ele>6.1</ele><time>2026-07-10T07:21:16Z</time></trkpt>
<trkpt lat="33.0805884" lon="35.1069816"><ele>6.1</ele><time>2026-07-10T07:21:17Z</time></trkpt>
<trkpt lat="33.0805889" lon="35.1069825"><ele>6.1</ele><time>2026-07-10T07:21:18Z</time></trkpt>
<trkpt lat="33.080589" lon="35.106983"><ele>6.1</ele><time>2026-07-10T07:21:19Z</time></trkpt>
<trkpt lat="33.0805891" lon="35.1069833"><ele>6.1</ele><time>2026-07-10T07:21:20Z</time></trkpt>
<trkpt lat="33.0805891" lon="35.1069835"><ele>6.1</ele><time>2026-07-10T07:21:21Z</time></trkpt>
<trkpt lat="33.0805892" lon="35.1069836"><ele>6.1</ele><time>2026-07-10T07:21:22Z</time></trkpt>
<trkpt lat="33.0805892" lon="35.1069836"><ele>6.1</ele><time>2026-07-10T07:21:23Z</time></trkpt>
<trkpt lat="33.0805892" lon="35.1069837"><ele>6.1</ele><time>2026-07-10T07:21:24Z</time></trkpt>
<trkpt lat="33.0805892" lon="35.1069837"><ele>6.1</ele><time>2026-07-10T07:21:25Z</time></trkpt>
<trkpt lat="33.0805891" lon="35.1069838"><ele>6.1</ele><time>2026-07-10T07:21:26Z</time></trkpt>
<trkpt lat="33.0805891" lon="35.1069838"><ele>6.1</ele><time>2026-07-10T07:21:27Z</time></trkpt>
<trkpt lat="33.0805891" lon="35.1069838"><ele>6.1</ele><time>2026-07-10T07:21:28Z</time></trkpt>
<trkpt lat="33.0805891" lon="35.1069838"><ele>6.1</ele><time>2026-07-10T07:21:29Z</time></trkpt>
<trkpt lat="33.0805891" lon="35.1069838"><ele>6.1</ele><time>2026-07-10T07:21:30Z</time></trkpt>
<trkpt lat="33.0805891" lon="35.1069838"><ele>6.1</ele><time>2026-07-10T07:21:31Z</time></trkpt>
<trkpt lat="33.0805891" lon="35.1069839"><ele>6.1</ele><time>2026-07-10T07:21:32Z</time></trkpt>
<trkpt lat="33.0805891" lon="35.1069839"><ele>6.1</ele><time>2026-07-10T07:21:33Z</time></trkpt>
<trkpt lat="33.0805891" lon="35.1069839"><ele>6.1</ele><time>2026-07-10T07:21:34Z</time></trkpt>
<trkpt lat="33.0805891" lon="35.1069839"><ele>6.1</ele><time>2026-07-10T07:21:35Z</time></trkpt>
<trkpt lat="33.0805891" lon="35.1069839"><ele>6.1</ele><time>2026-07-10T07:21:36Z</time></trkpt>
<trkpt lat="33.0805891" lon="35.1069839"><ele>6.1</ele><time>2026-07-10T07:21:37Z</time></trkpt>
<trkpt lat="33.0805891" lon="35.1069839"><ele>6.1</ele><time>2026-07-10T07:21:38Z</time></trkpt>
<trkpt lat="33.0805891" lon="35.1069839"><ele>6.1</ele><time>2026-07-10T07:21:39Z</time></trkpt>
<trkpt lat="33.0805891" lon="35.1069839"><ele>6.1</ele><time>2026-07-10T07:21:40Z</time></trkpt>
<trkpt lat="33.0805891" lon="35.1069839"><ele>6.1</ele><time>2026-07-10T07:21:41Z</time></trkpt>
<trkpt lat="33.0805891" lon="35.1069839"><ele>6.1</ele><time>2026-07-10T07:21:42Z</time></trkpt>
<trkpt lat="33.0805891" lon="35.1069839"><ele>6.1</ele><time>2026-07-10T07:21:43Z</time></trkpt>
<trkpt lat="33.0805891" lon="35.1069839"><ele>6.1</ele><time>2026-07-10T07:21:44Z</time></trkpt>
<trkpt lat="33.0805891" lon="35.1069839"><ele>6.1</ele><time>2026-07-10T07:21:45Z</time></trkpt>
<trkpt lat="33.0805891" lon="35.1069839"><ele>6.1</ele><time>2026-07-10T07:21:46Z</time></trkpt>
<trkpt lat="33.0805891" lon="35.1069839"><ele>6.1</ele><time>2026-07-10T07:21:47Z</time></trkpt>
<trkpt lat="33.0805891" lon="35.1069839"><ele>6.1</ele><time>2026-07-10T07:21:48Z</time></trkpt>
<trkpt lat="33.0805891" lon="35.1069839"><ele>6.1</ele><time>2026-07-10T07:21:49Z</time></trkpt>
<trkpt lat="33.0805891" lon="35.1069839"><ele>6.1</ele><time>2026-07-10T07:21:50Z</time></trkpt>
<trkpt lat="33.0805891" lon="35.1069839"><ele>6.1</ele><time>2026-07-10T07:21:51Z</time></trkpt>
<trkpt lat="33.0805891" lon="35.1069839"><ele>6.1</ele><time>2026-07-10T07:21:52Z</time></trkpt>
<trkpt lat="33.0805891" lon="35.1069839"><ele>6.1</ele><time>2026-07-10T07:21:53Z</time></trkpt>
<trkpt lat="33.0805891" lon="35.1069839"><ele>6.1</ele><time>2026-07-10T07:21:54Z</time></trkpt>
<trkpt lat="33.0805891" lon="35.1069839"><ele>6.1</ele><time>2026-07-10T07:21:55Z</time></trkpt>
<trkpt lat="33.0805891" lon="35.1069839"><ele>6.1</ele><time>2026-07-10T07:21:56Z</time></trkpt>
<trkpt lat="33.0805891" lon="35.1069839"><ele>6.1</ele><time>2026-07-10T07:21:57Z</time></trkpt>
<trkpt lat="33.0805891" lon="35.1069839"><ele>6.1</ele><time>2026-07-10T07:21:58Z</time></trkpt>
<trkpt lat="33.0805891" lon="35.1069839"><ele>6.1</ele><time>2026-07-10T07:21:59Z</time></trkpt>
<trkpt lat="33.0805891" lon="35.1069839"><ele>6.1</ele><time>2026-07-10T07:22:00Z</time></trkpt>
<trkpt lat="33.0805891" lon="35.1069839"><ele>6.1</ele><time>2026-07-10T07:22:01Z</time></trkpt>
<trkpt lat="33.0805891" lon="35.1069839"><ele>6.1</ele><time>2026-07-10T07:22:02Z</time></trkpt>
<trkpt lat="33.0805891" lon="35.1069839"><ele>6.1</ele><time>2026-07-10T07:22:03Z</time></trkpt>
<trkpt lat="33.0805891" lon="35.1069839"><ele>6.1</ele><time>2026-07-10T07:22:04Z</time></trkpt>
<trkpt lat="33.0805891" lon="35.1069839"><ele>6.1</ele><time>2026-07-10T07:22:05Z</time></trkpt>
<trkpt lat="33.0805891" lon="35.1069839"><ele>6.1</ele><time>2026-07-10T07:22:06Z</time></trkpt>
<trkpt lat="33.0805891" lon="35.1069839"><ele>6.1</ele><time>2026-07-10T07:22:07Z</time></trkpt>
<trkpt lat="33.0805891" lon="35.1069839"><ele>6.1</ele><time>2026-07-10T07:22:08Z</time></trkpt>
<trkpt lat="33.0805891" lon="35.1069839"><ele>6.1</ele><time>2026-07-10T07:22:09Z</time></trkpt>
<trkpt lat="33.0805891" lon="35.1069839"><ele>6.1</ele><time>2026-07-10T07:22:10Z</time></trkpt>
<trkpt lat="33.0805891" lon="35.1069839"><ele>6.1</ele><time>2026-07-10T07:22:11Z</time></trkpt>
<trkpt lat="33.0805891" lon="35.1069839"><ele>6.1</ele><time>2026-07-10T07:22:12Z</time></trkpt>
<trkpt lat="33.0805891" lon="35.1069839"><ele>6.1</ele><time>2026-07-10T07:22:13Z</time></trkpt>
<trkpt lat="33.0805891" lon="35.1069839"><ele>6.1</ele><time>2026-07-10T07:22:14Z</time></trkpt>
<trkpt lat="33.0805891" lon="35.1069839"><ele>6.1</ele><time>2026-07-10T07:22:15Z</time></trkpt>
<trkpt lat="33.0805891" lon="35.1069839"><ele>6.1</ele><time>2026-07-10T07:22:16Z</time></trkpt>
<trkpt lat="33.0805891" lon="35.1069839"><ele>6.1</ele><time>2026-07-10T07:22:17Z</time></trkpt>
<trkpt lat="33.0805891" lon="35.1069839"><ele>6.1</ele><time>2026-07-10T07:22:18Z</time></trkpt>
<trkpt lat="33.0805891" lon="35.1069839"><ele>6.1</ele><time>2026-07-10T07:22:19Z</time></trkpt>
<trkpt lat="33.0805891" lon="35.1069839"><ele>6.1</ele><time>2026-07-10T07:22:20Z</time></trkpt>
<trkpt lat="33.0805891" lon="35.1069839"><ele>6.1</ele><time>2026-07-10T07:22:21Z</time></trkpt>
<trkpt lat="33.0805891" lon="35.1069839"><ele>6.0</ele><time>2026-07-10T07:22:22Z</time></trkpt>
<trkpt lat="33.0805891" lon="35.1069839"><ele>5.8</ele><time>2026-07-10T07:22:23Z</time></trkpt>
<trkpt lat="33.0805891" lon="35.1069839"><ele>5.6</ele><time>2026-07-10T07:22:24Z</time></trkpt>
<trkpt lat="33.0805891" lon="35.1069839"><ele>5.2</ele><time>2026-07-10T07:22:25Z</time></trkpt>
<trkpt lat="33.0805891" lon="35.1069839"><ele>4.8</ele><time>2026-07-10T07:22:26Z</time></trkpt>
<trkpt lat="33.0805891" lon="35.1069839"><ele>4.3</ele><time>2026-07-10T07:22:27Z</time></trkpt>
<trkpt lat="33.0805891" lon="35.1069839"><ele>3.7</ele><time>2026-07-10T07:22:28Z</time></trkpt>
<trkpt lat="33.0805891" lon="35.1069839"><ele>3.0</ele><time>2026-07-10T07:22:29Z</time></trkpt>
<trkpt lat="33.0805891" lon="35.1069839"><ele>2.3</ele><time>2026-07-10T07:22:30Z</time></trkpt>
<trkpt lat="33.0805891" lon="35.1069839"><ele>1.6</ele><time>2026-07-10T07:22:31Z</time></trkpt>
<trkpt lat="33.0805891" lon="35.1069839"><ele>0.8</ele><time>2026-07-10T07:22:32Z</time></trkpt>
<trkpt lat="33.0805891" lon="35.1069839"><ele>0.0</ele><time>2026-07-10T07:22:33Z</time></trkpt>
</trkseg></trk></gpx>