<?xml version="1.0" encoding="UTF-8" standalone="no" ?>
<gpx xmlns="http://www.topografix.com/GPX/1/1" creator="CompeGPS" version="1.1" xmlns:xsi="http://www.w3.org/2001/XMLSchema-instance" xsi:schemaLocation="http://www.topografix.com/GPX/1/1 http://www.topografix.com/GPX/1/1/gpx.xsd http://www.garmin.com/xmlschemas/GpxExtensions/v3 http://www.garmin.com/xmlschemas/GpxExtensionsv3.xsd http://www.garmin.com/xmlschemas/TrackPointExtension/v1 http://www.garmin.com/xmlschemas/TrackPointExtensionv1.xsd" xmlns:gpxtpx="http://www.garmin.com/xmlschemas/TrackPointExtension/v1">
  <metadata>
    <link href="http://www.compegps.com">
      <text>CompeGPS TEAM, SL</text>
    </link>
    <time>2022-12-05T07:43:10Z</time>
    <bounds maxlat="29.919414" maxlon="34.999049" minlat="29.702620" minlon="34.903342"/>
  </metadata>
  <trk>
    <name>sachrout tmna</name>
    <trkseg>
      <trkpt lat="29.915743" lon="34.999049">
        <ele>477.5</ele>
        <time>2022-12-05T07:16:56Z</time>
      </trkpt>
      <trkpt lat="29.915843" lon="34.998661">
        <ele>475.5</ele>
        <time>2022-12-05T07:16:56Z</time>
      </trkpt>
      <trkpt lat="29.916217" lon="34.997812">
        <ele>473.5</ele>
        <time>2022-12-05T07:16:56Z</time>
      </trkpt>
      <trkpt lat="29.916641" lon="34.997022">
        <ele>472.9</ele>
        <time>2022-12-05T07:16:56Z</time>
      </trkpt>
      <trkpt lat="29.917041" lon="34.996618">
        <ele>474.0</ele>
        <time>2022-12-05T07:16:56Z</time>
      </trkpt>
      <trkpt lat="29.916977" lon="34.995441">
        <ele>474.4</ele>
        <time>2022-12-05T07:16:56Z</time>
      </trkpt>
      <trkpt lat="29.917151" lon="34.994521">
        <ele>478.2</ele>
        <time>2022-12-05T07:16:56Z</time>
      </trkpt>
      <trkpt lat="29.917751" lon="34.994189">
        <ele>480.9</ele>
        <time>2022-12-05T07:16:56Z</time>
      </trkpt>
      <trkpt lat="29.918577" lon="34.993828">
        <ele>485.4</ele>
        <time>2022-12-05T07:16:56Z</time>
      </trkpt>
      <trkpt lat="29.918940" lon="34.993699">
        <ele>484.9</ele>
        <time>2022-12-05T07:16:56Z</time>
      </trkpt>
      <trkpt lat="29.919240" lon="34.993282">
        <ele>487.5</ele>
        <time>2022-12-05T07:16:56Z</time>
      </trkpt>
      <trkpt lat="29.919414" lon="34.992836">
        <ele>493.1</ele>
        <time>2022-12-05T07:16:56Z</time>
      </trkpt>
      <trkpt lat="29.919364" lon="34.992420">
        <ele>497.6</ele>
        <time>2022-12-05T07:16:56Z</time>
      </trkpt>
      <trkpt lat="29.918813" lon="34.992306">
        <ele>500.4</ele>
        <time>2022-12-05T07:16:56Z</time>
      </trkpt>
      <trkpt lat="29.918349" lon="34.991891">
        <ele>504.4</ele>
        <time>2022-12-05T07:16:56Z</time>
      </trkpt>
      <trkpt lat="29.917797" lon="34.991260">
        <ele>504.7</ele>
        <time>2022-12-05T07:16:56Z</time>
      </trkpt>
      <trkpt lat="29.917471" lon="34.990729">
        <ele>503.5</ele>
        <time>2022-12-05T07:16:56Z</time>
      </trkpt>
      <trkpt lat="29.916870" lon="34.990372">
        <ele>506.8</ele>
        <time>2022-12-05T07:16:56Z</time>
      </trkpt>
      <trkpt lat="29.916657" lon="34.990257">
        <ele>508.3</ele>
        <time>2022-12-05T07:16:56Z</time>
      </trkpt>
      <trkpt lat="29.917044" lon="34.989754">
        <ele>505.6</ele>
        <time>2022-12-05T07:16:56Z</time>
      </trkpt>
      <trkpt lat="29.917005" lon="34.989136">
        <ele>512.2</ele>
        <time>2022-12-05T07:16:56Z</time>
      </trkpt>
      <trkpt lat="29.916653" lon="34.987988">
        <ele>513.0</ele>
        <time>2022-12-05T07:16:56Z</time>
      </trkpt>
      <trkpt lat="29.916778" lon="34.987672">
        <ele>513.3</ele>
        <time>2022-12-05T07:16:56Z</time>
      </trkpt>
      <trkpt lat="29.916312" lon="34.986308">
        <ele>513.1</ele>
        <time>2022-12-05T07:16:56Z</time>
      </trkpt>
      <trkpt lat="29.915847" lon="34.984944">
        <ele>514.0</ele>
        <time>2022-12-05T07:16:56Z</time>
      </trkpt>
      <trkpt lat="29.915621" lon="34.984298">
        <ele>515.0</ele>
        <time>2022-12-05T07:16:56Z</time>
      </trkpt>
      <trkpt lat="29.914555" lon="34.983238">
        <ele>517.3</ele>
        <time>2022-12-05T07:16:56Z</time>
      </trkpt>
      <trkpt lat="29.914341" lon="34.982692">
        <ele>515.9</ele>
        <time>2022-12-05T07:16:56Z</time>
      </trkpt>
      <trkpt lat="29.914127" lon="34.981759">
        <ele>516.0</ele>
        <time>2022-12-05T07:16:56Z</time>
      </trkpt>
      <trkpt lat="29.913287" lon="34.981186">
        <ele>521.5</ele>
        <time>2022-12-05T07:16:56Z</time>
      </trkpt>
      <trkpt lat="29.912373" lon="34.980758">
        <ele>527.8</ele>
        <time>2022-12-05T07:16:56Z</time>
      </trkpt>
      <trkpt lat="29.911521" lon="34.980487">
        <ele>531.9</ele>
        <time>2022-12-05T07:16:56Z</time>
      </trkpt>
      <trkpt lat="29.911246" lon="34.980531">
        <ele>533.5</ele>
        <time>2022-12-05T07:16:56Z</time>
      </trkpt>
      <trkpt lat="29.909732" lon="34.981210">
        <ele>535.1</ele>
        <time>2022-12-05T07:16:56Z</time>
      </trkpt>
      <trkpt lat="29.908531" lon="34.981386">
        <ele>534.1</ele>
        <time>2022-12-05T07:16:56Z</time>
      </trkpt>
      <trkpt lat="29.907517" lon="34.981359">
        <ele>534.1</ele>
        <time>2022-12-05T07:16:56Z</time>
      </trkpt>
      <trkpt lat="29.906592" lon="34.981779">
        <ele>533.6</ele>
        <time>2022-12-05T07:16:56Z</time>
      </trkpt>
      <trkpt lat="29.906042" lon="34.982599">
        <ele>542.3</ele>
        <time>2022-12-05T07:16:56Z</time>
      </trkpt>
      <trkpt lat="29.905505" lon="34.983261">
        <ele>547.9</ele>
        <time>2022-12-05T07:16:56Z</time>
      </trkpt>
      <trkpt lat="29.905070" lon="34.985087">
        <ele>550.4</ele>
        <time>2022-12-05T07:16:56Z</time>
      </trkpt>
      <trkpt lat="29.904696" lon="34.985663">
        <ele>548.4</ele>
        <time>2022-12-05T07:16:56Z</time>
      </trkpt>
      <trkpt lat="29.903983" lon="34.986039">
        <ele>544.4</ele>
        <time>2022-12-05T07:16:56Z</time>
      </trkpt>
      <trkpt lat="29.903270" lon="34.986414">
        <ele>545.9</ele>
        <time>2022-12-05T07:16:56Z</time>
      </trkpt>
      <trkpt lat="29.902245" lon="34.987350">
        <ele>546.4</ele>
        <time>2022-12-05T07:16:56Z</time>
      </trkpt>
      <trkpt lat="29.901233" lon="34.988430">
        <ele>554.1</ele>
        <time>2022-12-05T07:16:56Z</time>
      </trkpt>
      <trkpt lat="29.900008" lon="34.989166">
        <ele>550.1</ele>
        <time>2022-12-05T07:16:56Z</time>
      </trkpt>
      <trkpt lat="29.899384" lon="34.990073">
        <ele>556.5</ele>
        <time>2022-12-05T07:16:56Z</time>
      </trkpt>
      <trkpt lat="29.898622" lon="34.991468">
        <ele>560.2</ele>
        <time>2022-12-05T07:16:56Z</time>
      </trkpt>
      <trkpt lat="29.897960" lon="34.992188">
        <ele>558.0</ele>
        <time>2022-12-05T07:16:56Z</time>
      </trkpt>
      <trkpt lat="29.897085" lon="34.992464">
        <ele>554.4</ele>
        <time>2022-12-05T07:16:56Z</time>
      </trkpt>
      <trkpt lat="29.896021" lon="34.992782">
        <ele>560.5</ele>
        <time>2022-12-05T07:16:56Z</time>
      </trkpt>
      <trkpt lat="29.895742" lon="34.993201">
        <ele>566.0</ele>
        <time>2022-12-05T07:16:56Z</time>
      </trkpt>
      <trkpt lat="29.895702" lon="34.993526">
        <ele>567.0</ele>
        <time>2022-12-05T07:16:56Z</time>
      </trkpt>
      <trkpt lat="29.895502" lon="34.993816">
        <ele>564.4</ele>
        <time>2022-12-05T07:16:56Z</time>
      </trkpt>
      <trkpt lat="29.895445" lon="34.993562">
        <ele>564.8</ele>
        <time>2022-12-05T07:16:56Z</time>
      </trkpt>
      <trkpt lat="29.895352" lon="34.993504">
        <ele>564.3</ele>
        <time>2022-12-05T07:16:56Z</time>
      </trkpt>
      <trkpt lat="29.895152" lon="34.993581">
        <ele>562.2</ele>
        <time>2022-12-05T07:16:56Z</time>
      </trkpt>
      <trkpt lat="29.894946" lon="34.993493">
        <ele>561.8</ele>
        <time>2022-12-05T07:16:56Z</time>
      </trkpt>
      <trkpt lat="29.894951" lon="34.993322">
        <ele>563.3</ele>
        <time>2022-12-05T07:16:56Z</time>
      </trkpt>
      <trkpt lat="29.895084" lon="34.993063">
        <ele>562.6</ele>
        <time>2022-12-05T07:16:56Z</time>
      </trkpt>
      <trkpt lat="29.895074" lon="34.992892">
        <ele>562.1</ele>
        <time>2022-12-05T07:16:56Z</time>
      </trkpt>
      <trkpt lat="29.894796" lon="34.992916">
        <ele>565.0</ele>
        <time>2022-12-05T07:16:56Z</time>
      </trkpt>
      <trkpt lat="29.894446" lon="34.992852">
        <ele>570.9</ele>
        <time>2022-12-05T07:16:56Z</time>
      </trkpt>
      <trkpt lat="29.894076" lon="34.992788">
        <ele>577.1</ele>
        <time>2022-12-05T07:16:56Z</time>
      </trkpt>
      <trkpt lat="29.893591" lon="34.992323">
        <ele>586.2</ele>
        <time>2022-12-05T07:16:56Z</time>
      </trkpt>
      <trkpt lat="29.893216" lon="34.992431">
        <ele>589.2</ele>
        <time>2022-12-05T07:16:56Z</time>
      </trkpt>
      <trkpt lat="29.892810" lon="34.992756">
        <ele>580.1</ele>
        <time>2022-12-05T07:16:56Z</time>
      </trkpt>
      <trkpt lat="29.892219" lon="34.992740">
        <ele>581.2</ele>
        <time>2022-12-05T07:16:56Z</time>
      </trkpt>
      <trkpt lat="29.891335" lon="34.993183">
        <ele>570.2</ele>
        <time>2022-12-05T07:16:56Z</time>
      </trkpt>
      <trkpt lat="29.890864" lon="34.993368">
        <ele>566.8</ele>
        <time>2022-12-05T07:16:56Z</time>
      </trkpt>
      <trkpt lat="29.890915" lon="34.993621">
        <ele>556.7</ele>
        <time>2022-12-05T07:16:56Z</time>
      </trkpt>
      <trkpt lat="29.890525" lon="34.994117">
        <ele>547.2</ele>
        <time>2022-12-05T07:16:56Z</time>
      </trkpt>
      <trkpt lat="29.890121" lon="34.994021">
        <ele>558.8</ele>
        <time>2022-12-05T07:16:56Z</time>
      </trkpt>
      <trkpt lat="29.890056" lon="34.994102">
        <ele>558.7</ele>
        <time>2022-12-05T07:16:56Z</time>
      </trkpt>
      <trkpt lat="29.890180" lon="34.994352">
        <ele>549.2</ele>
        <time>2022-12-05T07:16:56Z</time>
      </trkpt>
      <trkpt lat="29.889859" lon="34.994755">
        <ele>546.8</ele>
        <time>2022-12-05T07:16:56Z</time>
      </trkpt>
      <trkpt lat="29.889398" lon="34.994983">
        <ele>552.0</ele>
        <time>2022-12-05T07:16:56Z</time>
      </trkpt>
      <trkpt lat="29.888862" lon="34.994963">
        <ele>558.0</ele>
        <time>2022-12-05T07:16:56Z</time>
      </trkpt>
      <trkpt lat="29.888752" lon="34.994264">
        <ele>561.1</ele>
        <time>2022-12-05T07:16:56Z</time>
      </trkpt>
      <trkpt lat="29.888538" lon="34.993358">
        <ele>558.7</ele>
        <time>2022-12-05T07:16:56Z</time>
      </trkpt>
      <trkpt lat="29.888421" lon="34.992179">
        <ele>568.1</ele>
        <time>2022-12-05T07:16:56Z</time>
      </trkpt>
      <trkpt lat="29.888297" lon="34.991324">
        <ele>573.4</ele>
        <time>2022-12-05T07:16:56Z</time>
      </trkpt>
      <trkpt lat="29.888648" lon="34.989879">
        <ele>569.1</ele>
        <time>2022-12-05T07:16:56Z</time>
      </trkpt>
      <trkpt lat="29.888917" lon="34.989023">
        <ele>561.9</ele>
        <time>2022-12-05T07:16:56Z</time>
      </trkpt>
      <trkpt lat="29.889365" lon="34.988050">
        <ele>552.8</ele>
        <time>2022-12-05T07:16:56Z</time>
      </trkpt>
      <trkpt lat="29.890006" lon="34.987149">
        <ele>549.4</ele>
        <time>2022-12-05T07:16:56Z</time>
      </trkpt>
      <trkpt lat="29.890435" lon="34.986669">
        <ele>549.6</ele>
        <time>2022-12-05T07:16:56Z</time>
      </trkpt>
      <trkpt lat="29.890871" lon="34.985895">
        <ele>545.8</ele>
        <time>2022-12-05T07:16:56Z</time>
      </trkpt>
      <trkpt lat="29.891633" lon="34.984743">
        <ele>545.4</ele>
        <time>2022-12-05T07:16:56Z</time>
      </trkpt>
      <trkpt lat="29.892723" lon="34.983642">
        <ele>546.2</ele>
        <time>2022-12-05T07:16:56Z</time>
      </trkpt>
      <trkpt lat="29.892953" lon="34.982824">
        <ele>548.0</ele>
        <time>2022-12-05T07:16:56Z</time>
      </trkpt>
      <trkpt lat="29.893259" lon="34.981143">
        <ele>548.5</ele>
        <time>2022-12-05T07:16:56Z</time>
      </trkpt>
      <trkpt lat="29.893256" lon="34.979506">
        <ele>549.1</ele>
        <time>2022-12-05T07:16:56Z</time>
      </trkpt>
      <trkpt lat="29.893382" lon="34.978518">
        <ele>553.0</ele>
        <time>2022-12-05T07:16:56Z</time>
      </trkpt>
      <trkpt lat="29.893419" lon="34.977442">
        <ele>547.5</ele>
        <time>2022-12-05T07:16:56Z</time>
      </trkpt>
      <trkpt lat="29.893456" lon="34.976514">
        <ele>542.1</ele>
        <time>2022-12-05T07:16:56Z</time>
      </trkpt>
      <trkpt lat="29.893867" lon="34.976115">
        <ele>548.5</ele>
        <time>2022-12-05T07:16:56Z</time>
      </trkpt>
      <trkpt lat="29.894187" lon="34.975429">
        <ele>547.4</ele>
        <time>2022-12-05T07:16:56Z</time>
      </trkpt>
      <trkpt lat="29.894583" lon="34.974072">
        <ele>547.0</ele>
        <time>2022-12-05T07:16:56Z</time>
      </trkpt>
      <trkpt lat="29.894974" lon="34.973599">
        <ele>552.4</ele>
        <time>2022-12-05T07:16:56Z</time>
      </trkpt>
      <trkpt lat="29.895191" lon="34.972707">
        <ele>534.9</ele>
        <time>2022-12-05T07:16:56Z</time>
      </trkpt>
      <trkpt lat="29.895658" lon="34.972043">
        <ele>525.9</ele>
        <time>2022-12-05T07:16:56Z</time>
      </trkpt>
      <trkpt lat="29.896397" lon="34.971702">
        <ele>527.7</ele>
        <time>2022-12-05T07:16:56Z</time>
      </trkpt>
      <trkpt lat="29.896994" lon="34.971546">
        <ele>537.4</ele>
        <time>2022-12-05T07:16:56Z</time>
      </trkpt>
      <trkpt lat="29.897725" lon="34.970741">
        <ele>534.2</ele>
        <time>2022-12-05T07:16:56Z</time>
      </trkpt>
      <trkpt lat="29.898154" lon="34.970342">
        <ele>536.9</ele>
        <time>2022-12-05T07:16:56Z</time>
      </trkpt>
      <trkpt lat="29.898648" lon="34.969810">
        <ele>541.7</ele>
        <time>2022-12-05T07:16:56Z</time>
      </trkpt>
      <trkpt lat="29.898969" lon="34.969780">
        <ele>555.4</ele>
        <time>2022-12-05T07:16:56Z</time>
      </trkpt>
      <trkpt lat="29.899257" lon="34.968954">
        <ele>550.1</ele>
        <time>2022-12-05T07:16:56Z</time>
      </trkpt>
      <trkpt lat="29.898972" lon="34.967967">
        <ele>534.0</ele>
        <time>2022-12-05T07:16:56Z</time>
      </trkpt>
      <trkpt lat="29.898842" lon="34.966965">
        <ele>520.5</ele>
        <time>2022-12-05T07:16:56Z</time>
      </trkpt>
      <trkpt lat="29.899059" lon="34.966338">
        <ele>516.3</ele>
        <time>2022-12-05T07:16:56Z</time>
      </trkpt>
      <trkpt lat="29.899676" lon="34.966308">
        <ele>511.3</ele>
        <time>2022-12-05T07:16:56Z</time>
      </trkpt>
      <trkpt lat="29.899978" lon="34.966116">
        <ele>507.8</ele>
        <time>2022-12-05T07:16:56Z</time>
      </trkpt>
      <trkpt lat="29.900595" lon="34.966210">
        <ele>505.3</ele>
        <time>2022-12-05T07:16:56Z</time>
      </trkpt>
      <trkpt lat="29.900968" lon="34.966467">
        <ele>509.6</ele>
        <time>2022-12-05T07:16:56Z</time>
      </trkpt>
      <trkpt lat="29.901815" lon="34.966185">
        <ele>527.5</ele>
        <time>2022-12-05T07:16:56Z</time>
      </trkpt>
      <trkpt lat="29.902117" lon="34.966015">
        <ele>536.3</ele>
        <time>2022-12-05T07:16:56Z</time>
      </trkpt>
      <trkpt lat="29.902496" lon="34.965786">
        <ele>548.4</ele>
        <time>2022-12-05T07:16:56Z</time>
      </trkpt>
      <trkpt lat="29.902558" lon="34.965042">
        <ele>530.4</ele>
        <time>2022-12-05T07:16:56Z</time>
      </trkpt>
      <trkpt lat="29.902987" lon="34.964252">
        <ele>530.2</ele>
        <time>2022-12-05T07:16:56Z</time>
      </trkpt>
      <trkpt lat="29.903326" lon="34.963382">
        <ele>533.3</ele>
        <time>2022-12-05T07:16:56Z</time>
      </trkpt>
      <trkpt lat="29.903428" lon="34.962947">
        <ele>530.4</ele>
        <time>2022-12-05T07:16:56Z</time>
      </trkpt>
      <trkpt lat="29.903349" lon="34.961635">
        <ele>512.8</ele>
        <time>2022-12-05T07:16:56Z</time>
      </trkpt>
      <trkpt lat="29.903643" lon="34.960919">
        <ele>510.7</ele>
        <time>2022-12-05T07:16:56Z</time>
      </trkpt>
      <trkpt lat="29.903919" lon="34.960535">
        <ele>516.4</ele>
        <time>2022-12-05T07:16:56Z</time>
      </trkpt>
      <trkpt lat="29.904103" lon="34.959636">
        <ele>515.0</ele>
        <time>2022-12-05T07:16:56Z</time>
      </trkpt>
      <trkpt lat="29.904037" lon="34.958633">
        <ele>503.2</ele>
        <time>2022-12-05T07:16:56Z</time>
      </trkpt>
      <trkpt lat="29.903888" lon="34.957985">
        <ele>496.9</ele>
        <time>2022-12-05T07:16:56Z</time>
      </trkpt>
      <trkpt lat="29.904193" lon="34.956201">
        <ele>498.9</ele>
        <time>2022-12-05T07:16:56Z</time>
      </trkpt>
      <trkpt lat="29.904250" lon="34.955456">
        <ele>489.9</ele>
        <time>2022-12-05T07:16:56Z</time>
      </trkpt>
      <trkpt lat="29.904665" lon="34.954357">
        <ele>479.6</ele>
        <time>2022-12-05T07:16:56Z</time>
      </trkpt>
      <trkpt lat="29.905005" lon="34.954076">
        <ele>476.0</ele>
        <time>2022-12-05T07:16:56Z</time>
      </trkpt>
      <trkpt lat="29.905307" lon="34.954039">
        <ele>477.6</ele>
        <time>2022-12-05T07:16:56Z</time>
      </trkpt>
      <trkpt lat="29.905506" lon="34.953743">
        <ele>477.8</ele>
        <time>2022-12-05T07:16:56Z</time>
      </trkpt>
      <trkpt lat="29.905762" lon="34.953197">
        <ele>476.4</ele>
        <time>2022-12-05T07:16:56Z</time>
      </trkpt>
      <trkpt lat="29.905754" lon="34.952460">
        <ele>473.9</ele>
        <time>2022-12-05T07:16:56Z</time>
      </trkpt>
      <trkpt lat="29.905451" lon="34.951931">
        <ele>471.7</ele>
        <time>2022-12-05T07:16:56Z</time>
      </trkpt>
      <trkpt lat="29.904995" lon="34.951689">
        <ele>471.1</ele>
        <time>2022-12-05T07:16:56Z</time>
      </trkpt>
      <trkpt lat="29.904455" lon="34.951410">
        <ele>471.0</ele>
        <time>2022-12-05T07:16:56Z</time>
      </trkpt>
      <trkpt lat="29.903991" lon="34.950859">
        <ele>470.7</ele>
        <time>2022-12-05T07:16:56Z</time>
      </trkpt>
      <trkpt lat="29.903688" lon="34.950395">
        <ele>470.5</ele>
        <time>2022-12-05T07:16:56Z</time>
      </trkpt>
      <trkpt lat="29.903174" lon="34.949970">
        <ele>469.6</ele>
        <time>2022-12-05T07:16:56Z</time>
      </trkpt>
      <trkpt lat="29.902531" lon="34.949588">
        <ele>471.4</ele>
        <time>2022-12-05T07:16:56Z</time>
      </trkpt>
      <trkpt lat="29.901984" lon="34.949022">
        <ele>471.7</ele>
        <time>2022-12-05T07:16:56Z</time>
      </trkpt>
      <trkpt lat="29.901450" lon="34.948493">
        <ele>473.0</ele>
        <time>2022-12-05T07:16:56Z</time>
      </trkpt>
      <trkpt lat="29.900987" lon="34.948214">
        <ele>474.5</ele>
        <time>2022-12-05T07:16:56Z</time>
      </trkpt>
      <trkpt lat="29.900575" lon="34.947714">
        <ele>475.5</ele>
        <time>2022-12-05T07:16:56Z</time>
      </trkpt>
      <trkpt lat="29.900028" lon="34.947267">
        <ele>476.5</ele>
        <time>2022-12-05T07:16:56Z</time>
      </trkpt>
      <trkpt lat="29.899404" lon="34.946767">
        <ele>479.2</ele>
        <time>2022-12-05T07:16:56Z</time>
      </trkpt>
      <trkpt lat="29.898844" lon="34.946245">
        <ele>480.2</ele>
        <time>2022-12-05T07:16:56Z</time>
      </trkpt>
      <trkpt lat="29.898316" lon="34.945576">
        <ele>481.0</ele>
        <time>2022-12-05T07:16:56Z</time>
      </trkpt>
      <trkpt lat="29.897595" lon="34.944974">
        <ele>483.9</ele>
        <time>2022-12-05T07:16:56Z</time>
      </trkpt>
      <trkpt lat="29.896746" lon="34.944188">
        <ele>485.9</ele>
        <time>2022-12-05T07:16:56Z</time>
      </trkpt>
      <trkpt lat="29.896296" lon="34.943968">
        <ele>487.4</ele>
        <time>2022-12-05T07:16:56Z</time>
      </trkpt>
      <trkpt lat="29.895750" lon="34.943638">
        <ele>488.8</ele>
        <time>2022-12-05T07:16:56Z</time>
      </trkpt>
      <trkpt lat="29.895062" lon="34.943338">
        <ele>489.9</ele>
        <time>2022-12-05T07:16:56Z</time>
      </trkpt>
      <trkpt lat="29.894683" lon="34.943251">
        <ele>491.2</ele>
        <time>2022-12-05T07:16:56Z</time>
      </trkpt>
      <trkpt lat="29.894393" lon="34.943097">
        <ele>492.0</ele>
        <time>2022-12-05T07:16:56Z</time>
      </trkpt>
      <trkpt lat="29.893616" lon="34.942775">
        <ele>495.8</ele>
        <time>2022-12-05T07:16:56Z</time>
      </trkpt>
      <trkpt lat="29.893204" lon="34.942585">
        <ele>496.7</ele>
        <time>2022-12-05T07:16:56Z</time>
      </trkpt>
      <trkpt lat="29.892581" lon="34.942513">
        <ele>497.1</ele>
        <time>2022-12-05T07:16:56Z</time>
      </trkpt>
      <trkpt lat="29.891912" lon="34.942146">
        <ele>498.0</ele>
        <time>2022-12-05T07:16:56Z</time>
      </trkpt>
      <trkpt lat="29.891418" lon="34.942362">
        <ele>500.2</ele>
        <time>2022-12-05T07:16:56Z</time>
      </trkpt>
      <trkpt lat="29.890974" lon="34.941921">
        <ele>500.7</ele>
        <time>2022-12-05T07:16:56Z</time>
      </trkpt>
      <trkpt lat="29.890686" lon="34.942025">
        <ele>502.5</ele>
        <time>2022-12-05T07:16:56Z</time>
      </trkpt>
      <trkpt lat="29.890474" lon="34.942011">
        <ele>503.5</ele>
        <time>2022-12-05T07:16:56Z</time>
      </trkpt>
      <trkpt lat="29.890095" lon="34.942219">
        <ele>507.9</ele>
        <time>2022-12-05T07:16:56Z</time>
      </trkpt>
      <trkpt lat="29.889684" lon="34.942309">
        <ele>509.3</ele>
        <time>2022-12-05T07:16:56Z</time>
      </trkpt>
      <trkpt lat="29.889222" lon="34.942384">
        <ele>509.4</ele>
        <time>2022-12-05T07:16:56Z</time>
      </trkpt>
      <trkpt lat="29.889016" lon="34.942289">
        <ele>508.7</ele>
        <time>2022-12-05T07:16:56Z</time>
      </trkpt>
      <trkpt lat="29.889182" lon="34.941530">
        <ele>504.6</ele>
        <time>2022-12-05T07:16:56Z</time>
      </trkpt>
      <trkpt lat="29.889162" lon="34.941176">
        <ele>503.8</ele>
        <time>2022-12-05T07:16:56Z</time>
      </trkpt>
      <trkpt lat="29.888827" lon="34.940514">
        <ele>503.8</ele>
        <time>2022-12-05T07:16:56Z</time>
      </trkpt>
      <trkpt lat="29.888165" lon="34.940302">
        <ele>505.9</ele>
        <time>2022-12-05T07:16:56Z</time>
      </trkpt>
      <trkpt lat="29.887490" lon="34.940098">
        <ele>507.8</ele>
        <time>2022-12-05T07:16:56Z</time>
      </trkpt>
      <trkpt lat="29.886584" lon="34.939776">
        <ele>509.5</ele>
        <time>2022-12-05T07:16:56Z</time>
      </trkpt>
      <trkpt lat="29.885735" lon="34.939491">
        <ele>515.0</ele>
        <time>2022-12-05T07:16:56Z</time>
      </trkpt>
      <trkpt lat="29.885215" lon="34.939522">
        <ele>518.8</ele>
        <time>2022-12-05T07:16:56Z</time>
      </trkpt>
      <trkpt lat="29.884631" lon="34.939760">
        <ele>521.0</ele>
        <time>2022-12-05T07:16:56Z</time>
      </trkpt>
      <trkpt lat="29.884445" lon="34.939702">
        <ele>519.6</ele>
        <time>2022-12-05T07:16:56Z</time>
      </trkpt>
      <trkpt lat="29.884208" lon="34.940049">
        <ele>520.9</ele>
        <time>2022-12-05T07:16:56Z</time>
      </trkpt>
      <trkpt lat="29.883778" lon="34.940375">
        <ele>525.1</ele>
        <time>2022-12-05T07:16:56Z</time>
      </trkpt>
      <trkpt lat="29.883201" lon="34.940531">
        <ele>525.3</ele>
        <time>2022-12-05T07:16:56Z</time>
      </trkpt>
      <trkpt lat="29.882829" lon="34.940769">
        <ele>524.5</ele>
        <time>2022-12-05T07:16:56Z</time>
      </trkpt>
      <trkpt lat="29.882269" lon="34.940973">
        <ele>523.0</ele>
        <time>2022-12-05T07:16:56Z</time>
      </trkpt>
      <trkpt lat="29.881440" lon="34.940857">
        <ele>524.7</ele>
        <time>2022-12-05T07:16:56Z</time>
      </trkpt>
      <trkpt lat="29.880676" lon="34.940955">
        <ele>527.9</ele>
        <time>2022-12-05T07:16:56Z</time>
      </trkpt>
      <trkpt lat="29.880284" lon="34.940861">
        <ele>527.1</ele>
        <time>2022-12-05T07:16:56Z</time>
      </trkpt>
      <trkpt lat="29.879912" lon="34.941002">
        <ele>529.9</ele>
        <time>2022-12-05T07:16:56Z</time>
      </trkpt>
      <trkpt lat="29.879431" lon="34.941085">
        <ele>531.0</ele>
        <time>2022-12-05T07:16:56Z</time>
      </trkpt>
      <trkpt lat="29.879277" lon="34.941270">
        <ele>533.3</ele>
        <time>2022-12-05T07:16:56Z</time>
      </trkpt>
      <trkpt lat="29.878744" lon="34.941286">
        <ele>534.8</ele>
        <time>2022-12-05T07:16:56Z</time>
      </trkpt>
      <trkpt lat="29.878398" lon="34.941516">
        <ele>538.9</ele>
        <time>2022-12-05T07:16:56Z</time>
      </trkpt>
      <trkpt lat="29.877962" lon="34.941849">
        <ele>543.0</ele>
        <time>2022-12-05T07:16:56Z</time>
      </trkpt>
      <trkpt lat="29.877391" lon="34.942027">
        <ele>543.1</ele>
        <time>2022-12-05T07:16:56Z</time>
      </trkpt>
      <trkpt lat="29.876852" lon="34.942295">
        <ele>538.4</ele>
        <time>2022-12-05T07:16:56Z</time>
      </trkpt>
      <trkpt lat="29.876203" lon="34.942201">
        <ele>535.6</ele>
        <time>2022-12-05T07:16:56Z</time>
      </trkpt>
      <trkpt lat="29.875850" lon="34.942172">
        <ele>535.6</ele>
        <time>2022-12-05T07:16:56Z</time>
      </trkpt>
      <trkpt lat="29.875535" lon="34.941908">
        <ele>535.4</ele>
        <time>2022-12-05T07:16:56Z</time>
      </trkpt>
      <trkpt lat="29.875239" lon="34.941629">
        <ele>534.9</ele>
        <time>2022-12-05T07:16:56Z</time>
      </trkpt>
      <trkpt lat="29.874847" lon="34.941314">
        <ele>535.1</ele>
        <time>2022-12-05T07:16:56Z</time>
      </trkpt>
      <trkpt lat="29.874415" lon="34.940725">
        <ele>535.2</ele>
        <time>2022-12-05T07:16:56Z</time>
      </trkpt>
      <trkpt lat="29.873939" lon="34.940233">
        <ele>535.3</ele>
        <time>2022-12-05T07:16:56Z</time>
      </trkpt>
      <trkpt lat="29.873014" lon="34.940192">
        <ele>537.1</ele>
        <time>2022-12-05T07:16:56Z</time>
      </trkpt>
      <trkpt lat="29.872423" lon="34.940127">
        <ele>537.2</ele>
        <time>2022-12-05T07:16:56Z</time>
      </trkpt>
      <trkpt lat="29.871934" lon="34.939908">
        <ele>538.2</ele>
        <time>2022-12-05T07:16:56Z</time>
      </trkpt>
      <trkpt lat="29.871009" lon="34.939815">
        <ele>542.9</ele>
        <time>2022-12-05T07:16:56Z</time>
      </trkpt>
      <trkpt lat="29.870752" lon="34.939632">
        <ele>543.9</ele>
        <time>2022-12-05T07:16:56Z</time>
      </trkpt>
      <trkpt lat="29.870501" lon="34.939235">
        <ele>544.3</ele>
        <time>2022-12-05T07:16:56Z</time>
      </trkpt>
      <trkpt lat="29.870347" lon="34.939125">
        <ele>544.7</ele>
        <time>2022-12-05T07:16:56Z</time>
      </trkpt>
      <trkpt lat="29.870084" lon="34.939369">
        <ele>546.4</ele>
        <time>2022-12-05T07:16:56Z</time>
      </trkpt>
      <trkpt lat="29.869731" lon="34.939606">
        <ele>548.5</ele>
        <time>2022-12-05T07:16:56Z</time>
      </trkpt>
      <trkpt lat="29.869500" lon="34.939518">
        <ele>549.2</ele>
        <time>2022-12-05T07:16:56Z</time>
      </trkpt>
      <trkpt lat="29.869152" lon="34.939011">
        <ele>549.9</ele>
        <time>2022-12-05T07:16:56Z</time>
      </trkpt>
      <trkpt lat="29.868927" lon="34.938791">
        <ele>551.4</ele>
        <time>2022-12-05T07:16:56Z</time>
      </trkpt>
      <trkpt lat="29.868567" lon="34.938792">
        <ele>554.3</ele>
        <time>2022-12-05T07:16:56Z</time>
      </trkpt>
      <trkpt lat="29.868843" lon="34.938239">
        <ele>550.8</ele>
        <time>2022-12-05T07:16:56Z</time>
      </trkpt>
      <trkpt lat="29.868964" lon="34.937996">
        <ele>549.8</ele>
        <time>2022-12-05T07:16:56Z</time>
      </trkpt>
      <trkpt lat="29.868905" lon="34.937532">
        <ele>549.6</ele>
        <time>2022-12-05T07:16:56Z</time>
      </trkpt>
      <trkpt lat="29.868539" lon="34.937290">
        <ele>551.6</ele>
        <time>2022-12-05T07:16:56Z</time>
      </trkpt>
      <trkpt lat="29.868391" lon="34.937069">
        <ele>552.2</ele>
        <time>2022-12-05T07:16:56Z</time>
      </trkpt>
      <trkpt lat="29.867819" lon="34.936769">
        <ele>554.8</ele>
        <time>2022-12-05T07:16:56Z</time>
      </trkpt>
      <trkpt lat="29.867188" lon="34.936314">
        <ele>556.3</ele>
        <time>2022-12-05T07:16:56Z</time>
      </trkpt>
      <trkpt lat="29.866777" lon="34.936139">
        <ele>557.3</ele>
        <time>2022-12-05T07:16:56Z</time>
      </trkpt>
      <trkpt lat="29.866604" lon="34.936184">
        <ele>558.3</ele>
        <time>2022-12-05T07:16:56Z</time>
      </trkpt>
      <trkpt lat="29.866141" lon="34.936045">
        <ele>560.8</ele>
        <time>2022-12-05T07:16:56Z</time>
      </trkpt>
      <trkpt lat="29.865910" lon="34.935891">
        <ele>561.0</ele>
        <time>2022-12-05T07:16:56Z</time>
      </trkpt>
      <trkpt lat="29.866268" lon="34.935441">
        <ele>559.4</ele>
        <time>2022-12-05T07:16:56Z</time>
      </trkpt>
      <trkpt lat="29.866736" lon="34.934703">
        <ele>557.1</ele>
        <time>2022-12-05T07:16:56Z</time>
      </trkpt>
      <trkpt lat="29.866948" lon="34.934555">
        <ele>556.5</ele>
        <time>2022-12-05T07:16:56Z</time>
      </trkpt>
      <trkpt lat="29.867030" lon="34.934069">
        <ele>556.6</ele>
        <time>2022-12-05T07:16:56Z</time>
      </trkpt>
      <trkpt lat="29.866914" lon="34.933709">
        <ele>556.5</ele>
        <time>2022-12-05T07:16:56Z</time>
      </trkpt>
      <trkpt lat="29.866842" lon="34.933134">
        <ele>556.3</ele>
        <time>2022-12-05T07:16:56Z</time>
      </trkpt>
      <trkpt lat="29.866681" lon="34.932678">
        <ele>556.9</ele>
        <time>2022-12-05T07:16:56Z</time>
      </trkpt>
      <trkpt lat="29.866474" lon="34.932384">
        <ele>557.6</ele>
        <time>2022-12-05T07:16:56Z</time>
      </trkpt>
      <trkpt lat="29.865993" lon="34.932592">
        <ele>561.3</ele>
        <time>2022-12-05T07:16:56Z</time>
      </trkpt>
      <trkpt lat="29.865974" lon="34.932445">
        <ele>560.6</ele>
        <time>2022-12-05T07:16:56Z</time>
      </trkpt>
      <trkpt lat="29.866109" lon="34.932261">
        <ele>558.7</ele>
        <time>2022-12-05T07:16:56Z</time>
      </trkpt>
      <trkpt lat="29.866031" lon="34.932062">
        <ele>557.6</ele>
        <time>2022-12-05T07:16:56Z</time>
      </trkpt>
      <trkpt lat="29.865607" lon="34.932071">
        <ele>558.7</ele>
        <time>2022-12-05T07:16:56Z</time>
      </trkpt>
      <trkpt lat="29.865112" lon="34.931866">
        <ele>558.0</ele>
        <time>2022-12-05T07:16:56Z</time>
      </trkpt>
      <trkpt lat="29.864862" lon="34.931735">
        <ele>557.7</ele>
        <time>2022-12-05T07:16:56Z</time>
      </trkpt>
      <trkpt lat="29.864457" lon="34.931685">
        <ele>558.4</ele>
        <time>2022-12-05T07:16:56Z</time>
      </trkpt>
      <trkpt lat="29.864252" lon="34.931693">
        <ele>559.0</ele>
        <time>2022-12-05T07:16:56Z</time>
      </trkpt>
      <trkpt lat="29.864130" lon="34.931797">
        <ele>560.1</ele>
        <time>2022-12-05T07:16:56Z</time>
      </trkpt>
      <trkpt lat="29.864187" lon="34.931406">
        <ele>558.9</ele>
        <time>2022-12-05T07:16:56Z</time>
      </trkpt>
      <trkpt lat="29.864572" lon="34.931059">
        <ele>558.0</ele>
        <time>2022-12-05T07:16:56Z</time>
      </trkpt>
      <trkpt lat="29.864437" lon="34.931001">
        <ele>558.4</ele>
        <time>2022-12-05T07:16:56Z</time>
      </trkpt>
      <trkpt lat="29.864219" lon="34.931097">
        <ele>558.9</ele>
        <time>2022-12-05T07:16:56Z</time>
      </trkpt>
      <trkpt lat="29.864263" lon="34.930891">
        <ele>558.8</ele>
        <time>2022-12-05T07:16:56Z</time>
      </trkpt>
      <trkpt lat="29.864912" lon="34.930698">
        <ele>557.9</ele>
        <time>2022-12-05T07:16:56Z</time>
      </trkpt>
      <trkpt lat="29.865027" lon="34.930580">
        <ele>558.1</ele>
        <time>2022-12-05T07:16:56Z</time>
      </trkpt>
      <trkpt lat="29.864956" lon="34.930374">
        <ele>559.4</ele>
        <time>2022-12-05T07:16:56Z</time>
      </trkpt>
      <trkpt lat="29.864660" lon="34.930213">
        <ele>560.8</ele>
        <time>2022-12-05T07:16:56Z</time>
      </trkpt>
      <trkpt lat="29.864191" lon="34.929846">
        <ele>562.4</ele>
        <time>2022-12-05T07:16:56Z</time>
      </trkpt>
      <trkpt lat="29.864043" lon="34.929523">
        <ele>561.6</ele>
        <time>2022-12-05T07:16:56Z</time>
      </trkpt>
      <trkpt lat="29.863862" lon="34.928912">
        <ele>560.5</ele>
        <time>2022-12-05T07:16:56Z</time>
      </trkpt>
      <trkpt lat="29.863828" lon="34.928411">
        <ele>559.4</ele>
        <time>2022-12-05T07:16:56Z</time>
      </trkpt>
      <trkpt lat="29.863629" lon="34.928360">
        <ele>560.0</ele>
        <time>2022-12-05T07:16:56Z</time>
      </trkpt>
      <trkpt lat="29.863418" lon="34.928604">
        <ele>561.3</ele>
        <time>2022-12-05T07:16:56Z</time>
      </trkpt>
      <trkpt lat="29.863084" lon="34.928628">
        <ele>562.0</ele>
        <time>2022-12-05T07:16:56Z</time>
      </trkpt>
      <trkpt lat="29.862642" lon="34.928976">
        <ele>563.4</ele>
        <time>2022-12-05T07:16:56Z</time>
      </trkpt>
      <trkpt lat="29.862256" lon="34.928844">
        <ele>563.0</ele>
        <time>2022-12-05T07:16:56Z</time>
      </trkpt>
      <trkpt lat="29.861992" lon="34.928536">
        <ele>562.6</ele>
        <time>2022-12-05T07:16:56Z</time>
      </trkpt>
      <trkpt lat="29.861908" lon="34.928175">
        <ele>562.7</ele>
        <time>2022-12-05T07:16:56Z</time>
      </trkpt>
      <trkpt lat="29.861676" lon="34.927815">
        <ele>563.6</ele>
        <time>2022-12-05T07:16:56Z</time>
      </trkpt>
      <trkpt lat="29.861380" lon="34.927595">
        <ele>564.7</ele>
        <time>2022-12-05T07:16:56Z</time>
      </trkpt>
      <trkpt lat="29.861142" lon="34.927360">
        <ele>564.5</ele>
        <time>2022-12-05T07:16:56Z</time>
      </trkpt>
      <trkpt lat="29.860866" lon="34.927465">
        <ele>565.7</ele>
        <time>2022-12-05T07:16:56Z</time>
      </trkpt>
      <trkpt lat="29.860789" lon="34.927244">
        <ele>564.7</ele>
        <time>2022-12-05T07:16:56Z</time>
      </trkpt>
      <trkpt lat="29.860512" lon="34.926995">
        <ele>565.3</ele>
        <time>2022-12-05T07:16:56Z</time>
      </trkpt>
      <trkpt lat="29.860242" lon="34.926782">
        <ele>566.4</ele>
        <time>2022-12-05T07:16:56Z</time>
      </trkpt>
      <trkpt lat="29.859824" lon="34.926238">
        <ele>568.0</ele>
        <time>2022-12-05T07:16:56Z</time>
      </trkpt>
      <trkpt lat="29.859179" lon="34.925223">
        <ele>566.8</ele>
        <time>2022-12-05T07:16:56Z</time>
      </trkpt>
      <trkpt lat="29.859173" lon="34.925083">
        <ele>566.3</ele>
        <time>2022-12-05T07:16:56Z</time>
      </trkpt>
      <trkpt lat="29.858896" lon="34.924768">
        <ele>569.9</ele>
        <time>2022-12-05T07:16:56Z</time>
      </trkpt>
      <trkpt lat="29.858465" lon="34.924379">
        <ele>573.9</ele>
        <time>2022-12-05T07:16:56Z</time>
      </trkpt>
      <trkpt lat="29.857738" lon="34.923865">
        <ele>578.0</ele>
        <time>2022-12-05T07:16:56Z</time>
      </trkpt>
      <trkpt lat="29.856992" lon="34.923249">
        <ele>582.7</ele>
        <time>2022-12-05T07:16:56Z</time>
      </trkpt>
      <trkpt lat="29.856265" lon="34.922882">
        <ele>582.0</ele>
        <time>2022-12-05T07:16:56Z</time>
      </trkpt>
      <trkpt lat="29.855411" lon="34.922701">
        <ele>580.9</ele>
        <time>2022-12-05T07:16:56Z</time>
      </trkpt>
      <trkpt lat="29.854544" lon="34.922549">
        <ele>582.3</ele>
        <time>2022-12-05T07:16:56Z</time>
      </trkpt>
      <trkpt lat="29.854242" lon="34.922520">
        <ele>582.9</ele>
        <time>2022-12-05T07:16:56Z</time>
      </trkpt>
      <trkpt lat="29.853868" lon="34.922168">
        <ele>583.8</ele>
        <time>2022-12-05T07:16:56Z</time>
      </trkpt>
      <trkpt lat="29.853630" lon="34.921727">
        <ele>584.6</ele>
        <time>2022-12-05T07:16:56Z</time>
      </trkpt>
      <trkpt lat="29.853456" lon="34.921359">
        <ele>585.5</ele>
        <time>2022-12-05T07:16:56Z</time>
      </trkpt>
      <trkpt lat="29.852999" lon="34.921155">
        <ele>586.0</ele>
        <time>2022-12-05T07:16:56Z</time>
      </trkpt>
      <trkpt lat="29.852394" lon="34.920567">
        <ele>585.4</ele>
        <time>2022-12-05T07:16:56Z</time>
      </trkpt>
      <trkpt lat="29.851944" lon="34.919994">
        <ele>585.6</ele>
        <time>2022-12-05T07:16:56Z</time>
      </trkpt>
      <trkpt lat="29.851237" lon="34.919731">
        <ele>585.0</ele>
        <time>2022-12-05T07:16:56Z</time>
      </trkpt>
      <trkpt lat="29.850247" lon="34.919565">
        <ele>587.4</ele>
        <time>2022-12-05T07:16:56Z</time>
      </trkpt>
      <trkpt lat="29.849335" lon="34.919362">
        <ele>587.9</ele>
        <time>2022-12-05T07:16:56Z</time>
      </trkpt>
      <trkpt lat="29.848924" lon="34.919415">
        <ele>587.8</ele>
        <time>2022-12-05T07:16:56Z</time>
      </trkpt>
      <trkpt lat="29.848718" lon="34.919290">
        <ele>587.0</ele>
        <time>2022-12-05T07:16:56Z</time>
      </trkpt>
      <trkpt lat="29.848608" lon="34.918922">
        <ele>586.1</ele>
        <time>2022-12-05T07:16:56Z</time>
      </trkpt>
      <trkpt lat="29.848261" lon="34.918651">
        <ele>586.3</ele>
        <time>2022-12-05T07:16:56Z</time>
      </trkpt>
      <trkpt lat="29.847895" lon="34.918498">
        <ele>588.0</ele>
        <time>2022-12-05T07:16:56Z</time>
      </trkpt>
      <trkpt lat="29.847804" lon="34.918167">
        <ele>588.3</ele>
        <time>2022-12-05T07:16:56Z</time>
      </trkpt>
      <trkpt lat="29.847514" lon="34.917777">
        <ele>588.6</ele>
        <time>2022-12-05T07:16:56Z</time>
      </trkpt>
      <trkpt lat="29.847103" lon="34.917513">
        <ele>589.5</ele>
        <time>2022-12-05T07:16:56Z</time>
      </trkpt>
      <trkpt lat="29.846550" lon="34.917456">
        <ele>591.3</ele>
        <time>2022-12-05T07:16:56Z</time>
      </trkpt>
      <trkpt lat="29.846029" lon="34.916906">
        <ele>592.4</ele>
        <time>2022-12-05T07:16:56Z</time>
      </trkpt>
      <trkpt lat="29.845328" lon="34.916562">
        <ele>591.7</ele>
        <time>2022-12-05T07:16:56Z</time>
      </trkpt>
      <trkpt lat="29.844520" lon="34.917161">
        <ele>594.2</ele>
        <time>2022-12-05T07:16:56Z</time>
      </trkpt>
      <trkpt lat="29.843815" lon="34.917657">
        <ele>595.8</ele>
        <time>2022-12-05T07:16:56Z</time>
      </trkpt>
      <trkpt lat="29.843855" lon="34.918357">
        <ele>598.9</ele>
        <time>2022-12-05T07:16:56Z</time>
      </trkpt>
      <trkpt lat="29.843356" lon="34.918875">
        <ele>597.8</ele>
        <time>2022-12-05T07:16:56Z</time>
      </trkpt>
      <trkpt lat="29.842978" lon="34.919215">
        <ele>599.3</ele>
        <time>2022-12-05T07:16:56Z</time>
      </trkpt>
      <trkpt lat="29.842200" lon="34.919099">
        <ele>599.9</ele>
        <time>2022-12-05T07:16:56Z</time>
      </trkpt>
      <trkpt lat="29.841589" lon="34.918696">
        <ele>603.8</ele>
        <time>2022-12-05T07:16:56Z</time>
      </trkpt>
      <trkpt lat="29.841454" lon="34.918358">
        <ele>605.7</ele>
        <time>2022-12-05T07:16:56Z</time>
      </trkpt>
      <trkpt lat="29.840823" lon="34.917844">
        <ele>608.6</ele>
        <time>2022-12-05T07:16:56Z</time>
      </trkpt>
      <trkpt lat="29.840020" lon="34.917567">
        <ele>609.6</ele>
        <time>2022-12-05T07:16:56Z</time>
      </trkpt>
      <trkpt lat="29.839731" lon="34.917664">
        <ele>609.3</ele>
        <time>2022-12-05T07:16:56Z</time>
      </trkpt>
      <trkpt lat="29.839206" lon="34.918321">
        <ele>606.0</ele>
        <time>2022-12-05T07:16:56Z</time>
      </trkpt>
      <trkpt lat="29.838860" lon="34.918404">
        <ele>607.0</ele>
        <time>2022-12-05T07:16:56Z</time>
      </trkpt>
      <trkpt lat="29.838326" lon="34.918280">
        <ele>609.4</ele>
        <time>2022-12-05T07:16:56Z</time>
      </trkpt>
      <trkpt lat="29.837686" lon="34.918864">
        <ele>608.5</ele>
        <time>2022-12-05T07:16:56Z</time>
      </trkpt>
      <trkpt lat="29.836653" lon="34.919457">
        <ele>609.4</ele>
        <time>2022-12-05T07:16:56Z</time>
      </trkpt>
      <trkpt lat="29.836314" lon="34.919930">
        <ele>612.6</ele>
        <time>2022-12-05T07:16:56Z</time>
      </trkpt>
      <trkpt lat="29.835883" lon="34.919747">
        <ele>613.5</ele>
        <time>2022-12-05T07:16:56Z</time>
      </trkpt>
      <trkpt lat="29.835254" lon="34.919764">
        <ele>613.3</ele>
        <time>2022-12-05T07:16:56Z</time>
      </trkpt>
      <trkpt lat="29.834535" lon="34.919965">
        <ele>613.9</ele>
        <time>2022-12-05T07:16:56Z</time>
      </trkpt>
      <trkpt lat="29.833849" lon="34.920571">
        <ele>617.8</ele>
        <time>2022-12-05T07:16:56Z</time>
      </trkpt>
      <trkpt lat="29.833453" lon="34.921575">
        <ele>621.8</ele>
        <time>2022-12-05T07:16:56Z</time>
      </trkpt>
      <trkpt lat="29.833096" lon="34.922681">
        <ele>624.4</ele>
        <time>2022-12-05T07:16:56Z</time>
      </trkpt>
      <trkpt lat="29.832750" lon="34.923021">
        <ele>624.4</ele>
        <time>2022-12-05T07:16:56Z</time>
      </trkpt>
      <trkpt lat="29.832599" lon="34.924318">
        <ele>625.6</ele>
        <time>2022-12-05T07:16:56Z</time>
      </trkpt>
      <trkpt lat="29.832921" lon="34.925025">
        <ele>628.6</ele>
        <time>2022-12-05T07:16:56Z</time>
      </trkpt>
      <trkpt lat="29.833149" lon="34.926453">
        <ele>636.6</ele>
        <time>2022-12-05T07:16:56Z</time>
      </trkpt>
      <trkpt lat="29.833010" lon="34.927154">
        <ele>637.0</ele>
        <time>2022-12-05T07:16:56Z</time>
      </trkpt>
      <trkpt lat="29.832343" lon="34.927760">
        <ele>629.3</ele>
        <time>2022-12-05T07:16:56Z</time>
      </trkpt>
      <trkpt lat="29.831915" lon="34.928616">
        <ele>628.4</ele>
        <time>2022-12-05T07:16:56Z</time>
      </trkpt>
      <trkpt lat="29.831133" lon="34.929267">
        <ele>631.1</ele>
        <time>2022-12-05T07:16:56Z</time>
      </trkpt>
      <trkpt lat="29.829939" lon="34.929587">
        <ele>632.6</ele>
        <time>2022-12-05T07:16:56Z</time>
      </trkpt>
      <trkpt lat="29.828701" lon="34.930217">
        <ele>634.5</ele>
        <time>2022-12-05T07:16:56Z</time>
      </trkpt>
      <trkpt lat="29.828193" lon="34.930152">
        <ele>636.0</ele>
        <time>2022-12-05T07:16:56Z</time>
      </trkpt>
      <trkpt lat="29.827480" lon="34.929816">
        <ele>638.8</ele>
        <time>2022-12-05T07:16:56Z</time>
      </trkpt>
      <trkpt lat="29.826753" lon="34.929177">
        <ele>639.8</ele>
        <time>2022-12-05T07:16:56Z</time>
      </trkpt>
      <trkpt lat="29.826630" lon="34.928824">
        <ele>642.5</ele>
        <time>2022-12-05T07:16:56Z</time>
      </trkpt>
      <trkpt lat="29.825935" lon="34.928178">
        <ele>647.4</ele>
        <time>2022-12-05T07:16:56Z</time>
      </trkpt>
      <trkpt lat="29.825048" lon="34.927805">
        <ele>648.1</ele>
        <time>2022-12-05T07:16:56Z</time>
      </trkpt>
      <trkpt lat="29.824817" lon="34.927747">
        <ele>647.8</ele>
        <time>2022-12-05T07:16:56Z</time>
      </trkpt>
      <trkpt lat="29.824456" lon="34.927211">
        <ele>651.3</ele>
        <time>2022-12-05T07:16:56Z</time>
      </trkpt>
      <trkpt lat="29.823986" lon="34.926645">
        <ele>655.2</ele>
        <time>2022-12-05T07:16:56Z</time>
      </trkpt>
      <trkpt lat="29.823298" lon="34.926471">
        <ele>653.5</ele>
        <time>2022-12-05T07:16:56Z</time>
      </trkpt>
      <trkpt lat="29.822925" lon="34.926258">
        <ele>654.3</ele>
        <time>2022-12-05T07:16:56Z</time>
      </trkpt>
      <trkpt lat="29.822758" lon="34.925957">
        <ele>655.6</ele>
        <time>2022-12-05T07:16:56Z</time>
      </trkpt>
      <trkpt lat="29.822636" lon="34.925833">
        <ele>655.3</ele>
        <time>2022-12-05T07:16:56Z</time>
      </trkpt>
      <trkpt lat="29.821851" lon="34.925533">
        <ele>654.0</ele>
        <time>2022-12-05T07:16:56Z</time>
      </trkpt>
      <trkpt lat="29.821690" lon="34.925202">
        <ele>655.1</ele>
        <time>2022-12-05T07:16:56Z</time>
      </trkpt>
      <trkpt lat="29.821310" lon="34.924798">
        <ele>656.5</ele>
        <time>2022-12-05T07:16:56Z</time>
      </trkpt>
      <trkpt lat="29.820667" lon="34.923998">
        <ele>658.5</ele>
        <time>2022-12-05T07:16:56Z</time>
      </trkpt>
      <trkpt lat="29.820569" lon="34.923438">
        <ele>660.6</ele>
        <time>2022-12-05T07:16:56Z</time>
      </trkpt>
      <trkpt lat="29.819893" lon="34.922417">
        <ele>664.9</ele>
        <time>2022-12-05T07:16:56Z</time>
      </trkpt>
      <trkpt lat="29.819576" lon="34.921497">
        <ele>670.3</ele>
        <time>2022-12-05T07:16:56Z</time>
      </trkpt>
      <trkpt lat="29.819408" lon="34.921277">
        <ele>673.2</ele>
        <time>2022-12-05T07:16:56Z</time>
      </trkpt>
      <trkpt lat="29.819214" lon="34.920320">
        <ele>690.0</ele>
        <time>2022-12-05T07:16:56Z</time>
      </trkpt>
      <trkpt lat="29.818757" lon="34.919887">
        <ele>693.3</ele>
        <time>2022-12-05T07:16:56Z</time>
      </trkpt>
      <trkpt lat="29.818173" lon="34.919948">
        <ele>681.1</ele>
        <time>2022-12-05T07:16:56Z</time>
      </trkpt>
      <trkpt lat="29.817088" lon="34.920106">
        <ele>671.3</ele>
        <time>2022-12-05T07:16:56Z</time>
      </trkpt>
      <trkpt lat="29.815791" lon="34.920317">
        <ele>678.4</ele>
        <time>2022-12-05T07:16:56Z</time>
      </trkpt>
      <trkpt lat="29.815459" lon="34.920966">
        <ele>682.3</ele>
        <time>2022-12-05T07:16:56Z</time>
      </trkpt>
      <trkpt lat="29.815481" lon="34.922395">
        <ele>691.9</ele>
        <time>2022-12-05T07:16:56Z</time>
      </trkpt>
      <trkpt lat="29.815097" lon="34.923192">
        <ele>698.2</ele>
        <time>2022-12-05T07:16:56Z</time>
      </trkpt>
      <trkpt lat="29.815144" lon="34.923796">
        <ele>704.8</ele>
        <time>2022-12-05T07:16:56Z</time>
      </trkpt>
      <trkpt lat="29.814843" lon="34.924415">
        <ele>710.8</ele>
        <time>2022-12-05T07:16:56Z</time>
      </trkpt>
      <trkpt lat="29.815076" lon="34.925019">
        <ele>724.4</ele>
        <time>2022-12-05T07:16:56Z</time>
      </trkpt>
      <trkpt lat="29.814795" lon="34.925403">
        <ele>721.1</ele>
        <time>2022-12-05T07:16:56Z</time>
      </trkpt>
      <trkpt lat="29.814307" lon="34.925434">
        <ele>704.1</ele>
        <time>2022-12-05T07:16:56Z</time>
      </trkpt>
      <trkpt lat="29.813767" lon="34.925524">
        <ele>697.9</ele>
        <time>2022-12-05T07:16:56Z</time>
      </trkpt>
      <trkpt lat="29.813394" lon="34.925371">
        <ele>695.0</ele>
        <time>2022-12-05T07:16:56Z</time>
      </trkpt>
      <trkpt lat="29.812963" lon="34.924688">
        <ele>694.5</ele>
        <time>2022-12-05T07:16:56Z</time>
      </trkpt>
      <trkpt lat="29.812526" lon="34.924431">
        <ele>696.7</ele>
        <time>2022-12-05T07:16:56Z</time>
      </trkpt>
      <trkpt lat="29.811838" lon="34.924382">
        <ele>695.8</ele>
        <time>2022-12-05T07:16:56Z</time>
      </trkpt>
      <trkpt lat="29.811799" lon="34.923852">
        <ele>696.9</ele>
        <time>2022-12-05T07:16:56Z</time>
      </trkpt>
      <trkpt lat="29.811912" lon="34.922836">
        <ele>704.3</ele>
        <time>2022-12-05T07:16:56Z</time>
      </trkpt>
      <trkpt lat="29.811931" lon="34.922725">
        <ele>705.1</ele>
        <time>2022-12-05T07:16:56Z</time>
      </trkpt>
      <trkpt lat="29.811667" lon="34.922270">
        <ele>706.4</ele>
        <time>2022-12-05T07:16:56Z</time>
      </trkpt>
      <trkpt lat="29.811383" lon="34.921726">
        <ele>710.0</ele>
        <time>2022-12-05T07:16:56Z</time>
      </trkpt>
      <trkpt lat="29.811196" lon="34.921042">
        <ele>714.5</ele>
        <time>2022-12-05T07:16:56Z</time>
      </trkpt>
      <trkpt lat="29.810675" lon="34.920800">
        <ele>714.8</ele>
        <time>2022-12-05T07:16:56Z</time>
      </trkpt>
      <trkpt lat="29.809776" lon="34.920914">
        <ele>716.0</ele>
        <time>2022-12-05T07:16:56Z</time>
      </trkpt>
      <trkpt lat="29.809179" lon="34.920827">
        <ele>716.1</ele>
        <time>2022-12-05T07:16:56Z</time>
      </trkpt>
      <trkpt lat="29.808439" lon="34.920462">
        <ele>720.5</ele>
        <time>2022-12-05T07:16:56Z</time>
      </trkpt>
      <trkpt lat="29.807835" lon="34.920088">
        <ele>723.5</ele>
        <time>2022-12-05T07:16:56Z</time>
      </trkpt>
      <trkpt lat="29.807306" lon="34.919081">
        <ele>737.2</ele>
        <time>2022-12-05T07:16:56Z</time>
      </trkpt>
      <trkpt lat="29.806868" lon="34.918567">
        <ele>741.8</ele>
        <time>2022-12-05T07:16:56Z</time>
      </trkpt>
      <trkpt lat="29.806469" lon="34.918193">
        <ele>740.9</ele>
        <time>2022-12-05T07:16:56Z</time>
      </trkpt>
      <trkpt lat="29.805704" lon="34.917842">
        <ele>733.5</ele>
        <time>2022-12-05T07:16:56Z</time>
      </trkpt>
      <trkpt lat="29.804726" lon="34.916865">
        <ele>739.7</ele>
        <time>2022-12-05T07:16:56Z</time>
      </trkpt>
      <trkpt lat="29.804141" lon="34.916447">
        <ele>742.5</ele>
        <time>2022-12-05T07:16:56Z</time>
      </trkpt>
      <trkpt lat="29.803228" lon="34.916134">
        <ele>737.4</ele>
        <time>2022-12-05T07:16:56Z</time>
      </trkpt>
      <trkpt lat="29.802399" lon="34.915864">
        <ele>737.7</ele>
        <time>2022-12-05T07:16:56Z</time>
      </trkpt>
      <trkpt lat="29.802111" lon="34.916395">
        <ele>738.8</ele>
        <time>2022-12-05T07:16:56Z</time>
      </trkpt>
      <trkpt lat="29.801701" lon="34.916713">
        <ele>740.8</ele>
        <time>2022-12-05T07:16:56Z</time>
      </trkpt>
      <trkpt lat="29.800712" lon="34.916577">
        <ele>747.8</ele>
        <time>2022-12-05T07:16:56Z</time>
      </trkpt>
      <trkpt lat="29.799585" lon="34.915402">
        <ele>767.0</ele>
        <time>2022-12-05T07:16:56Z</time>
      </trkpt>
      <trkpt lat="29.798980" lon="34.914705">
        <ele>771.5</ele>
        <time>2022-12-05T07:16:56Z</time>
      </trkpt>
      <trkpt lat="29.798644" lon="34.913918">
        <ele>775.6</ele>
        <time>2022-12-05T07:16:56Z</time>
      </trkpt>
      <trkpt lat="29.797738" lon="34.913265">
        <ele>773.5</ele>
        <time>2022-12-05T07:16:56Z</time>
      </trkpt>
      <trkpt lat="29.797525" lon="34.912942">
        <ele>775.5</ele>
        <time>2022-12-05T07:16:56Z</time>
      </trkpt>
      <trkpt lat="29.796406" lon="34.912401">
        <ele>781.5</ele>
        <time>2022-12-05T07:16:56Z</time>
      </trkpt>
      <trkpt lat="29.795808" lon="34.912013">
        <ele>790.2</ele>
        <time>2022-12-05T07:16:56Z</time>
      </trkpt>
      <trkpt lat="29.795788" lon="34.911652">
        <ele>795.8</ele>
        <time>2022-12-05T07:16:56Z</time>
      </trkpt>
      <trkpt lat="29.796147" lon="34.911320">
        <ele>798.2</ele>
        <time>2022-12-05T07:16:56Z</time>
      </trkpt>
      <trkpt lat="29.795986" lon="34.910960">
        <ele>794.8</ele>
        <time>2022-12-05T07:16:56Z</time>
      </trkpt>
      <trkpt lat="29.796089" lon="34.910864">
        <ele>796.6</ele>
        <time>2022-12-05T07:16:56Z</time>
      </trkpt>
      <trkpt lat="29.796184" lon="34.910503">
        <ele>791.3</ele>
        <time>2022-12-05T07:16:56Z</time>
      </trkpt>
      <trkpt lat="29.795940" lon="34.910482">
        <ele>785.2</ele>
        <time>2022-12-05T07:16:56Z</time>
      </trkpt>
      <trkpt lat="29.795868" lon="34.909886">
        <ele>770.2</ele>
        <time>2022-12-05T07:16:56Z</time>
      </trkpt>
      <trkpt lat="29.795605" lon="34.910049">
        <ele>768.2</ele>
        <time>2022-12-05T07:16:56Z</time>
      </trkpt>
      <trkpt lat="29.795171" lon="34.911104">
        <ele>773.4</ele>
        <time>2022-12-05T07:16:56Z</time>
      </trkpt>
      <trkpt lat="29.794761" lon="34.911260">
        <ele>769.4</ele>
        <time>2022-12-05T07:16:56Z</time>
      </trkpt>
      <trkpt lat="29.794376" lon="34.911349">
        <ele>767.9</ele>
        <time>2022-12-05T07:16:56Z</time>
      </trkpt>
      <trkpt lat="29.794311" lon="34.911232">
        <ele>766.2</ele>
        <time>2022-12-05T07:16:56Z</time>
      </trkpt>
      <trkpt lat="29.794452" lon="34.911011">
        <ele>764.6</ele>
        <time>2022-12-05T07:16:56Z</time>
      </trkpt>
      <trkpt lat="29.794452" lon="34.910834">
        <ele>762.7</ele>
        <time>2022-12-05T07:16:56Z</time>
      </trkpt>
      <trkpt lat="29.794554" lon="34.910422">
        <ele>763.4</ele>
        <time>2022-12-05T07:16:56Z</time>
      </trkpt>
      <trkpt lat="29.794438" lon="34.910283">
        <ele>764.5</ele>
        <time>2022-12-05T07:16:56Z</time>
      </trkpt>
      <trkpt lat="29.794585" lon="34.909973">
        <ele>763.7</ele>
        <time>2022-12-05T07:16:56Z</time>
      </trkpt>
      <trkpt lat="29.794629" lon="34.909664">
        <ele>765.7</ele>
        <time>2022-12-05T07:16:56Z</time>
      </trkpt>
      <trkpt lat="29.794552" lon="34.909539">
        <ele>768.3</ele>
        <time>2022-12-05T07:16:56Z</time>
      </trkpt>
      <trkpt lat="29.794603" lon="34.909238">
        <ele>770.0</ele>
        <time>2022-12-05T07:16:56Z</time>
      </trkpt>
      <trkpt lat="29.794410" lon="34.909047">
        <ele>773.5</ele>
        <time>2022-12-05T07:16:56Z</time>
      </trkpt>
      <trkpt lat="29.794217" lon="34.909026">
        <ele>777.7</ele>
        <time>2022-12-05T07:16:56Z</time>
      </trkpt>
      <trkpt lat="29.793908" lon="34.908718">
        <ele>778.1</ele>
        <time>2022-12-05T07:16:56Z</time>
      </trkpt>
      <trkpt lat="29.793484" lon="34.908690">
        <ele>783.5</ele>
        <time>2022-12-05T07:16:56Z</time>
      </trkpt>
      <trkpt lat="29.793297" lon="34.908462">
        <ele>781.2</ele>
        <time>2022-12-05T07:16:56Z</time>
      </trkpt>
      <trkpt lat="29.792771" lon="34.908449">
        <ele>790.3</ele>
        <time>2022-12-05T07:16:56Z</time>
      </trkpt>
      <trkpt lat="29.792321" lon="34.908215">
        <ele>790.4</ele>
        <time>2022-12-05T07:16:56Z</time>
      </trkpt>
      <trkpt lat="29.792224" lon="34.907840">
        <ele>785.5</ele>
        <time>2022-12-05T07:16:56Z</time>
      </trkpt>
      <trkpt lat="29.791966" lon="34.907554">
        <ele>784.1</ele>
        <time>2022-12-05T07:16:56Z</time>
      </trkpt>
      <trkpt lat="29.791504" lon="34.907651">
        <ele>786.0</ele>
        <time>2022-12-05T07:16:56Z</time>
      </trkpt>
      <trkpt lat="29.791234" lon="34.907660">
        <ele>781.5</ele>
        <time>2022-12-05T07:16:56Z</time>
      </trkpt>
      <trkpt lat="29.791067" lon="34.907609">
        <ele>778.4</ele>
        <time>2022-12-05T07:16:56Z</time>
      </trkpt>
      <trkpt lat="29.790913" lon="34.907654">
        <ele>776.1</ele>
        <time>2022-12-05T07:16:56Z</time>
      </trkpt>
      <trkpt lat="29.790547" lon="34.907604">
        <ele>767.0</ele>
        <time>2022-12-05T07:16:56Z</time>
      </trkpt>
      <trkpt lat="29.790040" lon="34.907672">
        <ele>754.3</ele>
        <time>2022-12-05T07:16:56Z</time>
      </trkpt>
      <trkpt lat="29.789494" lon="34.907644">
        <ele>747.3</ele>
        <time>2022-12-05T07:16:56Z</time>
      </trkpt>
      <trkpt lat="29.788916" lon="34.907374">
        <ele>741.1</ele>
        <time>2022-12-05T07:16:56Z</time>
      </trkpt>
      <trkpt lat="29.788202" lon="34.906927">
        <ele>736.8</ele>
        <time>2022-12-05T07:16:56Z</time>
      </trkpt>
      <trkpt lat="29.787475" lon="34.906348">
        <ele>726.4</ele>
        <time>2022-12-05T07:16:56Z</time>
      </trkpt>
      <trkpt lat="29.786381" lon="34.905446">
        <ele>717.7</ele>
        <time>2022-12-05T07:16:56Z</time>
      </trkpt>
      <trkpt lat="29.785712" lon="34.904999">
        <ele>714.4</ele>
        <time>2022-12-05T07:16:56Z</time>
      </trkpt>
      <trkpt lat="29.784659" lon="34.905165">
        <ele>717.3</ele>
        <time>2022-12-05T07:16:56Z</time>
      </trkpt>
      <trkpt lat="29.783452" lon="34.905345">
        <ele>718.1</ele>
        <time>2022-12-05T07:16:56Z</time>
      </trkpt>
      <trkpt lat="29.783009" lon="34.905163">
        <ele>720.1</ele>
        <time>2022-12-05T07:16:56Z</time>
      </trkpt>
      <trkpt lat="29.781951" lon="34.905836">
        <ele>715.7</ele>
        <time>2022-12-05T07:16:56Z</time>
      </trkpt>
      <trkpt lat="29.781207" lon="34.906421">
        <ele>717.3</ele>
        <time>2022-12-05T07:16:56Z</time>
      </trkpt>
      <trkpt lat="29.781131" lon="34.906900">
        <ele>714.9</ele>
        <time>2022-12-05T07:16:56Z</time>
      </trkpt>
      <trkpt lat="29.780405" lon="34.906733">
        <ele>715.6</ele>
        <time>2022-12-05T07:16:56Z</time>
      </trkpt>
      <trkpt lat="29.780199" lon="34.906616">
        <ele>716.3</ele>
        <time>2022-12-05T07:16:56Z</time>
      </trkpt>
      <trkpt lat="29.780374" lon="34.907079">
        <ele>713.5</ele>
        <time>2022-12-05T07:16:56Z</time>
      </trkpt>
      <trkpt lat="29.780245" lon="34.907168">
        <ele>713.6</ele>
        <time>2022-12-05T07:16:56Z</time>
      </trkpt>
      <trkpt lat="29.780033" lon="34.906985">
        <ele>715.1</ele>
        <time>2022-12-05T07:16:56Z</time>
      </trkpt>
      <trkpt lat="29.779725" lon="34.906920">
        <ele>716.9</ele>
        <time>2022-12-05T07:16:56Z</time>
      </trkpt>
      <trkpt lat="29.779193" lon="34.907312">
        <ele>719.8</ele>
        <time>2022-12-05T07:16:56Z</time>
      </trkpt>
      <trkpt lat="29.778628" lon="34.907520">
        <ele>721.8</ele>
        <time>2022-12-05T07:16:56Z</time>
      </trkpt>
      <trkpt lat="29.778861" lon="34.907998">
        <ele>717.5</ele>
        <time>2022-12-05T07:16:56Z</time>
      </trkpt>
      <trkpt lat="29.778424" lon="34.907992">
        <ele>715.9</ele>
        <time>2022-12-05T07:16:56Z</time>
      </trkpt>
      <trkpt lat="29.777918" lon="34.908436">
        <ele>705.7</ele>
        <time>2022-12-05T07:16:56Z</time>
      </trkpt>
      <trkpt lat="29.778073" lon="34.908745">
        <ele>703.2</ele>
        <time>2022-12-05T07:16:56Z</time>
      </trkpt>
      <trkpt lat="29.777945" lon="34.909084">
        <ele>699.7</ele>
        <time>2022-12-05T07:16:56Z</time>
      </trkpt>
      <trkpt lat="29.776772" lon="34.910170">
        <ele>703.3</ele>
        <time>2022-12-05T07:16:56Z</time>
      </trkpt>
      <trkpt lat="29.776466" lon="34.910856">
        <ele>707.7</ele>
        <time>2022-12-05T07:16:56Z</time>
      </trkpt>
      <trkpt lat="29.776235" lon="34.911218">
        <ele>709.0</ele>
        <time>2022-12-05T07:16:56Z</time>
      </trkpt>
      <trkpt lat="29.776140" lon="34.911697">
        <ele>709.8</ele>
        <time>2022-12-05T07:16:56Z</time>
      </trkpt>
      <trkpt lat="29.775762" lon="34.912199">
        <ele>709.2</ele>
        <time>2022-12-05T07:16:56Z</time>
      </trkpt>
      <trkpt lat="29.774986" lon="34.912688">
        <ele>709.1</ele>
        <time>2022-12-05T07:16:56Z</time>
      </trkpt>
      <trkpt lat="29.774833" lon="34.912998">
        <ele>710.3</ele>
        <time>2022-12-05T07:16:56Z</time>
      </trkpt>
      <trkpt lat="29.774345" lon="34.913228">
        <ele>712.8</ele>
        <time>2022-12-05T07:16:56Z</time>
      </trkpt>
      <trkpt lat="29.774076" lon="34.913236">
        <ele>714.2</ele>
        <time>2022-12-05T07:16:56Z</time>
      </trkpt>
      <trkpt lat="29.773741" lon="34.912759">
        <ele>719.2</ele>
        <time>2022-12-05T07:16:56Z</time>
      </trkpt>
      <trkpt lat="29.773040" lon="34.912592">
        <ele>720.8</ele>
        <time>2022-12-05T07:16:56Z</time>
      </trkpt>
      <trkpt lat="29.772520" lon="34.912424">
        <ele>718.6</ele>
        <time>2022-12-05T07:16:56Z</time>
      </trkpt>
      <trkpt lat="29.771846" lon="34.912817">
        <ele>719.8</ele>
        <time>2022-12-05T07:16:56Z</time>
      </trkpt>
      <trkpt lat="29.771276" lon="34.913253">
        <ele>721.5</ele>
        <time>2022-12-05T07:16:56Z</time>
      </trkpt>
      <trkpt lat="29.771155" lon="34.913673">
        <ele>722.8</ele>
        <time>2022-12-05T07:16:56Z</time>
      </trkpt>
      <trkpt lat="29.770084" lon="34.914354">
        <ele>729.7</ele>
        <time>2022-12-05T07:16:56Z</time>
      </trkpt>
      <trkpt lat="29.769449" lon="34.914504">
        <ele>732.2</ele>
        <time>2022-12-05T07:16:56Z</time>
      </trkpt>
      <trkpt lat="29.768577" lon="34.915257">
        <ele>733.9</ele>
        <time>2022-12-05T07:16:56Z</time>
      </trkpt>
      <trkpt lat="29.767357" lon="34.915239">
        <ele>737.0</ele>
        <time>2022-12-05T07:16:56Z</time>
      </trkpt>
      <trkpt lat="29.766379" lon="34.914823">
        <ele>743.9</ele>
        <time>2022-12-05T07:16:56Z</time>
      </trkpt>
      <trkpt lat="29.766013" lon="34.914537">
        <ele>747.1</ele>
        <time>2022-12-05T07:16:56Z</time>
      </trkpt>
      <trkpt lat="29.765877" lon="34.913993">
        <ele>753.4</ele>
        <time>2022-12-05T07:16:56Z</time>
      </trkpt>
      <trkpt lat="29.765678" lon="34.913935">
        <ele>752.5</ele>
        <time>2022-12-05T07:16:56Z</time>
      </trkpt>
      <trkpt lat="29.765613" lon="34.913751">
        <ele>754.2</ele>
        <time>2022-12-05T07:16:56Z</time>
      </trkpt>
      <trkpt lat="29.765446" lon="34.913781">
        <ele>751.4</ele>
        <time>2022-12-05T07:16:56Z</time>
      </trkpt>
      <trkpt lat="29.765023" lon="34.914040">
        <ele>745.2</ele>
        <time>2022-12-05T07:16:56Z</time>
      </trkpt>
      <trkpt lat="29.764612" lon="34.914108">
        <ele>741.1</ele>
        <time>2022-12-05T07:16:56Z</time>
      </trkpt>
      <trkpt lat="29.764516" lon="34.913947">
        <ele>739.8</ele>
        <time>2022-12-05T07:16:56Z</time>
      </trkpt>
      <trkpt lat="29.764779" lon="34.913703">
        <ele>742.3</ele>
        <time>2022-12-05T07:16:56Z</time>
      </trkpt>
      <trkpt lat="29.764033" lon="34.913257">
        <ele>733.3</ele>
        <time>2022-12-05T07:16:56Z</time>
      </trkpt>
      <trkpt lat="29.762850" lon="34.912841">
        <ele>732.5</ele>
        <time>2022-12-05T07:16:56Z</time>
      </trkpt>
      <trkpt lat="29.761616" lon="34.912484">
        <ele>730.0</ele>
        <time>2022-12-05T07:16:56Z</time>
      </trkpt>
      <trkpt lat="29.761448" lon="34.912131">
        <ele>731.3</ele>
        <time>2022-12-05T07:16:56Z</time>
      </trkpt>
      <trkpt lat="29.761301" lon="34.912103">
        <ele>731.0</ele>
        <time>2022-12-05T07:16:56Z</time>
      </trkpt>
      <trkpt lat="29.761004" lon="34.911530">
        <ele>734.7</ele>
        <time>2022-12-05T07:16:56Z</time>
      </trkpt>
      <trkpt lat="29.760052" lon="34.911047">
        <ele>735.7</ele>
        <time>2022-12-05T07:16:56Z</time>
      </trkpt>
      <trkpt lat="29.759287" lon="34.910652">
        <ele>732.7</ele>
        <time>2022-12-05T07:16:56Z</time>
      </trkpt>
      <trkpt lat="29.758600" lon="34.910522">
        <ele>728.8</ele>
        <time>2022-12-05T07:16:56Z</time>
      </trkpt>
      <trkpt lat="29.758407" lon="34.910257">
        <ele>727.6</ele>
        <time>2022-12-05T07:16:56Z</time>
      </trkpt>
      <trkpt lat="29.757951" lon="34.910134">
        <ele>723.9</ele>
        <time>2022-12-05T07:16:56Z</time>
      </trkpt>
      <trkpt lat="29.756967" lon="34.909688">
        <ele>718.9</ele>
        <time>2022-12-05T07:16:56Z</time>
      </trkpt>
      <trkpt lat="29.756279" lon="34.909425">
        <ele>715.9</ele>
        <time>2022-12-05T07:16:56Z</time>
      </trkpt>
      <trkpt lat="29.756035" lon="34.909191">
        <ele>714.2</ele>
        <time>2022-12-05T07:16:56Z</time>
      </trkpt>
      <trkpt lat="29.755462" lon="34.908854">
        <ele>711.5</ele>
        <time>2022-12-05T07:16:56Z</time>
      </trkpt>
      <trkpt lat="29.755282" lon="34.908546">
        <ele>711.2</ele>
        <time>2022-12-05T07:16:56Z</time>
      </trkpt>
      <trkpt lat="29.755038" lon="34.908525">
        <ele>709.8</ele>
        <time>2022-12-05T07:16:56Z</time>
      </trkpt>
      <trkpt lat="29.754801" lon="34.908658">
        <ele>708.0</ele>
        <time>2022-12-05T07:16:56Z</time>
      </trkpt>
      <trkpt lat="29.754640" lon="34.908681">
        <ele>707.0</ele>
        <time>2022-12-05T07:16:56Z</time>
      </trkpt>
      <trkpt lat="29.754698" lon="34.908409">
        <ele>708.0</ele>
        <time>2022-12-05T07:16:56Z</time>
      </trkpt>
      <trkpt lat="29.754093" lon="34.907999">
        <ele>706.3</ele>
        <time>2022-12-05T07:16:56Z</time>
      </trkpt>
      <trkpt lat="29.753481" lon="34.907390">
        <ele>703.7</ele>
        <time>2022-12-05T07:16:56Z</time>
      </trkpt>
      <trkpt lat="29.753455" lon="34.906985">
        <ele>702.5</ele>
        <time>2022-12-05T07:16:56Z</time>
      </trkpt>
      <trkpt lat="29.753300" lon="34.906795">
        <ele>701.1</ele>
        <time>2022-12-05T07:16:56Z</time>
      </trkpt>
      <trkpt lat="29.752207" lon="34.906268">
        <ele>695.7</ele>
        <time>2022-12-05T07:16:56Z</time>
      </trkpt>
      <trkpt lat="29.751500" lon="34.906013">
        <ele>693.8</ele>
        <time>2022-12-05T07:16:56Z</time>
      </trkpt>
      <trkpt lat="29.751365" lon="34.905594">
        <ele>694.7</ele>
        <time>2022-12-05T07:16:56Z</time>
      </trkpt>
      <trkpt lat="29.751415" lon="34.905057">
        <ele>696.7</ele>
        <time>2022-12-05T07:16:56Z</time>
      </trkpt>
      <trkpt lat="29.750952" lon="34.904860">
        <ele>693.2</ele>
        <time>2022-12-05T07:16:56Z</time>
      </trkpt>
      <trkpt lat="29.750098" lon="34.905047">
        <ele>691.2</ele>
        <time>2022-12-05T07:16:56Z</time>
      </trkpt>
      <trkpt lat="29.749854" lon="34.904768">
        <ele>690.3</ele>
        <time>2022-12-05T07:16:56Z</time>
      </trkpt>
      <trkpt lat="29.749661" lon="34.904578">
        <ele>689.4</ele>
        <time>2022-12-05T07:16:56Z</time>
      </trkpt>
      <trkpt lat="29.749787" lon="34.903687">
        <ele>690.9</ele>
        <time>2022-12-05T07:16:56Z</time>
      </trkpt>
      <trkpt lat="29.749953" lon="34.903356">
        <ele>691.9</ele>
        <time>2022-12-05T07:16:56Z</time>
      </trkpt>
      <trkpt lat="29.749606" lon="34.903342">
        <ele>691.1</ele>
        <time>2022-12-05T07:16:56Z</time>
      </trkpt>
      <trkpt lat="29.749139" lon="34.903712">
        <ele>688.6</ele>
        <time>2022-12-05T07:16:56Z</time>
      </trkpt>
      <trkpt lat="29.748484" lon="34.903957">
        <ele>686.3</ele>
        <time>2022-12-05T07:16:56Z</time>
      </trkpt>
      <trkpt lat="29.748023" lon="34.904496">
        <ele>684.1</ele>
        <time>2022-12-05T07:16:56Z</time>
      </trkpt>
      <trkpt lat="29.747061" lon="34.904941">
        <ele>680.0</ele>
        <time>2022-12-05T07:16:56Z</time>
      </trkpt>
      <trkpt lat="29.745900" lon="34.905518">
        <ele>675.4</ele>
        <time>2022-12-05T07:16:56Z</time>
      </trkpt>
      <trkpt lat="29.744552" lon="34.906082">
        <ele>655.2</ele>
        <time>2022-12-05T07:16:56Z</time>
      </trkpt>
      <trkpt lat="29.744289" lon="34.905921">
        <ele>652.9</ele>
        <time>2022-12-05T07:16:56Z</time>
      </trkpt>
      <trkpt lat="29.744217" lon="34.905568">
        <ele>651.9</ele>
        <time>2022-12-05T07:16:56Z</time>
      </trkpt>
      <trkpt lat="29.743876" lon="34.905378">
        <ele>647.1</ele>
        <time>2022-12-05T07:16:56Z</time>
      </trkpt>
      <trkpt lat="29.742561" lon="34.905809">
        <ele>633.8</ele>
        <time>2022-12-05T07:16:56Z</time>
      </trkpt>
      <trkpt lat="29.741721" lon="34.906342">
        <ele>631.9</ele>
        <time>2022-12-05T07:16:56Z</time>
      </trkpt>
      <trkpt lat="29.741040" lon="34.906286">
        <ele>629.1</ele>
        <time>2022-12-05T07:16:56Z</time>
      </trkpt>
      <trkpt lat="29.740096" lon="34.906097">
        <ele>622.8</ele>
        <time>2022-12-05T07:16:56Z</time>
      </trkpt>
      <trkpt lat="29.739653" lon="34.906173">
        <ele>617.0</ele>
        <time>2022-12-05T07:16:56Z</time>
      </trkpt>
      <trkpt lat="29.738890" lon="34.906764">
        <ele>609.6</ele>
        <time>2022-12-05T07:16:56Z</time>
      </trkpt>
      <trkpt lat="29.738238" lon="34.908017">
        <ele>599.4</ele>
        <time>2022-12-05T07:16:56Z</time>
      </trkpt>
      <trkpt lat="29.737988" lon="34.908342">
        <ele>597.4</ele>
        <time>2022-12-05T07:16:56Z</time>
      </trkpt>
      <trkpt lat="29.737500" lon="34.908557">
        <ele>596.4</ele>
        <time>2022-12-05T07:16:56Z</time>
      </trkpt>
      <trkpt lat="29.736448" lon="34.908877">
        <ele>593.6</ele>
        <time>2022-12-05T07:16:56Z</time>
      </trkpt>
      <trkpt lat="29.735812" lon="34.908864">
        <ele>590.8</ele>
        <time>2022-12-05T07:16:56Z</time>
      </trkpt>
      <trkpt lat="29.734791" lon="34.909000">
        <ele>584.8</ele>
        <time>2022-12-05T07:16:56Z</time>
      </trkpt>
      <trkpt lat="29.733994" lon="34.908657">
        <ele>570.7</ele>
        <time>2022-12-05T07:16:56Z</time>
      </trkpt>
      <trkpt lat="29.733442" lon="34.908541">
        <ele>560.2</ele>
        <time>2022-12-05T07:16:56Z</time>
      </trkpt>
      <trkpt lat="29.733056" lon="34.908491">
        <ele>553.7</ele>
        <time>2022-12-05T07:16:56Z</time>
      </trkpt>
      <trkpt lat="29.732864" lon="34.908536">
        <ele>550.4</ele>
        <time>2022-12-05T07:16:56Z</time>
      </trkpt>
      <trkpt lat="29.732833" lon="34.908838">
        <ele>548.6</ele>
        <time>2022-12-05T07:16:56Z</time>
      </trkpt>
      <trkpt lat="29.732660" lon="34.909163">
        <ele>542.9</ele>
        <time>2022-12-05T07:16:56Z</time>
      </trkpt>
      <trkpt lat="29.732841" lon="34.909545">
        <ele>544.4</ele>
        <time>2022-12-05T07:16:56Z</time>
      </trkpt>
      <trkpt lat="29.732772" lon="34.910488">
        <ele>533.3</ele>
        <time>2022-12-05T07:16:56Z</time>
      </trkpt>
      <trkpt lat="29.732073" lon="34.910770">
        <ele>516.4</ele>
        <time>2022-12-05T07:16:56Z</time>
      </trkpt>
      <trkpt lat="29.731707" lon="34.910874">
        <ele>508.8</ele>
        <time>2022-12-05T07:16:56Z</time>
      </trkpt>
      <trkpt lat="29.731189" lon="34.911788">
        <ele>498.4</ele>
        <time>2022-12-05T07:16:56Z</time>
      </trkpt>
      <trkpt lat="29.732015" lon="34.913251">
        <ele>486.5</ele>
        <time>2022-12-05T07:16:56Z</time>
      </trkpt>
      <trkpt lat="29.731997" lon="34.914090">
        <ele>477.8</ele>
        <time>2022-12-05T07:16:56Z</time>
      </trkpt>
      <trkpt lat="29.731377" lon="34.915328">
        <ele>472.7</ele>
        <time>2022-12-05T07:16:56Z</time>
      </trkpt>
      <trkpt lat="29.730975" lon="34.916345">
        <ele>467.9</ele>
        <time>2022-12-05T07:16:56Z</time>
      </trkpt>
      <trkpt lat="29.730900" lon="34.917089">
        <ele>469.8</ele>
        <time>2022-12-05T07:16:56Z</time>
      </trkpt>
      <trkpt lat="29.730586" lon="34.917399">
        <ele>469.2</ele>
        <time>2022-12-05T07:16:56Z</time>
      </trkpt>
      <trkpt lat="29.730638" lon="34.917922">
        <ele>477.1</ele>
        <time>2022-12-05T07:16:56Z</time>
      </trkpt>
      <trkpt lat="29.730331" lon="34.918320">
        <ele>475.6</ele>
        <time>2022-12-05T07:16:56Z</time>
      </trkpt>
      <trkpt lat="29.730016" lon="34.918402">
        <ele>467.5</ele>
        <time>2022-12-05T07:16:56Z</time>
      </trkpt>
      <trkpt lat="29.729690" lon="34.918977">
        <ele>465.7</ele>
        <time>2022-12-05T07:16:56Z</time>
      </trkpt>
      <trkpt lat="29.728798" lon="34.919370">
        <ele>466.5</ele>
        <time>2022-12-05T07:16:56Z</time>
      </trkpt>
      <trkpt lat="29.727830" lon="34.919999">
        <ele>462.2</ele>
        <time>2022-12-05T07:16:56Z</time>
      </trkpt>
      <trkpt lat="29.726604" lon="34.920179">
        <ele>459.2</ele>
        <time>2022-12-05T07:16:56Z</time>
      </trkpt>
      <trkpt lat="29.725801" lon="34.920314">
        <ele>447.2</ele>
        <time>2022-12-05T07:16:56Z</time>
      </trkpt>
      <trkpt lat="29.725610" lon="34.920882">
        <ele>437.4</ele>
        <time>2022-12-05T07:16:56Z</time>
      </trkpt>
      <trkpt lat="29.724467" lon="34.920804">
        <ele>442.7</ele>
        <time>2022-12-05T07:16:56Z</time>
      </trkpt>
      <trkpt lat="29.724241" lon="34.920570">
        <ele>448.9</ele>
        <time>2022-12-05T07:16:56Z</time>
      </trkpt>
      <trkpt lat="29.724213" lon="34.919554">
        <ele>464.7</ele>
        <time>2022-12-05T07:16:56Z</time>
      </trkpt>
      <trkpt lat="29.723770" lon="34.919173">
        <ele>462.8</ele>
        <time>2022-12-05T07:16:56Z</time>
      </trkpt>
      <trkpt lat="29.723266" lon="34.917954">
        <ele>475.3</ele>
        <time>2022-12-05T07:16:56Z</time>
      </trkpt>
      <trkpt lat="29.722796" lon="34.917521">
        <ele>458.8</ele>
        <time>2022-12-05T07:16:56Z</time>
      </trkpt>
      <trkpt lat="29.722397" lon="34.916875">
        <ele>448.9</ele>
        <time>2022-12-05T07:16:56Z</time>
      </trkpt>
      <trkpt lat="29.722037" lon="34.916685">
        <ele>439.2</ele>
        <time>2022-12-05T07:16:56Z</time>
      </trkpt>
      <trkpt lat="29.721459" lon="34.916680">
        <ele>426.0</ele>
        <time>2022-12-05T07:16:56Z</time>
      </trkpt>
      <trkpt lat="29.721021" lon="34.916387">
        <ele>422.6</ele>
        <time>2022-12-05T07:16:56Z</time>
      </trkpt>
      <trkpt lat="29.720494" lon="34.916345">
        <ele>419.5</ele>
        <time>2022-12-05T07:16:56Z</time>
      </trkpt>
      <trkpt lat="29.720057" lon="34.915927">
        <ele>420.6</ele>
        <time>2022-12-05T07:16:56Z</time>
      </trkpt>
      <trkpt lat="29.719459" lon="34.915730">
        <ele>414.3</ele>
        <time>2022-12-05T07:16:56Z</time>
      </trkpt>
      <trkpt lat="29.718397" lon="34.914688">
        <ele>402.6</ele>
        <time>2022-12-05T07:16:56Z</time>
      </trkpt>
      <trkpt lat="29.717213" lon="34.913404">
        <ele>393.0</ele>
        <time>2022-12-05T07:16:56Z</time>
      </trkpt>
      <trkpt lat="29.716492" lon="34.912671">
        <ele>388.6</ele>
        <time>2022-12-05T07:16:56Z</time>
      </trkpt>
      <trkpt lat="29.715117" lon="34.912587">
        <ele>380.7</ele>
        <time>2022-12-05T07:16:56Z</time>
      </trkpt>
      <trkpt lat="29.713994" lon="34.912966">
        <ele>380.6</ele>
        <time>2022-12-05T07:16:56Z</time>
      </trkpt>
      <trkpt lat="29.713882" lon="34.914284">
        <ele>384.3</ele>
        <time>2022-12-05T07:16:56Z</time>
      </trkpt>
      <trkpt lat="29.713392" lon="34.916500">
        <ele>384.6</ele>
        <time>2022-12-05T07:16:56Z</time>
      </trkpt>
      <trkpt lat="29.713130" lon="34.916987">
        <ele>378.7</ele>
        <time>2022-12-05T07:16:56Z</time>
      </trkpt>
      <trkpt lat="29.711885" lon="34.917388">
        <ele>370.8</ele>
        <time>2022-12-05T07:16:56Z</time>
      </trkpt>
      <trkpt lat="29.710723" lon="34.917553">
        <ele>366.1</ele>
        <time>2022-12-05T07:16:56Z</time>
      </trkpt>
      <trkpt lat="29.709388" lon="34.917888">
        <ele>362.9</ele>
        <time>2022-12-05T07:16:56Z</time>
      </trkpt>
      <trkpt lat="29.708990" lon="34.918192">
        <ele>362.8</ele>
        <time>2022-12-05T07:16:56Z</time>
      </trkpt>
      <trkpt lat="29.707958" lon="34.918886">
        <ele>360.5</ele>
        <time>2022-12-05T07:16:56Z</time>
      </trkpt>
      <trkpt lat="29.706899" lon="34.919206">
        <ele>355.6</ele>
        <time>2022-12-05T07:16:56Z</time>
      </trkpt>
      <trkpt lat="29.706342" lon="34.919774">
        <ele>354.4</ele>
        <time>2022-12-05T07:16:56Z</time>
      </trkpt>
      <trkpt lat="29.705906" lon="34.920041">
        <ele>351.7</ele>
        <time>2022-12-05T07:16:56Z</time>
      </trkpt>
      <trkpt lat="29.705605" lon="34.920572">
        <ele>353.4</ele>
        <time>2022-12-05T07:16:56Z</time>
      </trkpt>
      <trkpt lat="29.705696" lon="34.921175">
        <ele>356.9</ele>
        <time>2022-12-05T07:16:56Z</time>
      </trkpt>
      <trkpt lat="29.705532" lon="34.922331">
        <ele>354.3</ele>
        <time>2022-12-05T07:16:56Z</time>
      </trkpt>
      <trkpt lat="29.706017" lon="34.923632">
        <ele>353.1</ele>
        <time>2022-12-05T07:16:56Z</time>
      </trkpt>
      <trkpt lat="29.706380" lon="34.925154">
        <ele>343.1</ele>
        <time>2022-12-05T07:16:56Z</time>
      </trkpt>
      <trkpt lat="29.707559" lon="34.926851">
        <ele>337.2</ele>
        <time>2022-12-05T07:16:56Z</time>
      </trkpt>
      <trkpt lat="29.708249" lon="34.928026">
        <ele>333.5</ele>
        <time>2022-12-05T07:16:56Z</time>
      </trkpt>
      <trkpt lat="29.708307" lon="34.928497">
        <ele>330.7</ele>
        <time>2022-12-05T07:16:56Z</time>
      </trkpt>
      <trkpt lat="29.708623" lon="34.928710">
        <ele>332.3</ele>
        <time>2022-12-05T07:16:56Z</time>
      </trkpt>
      <trkpt lat="29.709098" lon="34.928436">
        <ele>333.7</ele>
        <time>2022-12-05T07:16:56Z</time>
      </trkpt>
      <trkpt lat="29.709522" lon="34.928487">
        <ele>341.8</ele>
        <time>2022-12-05T07:16:56Z</time>
      </trkpt>
      <trkpt lat="29.709780" lon="34.929038">
        <ele>342.5</ele>
        <time>2022-12-05T07:16:56Z</time>
      </trkpt>
      <trkpt lat="29.709693" lon="34.930348">
        <ele>352.2</ele>
        <time>2022-12-05T07:16:56Z</time>
      </trkpt>
      <trkpt lat="29.708731" lon="34.930888">
        <ele>340.7</ele>
        <time>2022-12-05T07:16:56Z</time>
      </trkpt>
      <trkpt lat="29.708809" lon="34.931286">
        <ele>342.4</ele>
        <time>2022-12-05T07:16:56Z</time>
      </trkpt>
      <trkpt lat="29.708368" lon="34.932354">
        <ele>321.8</ele>
        <time>2022-12-05T07:16:56Z</time>
      </trkpt>
      <trkpt lat="29.708266" lon="34.932980">
        <ele>327.8</ele>
        <time>2022-12-05T07:16:56Z</time>
      </trkpt>
      <trkpt lat="29.708409" lon="34.933414">
        <ele>334.5</ele>
        <time>2022-12-05T07:16:56Z</time>
      </trkpt>
      <trkpt lat="29.708756" lon="34.933435">
        <ele>324.7</ele>
        <time>2022-12-05T07:16:56Z</time>
      </trkpt>
      <trkpt lat="29.709268" lon="34.932728">
        <ele>320.5</ele>
        <time>2022-12-05T07:16:56Z</time>
      </trkpt>
      <trkpt lat="29.709865" lon="34.932638">
        <ele>336.8</ele>
        <time>2022-12-05T07:16:56Z</time>
      </trkpt>
      <trkpt lat="29.710195" lon="34.933528">
        <ele>326.3</ele>
        <time>2022-12-05T07:16:56Z</time>
      </trkpt>
      <trkpt lat="29.710294" lon="34.934683">
        <ele>321.1</ele>
        <time>2022-12-05T07:16:56Z</time>
      </trkpt>
      <trkpt lat="29.710417" lon="34.935389">
        <ele>324.3</ele>
        <time>2022-12-05T07:16:56Z</time>
      </trkpt>
      <trkpt lat="29.710100" lon="34.937031">
        <ele>316.5</ele>
        <time>2022-12-05T07:16:56Z</time>
      </trkpt>
      <trkpt lat="29.709787" lon="34.937915">
        <ele>320.6</ele>
        <time>2022-12-05T07:16:56Z</time>
      </trkpt>
      <trkpt lat="29.709339" lon="34.938954">
        <ele>312.4</ele>
        <time>2022-12-05T07:16:56Z</time>
      </trkpt>
      <trkpt lat="29.709343" lon="34.940801">
        <ele>298.4</ele>
        <time>2022-12-05T07:16:56Z</time>
      </trkpt>
      <trkpt lat="29.708988" lon="34.943053">
        <ele>294.1</ele>
        <time>2022-12-05T07:16:56Z</time>
      </trkpt>
      <trkpt lat="29.708176" lon="34.944792">
        <ele>292.2</ele>
        <time>2022-12-05T07:16:56Z</time>
      </trkpt>
      <trkpt lat="29.707338" lon="34.946340">
        <ele>307.6</ele>
        <time>2022-12-05T07:16:56Z</time>
      </trkpt>
      <trkpt lat="29.706248" lon="34.947321">
        <ele>288.8</ele>
        <time>2022-12-05T07:16:56Z</time>
      </trkpt>
      <trkpt lat="29.705512" lon="34.948736">
        <ele>284.8</ele>
        <time>2022-12-05T07:16:56Z</time>
      </trkpt>
      <trkpt lat="29.704884" lon="34.949326">
        <ele>281.2</ele>
        <time>2022-12-05T07:16:56Z</time>
      </trkpt>
      <trkpt lat="29.703556" lon="34.949661">
        <ele>274.0</ele>
        <time>2022-12-05T07:16:56Z</time>
      </trkpt>
      <trkpt lat="29.703049" lon="34.949832">
        <ele>271.3</ele>
        <time>2022-12-05T07:16:56Z</time>
      </trkpt>
      <trkpt lat="29.702710" lon="34.950760">
        <ele>270.9</ele>
        <time>2022-12-05T07:16:56Z</time>
      </trkpt>
      <trkpt lat="29.702628" lon="34.951518">
        <ele>269.9</ele>
        <time>2022-12-05T07:16:56Z</time>
      </trkpt>
      <trkpt lat="29.702803" lon="34.952011">
        <ele>269.2</ele>
        <time>2022-12-05T07:16:56Z</time>
      </trkpt>
      <trkpt lat="29.702620" lon="34.953564">
        <ele>263.1</ele>
        <time>2022-12-05T07:16:56Z</time>
      </trkpt>
      <trkpt lat="29.702807" lon="34.954160">
        <ele>260.9</ele>
        <time>2022-12-05T07:16:56Z</time>
      </trkpt>
      <trkpt lat="29.703598" lon="34.954290">
        <ele>263.5</ele>
        <time>2022-12-05T07:16:56Z</time>
      </trkpt>
      <trkpt lat="29.704520" lon="34.956017">
        <ele>250.7</ele>
        <time>2022-12-05T07:16:56Z</time>
      </trkpt>
      <trkpt lat="29.704707" lon="34.956811">
        <ele>249.4</ele>
        <time>2022-12-05T07:16:56Z</time>
      </trkpt>
      <trkpt lat="29.705691" lon="34.957346">
        <ele>246.1</ele>
        <time>2022-12-05T07:16:56Z</time>
      </trkpt>
      <trkpt lat="29.706521" lon="34.957977">
        <ele>245.8</ele>
        <time>2022-12-05T07:16:56Z</time>
      </trkpt>
      <trkpt lat="29.707814" lon="34.958710">
        <ele>249.1</ele>
        <time>2022-12-05T07:16:56Z</time>
      </trkpt>
      <trkpt lat="29.709124" lon="34.958773">
        <ele>238.1</ele>
        <time>2022-12-05T07:16:56Z</time>
      </trkpt>
      <trkpt lat="29.709586" lon="34.958485">
        <ele>235.7</ele>
        <time>2022-12-05T07:16:56Z</time>
      </trkpt>
      <trkpt lat="29.710896" lon="34.958497">
        <ele>233.2</ele>
        <time>2022-12-05T07:16:56Z</time>
      </trkpt>
      <trkpt lat="29.712008" lon="34.958583">
        <ele>229.4</ele>
        <time>2022-12-05T07:16:56Z</time>
      </trkpt>
      <trkpt lat="29.713069" lon="34.959220">
        <ele>226.5</ele>
        <time>2022-12-05T07:16:56Z</time>
      </trkpt>
      <trkpt lat="29.713628" lon="34.959234">
        <ele>224.7</ele>
        <time>2022-12-05T07:16:56Z</time>
      </trkpt>
      <trkpt lat="29.714124" lon="34.959873">
        <ele>221.4</ele>
        <time>2022-12-05T07:16:56Z</time>
      </trkpt>
      <trkpt lat="29.714851" lon="34.960401">
        <ele>220.8</ele>
        <time>2022-12-05T07:16:56Z</time>
      </trkpt>
      <trkpt lat="29.715223" lon="34.960437">
        <ele>219.7</ele>
        <time>2022-12-05T07:16:56Z</time>
      </trkpt>
      <trkpt lat="29.716150" lon="34.961605">
        <ele>214.4</ele>
        <time>2022-12-05T07:16:56Z</time>
      </trkpt>
      <trkpt lat="29.716941" lon="34.962030">
        <ele>212.7</ele>
        <time>2022-12-05T07:16:56Z</time>
      </trkpt>
      <trkpt lat="29.717829" lon="34.962933">
        <ele>208.8</ele>
        <time>2022-12-05T07:16:56Z</time>
      </trkpt>
      <trkpt lat="29.718922" lon="34.963321">
        <ele>204.1</ele>
        <time>2022-12-05T07:16:56Z</time>
      </trkpt>
      <trkpt lat="29.719258" lon="34.964476">
        <ele>204.0</ele>
        <time>2022-12-05T07:16:56Z</time>
      </trkpt>
      <trkpt lat="29.719293" lon="34.965602">
        <ele>203.2</ele>
        <time>2022-12-05T07:16:56Z</time>
      </trkpt>
      <trkpt lat="29.719551" lon="34.966278">
        <ele>208.1</ele>
        <time>2022-12-05T07:16:56Z</time>
      </trkpt>
      <trkpt lat="29.720617" lon="34.966246">
        <ele>202.2</ele>
        <time>2022-12-05T07:16:56Z</time>
      </trkpt>
      <trkpt lat="29.721370" lon="34.966598">
        <ele>197.8</ele>
        <time>2022-12-05T07:16:56Z</time>
      </trkpt>
      <trkpt lat="29.722308" lon="34.966898">
        <ele>194.9</ele>
        <time>2022-12-05T07:16:56Z</time>
      </trkpt>
      <trkpt lat="29.723247" lon="34.967286">
        <ele>192.9</ele>
        <time>2022-12-05T07:16:56Z</time>
      </trkpt>
      <trkpt lat="29.723715" lon="34.967270">
        <ele>191.2</ele>
        <time>2022-12-05T07:16:56Z</time>
      </trkpt>
      <trkpt lat="29.724970" lon="34.968290">
        <ele>188.1</ele>
        <time>2022-12-05T07:16:56Z</time>
      </trkpt>
      <trkpt lat="29.725459" lon="34.968731">
        <ele>186.0</ele>
        <time>2022-12-05T07:16:56Z</time>
      </trkpt>
      <trkpt lat="29.726577" lon="34.969074">
        <ele>186.9</ele>
        <time>2022-12-05T07:16:56Z</time>
      </trkpt>
      <trkpt lat="29.727259" lon="34.969396">
        <ele>194.3</ele>
        <time>2022-12-05T07:16:56Z</time>
      </trkpt>
      <trkpt lat="29.728405" lon="34.971241">
        <ele>210.5</ele>
        <time>2022-12-05T07:16:56Z</time>
      </trkpt>
      <trkpt lat="29.729185" lon="34.972689">
        <ele>182.5</ele>
        <time>2022-12-05T07:16:56Z</time>
      </trkpt>
      <trkpt lat="29.729719" lon="34.973188">
        <ele>175.9</ele>
        <time>2022-12-05T07:16:56Z</time>
      </trkpt>
      <trkpt lat="29.730825" lon="34.973583">
        <ele>169.1</ele>
        <time>2022-12-05T07:16:56Z</time>
      </trkpt>
      <trkpt lat="29.732193" lon="34.973418">
        <ele>166.2</ele>
        <time>2022-12-05T07:16:56Z</time>
      </trkpt>
      <trkpt lat="29.733201" lon="34.973262">
        <ele>162.7</ele>
        <time>2022-12-05T07:16:56Z</time>
      </trkpt>
      <trkpt lat="29.733701" lon="34.972981">
        <ele>163.5</ele>
        <time>2022-12-05T07:16:56Z</time>
      </trkpt>
      <trkpt lat="29.734544" lon="34.973575">
        <ele>170.7</ele>
        <time>2022-12-05T07:16:56Z</time>
      </trkpt>
      <trkpt lat="29.735087" lon="34.971963">
        <ele>168.5</ele>
        <time>2022-12-05T07:16:56Z</time>
      </trkpt>
      <trkpt lat="29.735830" lon="34.970600">
        <ele>170.8</ele>
        <time>2022-12-05T07:16:56Z</time>
      </trkpt>
      <trkpt lat="29.736471" lon="34.970105">
        <ele>173.7</ele>
        <time>2022-12-05T07:16:56Z</time>
      </trkpt>
      <trkpt lat="29.737768" lon="34.969778">
        <ele>181.0</ele>
        <time>2022-12-05T07:16:56Z</time>
      </trkpt>
      <trkpt lat="29.738814" lon="34.969555">
        <ele>182.9</ele>
        <time>2022-12-05T07:16:56Z</time>
      </trkpt>
      <trkpt lat="29.739913" lon="34.969538">
        <ele>192.3</ele>
        <time>2022-12-05T07:16:56Z</time>
      </trkpt>
      <trkpt lat="29.740831" lon="34.969315">
        <ele>206.2</ele>
        <time>2022-12-05T07:16:56Z</time>
      </trkpt>
      <trkpt lat="29.741318" lon="34.968770">
        <ele>207.9</ele>
        <time>2022-12-05T07:16:56Z</time>
      </trkpt>
      <trkpt lat="29.741934" lon="34.968195">
        <ele>208.8</ele>
        <time>2022-12-05T07:16:56Z</time>
      </trkpt>
      <trkpt lat="29.743006" lon="34.967964">
        <ele>222.9</ele>
        <time>2022-12-05T07:16:56Z</time>
      </trkpt>
      <trkpt lat="29.744007" lon="34.967682">
        <ele>225.4</ele>
        <time>2022-12-05T07:16:56Z</time>
      </trkpt>
      <trkpt lat="29.744578" lon="34.967306">
        <ele>225.6</ele>
        <time>2022-12-05T07:16:56Z</time>
      </trkpt>
      <trkpt lat="29.744590" lon="34.966577">
        <ele>233.2</ele>
        <time>2022-12-05T07:16:56Z</time>
      </trkpt>
      <trkpt lat="29.745686" lon="34.965574">
        <ele>243.4</ele>
        <time>2022-12-05T07:16:56Z</time>
      </trkpt>
      <trkpt lat="29.746276" lon="34.964874">
        <ele>242.2</ele>
        <time>2022-12-05T07:16:56Z</time>
      </trkpt>
      <trkpt lat="29.747117" lon="34.964776">
        <ele>239.2</ele>
        <time>2022-12-05T07:16:56Z</time>
      </trkpt>
      <trkpt lat="29.747894" lon="34.964664">
        <ele>230.0</ele>
        <time>2022-12-05T07:16:56Z</time>
      </trkpt>
      <trkpt lat="29.748408" lon="34.964737">
        <ele>224.4</ele>
        <time>2022-12-05T07:16:56Z</time>
      </trkpt>
      <trkpt lat="29.749554" lon="34.962784">
        <ele>220.7</ele>
        <time>2022-12-05T07:16:56Z</time>
      </trkpt>
      <trkpt lat="29.749932" lon="34.962121">
        <ele>219.3</ele>
        <time>2022-12-05T07:16:56Z</time>
      </trkpt>
      <trkpt lat="29.750484" lon="34.961567">
        <ele>213.3</ele>
        <time>2022-12-05T07:16:56Z</time>
      </trkpt>
      <trkpt lat="29.751724" lon="34.961682">
        <ele>211.0</ele>
        <time>2022-12-05T07:16:56Z</time>
      </trkpt>
      <trkpt lat="29.752758" lon="34.961835">
        <ele>209.9</ele>
        <time>2022-12-05T07:16:56Z</time>
      </trkpt>
      <trkpt lat="29.753934" lon="34.961972">
        <ele>206.9</ele>
        <time>2022-12-05T07:16:56Z</time>
      </trkpt>
      <trkpt lat="29.754390" lon="34.962015">
        <ele>207.3</ele>
        <time>2022-12-05T07:16:56Z</time>
      </trkpt>
      <trkpt lat="29.755099" lon="34.963250">
        <ele>210.0</ele>
        <time>2022-12-05T07:16:56Z</time>
      </trkpt>
      <trkpt lat="29.755665" lon="34.963889">
        <ele>219.2</ele>
        <time>2022-12-05T07:16:56Z</time>
      </trkpt>
      <trkpt lat="29.755701" lon="34.966083">
        <ele>218.1</ele>
        <time>2022-12-05T07:16:56Z</time>
      </trkpt>
      <trkpt lat="29.755575" lon="34.966849">
        <ele>214.1</ele>
        <time>2022-12-05T07:16:56Z</time>
      </trkpt>
      <trkpt lat="29.756187" lon="34.967790">
        <ele>213.2</ele>
        <time>2022-12-05T07:16:56Z</time>
      </trkpt>
      <trkpt lat="29.757025" lon="34.969570">
        <ele>198.8</ele>
        <time>2022-12-05T07:16:56Z</time>
      </trkpt>
      <trkpt lat="29.757688" lon="34.970275">
        <ele>193.5</ele>
        <time>2022-12-05T07:16:56Z</time>
      </trkpt>
      <trkpt lat="29.758292" lon="34.970708">
        <ele>190.9</ele>
        <time>2022-12-05T07:16:56Z</time>
      </trkpt>
      <trkpt lat="29.758923" lon="34.971509">
        <ele>189.7</ele>
        <time>2022-12-05T07:16:56Z</time>
      </trkpt>
      <trkpt lat="29.759476" lon="34.971832">
        <ele>188.6</ele>
        <time>2022-12-05T07:16:56Z</time>
      </trkpt>
      <trkpt lat="29.760583" lon="34.973044">
        <ele>191.6</ele>
        <time>2022-12-05T07:16:56Z</time>
      </trkpt>
      <trkpt lat="29.761799" lon="34.973918">
        <ele>199.9</ele>
        <time>2022-12-05T07:16:56Z</time>
      </trkpt>
      <trkpt lat="29.762313" lon="34.974248">
        <ele>202.9</ele>
        <time>2022-12-05T07:16:56Z</time>
      </trkpt>
      <trkpt lat="29.762266" lon="34.973034">
        <ele>222.8</ele>
        <time>2022-12-05T07:16:56Z</time>
      </trkpt>
      <trkpt lat="29.761810" lon="34.972792">
        <ele>210.3</ele>
        <time>2022-12-05T07:16:56Z</time>
      </trkpt>
      <trkpt lat="29.761377" lon="34.971557">
        <ele>213.4</ele>
        <time>2022-12-05T07:16:56Z</time>
      </trkpt>
      <trkpt lat="29.760953" lon="34.971131">
        <ele>202.2</ele>
        <time>2022-12-05T07:16:56Z</time>
      </trkpt>
      <trkpt lat="29.760559" lon="34.970043">
        <ele>196.1</ele>
        <time>2022-12-05T07:16:56Z</time>
      </trkpt>
      <trkpt lat="29.760455" lon="34.969469">
        <ele>194.8</ele>
        <time>2022-12-05T07:16:56Z</time>
      </trkpt>
      <trkpt lat="29.760454" lon="34.968601">
        <ele>194.6</ele>
        <time>2022-12-05T07:16:56Z</time>
      </trkpt>
      <trkpt lat="29.760409" lon="34.968447">
        <ele>194.5</ele>
        <time>2022-12-05T07:16:56Z</time>
      </trkpt>
    </trkseg>
  </trk>
</gpx>
