<?xml version="1.0" encoding="UTF-8" standalone="no" ?>
<gpx xmlns="http://www.topografix.com/GPX/1/1" creator="CompeGPS" version="1.1" xmlns:xsi="http://www.w3.org/2001/XMLSchema-instance" xsi:schemaLocation="http://www.topografix.com/GPX/1/1 http://www.topografix.com/GPX/1/1/gpx.xsd http://www.garmin.com/xmlschemas/GpxExtensions/v3 http://www.garmin.com/xmlschemas/GpxExtensionsv3.xsd http://www.garmin.com/xmlschemas/TrackPointExtension/v1 http://www.garmin.com/xmlschemas/TrackPointExtensionv1.xsd" xmlns:gpxtpx="http://www.garmin.com/xmlschemas/TrackPointExtension/v1">
  <metadata>
    <link href="http://www.compegps.com">
      <text>CompeGPS TEAM, SL</text>
    </link>
    <time>2016-11-21T08:46:07Z</time>
    <bounds maxlat="29.762633" maxlon="34.979887" minlat="29.539965" minlon="34.922980"/>
  </metadata>
  <trk>
    <name>תמנע אילת</name>
    <trkseg>
      <trkpt lat="29.760742" lon="34.969236">
        <ele>193.4</ele>
        <time>2010-07-06T14:25:24Z</time>
      </trkpt>
      <trkpt lat="29.761486" lon="34.969144">
        <ele>193.9</ele>
        <time>2010-07-06T14:25:24Z</time>
      </trkpt>
      <trkpt lat="29.761839" lon="34.969457">
        <ele>195.4</ele>
        <time>2010-07-06T14:25:24Z</time>
      </trkpt>
      <trkpt lat="29.761704" lon="34.970176">
        <ele>194.9</ele>
        <time>2010-07-06T14:25:24Z</time>
      </trkpt>
      <trkpt lat="29.761627" lon="34.970939">
        <ele>194.7</ele>
        <time>2010-07-06T14:25:24Z</time>
      </trkpt>
      <trkpt lat="29.761885" lon="34.972218">
        <ele>192.1</ele>
        <time>2010-07-06T14:25:24Z</time>
      </trkpt>
      <trkpt lat="29.762239" lon="34.973003">
        <ele>193.4</ele>
        <time>2010-07-06T14:25:24Z</time>
      </trkpt>
      <trkpt lat="29.762633" lon="34.974101">
        <ele>197.0</ele>
        <time>2010-07-06T14:25:24Z</time>
      </trkpt>
      <trkpt lat="29.762261" lon="34.974192">
        <ele>194.5</ele>
        <time>2010-07-06T14:25:24Z</time>
      </trkpt>
      <trkpt lat="29.761298" lon="34.972893">
        <ele>188.1</ele>
        <time>2010-07-06T14:25:24Z</time>
      </trkpt>
      <trkpt lat="29.760161" lon="34.972178">
        <ele>189.5</ele>
        <time>2010-07-06T14:25:24Z</time>
      </trkpt>
      <trkpt lat="29.758787" lon="34.970881">
        <ele>194.9</ele>
        <time>2010-07-06T14:25:24Z</time>
      </trkpt>
      <trkpt lat="29.757650" lon="34.970076">
        <ele>200.4</ele>
        <time>2010-07-06T14:25:24Z</time>
      </trkpt>
      <trkpt lat="29.757080" lon="34.969449">
        <ele>202.0</ele>
        <time>2010-07-06T14:25:24Z</time>
      </trkpt>
      <trkpt lat="29.756491" lon="34.968755">
        <ele>206.3</ele>
        <time>2010-07-06T14:25:24Z</time>
      </trkpt>
      <trkpt lat="29.756137" lon="34.968083">
        <ele>202.8</ele>
        <time>2010-07-06T14:25:24Z</time>
      </trkpt>
      <trkpt lat="29.755488" lon="34.967165">
        <ele>189.7</ele>
        <time>2010-07-06T14:25:24Z</time>
      </trkpt>
      <trkpt lat="29.755194" lon="34.966650">
        <ele>187.7</ele>
        <time>2010-07-06T14:25:24Z</time>
      </trkpt>
      <trkpt lat="29.755387" lon="34.965639">
        <ele>196.6</ele>
        <time>2010-07-06T14:25:24Z</time>
      </trkpt>
      <trkpt lat="29.755657" lon="34.963955">
        <ele>206.9</ele>
        <time>2010-07-06T14:25:24Z</time>
      </trkpt>
      <trkpt lat="29.755381" lon="34.963215">
        <ele>206.9</ele>
        <time>2010-07-06T14:25:24Z</time>
      </trkpt>
      <trkpt lat="29.754792" lon="34.962296">
        <ele>206.8</ele>
        <time>2010-07-06T14:25:24Z</time>
      </trkpt>
      <trkpt lat="29.754438" lon="34.961781">
        <ele>211.0</ele>
        <time>2010-07-06T14:25:24Z</time>
      </trkpt>
      <trkpt lat="29.753811" lon="34.961581">
        <ele>214.7</ele>
        <time>2010-07-06T14:25:24Z</time>
      </trkpt>
      <trkpt lat="29.753263" lon="34.961919">
        <ele>212.2</ele>
        <time>2010-07-06T14:25:24Z</time>
      </trkpt>
      <trkpt lat="29.751872" lon="34.961789">
        <ele>212.2</ele>
        <time>2010-07-06T14:25:24Z</time>
      </trkpt>
      <trkpt lat="29.750462" lon="34.961681">
        <ele>219.8</ele>
        <time>2010-07-06T14:25:24Z</time>
      </trkpt>
      <trkpt lat="29.749721" lon="34.963138">
        <ele>224.5</ele>
        <time>2010-07-06T14:25:24Z</time>
      </trkpt>
      <trkpt lat="29.748747" lon="34.964190">
        <ele>239.4</ele>
        <time>2010-07-06T14:25:24Z</time>
      </trkpt>
      <trkpt lat="29.748127" lon="34.964768">
        <ele>239.6</ele>
        <time>2010-07-06T14:25:24Z</time>
      </trkpt>
      <trkpt lat="29.747478" lon="34.965278">
        <ele>232.9</ele>
        <time>2010-07-06T14:25:24Z</time>
      </trkpt>
      <trkpt lat="29.746516" lon="34.965733">
        <ele>239.4</ele>
        <time>2010-07-06T14:25:24Z</time>
      </trkpt>
      <trkpt lat="29.745519" lon="34.966724">
        <ele>236.3</ele>
        <time>2010-07-06T14:25:24Z</time>
      </trkpt>
      <trkpt lat="29.744895" lon="34.967668">
        <ele>227.9</ele>
        <time>2010-07-06T14:25:24Z</time>
      </trkpt>
      <trkpt lat="29.744112" lon="34.968007">
        <ele>223.0</ele>
        <time>2010-07-06T14:25:24Z</time>
      </trkpt>
      <trkpt lat="29.743113" lon="34.968033">
        <ele>211.3</ele>
        <time>2010-07-06T14:25:24Z</time>
      </trkpt>
      <trkpt lat="29.742116" lon="34.968642">
        <ele>192.3</ele>
        <time>2010-07-06T14:25:24Z</time>
      </trkpt>
      <trkpt lat="29.740648" lon="34.969117">
        <ele>186.4</ele>
        <time>2010-07-06T14:25:24Z</time>
      </trkpt>
      <trkpt lat="29.739376" lon="34.969301">
        <ele>174.3</ele>
        <time>2010-07-06T14:25:24Z</time>
      </trkpt>
      <trkpt lat="29.737418" lon="34.969643">
        <ele>171.7</ele>
        <time>2010-07-06T14:25:24Z</time>
      </trkpt>
      <trkpt lat="29.736338" lon="34.970423">
        <ele>168.8</ele>
        <time>2010-07-06T14:25:24Z</time>
      </trkpt>
      <trkpt lat="29.735185" lon="34.972247">
        <ele>176.4</ele>
        <time>2010-07-06T14:25:24Z</time>
      </trkpt>
      <trkpt lat="29.733665" lon="34.972819">
        <ele>170.9</ele>
        <time>2010-07-06T14:25:24Z</time>
      </trkpt>
      <trkpt lat="29.732693" lon="34.973205">
        <ele>168.2</ele>
        <time>2010-07-06T14:25:24Z</time>
      </trkpt>
      <trkpt lat="29.731141" lon="34.973836">
        <ele>172.7</ele>
        <time>2010-07-06T14:25:24Z</time>
      </trkpt>
      <trkpt lat="29.729555" lon="34.973886">
        <ele>173.8</ele>
        <time>2010-07-06T14:25:24Z</time>
      </trkpt>
      <trkpt lat="29.728379" lon="34.973440">
        <ele>175.6</ele>
        <time>2010-07-06T14:25:24Z</time>
      </trkpt>
      <trkpt lat="29.727398" lon="34.972725">
        <ele>178.8</ele>
        <time>2010-07-06T14:25:24Z</time>
      </trkpt>
      <trkpt lat="29.725909" lon="34.972438">
        <ele>183.0</ele>
        <time>2010-07-06T14:25:24Z</time>
      </trkpt>
      <trkpt lat="29.724946" lon="34.971005">
        <ele>188.2</ele>
        <time>2010-07-06T14:25:24Z</time>
      </trkpt>
      <trkpt lat="29.724139" lon="34.969325">
        <ele>192.5</ele>
        <time>2010-07-06T14:25:24Z</time>
      </trkpt>
      <trkpt lat="29.723235" lon="34.968138">
        <ele>198.2</ele>
        <time>2010-07-06T14:25:24Z</time>
      </trkpt>
      <trkpt lat="29.722391" lon="34.967445">
        <ele>203.3</ele>
        <time>2010-07-06T14:25:24Z</time>
      </trkpt>
      <trkpt lat="29.720782" lon="34.966104">
        <ele>202.6</ele>
        <time>2010-07-06T14:25:24Z</time>
      </trkpt>
      <trkpt lat="29.720106" lon="34.966527">
        <ele>206.9</ele>
        <time>2010-07-06T14:25:24Z</time>
      </trkpt>
      <trkpt lat="29.720229" lon="34.967604">
        <ele>207.7</ele>
        <time>2010-07-06T14:25:24Z</time>
      </trkpt>
      <trkpt lat="29.720230" lon="34.968461">
        <ele>211.1</ele>
        <time>2010-07-06T14:25:24Z</time>
      </trkpt>
      <trkpt lat="29.719990" lon="34.969069">
        <ele>210.8</ele>
        <time>2010-07-06T14:25:24Z</time>
      </trkpt>
      <trkpt lat="29.719967" lon="34.969511">
        <ele>206.8</ele>
        <time>2010-07-06T14:25:24Z</time>
      </trkpt>
      <trkpt lat="29.719654" lon="34.969982">
        <ele>206.1</ele>
        <time>2010-07-06T14:25:24Z</time>
      </trkpt>
      <trkpt lat="29.719631" lon="34.970673">
        <ele>218.7</ele>
        <time>2010-07-06T14:25:24Z</time>
      </trkpt>
      <trkpt lat="29.719561" lon="34.971916">
        <ele>245.7</ele>
        <time>2010-07-06T14:25:24Z</time>
      </trkpt>
      <trkpt lat="29.718913" lon="34.973769">
        <ele>231.3</ele>
        <time>2010-07-06T14:25:24Z</time>
      </trkpt>
      <trkpt lat="29.717667" lon="34.973988">
        <ele>214.4</ele>
        <time>2010-07-06T14:25:24Z</time>
      </trkpt>
      <trkpt lat="29.717121" lon="34.974999">
        <ele>207.1</ele>
        <time>2010-07-06T14:25:24Z</time>
      </trkpt>
      <trkpt lat="29.716536" lon="34.976011">
        <ele>191.8</ele>
        <time>2010-07-06T14:25:24Z</time>
      </trkpt>
      <trkpt lat="29.716087" lon="34.976865">
        <ele>180.7</ele>
        <time>2010-07-06T14:25:24Z</time>
      </trkpt>
      <trkpt lat="29.715343" lon="34.976754">
        <ele>169.7</ele>
        <time>2010-07-06T14:25:24Z</time>
      </trkpt>
      <trkpt lat="29.714443" lon="34.977273">
        <ele>160.2</ele>
        <time>2010-07-06T14:25:24Z</time>
      </trkpt>
      <trkpt lat="29.713543" lon="34.977702">
        <ele>156.1</ele>
        <time>2010-07-06T14:25:24Z</time>
      </trkpt>
      <trkpt lat="29.713037" lon="34.979005">
        <ele>143.2</ele>
        <time>2010-07-06T14:25:24Z</time>
      </trkpt>
      <trkpt lat="29.711902" lon="34.979569">
        <ele>135.6</ele>
        <time>2010-07-06T14:25:24Z</time>
      </trkpt>
      <trkpt lat="29.711020" lon="34.978989">
        <ele>135.8</ele>
        <time>2010-07-06T14:25:24Z</time>
      </trkpt>
      <trkpt lat="29.710331" lon="34.977712">
        <ele>147.0</ele>
        <time>2010-07-06T14:25:24Z</time>
      </trkpt>
      <trkpt lat="29.709897" lon="34.976098">
        <ele>156.8</ele>
        <time>2010-07-06T14:25:24Z</time>
      </trkpt>
      <trkpt lat="29.709522" lon="34.974842">
        <ele>161.6</ele>
        <time>2010-07-06T14:25:24Z</time>
      </trkpt>
      <trkpt lat="29.708894" lon="34.974194">
        <ele>176.9</ele>
        <time>2010-07-06T14:25:24Z</time>
      </trkpt>
      <trkpt lat="29.707876" lon="34.974466">
        <ele>164.8</ele>
        <time>2010-07-06T14:25:24Z</time>
      </trkpt>
      <trkpt lat="29.707347" lon="34.974423">
        <ele>161.4</ele>
        <time>2010-07-06T14:25:24Z</time>
      </trkpt>
      <trkpt lat="29.705996" lon="34.974584">
        <ele>159.0</ele>
        <time>2010-07-06T14:25:24Z</time>
      </trkpt>
      <trkpt lat="29.704919" lon="34.974542">
        <ele>158.7</ele>
        <time>2010-07-06T14:25:24Z</time>
      </trkpt>
      <trkpt lat="29.703959" lon="34.974567">
        <ele>162.0</ele>
        <time>2010-07-06T14:25:24Z</time>
      </trkpt>
      <trkpt lat="29.702394" lon="34.975223">
        <ele>166.7</ele>
        <time>2010-07-06T14:25:24Z</time>
      </trkpt>
      <trkpt lat="29.701082" lon="34.975069">
        <ele>169.6</ele>
        <time>2010-07-06T14:25:24Z</time>
      </trkpt>
      <trkpt lat="29.699793" lon="34.975159">
        <ele>171.9</ele>
        <time>2010-07-06T14:25:24Z</time>
      </trkpt>
      <trkpt lat="29.698889" lon="34.974922">
        <ele>173.0</ele>
        <time>2010-07-06T14:25:24Z</time>
      </trkpt>
      <trkpt lat="29.697741" lon="34.973930">
        <ele>177.0</ele>
        <time>2010-07-06T14:25:24Z</time>
      </trkpt>
      <trkpt lat="29.696559" lon="34.973575">
        <ele>183.3</ele>
        <time>2010-07-06T14:25:24Z</time>
      </trkpt>
      <trkpt lat="29.696418" lon="34.972461">
        <ele>167.2</ele>
        <time>2010-07-06T14:25:24Z</time>
      </trkpt>
      <trkpt lat="29.694693" lon="34.973338">
        <ele>162.7</ele>
        <time>2010-07-06T14:25:24Z</time>
      </trkpt>
      <trkpt lat="29.692930" lon="34.973187">
        <ele>162.1</ele>
        <time>2010-07-06T14:25:24Z</time>
      </trkpt>
      <trkpt lat="29.691951" lon="34.973010">
        <ele>158.1</ele>
        <time>2010-07-06T14:25:24Z</time>
      </trkpt>
      <trkpt lat="29.690893" lon="34.972812">
        <ele>145.8</ele>
        <time>2010-07-06T14:25:24Z</time>
      </trkpt>
      <trkpt lat="29.689445" lon="34.973377">
        <ele>124.4</ele>
        <time>2010-07-06T14:25:24Z</time>
      </trkpt>
      <trkpt lat="29.687448" lon="34.973585">
        <ele>114.6</ele>
        <time>2010-07-06T14:25:24Z</time>
      </trkpt>
      <trkpt lat="29.685863" lon="34.974419">
        <ele>107.0</ele>
        <time>2010-07-06T14:25:24Z</time>
      </trkpt>
      <trkpt lat="29.684337" lon="34.975007">
        <ele>98.1</ele>
        <time>2010-07-06T14:25:24Z</time>
      </trkpt>
      <trkpt lat="29.683222" lon="34.975840">
        <ele>95.8</ele>
        <time>2010-07-06T14:25:24Z</time>
      </trkpt>
      <trkpt lat="29.681872" lon="34.976225">
        <ele>99.4</ele>
        <time>2010-07-06T14:25:24Z</time>
      </trkpt>
      <trkpt lat="29.679189" lon="34.976166">
        <ele>94.4</ele>
        <time>2010-07-06T14:25:24Z</time>
      </trkpt>
      <trkpt lat="29.677503" lon="34.975745">
        <ele>99.4</ele>
        <time>2010-07-06T14:25:24Z</time>
      </trkpt>
      <trkpt lat="29.676347" lon="34.975389">
        <ele>103.0</ele>
        <time>2010-07-06T14:25:24Z</time>
      </trkpt>
      <trkpt lat="29.674152" lon="34.974723">
        <ele>105.8</ele>
        <time>2010-07-06T14:25:24Z</time>
      </trkpt>
      <trkpt lat="29.671899" lon="34.974259">
        <ele>105.9</ele>
        <time>2010-07-06T14:25:24Z</time>
      </trkpt>
      <trkpt lat="29.670816" lon="34.973954">
        <ele>99.6</ele>
        <time>2010-07-06T14:25:24Z</time>
      </trkpt>
      <trkpt lat="29.669639" lon="34.976622">
        <ele>85.6</ele>
        <time>2010-07-06T14:25:24Z</time>
      </trkpt>
      <trkpt lat="29.668394" lon="34.979887">
        <ele>78.2</ele>
        <time>2010-07-06T14:25:24Z</time>
      </trkpt>
      <trkpt lat="29.666428" lon="34.979342">
        <ele>82.4</ele>
        <time>2010-07-06T14:25:24Z</time>
      </trkpt>
      <trkpt lat="29.661463" lon="34.977072">
        <ele>99.8</ele>
        <time>2010-07-06T14:25:24Z</time>
      </trkpt>
      <trkpt lat="29.658333" lon="34.975662">
        <ele>105.8</ele>
        <time>2010-07-06T14:25:24Z</time>
      </trkpt>
      <trkpt lat="29.656120" lon="34.974434">
        <ele>109.4</ele>
        <time>2010-07-06T14:25:24Z</time>
      </trkpt>
      <trkpt lat="29.653854" lon="34.973824">
        <ele>110.2</ele>
        <time>2010-07-06T14:25:24Z</time>
      </trkpt>
      <trkpt lat="29.651587" lon="34.972472">
        <ele>112.6</ele>
        <time>2010-07-06T14:25:24Z</time>
      </trkpt>
      <trkpt lat="29.649267" lon="34.971430">
        <ele>110.1</ele>
        <time>2010-07-06T14:25:24Z</time>
      </trkpt>
      <trkpt lat="29.647215" lon="34.970079">
        <ele>100.3</ele>
        <time>2010-07-06T14:25:24Z</time>
      </trkpt>
      <trkpt lat="29.645001" lon="34.968727">
        <ele>98.5</ele>
        <time>2010-07-06T14:25:24Z</time>
      </trkpt>
      <trkpt lat="29.642680" lon="34.967254">
        <ele>104.9</ele>
        <time>2010-07-06T14:25:24Z</time>
      </trkpt>
      <trkpt lat="29.640359" lon="34.966026">
        <ele>109.1</ele>
        <time>2010-07-06T14:25:24Z</time>
      </trkpt>
      <trkpt lat="29.637444" lon="34.964307">
        <ele>113.5</ele>
        <time>2010-07-06T14:25:24Z</time>
      </trkpt>
      <trkpt lat="29.634798" lon="34.962711">
        <ele>106.8</ele>
        <time>2010-07-06T14:25:24Z</time>
      </trkpt>
      <trkpt lat="29.636413" lon="34.961657">
        <ele>115.1</ele>
        <time>2010-07-06T14:25:24Z</time>
      </trkpt>
      <trkpt lat="29.638136" lon="34.960911">
        <ele>123.3</ele>
        <time>2010-07-06T14:25:24Z</time>
      </trkpt>
      <trkpt lat="29.638514" lon="34.959872">
        <ele>128.0</ele>
        <time>2010-07-06T14:25:24Z</time>
      </trkpt>
      <trkpt lat="29.638372" lon="34.958401">
        <ele>134.5</ele>
        <time>2010-07-06T14:25:24Z</time>
      </trkpt>
      <trkpt lat="29.638058" lon="34.957447">
        <ele>149.9</ele>
        <time>2010-07-06T14:25:24Z</time>
      </trkpt>
      <trkpt lat="29.637813" lon="34.956573">
        <ele>141.5</ele>
        <time>2010-07-06T14:25:24Z</time>
      </trkpt>
      <trkpt lat="29.637603" lon="34.956016">
        <ele>136.1</ele>
        <time>2010-07-06T14:25:24Z</time>
      </trkpt>
      <trkpt lat="29.637185" lon="34.955302">
        <ele>139.3</ele>
        <time>2010-07-06T14:25:24Z</time>
      </trkpt>
      <trkpt lat="29.636384" lon="34.954469">
        <ele>148.1</ele>
        <time>2010-07-06T14:25:24Z</time>
      </trkpt>
      <trkpt lat="29.635133" lon="34.954432">
        <ele>154.5</ele>
        <time>2010-07-06T14:25:24Z</time>
      </trkpt>
      <trkpt lat="29.634126" lon="34.954156">
        <ele>159.9</ele>
        <time>2010-07-06T14:25:24Z</time>
      </trkpt>
      <trkpt lat="29.633185" lon="34.953005">
        <ele>163.1</ele>
        <time>2010-07-06T14:25:24Z</time>
      </trkpt>
      <trkpt lat="29.632765" lon="34.951455">
        <ele>174.2</ele>
        <time>2010-07-06T14:25:24Z</time>
      </trkpt>
      <trkpt lat="29.631026" lon="34.950347">
        <ele>171.7</ele>
        <time>2010-07-06T14:25:24Z</time>
      </trkpt>
      <trkpt lat="29.629425" lon="34.948919">
        <ele>162.6</ele>
        <time>2010-07-06T14:25:24Z</time>
      </trkpt>
      <trkpt lat="29.628207" lon="34.948047">
        <ele>157.4</ele>
        <time>2010-07-06T14:25:24Z</time>
      </trkpt>
      <trkpt lat="29.627583" lon="34.948606">
        <ele>152.8</ele>
        <time>2010-07-06T14:25:24Z</time>
      </trkpt>
      <trkpt lat="29.626576" lon="34.948966">
        <ele>154.3</ele>
        <time>2010-07-06T14:25:24Z</time>
      </trkpt>
      <trkpt lat="29.625186" lon="34.948493">
        <ele>159.0</ele>
        <time>2010-07-06T14:25:24Z</time>
      </trkpt>
      <trkpt lat="29.625320" lon="34.946027">
        <ele>166.2</ele>
        <time>2010-07-06T14:25:24Z</time>
      </trkpt>
      <trkpt lat="29.624238" lon="34.943763">
        <ele>171.1</ele>
        <time>2010-07-06T14:25:24Z</time>
      </trkpt>
      <trkpt lat="29.622334" lon="34.942496">
        <ele>169.4</ele>
        <time>2010-07-06T14:25:24Z</time>
      </trkpt>
      <trkpt lat="29.621941" lon="34.941741">
        <ele>192.3</ele>
        <time>2010-07-06T14:25:24Z</time>
      </trkpt>
      <trkpt lat="29.619855" lon="34.941230">
        <ele>185.4</ele>
        <time>2010-07-06T14:25:24Z</time>
      </trkpt>
      <trkpt lat="29.619068" lon="34.940620">
        <ele>185.3</ele>
        <time>2010-07-06T14:25:24Z</time>
      </trkpt>
      <trkpt lat="29.617488" lon="34.938731">
        <ele>196.6</ele>
        <time>2010-07-06T14:25:24Z</time>
      </trkpt>
      <trkpt lat="29.617030" lon="34.935671">
        <ele>204.5</ele>
        <time>2010-07-06T14:25:24Z</time>
      </trkpt>
      <trkpt lat="29.616330" lon="34.933605">
        <ele>222.5</ele>
        <time>2010-07-06T14:25:24Z</time>
      </trkpt>
      <trkpt lat="29.614729" lon="34.932218">
        <ele>228.1</ele>
        <time>2010-07-06T14:25:24Z</time>
      </trkpt>
      <trkpt lat="29.613546" lon="34.931307">
        <ele>241.8</ele>
        <time>2010-07-06T14:25:24Z</time>
      </trkpt>
      <trkpt lat="29.612782" lon="34.931428">
        <ele>256.6</ele>
        <time>2010-07-06T14:25:24Z</time>
      </trkpt>
      <trkpt lat="29.610171" lon="34.928931">
        <ele>278.5</ele>
        <time>2010-07-06T14:25:24Z</time>
      </trkpt>
      <trkpt lat="29.610377" lon="34.927419">
        <ele>294.2</ele>
        <time>2010-07-06T14:25:24Z</time>
      </trkpt>
      <trkpt lat="29.610651" lon="34.925709">
        <ele>290.9</ele>
        <time>2010-07-06T14:25:24Z</time>
      </trkpt>
      <trkpt lat="29.608705" lon="34.925635">
        <ele>282.9</ele>
        <time>2010-07-06T14:25:24Z</time>
      </trkpt>
      <trkpt lat="29.607455" lon="34.925996">
        <ele>283.9</ele>
        <time>2010-07-06T14:25:24Z</time>
      </trkpt>
      <trkpt lat="29.603564" lon="34.926047">
        <ele>281.0</ele>
        <time>2010-07-06T14:25:24Z</time>
      </trkpt>
      <trkpt lat="29.601723" lon="34.926211">
        <ele>257.1</ele>
        <time>2010-07-06T14:25:24Z</time>
      </trkpt>
      <trkpt lat="29.598839" lon="34.926060">
        <ele>247.1</ele>
        <time>2010-07-06T14:25:24Z</time>
      </trkpt>
      <trkpt lat="29.597381" lon="34.926621">
        <ele>240.6</ele>
        <time>2010-07-06T14:25:24Z</time>
      </trkpt>
      <trkpt lat="29.595714" lon="34.926983">
        <ele>224.9</ele>
        <time>2010-07-06T14:25:24Z</time>
      </trkpt>
      <trkpt lat="29.595582" lon="34.930164">
        <ele>213.9</ele>
        <time>2010-07-06T14:25:24Z</time>
      </trkpt>
      <trkpt lat="29.595170" lon="34.932312">
        <ele>203.8</ele>
        <time>2010-07-06T14:25:24Z</time>
      </trkpt>
      <trkpt lat="29.594999" lon="34.935195">
        <ele>194.5</ele>
        <time>2010-07-06T14:25:24Z</time>
      </trkpt>
      <trkpt lat="29.594444" lon="34.937082">
        <ele>183.3</ele>
        <time>2010-07-06T14:25:24Z</time>
      </trkpt>
      <trkpt lat="29.593127" lon="34.937765">
        <ele>175.4</ele>
        <time>2010-07-06T14:25:24Z</time>
      </trkpt>
      <trkpt lat="29.591774" lon="34.937016">
        <ele>180.6</ele>
        <time>2010-07-06T14:25:24Z</time>
      </trkpt>
      <trkpt lat="29.591046" lon="34.935925">
        <ele>188.7</ele>
        <time>2010-07-06T14:25:24Z</time>
      </trkpt>
      <trkpt lat="29.590055" lon="34.934684">
        <ele>187.8</ele>
        <time>2010-07-06T14:25:24Z</time>
      </trkpt>
      <trkpt lat="29.588931" lon="34.933406">
        <ele>195.0</ele>
        <time>2010-07-06T14:25:24Z</time>
      </trkpt>
      <trkpt lat="29.587315" lon="34.932732">
        <ele>197.5</ele>
        <time>2010-07-06T14:25:24Z</time>
      </trkpt>
      <trkpt lat="29.586489" lon="34.932019">
        <ele>203.7</ele>
        <time>2010-07-06T14:25:24Z</time>
      </trkpt>
      <trkpt lat="29.585401" lon="34.931797">
        <ele>205.7</ele>
        <time>2010-07-06T14:25:24Z</time>
      </trkpt>
      <trkpt lat="29.583818" lon="34.931387">
        <ele>213.8</ele>
        <time>2010-07-06T14:25:24Z</time>
      </trkpt>
      <trkpt lat="29.581575" lon="34.930415">
        <ele>228.2</ele>
        <time>2010-07-06T14:25:24Z</time>
      </trkpt>
      <trkpt lat="29.580057" lon="34.929402">
        <ele>239.4</ele>
        <time>2010-07-06T14:25:24Z</time>
      </trkpt>
      <trkpt lat="29.578506" lon="34.928841">
        <ele>247.3</ele>
        <time>2010-07-06T14:25:24Z</time>
      </trkpt>
      <trkpt lat="29.577023" lon="34.928658">
        <ele>261.8</ele>
        <time>2010-07-06T14:25:24Z</time>
      </trkpt>
      <trkpt lat="29.575442" lon="34.929078">
        <ele>245.3</ele>
        <time>2010-07-06T14:25:24Z</time>
      </trkpt>
      <trkpt lat="29.575048" lon="34.929532">
        <ele>233.9</ele>
        <time>2010-07-06T14:25:24Z</time>
      </trkpt>
      <trkpt lat="29.573728" lon="34.928820">
        <ele>240.4</ele>
        <time>2010-07-06T14:25:24Z</time>
      </trkpt>
      <trkpt lat="29.572737" lon="34.927919">
        <ele>247.1</ele>
        <time>2010-07-06T14:25:24Z</time>
      </trkpt>
      <trkpt lat="29.570824" lon="34.927134">
        <ele>233.3</ele>
        <time>2010-07-06T14:25:24Z</time>
      </trkpt>
      <trkpt lat="29.570299" lon="34.928153">
        <ele>239.6</ele>
        <time>2010-07-06T14:25:24Z</time>
      </trkpt>
      <trkpt lat="29.570961" lon="34.929207">
        <ele>239.9</ele>
        <time>2010-07-06T14:25:24Z</time>
      </trkpt>
      <trkpt lat="29.570734" lon="34.930338">
        <ele>240.1</ele>
        <time>2010-07-06T14:25:24Z</time>
      </trkpt>
      <trkpt lat="29.569781" lon="34.931246">
        <ele>219.4</ele>
        <time>2010-07-06T14:25:24Z</time>
      </trkpt>
      <trkpt lat="29.568626" lon="34.931061">
        <ele>216.7</ele>
        <time>2010-07-06T14:25:24Z</time>
      </trkpt>
      <trkpt lat="29.567735" lon="34.930386">
        <ele>220.6</ele>
        <time>2010-07-06T14:25:24Z</time>
      </trkpt>
      <trkpt lat="29.568095" lon="34.929367">
        <ele>242.0</ele>
        <time>2010-07-06T14:25:24Z</time>
      </trkpt>
      <trkpt lat="29.568454" lon="34.928160">
        <ele>236.3</ele>
        <time>2010-07-06T14:25:24Z</time>
      </trkpt>
      <trkpt lat="29.568284" lon="34.926125">
        <ele>226.0</ele>
        <time>2010-07-06T14:25:24Z</time>
      </trkpt>
      <trkpt lat="29.567526" lon="34.925863">
        <ele>225.3</ele>
        <time>2010-07-06T14:25:24Z</time>
      </trkpt>
      <trkpt lat="29.566866" lon="34.925451">
        <ele>227.5</ele>
        <time>2010-07-06T14:25:24Z</time>
      </trkpt>
      <trkpt lat="29.566630" lon="34.923530">
        <ele>219.0</ele>
        <time>2010-07-06T14:25:24Z</time>
      </trkpt>
      <trkpt lat="29.565541" lon="34.923156">
        <ele>214.6</ele>
        <time>2010-07-06T14:25:24Z</time>
      </trkpt>
      <trkpt lat="29.564190" lon="34.923086">
        <ele>208.3</ele>
        <time>2010-07-06T14:25:24Z</time>
      </trkpt>
      <trkpt lat="29.562048" lon="34.922980">
        <ele>201.0</ele>
        <time>2010-07-06T14:25:24Z</time>
      </trkpt>
      <trkpt lat="29.561490" lon="34.923774">
        <ele>197.4</ele>
        <time>2010-07-06T14:25:24Z</time>
      </trkpt>
      <trkpt lat="29.560736" lon="34.925322">
        <ele>188.1</ele>
        <time>2010-07-06T14:25:24Z</time>
      </trkpt>
      <trkpt lat="29.558861" lon="34.926647">
        <ele>178.1</ele>
        <time>2010-07-06T14:25:24Z</time>
      </trkpt>
      <trkpt lat="29.557052" lon="34.927784">
        <ele>181.6</ele>
        <time>2010-07-06T14:25:24Z</time>
      </trkpt>
      <trkpt lat="29.556135" lon="34.930124">
        <ele>147.9</ele>
        <time>2010-07-06T14:25:24Z</time>
      </trkpt>
      <trkpt lat="29.554918" lon="34.930844">
        <ele>141.7</ele>
        <time>2010-07-06T14:25:24Z</time>
      </trkpt>
      <trkpt lat="29.554197" lon="34.932391">
        <ele>137.4</ele>
        <time>2010-07-06T14:25:24Z</time>
      </trkpt>
      <trkpt lat="29.553542" lon="34.933826">
        <ele>125.5</ele>
        <time>2010-07-06T14:25:24Z</time>
      </trkpt>
      <trkpt lat="29.552625" lon="34.935977">
        <ele>108.6</ele>
        <time>2010-07-06T14:25:24Z</time>
      </trkpt>
      <trkpt lat="29.551935" lon="34.936922">
        <ele>102.3</ele>
        <time>2010-07-06T14:25:24Z</time>
      </trkpt>
      <trkpt lat="29.551211" lon="34.937301">
        <ele>102.5</ele>
        <time>2010-07-06T14:25:24Z</time>
      </trkpt>
      <trkpt lat="29.550129" lon="34.939490">
        <ele>84.8</ele>
        <time>2010-07-06T14:25:24Z</time>
      </trkpt>
      <trkpt lat="29.548654" lon="34.942473">
        <ele>64.4</ele>
        <time>2010-07-06T14:25:24Z</time>
      </trkpt>
      <trkpt lat="29.547537" lon="34.943946">
        <ele>55.1</ele>
        <time>2010-07-06T14:25:24Z</time>
      </trkpt>
      <trkpt lat="29.545991" lon="34.945232">
        <ele>42.3</ele>
        <time>2010-07-06T14:25:24Z</time>
      </trkpt>
      <trkpt lat="29.544544" lon="34.946255">
        <ele>30.0</ele>
        <time>2010-07-06T14:25:24Z</time>
      </trkpt>
      <trkpt lat="29.542704" lon="34.948220">
        <ele>11.3</ele>
        <time>2010-07-06T14:25:24Z</time>
      </trkpt>
      <trkpt lat="29.541316" lon="34.946943">
        <ele>12.1</ele>
        <time>2010-07-06T14:25:24Z</time>
      </trkpt>
      <trkpt lat="29.539995" lon="34.945742">
        <ele>13.0</ele>
        <time>2010-07-06T14:25:24Z</time>
      </trkpt>
      <trkpt lat="29.539965" lon="34.946609">
        <ele>9.6</ele>
        <time>2010-07-06T14:25:24Z</time>
      </trkpt>
    </trkseg>
  </trk>
</gpx>
