<?xml version="1.0" encoding="UTF-8"?>
<gpx creator="Patrick Hooper" version="1.1" xmlns="http://www.topografix.com/GPX/1/1" xmlns:xsi="http://www.w3.org/2001/XMLSchema-instance" xsi:schemaLocation="http://www.topografix.com/GPX/1/1 http://www.topografix.com/GPX/1/1/gpx.xsd http://www.garmin.com/xmlschemas/GpxExtensions/v3 http://www.garmin.com/xmlschemas/GpxExtensionsv3.xsd http://www.garmin.com/xmlschemas/TrackPointExtension/v1 http://www.garmin.com/xmlschemas/TrackPointExtensionv1.xsd">
  <metadata>
    <name>Activity</name>
  </metadata>
  <trk>
    <name>a</name>
    <trkseg>
      <trkpt lat="33.0736507" lon="35.1531451">
        <ele>108</ele>
        <time>2018-04-07T04:06:59.406Z</time>
      </trkpt>
      <trkpt lat="33.0735908" lon="35.1534292">
        <ele>110</ele>
        <time>2018-04-07T04:07:12.448Z</time>
      </trkpt>
      <trkpt lat="33.0733861" lon="35.1536178">
        <ele>112</ele>
        <time>2018-04-07T04:07:26.412Z</time>
      </trkpt>
      <trkpt lat="33.0732399" lon="35.1538719">
        <ele>112</ele>
        <time>2018-04-07T04:07:31.438Z</time>
      </trkpt>
      <trkpt lat="33.0732407" lon="35.154158">
        <ele>115</ele>
        <time>2018-04-07T04:07:45.420Z</time>
      </trkpt>
      <trkpt lat="33.0731821" lon="35.1544291">
        <ele>119</ele>
        <time>2018-04-07T04:07:53.411Z</time>
      </trkpt>
      <trkpt lat="33.073259" lon="35.1546974">
        <ele>116</ele>
        <time>2018-04-07T04:08:05.421Z</time>
      </trkpt>
      <trkpt lat="33.0734487" lon="35.154883">
        <ele>124</ele>
        <time>2018-04-07T04:08:12.390Z</time>
      </trkpt>
      <trkpt lat="33.0736773" lon="35.155032">
        <ele>122</ele>
        <time>2018-04-07T04:08:16.757Z</time>
      </trkpt>
      <trkpt lat="33.0738229" lon="35.1552758">
        <ele>124</ele>
        <time>2018-04-07T04:08:19.724Z</time>
      </trkpt>
      <trkpt lat="33.0740168" lon="35.1554155">
        <ele>132</ele>
        <time>2018-04-07T04:08:23.421Z</time>
      </trkpt>
      <trkpt lat="33.0742129" lon="35.1556238">
        <ele>125</ele>
        <time>2018-04-07T04:08:29.406Z</time>
      </trkpt>
      <trkpt lat="33.0743794" lon="35.1558183">
        <ele>124</ele>
        <time>2018-04-07T04:08:37.418Z</time>
      </trkpt>
      <trkpt lat="33.0744653" lon="35.1560723">
        <ele>126</ele>
        <time>2018-04-07T04:08:55.438Z</time>
      </trkpt>
      <trkpt lat="33.0743591" lon="35.1563212">
        <ele>128</ele>
        <time>2018-04-07T04:09:00.410Z</time>
      </trkpt>
      <trkpt lat="33.0742108" lon="35.1565702">
        <ele>129</ele>
        <time>2018-04-07T04:09:08.436Z</time>
      </trkpt>
      <trkpt lat="33.0740644" lon="35.1567766">
        <ele>128</ele>
        <time>2018-04-07T04:09:27.445Z</time>
      </trkpt>
      <trkpt lat="33.074037" lon="35.1570621">
        <ele>132</ele>
        <time>2018-04-07T04:09:37.411Z</time>
      </trkpt>
      <trkpt lat="33.074125" lon="35.1573099">
        <ele>130</ele>
        <time>2018-04-07T04:09:57.848Z</time>
      </trkpt>
      <trkpt lat="33.0743686" lon="35.1574252">
        <ele>127</ele>
        <time>2018-04-07T04:10:32.450Z</time>
      </trkpt>
      <trkpt lat="33.0745643" lon="35.1572743">
        <ele>132</ele>
        <time>2018-04-07T04:10:52.794Z</time>
      </trkpt>
      <trkpt lat="33.0747852" lon="35.1573725">
        <ele>135</ele>
        <time>2018-04-07T04:11:18.458Z</time>
      </trkpt>
      <trkpt lat="33.0750416" lon="35.1573705">
        <ele>141</ele>
        <time>2018-04-07T04:11:27.428Z</time>
      </trkpt>
      <trkpt lat="33.0752818" lon="35.157406">
        <ele>144</ele>
        <time>2018-04-07T04:11:36.436Z</time>
      </trkpt>
      <trkpt lat="33.0757388" lon="35.1575398">
        <ele>154</ele>
        <time>2018-04-07T04:13:29.454Z</time>
      </trkpt>
      <trkpt lat="33.0759699" lon="35.1575526">
        <ele>154</ele>
        <time>2018-04-07T04:13:38.460Z</time>
      </trkpt>
      <trkpt lat="33.0761643" lon="35.1577082">
        <ele>154</ele>
        <time>2018-04-07T04:13:58.467Z</time>
      </trkpt>
      <trkpt lat="33.0781489" lon="35.1579821">
        <ele>155</ele>
        <time>2018-04-07T04:14:05.446Z</time>
      </trkpt>
      <trkpt lat="33.0783787" lon="35.1579372">
        <ele>158</ele>
        <time>2018-04-07T04:14:14.454Z</time>
      </trkpt>
      <trkpt lat="33.0786056" lon="35.1579695">
        <ele>158</ele>
        <time>2018-04-07T04:14:37.176Z</time>
      </trkpt>
      <trkpt lat="33.0798033" lon="35.1588815">
        <ele>153</ele>
        <time>2018-04-07T04:14:47.689Z</time>
      </trkpt>
      <trkpt lat="33.0799341" lon="35.1591411">
        <ele>151</ele>
        <time>2018-04-07T04:14:51.677Z</time>
      </trkpt>
      <trkpt lat="33.0801373" lon="35.1593023">
        <ele>152</ele>
        <time>2018-04-07T04:15:00.073Z</time>
      </trkpt>
      <trkpt lat="33.0803034" lon="35.1595283">
        <ele>149</ele>
        <time>2018-04-07T04:15:11.121Z</time>
      </trkpt>
      <trkpt lat="33.0804596" lon="35.1598495">
        <ele>147</ele>
        <time>2018-04-07T04:15:14.422Z</time>
      </trkpt>
      <trkpt lat="33.0805461" lon="35.1601005">
        <ele>151</ele>
        <time>2018-04-07T04:15:18.137Z</time>
      </trkpt>
      <trkpt lat="33.08039" lon="35.1603045">
        <ele>146</ele>
        <time>2018-04-07T04:15:47.171Z</time>
      </trkpt>
      <trkpt lat="33.0806219" lon="35.1603493">
        <ele>148</ele>
        <time>2018-04-07T04:16:39.107Z</time>
      </trkpt>
      <trkpt lat="33.0807694" lon="35.1605631">
        <ele>148</ele>
        <time>2018-04-07T04:16:56.130Z</time>
      </trkpt>
      <trkpt lat="33.0819583" lon="35.1611957">
        <ele>161</ele>
        <time>2018-04-07T04:18:41.132Z</time>
      </trkpt>
      <trkpt lat="33.0822683" lon="35.1621406">
        <ele>159</ele>
        <time>2018-04-07T04:22:21.172Z</time>
      </trkpt>
      <trkpt lat="33.0812973" lon="35.1625999">
        <ele>159</ele>
        <time>2018-04-07T04:23:38.180Z</time>
      </trkpt>
      <trkpt lat="33.0815434" lon="35.1630491">
        <ele>159</ele>
        <time>2018-04-07T04:24:16.189Z</time>
      </trkpt>
      <trkpt lat="33.0814196" lon="35.1628217">
        <ele>160</ele>
        <time>2018-04-07T04:24:44.466Z</time>
      </trkpt>
      <trkpt lat="33.0816469" lon="35.1628057">
        <ele>160</ele>
        <time>2018-04-07T04:25:16.578Z</time>
      </trkpt>
      <trkpt lat="33.0818489" lon="35.1629607">
        <ele>160</ele>
        <time>2018-04-07T04:25:33.255Z</time>
      </trkpt>
      <trkpt lat="33.0814071" lon="35.1631194">
        <ele>162</ele>
        <time>2018-04-07T04:26:13.572Z</time>
      </trkpt>
      <trkpt lat="33.0811838" lon="35.1632011">
        <ele>165</ele>
        <time>2018-04-07T04:26:21.260Z</time>
      </trkpt>
      <trkpt lat="33.0809807" lon="35.1633355">
        <ele>166</ele>
        <time>2018-04-07T04:26:30.212Z</time>
      </trkpt>
      <trkpt lat="33.0809442" lon="35.1636077">
        <ele>166</ele>
        <time>2018-04-07T04:26:42.232Z</time>
      </trkpt>
      <trkpt lat="33.0808684" lon="35.163948">
        <ele>165</ele>
        <time>2018-04-07T04:27:30.241Z</time>
      </trkpt>
      <trkpt lat="33.0807444" lon="35.1641875">
        <ele>166</ele>
        <time>2018-04-07T04:27:34.226Z</time>
      </trkpt>
      <trkpt lat="33.0809655" lon="35.1644791">
        <ele>194</ele>
        <time>2018-04-07T04:27:44.205Z</time>
      </trkpt>
      <trkpt lat="33.081184" lon="35.1644008">
        <ele>195</ele>
        <time>2018-04-07T04:27:52.195Z</time>
      </trkpt>
      <trkpt lat="33.0813743" lon="35.1642435">
        <ele>195</ele>
        <time>2018-04-07T04:28:19.552Z</time>
      </trkpt>
      <trkpt lat="33.0818638" lon="35.1642937">
        <ele>188</ele>
        <time>2018-04-07T04:28:22.509Z</time>
      </trkpt>
      <trkpt lat="33.0820656" lon="35.1644413">
        <ele>193</ele>
        <time>2018-04-07T04:28:27.182Z</time>
      </trkpt>
      <trkpt lat="33.0822314" lon="35.1646396">
        <ele>191</ele>
        <time>2018-04-07T04:28:33.197Z</time>
      </trkpt>
      <trkpt lat="33.0823653" lon="35.1648571">
        <ele>188</ele>
        <time>2018-04-07T04:28:46.475Z</time>
      </trkpt>
      <trkpt lat="33.0825755" lon="35.1649803">
        <ele>190</ele>
        <time>2018-04-07T04:28:58.493Z</time>
      </trkpt>
      <trkpt lat="33.0826433" lon="35.1652385">
        <ele>191</ele>
        <time>2018-04-07T04:29:10.488Z</time>
      </trkpt>
      <trkpt lat="33.0828384" lon="35.1655337">
        <ele>193</ele>
        <time>2018-04-07T04:29:38.127Z</time>
      </trkpt>
      <trkpt lat="33.082796" lon="35.1669985">
        <ele>201</ele>
        <time>2018-04-07T04:32:08.598Z</time>
      </trkpt>
      <trkpt lat="33.0827553" lon="35.1673618">
        <ele>200</ele>
        <time>2018-04-07T04:32:11.552Z</time>
      </trkpt>
      <trkpt lat="33.0828214" lon="35.1678724">
        <ele>224</ele>
        <time>2018-04-07T04:34:16.026Z</time>
      </trkpt>
      <trkpt lat="33.0824596" lon="35.1683202">
        <ele>205</ele>
        <time>2018-04-07T04:34:30.023Z</time>
      </trkpt>
      <trkpt lat="33.0822424" lon="35.1685374">
        <ele>209</ele>
        <time>2018-04-07T04:34:31.033Z</time>
      </trkpt>
      <trkpt lat="33.0820384" lon="35.1687196">
        <ele>210</ele>
        <time>2018-04-07T04:34:33.029Z</time>
      </trkpt>
      <trkpt lat="33.081821" lon="35.1688086">
        <ele>220</ele>
        <time>2018-04-07T04:34:41.090Z</time>
      </trkpt>
      <trkpt lat="33.081572" lon="35.1689075">
        <ele>211</ele>
        <time>2018-04-07T04:35:12.041Z</time>
      </trkpt>
      <trkpt lat="33.0813449" lon="35.1690092">
        <ele>212</ele>
        <time>2018-04-07T04:35:22.386Z</time>
      </trkpt>
      <trkpt lat="33.0811258" lon="35.1691241">
        <ele>210</ele>
        <time>2018-04-07T04:35:54.073Z</time>
      </trkpt>
      <trkpt lat="33.0808922" lon="35.1691593">
        <ele>210</ele>
        <time>2018-04-07T04:36:01.392Z</time>
      </trkpt>
      <trkpt lat="33.0807065" lon="35.1693297">
        <ele>213</ele>
        <time>2018-04-07T04:36:27.048Z</time>
      </trkpt>
      <trkpt lat="33.0807751" lon="35.169587">
        <ele>212</ele>
        <time>2018-04-07T04:36:45.043Z</time>
      </trkpt>
      <trkpt lat="33.079902" lon="35.1703015">
        <ele>220</ele>
        <time>2018-04-07T04:39:15.010Z</time>
      </trkpt>
      <trkpt lat="33.0797289" lon="35.1705863">
        <ele>216</ele>
        <time>2018-04-07T04:39:20.035Z</time>
      </trkpt>
      <trkpt lat="33.0796155" lon="35.1708715">
        <ele>215</ele>
        <time>2018-04-07T04:39:23.058Z</time>
      </trkpt>
      <trkpt lat="33.079537" lon="35.1711407">
        <ele>211</ele>
        <time>2018-04-07T04:39:32.161Z</time>
      </trkpt>
      <trkpt lat="33.079536" lon="35.1714372">
        <ele>226</ele>
        <time>2018-04-07T04:39:37.268Z</time>
      </trkpt>
      <trkpt lat="33.0795038" lon="35.1717067">
        <ele>223</ele>
        <time>2018-04-07T04:39:45.413Z</time>
      </trkpt>
      <trkpt lat="33.079454" lon="35.1719867">
        <ele>212</ele>
        <time>2018-04-07T04:40:15.966Z</time>
      </trkpt>
      <trkpt lat="33.0794095" lon="35.1722572">
        <ele>209</ele>
        <time>2018-04-07T04:40:31.950Z</time>
      </trkpt>
      <trkpt lat="33.079313" lon="35.1725088">
        <ele>213</ele>
        <time>2018-04-07T04:40:39.970Z</time>
      </trkpt>
      <trkpt lat="33.0791902" lon="35.1727418">
        <ele>214</ele>
        <time>2018-04-07T04:40:51.948Z</time>
      </trkpt>
      <trkpt lat="33.0791754" lon="35.173016">
        <ele>215</ele>
        <time>2018-04-07T04:41:19.942Z</time>
      </trkpt>
      <trkpt lat="33.0793819" lon="35.1728869">
        <ele>219</ele>
        <time>2018-04-07T04:42:34.689Z</time>
      </trkpt>
      <trkpt lat="33.0794855" lon="35.1731317">
        <ele>220</ele>
        <time>2018-04-07T04:43:16.033Z</time>
      </trkpt>
      <trkpt lat="33.080124" lon="35.1729953">
        <ele>219</ele>
        <time>2018-04-07T04:44:17.749Z</time>
      </trkpt>
      <trkpt lat="33.0803491" lon="35.1728976">
        <ele>219</ele>
        <time>2018-04-07T04:44:27.387Z</time>
      </trkpt>
      <trkpt lat="33.0804294" lon="35.1726359">
        <ele>228</ele>
        <time>2018-04-07T04:44:36.401Z</time>
      </trkpt>
      <trkpt lat="33.0805667" lon="35.1721178">
        <ele>224</ele>
        <time>2018-04-07T04:45:33.243Z</time>
      </trkpt>
      <trkpt lat="33.0806518" lon="35.1718323">
        <ele>225</ele>
        <time>2018-04-07T04:45:35.230Z</time>
      </trkpt>
      <trkpt lat="33.0807249" lon="35.1715377">
        <ele>226</ele>
        <time>2018-04-07T04:45:40.467Z</time>
      </trkpt>
      <trkpt lat="33.0814355" lon="35.1712965">
        <ele>226</ele>
        <time>2018-04-07T04:46:14.459Z</time>
      </trkpt>
      <trkpt lat="33.0826662" lon="35.1708242">
        <ele>250</ele>
        <time>2018-04-07T04:46:19.439Z</time>
      </trkpt>
      <trkpt lat="33.0828816" lon="35.1706996">
        <ele>255</ele>
        <time>2018-04-07T04:46:56.451Z</time>
      </trkpt>
      <trkpt lat="33.0831284" lon="35.1706534">
        <ele>250</ele>
        <time>2018-04-07T04:46:58.788Z</time>
      </trkpt>
      <trkpt lat="33.0833546" lon="35.1705153">
        <ele>250</ele>
        <time>2018-04-07T04:47:02.445Z</time>
      </trkpt>
      <trkpt lat="33.0834553" lon="35.170261">
        <ele>256</ele>
        <time>2018-04-07T04:47:07.477Z</time>
      </trkpt>
      <trkpt lat="33.0834921" lon="35.1698946">
        <ele>261</ele>
        <time>2018-04-07T04:47:10.528Z</time>
      </trkpt>
      <trkpt lat="33.0835623" lon="35.1696399">
        <ele>261</ele>
        <time>2018-04-07T04:47:15.473Z</time>
      </trkpt>
      <trkpt lat="33.0837367" lon="35.1693839">
        <ele>259</ele>
        <time>2018-04-07T04:47:17.452Z</time>
      </trkpt>
      <trkpt lat="33.0839008" lon="35.1691966">
        <ele>257</ele>
        <time>2018-04-07T04:47:22.432Z</time>
      </trkpt>
      <trkpt lat="33.0840983" lon="35.1690444">
        <ele>255</ele>
        <time>2018-04-07T04:47:41.467Z</time>
      </trkpt>
      <trkpt lat="33.0842216" lon="35.1688102">
        <ele>0</ele>
        <time>2018-04-07T04:48:05.449Z</time>
      </trkpt>
      <trkpt lat="33.084338" lon="35.1685782">
        <ele>256</ele>
        <time>2018-04-07T04:48:43.476Z</time>
      </trkpt>
      <trkpt lat="33.0844545" lon="35.1681272">
        <ele>283</ele>
        <time>2018-04-07T04:58:57.547Z</time>
      </trkpt>
      <trkpt lat="33.0846094" lon="35.1683306">
        <ele>282</ele>
        <time>2018-04-07T05:00:19.501Z</time>
      </trkpt>
      <trkpt lat="33.084815" lon="35.1684497">
        <ele>280</ele>
        <time>2018-04-07T05:00:31.455Z</time>
      </trkpt>
      <trkpt lat="33.0850488" lon="35.1685059">
        <ele>280</ele>
        <time>2018-04-07T05:00:46.474Z</time>
      </trkpt>
      <trkpt lat="33.0849959" lon="35.1687729">
        <ele>281</ele>
        <time>2018-04-07T05:01:55.456Z</time>
      </trkpt>
      <trkpt lat="33.0846179" lon="35.1694312">
        <ele>282</ele>
        <time>2018-04-07T05:03:05.491Z</time>
      </trkpt>
      <trkpt lat="33.0845753" lon="35.1696991">
        <ele>284</ele>
        <time>2018-04-07T05:03:13.487Z</time>
      </trkpt>
      <trkpt lat="33.0842872" lon="35.1706625">
        <ele>292</ele>
        <time>2018-04-07T05:03:22.776Z</time>
      </trkpt>
      <trkpt lat="33.0841326" lon="35.1708957">
        <ele>289</ele>
        <time>2018-04-07T05:03:25.777Z</time>
      </trkpt>
      <trkpt lat="33.0839455" lon="35.1710563">
        <ele>289</ele>
        <time>2018-04-07T05:03:31.451Z</time>
      </trkpt>
      <trkpt lat="33.0837887" lon="35.1712667">
        <ele>290</ele>
        <time>2018-04-07T05:03:47.450Z</time>
      </trkpt>
      <trkpt lat="33.0835884" lon="35.1714381">
        <ele>290</ele>
        <time>2018-04-07T05:04:01.787Z</time>
      </trkpt>
      <trkpt lat="33.0833323" lon="35.1715354">
        <ele>288</ele>
        <time>2018-04-07T05:04:05.452Z</time>
      </trkpt>
      <trkpt lat="33.0830484" lon="35.1717014">
        <ele>294</ele>
        <time>2018-04-07T05:04:09.460Z</time>
      </trkpt>
      <trkpt lat="33.0828504" lon="35.1718545">
        <ele>296</ele>
        <time>2018-04-07T05:04:13.444Z</time>
      </trkpt>
      <trkpt lat="33.0823932" lon="35.1718783">
        <ele>288</ele>
        <time>2018-04-07T05:04:24.456Z</time>
      </trkpt>
      <trkpt lat="33.0821136" lon="35.1719266">
        <ele>285</ele>
        <time>2018-04-07T05:04:45.469Z</time>
      </trkpt>
      <trkpt lat="33.0818947" lon="35.1720716">
        <ele>287</ele>
        <time>2018-04-07T05:04:48.463Z</time>
      </trkpt>
      <trkpt lat="33.0816679" lon="35.1722231">
        <ele>292</ele>
        <time>2018-04-07T05:04:54.796Z</time>
      </trkpt>
      <trkpt lat="33.0814893" lon="35.1724014">
        <ele>290</ele>
        <time>2018-04-07T05:04:59.820Z</time>
      </trkpt>
      <trkpt lat="33.0813191" lon="35.1726229">
        <ele>289</ele>
        <time>2018-04-07T05:05:07.476Z</time>
      </trkpt>
      <trkpt lat="33.0812573" lon="35.1728876">
        <ele>283</ele>
        <time>2018-04-07T05:05:56.479Z</time>
      </trkpt>
      <trkpt lat="33.0811824" lon="35.1731623">
        <ele>273</ele>
        <time>2018-04-07T05:06:01.509Z</time>
      </trkpt>
      <trkpt lat="33.0810897" lon="35.1734323">
        <ele>259</ele>
        <time>2018-04-07T05:06:13.452Z</time>
      </trkpt>
      <trkpt lat="33.0810396" lon="35.1736957">
        <ele>259</ele>
        <time>2018-04-07T05:06:24.484Z</time>
      </trkpt>
      <trkpt lat="33.0810332" lon="35.1739837">
        <ele>257</ele>
        <time>2018-04-07T05:06:32.472Z</time>
      </trkpt>
      <trkpt lat="33.0809831" lon="35.174256">
        <ele>255</ele>
        <time>2018-04-07T05:06:42.467Z</time>
      </trkpt>
      <trkpt lat="33.0817213" lon="35.1747709">
        <ele>255</ele>
        <time>2018-04-07T05:06:49.671Z</time>
      </trkpt>
      <trkpt lat="33.0820023" lon="35.1748362">
        <ele>254</ele>
        <time>2018-04-07T05:06:52.650Z</time>
      </trkpt>
      <trkpt lat="33.0823428" lon="35.175538">
        <ele>285</ele>
        <time>2018-04-07T05:06:55.641Z</time>
      </trkpt>
      <trkpt lat="33.082563" lon="35.175694">
        <ele>286</ele>
        <time>2018-04-07T05:07:01.609Z</time>
      </trkpt>
      <trkpt lat="33.0827636" lon="35.1758876">
        <ele>288</ele>
        <time>2018-04-07T05:07:06.307Z</time>
      </trkpt>
      <trkpt lat="33.082935" lon="35.1760621">
        <ele>292</ele>
        <time>2018-04-07T05:07:11.275Z</time>
      </trkpt>
      <trkpt lat="33.0832153" lon="35.1761415">
        <ele>296</ele>
        <time>2018-04-07T05:07:26.293Z</time>
      </trkpt>
      <trkpt lat="33.0835267" lon="35.1763396">
        <ele>295</ele>
        <time>2018-04-07T05:07:27.265Z</time>
      </trkpt>
      <trkpt lat="33.0837375" lon="35.1764687">
        <ele>292</ele>
        <time>2018-04-07T05:07:42.318Z</time>
      </trkpt>
      <trkpt lat="33.0843144" lon="35.1767369">
        <ele>290</ele>
        <time>2018-04-07T05:07:51.296Z</time>
      </trkpt>
      <trkpt lat="33.0845665" lon="35.1767491">
        <ele>287</ele>
        <time>2018-04-07T05:07:57.292Z</time>
      </trkpt>
      <trkpt lat="33.0847321" lon="35.1769863">
        <ele>287</ele>
        <time>2018-04-07T05:08:13.724Z</time>
      </trkpt>
      <trkpt lat="33.0848488" lon="35.1772323">
        <ele>277</ele>
        <time>2018-04-07T05:08:40.623Z</time>
      </trkpt>
      <trkpt lat="33.085566" lon="35.1790593">
        <ele>273</ele>
        <time>2018-04-07T05:11:18.269Z</time>
      </trkpt>
      <trkpt lat="33.085671" lon="35.1793314">
        <ele>271</ele>
        <time>2018-04-07T05:11:23.257Z</time>
      </trkpt>
      <trkpt lat="33.085587" lon="35.1795819">
        <ele>273</ele>
        <time>2018-04-07T05:11:45.312Z</time>
      </trkpt>
      <trkpt lat="33.0822412" lon="35.1766731">
        <ele>270</ele>
        <time>2018-04-07T05:13:11.125Z</time>
      </trkpt>
      <trkpt lat="33.0819647" lon="35.1766222">
        <ele>270</ele>
        <time>2018-04-07T05:13:22.289Z</time>
      </trkpt>
      <trkpt lat="33.0817207" lon="35.1765657">
        <ele>0</ele>
        <time>2018-04-07T05:13:28.902Z</time>
      </trkpt>
      <trkpt lat="33.0790975" lon="35.1761199">
        <ele>239</ele>
        <time>2018-04-07T05:15:06.801Z</time>
      </trkpt>
      <trkpt lat="33.0790028" lon="35.1758489">
        <ele>225</ele>
        <time>2018-04-07T05:15:31.267Z</time>
      </trkpt>
      <trkpt lat="33.0787719" lon="35.1756782">
        <ele>218</ele>
        <time>2018-04-07T05:15:37.464Z</time>
      </trkpt>
      <trkpt lat="33.0786879" lon="35.1754265">
        <ele>213</ele>
        <time>2018-04-07T05:16:33.645Z</time>
      </trkpt>
      <trkpt lat="33.0780176" lon="35.1745509">
        <ele>219</ele>
        <time>2018-04-07T05:17:20.457Z</time>
      </trkpt>
      <trkpt lat="33.0781468" lon="35.1743276">
        <ele>216</ele>
        <time>2018-04-07T05:17:54.459Z</time>
      </trkpt>
      <trkpt lat="33.0781143" lon="35.1738676">
        <ele>231</ele>
        <time>2018-04-07T05:17:56.742Z</time>
      </trkpt>
      <trkpt lat="33.0781299" lon="35.1735939">
        <ele>231</ele>
        <time>2018-04-07T05:18:01.378Z</time>
      </trkpt>
      <trkpt lat="33.0782515" lon="35.1733355">
        <ele>236</ele>
        <time>2018-04-07T05:18:17.385Z</time>
      </trkpt>
      <trkpt lat="33.0783823" lon="35.1730564">
        <ele>236</ele>
        <time>2018-04-07T05:18:21.504Z</time>
      </trkpt>
      <trkpt lat="33.0785247" lon="35.1728432">
        <ele>237</ele>
        <time>2018-04-07T05:18:35.421Z</time>
      </trkpt>
      <trkpt lat="33.0786767" lon="35.1726388">
        <ele>236</ele>
        <time>2018-04-07T05:18:48.426Z</time>
      </trkpt>
      <trkpt lat="33.0788202" lon="35.1724085">
        <ele>232</ele>
        <time>2018-04-07T05:18:59.283Z</time>
      </trkpt>
      <trkpt lat="33.0789229" lon="35.1721186">
        <ele>232</ele>
        <time>2018-04-07T05:19:06.631Z</time>
      </trkpt>
      <trkpt lat="33.0790129" lon="35.1718643">
        <ele>234</ele>
        <time>2018-04-07T05:19:13.640Z</time>
      </trkpt>
      <trkpt lat="33.0791029" lon="35.1716131">
        <ele>238</ele>
        <time>2018-04-07T05:19:26.299Z</time>
      </trkpt>
      <trkpt lat="33.0790302" lon="35.1713494">
        <ele>241</ele>
        <time>2018-04-07T05:19:39.613Z</time>
      </trkpt>
      <trkpt lat="33.0789005" lon="35.1711052">
        <ele>240</ele>
        <time>2018-04-07T05:19:52.333Z</time>
      </trkpt>
      <trkpt lat="33.0789594" lon="35.1708318">
        <ele>240</ele>
        <time>2018-04-07T05:20:00.297Z</time>
      </trkpt>
      <trkpt lat="33.0791036" lon="35.1706187">
        <ele>238</ele>
        <time>2018-04-07T05:20:07.285Z</time>
      </trkpt>
      <trkpt lat="33.0792509" lon="35.1697839">
        <ele>225</ele>
        <time>2018-04-07T05:20:10.266Z</time>
      </trkpt>
      <trkpt lat="33.0794598" lon="35.1696591">
        <ele>222</ele>
        <time>2018-04-07T05:20:25.819Z</time>
      </trkpt>
      <trkpt lat="33.079686" lon="35.1695449">
        <ele>221</ele>
        <time>2018-04-07T05:20:34.797Z</time>
      </trkpt>
      <trkpt lat="33.0799003" lon="35.1692995">
        <ele>222</ele>
        <time>2018-04-07T05:20:38.763Z</time>
      </trkpt>
      <trkpt lat="33.080134" lon="35.1692754">
        <ele>222</ele>
        <time>2018-04-07T05:20:43.762Z</time>
      </trkpt>
      <trkpt lat="33.0804107" lon="35.1692801">
        <ele>223</ele>
        <time>2018-04-07T05:20:49.293Z</time>
      </trkpt>
      <trkpt lat="33.0805265" lon="35.1690368">
        <ele>219</ele>
        <time>2018-04-07T05:21:05.300Z</time>
      </trkpt>
      <trkpt lat="33.0806571" lon="35.1688002">
        <ele>218</ele>
        <time>2018-04-07T05:21:09.492Z</time>
      </trkpt>
      <trkpt lat="33.0804092" lon="35.1688472">
        <ele>214</ele>
        <time>2018-04-07T05:21:24.401Z</time>
      </trkpt>
      <trkpt lat="33.0802076" lon="35.1689751">
        <ele>213</ele>
        <time>2018-04-07T05:21:33.356Z</time>
      </trkpt>
      <trkpt lat="33.0798773" lon="35.1686733">
        <ele>210</ele>
        <time>2018-04-07T05:21:58.397Z</time>
      </trkpt>
      <trkpt lat="33.0796617" lon="35.1688274">
        <ele>205</ele>
        <time>2018-04-07T05:22:17.354Z</time>
      </trkpt>
      <trkpt lat="33.0794253" lon="35.1688023">
        <ele>203</ele>
        <time>2018-04-07T05:22:20.357Z</time>
      </trkpt>
      <trkpt lat="33.0791923" lon="35.1689005">
        <ele>202</ele>
        <time>2018-04-07T05:22:28.734Z</time>
      </trkpt>
      <trkpt lat="33.0785587" lon="35.1695287">
        <ele>207</ele>
        <time>2018-04-07T05:22:38.181Z</time>
      </trkpt>
      <trkpt lat="33.0783568" lon="35.1697772">
        <ele>208</ele>
        <time>2018-04-07T05:22:43.156Z</time>
      </trkpt>
      <trkpt lat="33.078225" lon="35.1700386">
        <ele>207</ele>
        <time>2018-04-07T05:22:47.189Z</time>
      </trkpt>
      <trkpt lat="33.0779661" lon="35.1700862">
        <ele>202</ele>
        <time>2018-04-07T05:22:55.197Z</time>
      </trkpt>
      <trkpt lat="33.0780106" lon="35.1697906">
        <ele>201</ele>
        <time>2018-04-07T05:23:03.181Z</time>
      </trkpt>
      <trkpt lat="33.0781299" lon="35.1695509">
        <ele>201</ele>
        <time>2018-04-07T05:23:07.186Z</time>
      </trkpt>
      <trkpt lat="33.0782426" lon="35.1692988">
        <ele>200</ele>
        <time>2018-04-07T05:23:17.235Z</time>
      </trkpt>
      <trkpt lat="33.0785361" lon="35.1687684">
        <ele>203</ele>
        <time>2018-04-07T05:23:26.768Z</time>
      </trkpt>
      <trkpt lat="33.0801514" lon="35.1677613">
        <ele>201</ele>
        <time>2018-04-07T05:24:33.699Z</time>
      </trkpt>
      <trkpt lat="33.0803348" lon="35.1675451">
        <ele>202</ele>
        <time>2018-04-07T05:24:38.035Z</time>
      </trkpt>
      <trkpt lat="33.0805341" lon="35.1673953">
        <ele>196</ele>
        <time>2018-04-07T05:24:48.723Z</time>
      </trkpt>
      <trkpt lat="33.0807724" lon="35.1673641">
        <ele>198</ele>
        <time>2018-04-07T05:24:59.757Z</time>
      </trkpt>
      <trkpt lat="33.0809995" lon="35.1673329">
        <ele>202</ele>
        <time>2018-04-07T05:25:07.789Z</time>
      </trkpt>
      <trkpt lat="33.0812339" lon="35.1674389">
        <ele>202</ele>
        <time>2018-04-07T05:25:17.816Z</time>
      </trkpt>
      <trkpt lat="33.0817527" lon="35.167683">
        <ele>202</ele>
        <time>2018-04-07T05:25:30.925Z</time>
      </trkpt>
      <trkpt lat="33.0815379" lon="35.1675495">
        <ele>202</ele>
        <time>2018-04-07T05:25:47.561Z</time>
      </trkpt>
      <trkpt lat="33.0811126" lon="35.1674397">
        <ele>199</ele>
        <time>2018-04-07T05:25:49.565Z</time>
      </trkpt>
      <trkpt lat="33.0811353" lon="35.1671486">
        <ele>179</ele>
        <time>2018-04-07T05:25:55.611Z</time>
      </trkpt>
      <trkpt lat="33.0807751" lon="35.1669932">
        <ele>190</ele>
        <time>2018-04-07T05:26:05.055Z</time>
      </trkpt>
      <trkpt lat="33.0805471" lon="35.167018">
        <ele>189</ele>
        <time>2018-04-07T05:26:08.726Z</time>
      </trkpt>
      <trkpt lat="33.080319" lon="35.1671054">
        <ele>188</ele>
        <time>2018-04-07T05:26:14.735Z</time>
      </trkpt>
      <trkpt lat="33.0801455" lon="35.1672815">
        <ele>185</ele>
        <time>2018-04-07T05:26:23.750Z</time>
      </trkpt>
      <trkpt lat="33.0799134" lon="35.167342">
        <ele>189</ele>
        <time>2018-04-07T05:26:37.911Z</time>
      </trkpt>
      <trkpt lat="33.0796916" lon="35.1674611">
        <ele>185</ele>
        <time>2018-04-07T05:26:47.254Z</time>
      </trkpt>
      <trkpt lat="33.0794659" lon="35.1675297">
        <ele>185</ele>
        <time>2018-04-07T05:26:59.278Z</time>
      </trkpt>
      <trkpt lat="33.0792259" lon="35.167532">
        <ele>184</ele>
        <time>2018-04-07T05:27:03.283Z</time>
      </trkpt>
      <trkpt lat="33.0789819" lon="35.1676268">
        <ele>187</ele>
        <time>2018-04-07T05:27:07.600Z</time>
      </trkpt>
      <trkpt lat="33.0787331" lon="35.1677638">
        <ele>188</ele>
        <time>2018-04-07T05:27:13.571Z</time>
      </trkpt>
      <trkpt lat="33.0785639" lon="35.167958">
        <ele>186</ele>
        <time>2018-04-07T05:27:20.248Z</time>
      </trkpt>
      <trkpt lat="33.0783277" lon="35.1679334">
        <ele>189</ele>
        <time>2018-04-07T05:27:30.292Z</time>
      </trkpt>
      <trkpt lat="33.077941" lon="35.1683029">
        <ele>186</ele>
        <time>2018-04-07T05:27:34.656Z</time>
      </trkpt>
      <trkpt lat="33.0778296" lon="35.1685411">
        <ele>179</ele>
        <time>2018-04-07T05:27:44.248Z</time>
      </trkpt>
      <trkpt lat="33.0777011" lon="35.1687931">
        <ele>174</ele>
        <time>2018-04-07T05:27:47.571Z</time>
      </trkpt>
      <trkpt lat="33.0775686" lon="35.1690348">
        <ele>168</ele>
        <time>2018-04-07T05:27:49.259Z</time>
      </trkpt>
      <trkpt lat="33.077466" lon="35.1692855">
        <ele>168</ele>
        <time>2018-04-07T05:27:55.242Z</time>
      </trkpt>
      <trkpt lat="33.0773444" lon="35.1695946">
        <ele>164</ele>
        <time>2018-04-07T05:27:59.254Z</time>
      </trkpt>
      <trkpt lat="33.0772113" lon="35.1698128">
        <ele>164</ele>
        <time>2018-04-07T05:28:03.265Z</time>
      </trkpt>
      <trkpt lat="33.0770921" lon="35.1700501">
        <ele>165</ele>
        <time>2018-04-07T05:28:10.234Z</time>
      </trkpt>
      <trkpt lat="33.0769495" lon="35.1703087">
        <ele>169</ele>
        <time>2018-04-07T05:28:24.295Z</time>
      </trkpt>
      <trkpt lat="33.076801" lon="35.1705348">
        <ele>165</ele>
        <time>2018-04-07T05:28:29.338Z</time>
      </trkpt>
      <trkpt lat="33.0766254" lon="35.1711669">
        <ele>164</ele>
        <time>2018-04-07T05:28:49.297Z</time>
      </trkpt>
      <trkpt lat="33.0765136" lon="35.171736">
        <ele>163</ele>
        <time>2018-04-07T05:28:51.280Z</time>
      </trkpt>
      <trkpt lat="33.0764416" lon="35.1719981">
        <ele>160</ele>
        <time>2018-04-07T05:29:04.166Z</time>
      </trkpt>
      <trkpt lat="33.0764768" lon="35.1722989">
        <ele>152</ele>
        <time>2018-04-07T05:29:10.626Z</time>
      </trkpt>
      <trkpt lat="33.0764935" lon="35.1726329">
        <ele>149</ele>
        <time>2018-04-07T05:32:11.623Z</time>
      </trkpt>
      <trkpt lat="33.0764428" lon="35.1728982">
        <ele>0</ele>
        <time>2018-04-07T05:32:22.042Z</time>
      </trkpt>
      <trkpt lat="33.076381" lon="35.1731712">
        <ele>151</ele>
        <time>2018-04-07T05:32:41.705Z</time>
      </trkpt>
      <trkpt lat="33.0763147" lon="35.1737253">
        <ele>153</ele>
        <time>2018-04-07T05:33:04.993Z</time>
      </trkpt>
      <trkpt lat="33.0761974" lon="35.1742691">
        <ele>153</ele>
        <time>2018-04-07T05:33:12.637Z</time>
      </trkpt>
      <trkpt lat="33.0763546" lon="35.1744688">
        <ele>150</ele>
        <time>2018-04-07T05:33:17.617Z</time>
      </trkpt>
      <trkpt lat="33.0759823" lon="35.1742494">
        <ele>150</ele>
        <time>2018-04-07T05:33:38.205Z</time>
      </trkpt>
      <trkpt lat="33.0758649" lon="35.1739894">
        <ele>149</ele>
        <time>2018-04-07T05:33:44.531Z</time>
      </trkpt>
      <trkpt lat="33.075574" lon="35.1746808">
        <ele>140</ele>
        <time>2018-04-07T05:34:19.246Z</time>
      </trkpt>
      <trkpt lat="33.0758769" lon="35.1748997">
        <ele>131</ele>
        <time>2018-04-07T05:34:30.176Z</time>
      </trkpt>
      <trkpt lat="33.076071" lon="35.1750692">
        <ele>131</ele>
        <time>2018-04-07T05:34:37.193Z</time>
      </trkpt>
      <trkpt lat="33.0761653" lon="35.1753229">
        <ele>129</ele>
        <time>2018-04-07T05:34:46.064Z</time>
      </trkpt>
      <trkpt lat="33.0761271" lon="35.175597">
        <ele>128</ele>
        <time>2018-04-07T05:34:54.194Z</time>
      </trkpt>
      <trkpt lat="33.0760491" lon="35.175875">
        <ele>126</ele>
        <time>2018-04-07T05:35:03.187Z</time>
      </trkpt>
      <trkpt lat="33.0758974" lon="35.1760903">
        <ele>127</ele>
        <time>2018-04-07T05:35:07.522Z</time>
      </trkpt>
      <trkpt lat="33.0759575" lon="35.1763502">
        <ele>125</ele>
        <time>2018-04-07T05:35:19.204Z</time>
      </trkpt>
      <trkpt lat="33.0759055" lon="35.1769964">
        <ele>125</ele>
        <time>2018-04-07T05:35:42.584Z</time>
      </trkpt>
      <trkpt lat="33.0758353" lon="35.1775076">
        <ele>129</ele>
        <time>2018-04-07T05:35:47.196Z</time>
      </trkpt>
      <trkpt lat="33.075748" lon="35.177781">
        <ele>126</ele>
        <time>2018-04-07T05:35:56.259Z</time>
      </trkpt>
      <trkpt lat="33.0755347" lon="35.1784842">
        <ele>127</ele>
        <time>2018-04-07T05:36:11.547Z</time>
      </trkpt>
      <trkpt lat="33.0755369" lon="35.1792755">
        <ele>121</ele>
        <time>2018-04-07T05:36:27.189Z</time>
      </trkpt>
      <trkpt lat="33.0755727" lon="35.1795871">
        <ele>123</ele>
        <time>2018-04-07T05:36:32.183Z</time>
      </trkpt>
      <trkpt lat="33.0753421" lon="35.179461">
        <ele>0</ele>
        <time>2018-04-07T05:36:49.106Z</time>
      </trkpt>
      <trkpt lat="33.0752841" lon="35.1792013">
        <ele>122</ele>
        <time>2018-04-07T05:36:56.227Z</time>
      </trkpt>
      <trkpt lat="33.0753371" lon="35.1788881">
        <ele>122</ele>
        <time>2018-04-07T05:37:08.185Z</time>
      </trkpt>
      <trkpt lat="33.0752853" lon="35.1786119">
        <ele>121</ele>
        <time>2018-04-07T05:37:12.176Z</time>
      </trkpt>
      <trkpt lat="33.0754021" lon="35.1783541">
        <ele>119</ele>
        <time>2018-04-07T05:37:23.196Z</time>
      </trkpt>
      <trkpt lat="33.0755193" lon="35.1781044">
        <ele>117</ele>
        <time>2018-04-07T05:37:29.194Z</time>
      </trkpt>
      <trkpt lat="33.0756266" lon="35.177856">
        <ele>118</ele>
        <time>2018-04-07T05:37:38.200Z</time>
      </trkpt>
      <trkpt lat="33.0757963" lon="35.1776704">
        <ele>119</ele>
        <time>2018-04-07T05:37:51.262Z</time>
      </trkpt>
      <trkpt lat="33.0757153" lon="35.1769803">
        <ele>124</ele>
        <time>2018-04-07T05:37:54.191Z</time>
      </trkpt>
      <trkpt lat="33.0756565" lon="35.1767029">
        <ele>126</ele>
        <time>2018-04-07T05:37:59.176Z</time>
      </trkpt>
      <trkpt lat="33.0757425" lon="35.1763916">
        <ele>127</ele>
        <time>2018-04-07T05:38:10.201Z</time>
      </trkpt>
      <trkpt lat="33.0757855" lon="35.1759276">
        <ele>125</ele>
        <time>2018-04-07T05:38:15.186Z</time>
      </trkpt>
      <trkpt lat="33.0755076" lon="35.1757754">
        <ele>125</ele>
        <time>2018-04-07T05:38:23.186Z</time>
      </trkpt>
      <trkpt lat="33.075281" lon="35.1757229">
        <ele>124</ele>
        <time>2018-04-07T05:38:27.191Z</time>
      </trkpt>
      <trkpt lat="33.0752613" lon="35.1754166">
        <ele>122</ele>
        <time>2018-04-07T05:38:33.196Z</time>
      </trkpt>
      <trkpt lat="33.0751696" lon="35.1751306">
        <ele>120</ele>
        <time>2018-04-07T05:38:39.193Z</time>
      </trkpt>
      <trkpt lat="33.0750717" lon="35.1748813">
        <ele>123</ele>
        <time>2018-04-07T05:38:50.552Z</time>
      </trkpt>
      <trkpt lat="33.0751216" lon="35.1746053">
        <ele>122</ele>
        <time>2018-04-07T05:38:59.219Z</time>
      </trkpt>
      <trkpt lat="33.0752057" lon="35.174334">
        <ele>122</ele>
        <time>2018-04-07T05:39:08.205Z</time>
      </trkpt>
      <trkpt lat="33.0752904" lon="35.1740463">
        <ele>121</ele>
        <time>2018-04-07T05:39:15.252Z</time>
      </trkpt>
      <trkpt lat="33.0752992" lon="35.1737587">
        <ele>120</ele>
        <time>2018-04-07T05:39:25.223Z</time>
      </trkpt>
      <trkpt lat="33.0753084" lon="35.1734596">
        <ele>119</ele>
        <time>2018-04-07T05:39:35.226Z</time>
      </trkpt>
      <trkpt lat="33.0754011" lon="35.1731866">
        <ele>118</ele>
        <time>2018-04-07T05:39:42.233Z</time>
      </trkpt>
      <trkpt lat="33.0754916" lon="35.172916">
        <ele>119</ele>
        <time>2018-04-07T05:39:51.564Z</time>
      </trkpt>
      <trkpt lat="33.0755494" lon="35.1726357">
        <ele>122</ele>
        <time>2018-04-07T05:40:03.227Z</time>
      </trkpt>
      <trkpt lat="33.0755548" lon="35.1723626">
        <ele>120</ele>
        <time>2018-04-07T05:40:12.242Z</time>
      </trkpt>
      <trkpt lat="33.0754792" lon="35.1721067">
        <ele>122</ele>
        <time>2018-04-07T05:40:17.270Z</time>
      </trkpt>
      <trkpt lat="33.0753329" lon="35.1718761">
        <ele>121</ele>
        <time>2018-04-07T05:40:23.562Z</time>
      </trkpt>
      <trkpt lat="33.0751412" lon="35.1716662">
        <ele>125</ele>
        <time>2018-04-07T05:40:26.526Z</time>
      </trkpt>
      <trkpt lat="33.0751283" lon="35.171391">
        <ele>125</ele>
        <time>2018-04-07T05:40:30.201Z</time>
      </trkpt>
      <trkpt lat="33.0750495" lon="35.1710715">
        <ele>122</ele>
        <time>2018-04-07T05:40:34.226Z</time>
      </trkpt>
      <trkpt lat="33.0749748" lon="35.170786">
        <ele>124</ele>
        <time>2018-04-07T05:40:37.247Z</time>
      </trkpt>
      <trkpt lat="33.0749805" lon="35.1703835">
        <ele>122</ele>
        <time>2018-04-07T05:40:39.175Z</time>
      </trkpt>
      <trkpt lat="33.0747708" lon="35.1702362">
        <ele>122</ele>
        <time>2018-04-07T05:41:20.210Z</time>
      </trkpt>
      <trkpt lat="33.0745939" lon="35.1700683">
        <ele>121</ele>
        <time>2018-04-07T05:41:23.520Z</time>
      </trkpt>
      <trkpt lat="33.0743328" lon="35.1700009">
        <ele>120</ele>
        <time>2018-04-07T05:41:25.547Z</time>
      </trkpt>
      <trkpt lat="33.0741741" lon="35.1697745">
        <ele>112</ele>
        <time>2018-04-07T05:41:29.193Z</time>
      </trkpt>
      <trkpt lat="33.0737716" lon="35.1697771">
        <ele>116</ele>
        <time>2018-04-07T05:41:32.200Z</time>
      </trkpt>
      <trkpt lat="33.0741603" lon="35.1695268">
        <ele>118</ele>
        <time>2018-04-07T05:42:17.245Z</time>
      </trkpt>
      <trkpt lat="33.074386" lon="35.1694399">
        <ele>119</ele>
        <time>2018-04-07T05:42:37.239Z</time>
      </trkpt>
      <trkpt lat="33.0746128" lon="35.1693418">
        <ele>121</ele>
        <time>2018-04-07T05:42:43.228Z</time>
      </trkpt>
      <trkpt lat="33.0750781" lon="35.1691397">
        <ele>123</ele>
        <time>2018-04-07T05:44:02.198Z</time>
      </trkpt>
      <trkpt lat="33.0752501" lon="35.1689224">
        <ele>127</ele>
        <time>2018-04-07T05:44:17.240Z</time>
      </trkpt>
      <trkpt lat="33.0754025" lon="35.1686939">
        <ele>123</ele>
        <time>2018-04-07T05:44:27.274Z</time>
      </trkpt>
      <trkpt lat="33.0753151" lon="35.1684361">
        <ele>123</ele>
        <time>2018-04-07T05:44:36.253Z</time>
      </trkpt>
      <trkpt lat="33.075069" lon="35.1683457">
        <ele>123</ele>
        <time>2018-04-07T05:44:41.287Z</time>
      </trkpt>
      <trkpt lat="33.0740267" lon="35.1680988">
        <ele>102</ele>
        <time>2018-04-07T05:45:04.562Z</time>
      </trkpt>
      <trkpt lat="33.0738022" lon="35.1680024">
        <ele>102</ele>
        <time>2018-04-07T05:45:11.194Z</time>
      </trkpt>
      <trkpt lat="33.0736249" lon="35.1678144">
        <ele>100</ele>
        <time>2018-04-07T05:45:19.193Z</time>
      </trkpt>
      <trkpt lat="33.0734875" lon="35.1675635">
        <ele>91</ele>
        <time>2018-04-07T05:45:24.215Z</time>
      </trkpt>
      <trkpt lat="33.0732782" lon="35.167444">
        <ele>94</ele>
        <time>2018-04-07T05:45:28.257Z</time>
      </trkpt>
      <trkpt lat="33.0730043" lon="35.1674266">
        <ele>96</ele>
        <time>2018-04-07T05:45:31.205Z</time>
      </trkpt>
      <trkpt lat="33.0729611" lon="35.1671528">
        <ele>97</ele>
        <time>2018-04-07T05:45:43.235Z</time>
      </trkpt>
      <trkpt lat="33.0729397" lon="35.1668271">
        <ele>99</ele>
        <time>2018-04-07T05:45:54.192Z</time>
      </trkpt>
      <trkpt lat="33.0729169" lon="35.1665557">
        <ele>97</ele>
        <time>2018-04-07T05:45:55.185Z</time>
      </trkpt>
      <trkpt lat="33.0727964" lon="35.166291">
        <ele>99</ele>
        <time>2018-04-07T05:46:07.243Z</time>
      </trkpt>
      <trkpt lat="33.0728164" lon="35.1660164">
        <ele>100</ele>
        <time>2018-04-07T05:46:20.190Z</time>
      </trkpt>
      <trkpt lat="33.0727664" lon="35.1657447">
        <ele>99</ele>
        <time>2018-04-07T05:46:37.247Z</time>
      </trkpt>
      <trkpt lat="33.0723544" lon="35.1631186">
        <ele>99</ele>
        <time>2018-04-07T05:47:23.286Z</time>
      </trkpt>
      <trkpt lat="33.0723135" lon="35.1628237">
        <ele>98</ele>
        <time>2018-04-07T05:47:24.830Z</time>
      </trkpt>
      <trkpt lat="33.0723253" lon="35.1625281">
        <ele>97</ele>
        <time>2018-04-07T05:47:36.846Z</time>
      </trkpt>
      <trkpt lat="33.0723134" lon="35.1620929">
        <ele>99</ele>
        <time>2018-04-07T05:47:38.834Z</time>
      </trkpt>
      <trkpt lat="33.072352" lon="35.1617885">
        <ele>99</ele>
        <time>2018-04-07T05:47:41.838Z</time>
      </trkpt>
      <trkpt lat="33.0724246" lon="35.1614828">
        <ele>100</ele>
        <time>2018-04-07T05:47:45.836Z</time>
      </trkpt>
      <trkpt lat="33.0724835" lon="35.160569">
        <ele>100</ele>
        <time>2018-04-07T05:47:56.831Z</time>
      </trkpt>
      <trkpt lat="33.072591" lon="35.1603211">
        <ele>100</ele>
        <time>2018-04-07T05:48:22.701Z</time>
      </trkpt>
      <trkpt lat="33.0725009" lon="35.1600593">
        <ele>102</ele>
        <time>2018-04-07T05:48:30.074Z</time>
      </trkpt>
      <trkpt lat="33.0724055" lon="35.1597946">
        <ele>104</ele>
        <time>2018-04-07T05:48:36.995Z</time>
      </trkpt>
      <trkpt lat="33.0723603" lon="35.1594711">
        <ele>103</ele>
        <time>2018-04-07T05:48:39.651Z</time>
      </trkpt>
      <trkpt lat="33.0723146" lon="35.159196">
        <ele>103</ele>
        <time>2018-04-07T05:48:44.956Z</time>
      </trkpt>
      <trkpt lat="33.0723101" lon="35.1589149">
        <ele>95</ele>
        <time>2018-04-07T05:48:53.649Z</time>
      </trkpt>
      <trkpt lat="33.0722648" lon="35.1585894">
        <ele>87</ele>
        <time>2018-04-07T05:49:03.666Z</time>
      </trkpt>
      <trkpt lat="33.0721852" lon="35.1583016">
        <ele>87</ele>
        <time>2018-04-07T05:49:05.658Z</time>
      </trkpt>
      <trkpt lat="33.0720731" lon="35.1580373">
        <ele>88</ele>
        <time>2018-04-07T05:49:07.652Z</time>
      </trkpt>
      <trkpt lat="33.0719591" lon="35.1576984">
        <ele>86</ele>
        <time>2018-04-07T05:49:10.654Z</time>
      </trkpt>
      <trkpt lat="33.0718674" lon="35.1573764">
        <ele>88</ele>
        <time>2018-04-07T05:49:14.012Z</time>
      </trkpt>
      <trkpt lat="33.0717931" lon="35.157103">
        <ele>87</ele>
        <time>2018-04-07T05:49:18.002Z</time>
      </trkpt>
      <trkpt lat="33.0717054" lon="35.1568299">
        <ele>86</ele>
        <time>2018-04-07T05:49:22.004Z</time>
      </trkpt>
      <trkpt lat="33.0715871" lon="35.1565515">
        <ele>90</ele>
        <time>2018-04-07T05:49:25.760Z</time>
      </trkpt>
      <trkpt lat="33.0715716" lon="35.1562061">
        <ele>89</ele>
        <time>2018-04-07T05:49:43.685Z</time>
      </trkpt>
      <trkpt lat="33.0714794" lon="35.1559008">
        <ele>86</ele>
        <time>2018-04-07T05:49:48.642Z</time>
      </trkpt>
      <trkpt lat="33.071431" lon="35.1556152">
        <ele>85</ele>
        <time>2018-04-07T05:49:54.981Z</time>
      </trkpt>
      <trkpt lat="33.0713351" lon="35.1553716">
        <ele>81</ele>
        <time>2018-04-07T05:50:01.985Z</time>
      </trkpt>
      <trkpt lat="33.0712558" lon="35.1551056">
        <ele>85</ele>
        <time>2018-04-07T05:50:13.702Z</time>
      </trkpt>
      <trkpt lat="33.0712298" lon="35.1548382">
        <ele>84</ele>
        <time>2018-04-07T05:50:25.692Z</time>
      </trkpt>
      <trkpt lat="33.0712215" lon="35.1545693">
        <ele>83</ele>
        <time>2018-04-07T05:50:36.711Z</time>
      </trkpt>
      <trkpt lat="33.0711862" lon="35.1542563">
        <ele>83</ele>
        <time>2018-04-07T05:50:47.681Z</time>
      </trkpt>
      <trkpt lat="33.0711145" lon="35.153975">
        <ele>97</ele>
        <time>2018-04-07T05:50:54.645Z</time>
      </trkpt>
      <trkpt lat="33.0713168" lon="35.1533929">
        <ele>96</ele>
        <time>2018-04-07T05:51:49.672Z</time>
      </trkpt>
      <trkpt lat="33.0713711" lon="35.1525669">
        <ele>93</ele>
        <time>2018-04-07T05:52:19.663Z</time>
      </trkpt>
      <trkpt lat="33.0713666" lon="35.1522941">
        <ele>91</ele>
        <time>2018-04-07T05:52:23.634Z</time>
      </trkpt>
      <trkpt lat="33.0715939" lon="35.1522566">
        <ele>112</ele>
        <time>2018-04-07T05:53:46.651Z</time>
      </trkpt>
      <trkpt lat="33.0718238" lon="35.1523346">
        <ele>111</ele>
        <time>2018-04-07T05:53:52.649Z</time>
      </trkpt>
      <trkpt lat="33.0720377" lon="35.1524381">
        <ele>109</ele>
        <time>2018-04-07T05:53:58.651Z</time>
      </trkpt>
      <trkpt lat="33.0726096" lon="35.1510598">
        <ele>117</ele>
        <time>2018-04-07T05:55:39.658Z</time>
      </trkpt>
      <trkpt lat="33.0727734" lon="35.1506631">
        <ele>117</ele>
        <time>2018-04-07T05:55:40.641Z</time>
      </trkpt>
      <trkpt lat="33.0728857" lon="35.1503904">
        <ele>116</ele>
        <time>2018-04-07T05:55:42.629Z</time>
      </trkpt>
      <trkpt lat="33.0728516" lon="35.1506603">
        <ele>106</ele>
        <time>2018-04-07T05:56:15.680Z</time>
      </trkpt>
      <trkpt lat="33.0729746" lon="35.150908">
        <ele>107</ele>
        <time>2018-04-07T05:56:23.661Z</time>
      </trkpt>
      <trkpt lat="33.0733902" lon="35.1512571">
        <ele>110</ele>
        <time>2018-04-07T05:57:34.666Z</time>
      </trkpt>
    </trkseg>
  </trk>
</gpx>