<?xml version="1.0" encoding="UTF-8"?>
<gpx xmlns="Amud Anan http://amudanan.co.il/" version="1.0" xmlns:xsi="http://www.w3.org/2001/XMLSchema-instance" xsi:schemaLocation="http://www.topografix.com/GPX/1/0 http://www.topografix.com/GPX/1/0/gpx.xsd"><trk><name>Amud Anan</name><trkseg><trkpt lon="35.573000966948" lat="33.022047897507"/><trkpt lon="35.573043915345" lat="33.021919846924"/><trkpt lon="35.572013964164" lat="33.022134212654"/><trkpt lon="35.571949054027" lat="33.022048182106"/><trkpt lon="35.571326913027" lat="33.019902922292"/><trkpt lon="35.57119800913" lat="33.017972046218"/><trkpt lon="35.571004940633" lat="33.017627726304"/><trkpt lon="35.569416917168" lat="33.015996983937"/><trkpt lon="35.569117039391" lat="33.015783151304"/><trkpt lon="35.568322925593" lat="33.015547091193"/><trkpt lon="35.564933071263" lat="33.015203024705"/><trkpt lon="35.564847048826" lat="33.015268080419"/><trkpt lon="35.56544802237" lat="33.015589816289"/><trkpt lon="35.565468969056" lat="33.015846730587"/><trkpt lon="35.563988926955" lat="33.016726746609"/><trkpt lon="35.563022976061" lat="33.017457057643"/><trkpt lon="35.561585078358" lat="33.018143065828"/><trkpt lon="35.56057695307" lat="33.018250201921"/><trkpt lon="35.558281053736" lat="33.018079217062"/><trkpt lon="35.555448955174" lat="33.019408719342"/><trkpt lon="35.552595014195" lat="33.020095781231"/><trkpt lon="35.55212301038" lat="33.02041775217"/><trkpt lon="35.552336951648" lat="33.022005778739"/><trkpt lon="35.552595013086" lat="33.022477870071"/><trkpt lon="35.552744951795" lat="33.022842062767"/><trkpt lon="35.552595035666" lat="33.023164263075"/><trkpt lon="35.551929019302" lat="33.023529039901"/><trkpt lon="35.550877944806" lat="33.024988152316"/><trkpt lon="35.550255975485" lat="33.025245725113"/><trkpt lon="35.54920393834" lat="33.025310062149"/><trkpt lon="35.548603965288" lat="33.024473169321"/><trkpt lon="35.548195985591" lat="33.02410799217"/><trkpt lon="35.547658985491" lat="33.023894197603"/><trkpt lon="35.547122920269" lat="33.023013728911"/><trkpt lon="35.547209063129" lat="33.022412757358"/><trkpt lon="35.546993932177" lat="33.021834027625"/><trkpt lon="35.546242915652" lat="33.02076084993"/><trkpt lon="35.545535041849" lat="33.020159797359"/><trkpt lon="35.545513984446" lat="33.019946272674"/><trkpt lon="35.5452350525" lat="33.01964497643"/><trkpt lon="35.544977015063" lat="33.019601724575"/><trkpt lon="35.544290925217" lat="33.020009908338"/><trkpt lon="35.543003048559" lat="33.020267002646"/><trkpt lon="35.541522987771" lat="33.020824970595"/><trkpt lon="35.539183980736" lat="33.022177003849"/><trkpt lon="35.538067949942" lat="33.022648859068"/><trkpt lon="35.538131934352" lat="33.02254217865"/><trkpt lon="35.537982010741" lat="33.022521164884"/><trkpt lon="35.538089033397" lat="33.022563144395"/><trkpt lon="35.537530935687" lat="33.022778217546"/><trkpt lon="35.535514056677" lat="33.025911239374"/><trkpt lon="35.534440967056" lat="33.027197828723"/><trkpt lon="35.533883932264" lat="33.027349202582"/><trkpt lon="35.533412000248" lat="33.027134047871"/><trkpt lon="35.53248904619" lat="33.027605907524"/><trkpt lon="35.531652021401" lat="33.027799145722"/><trkpt lon="35.531416053499" lat="33.028120982733"/><trkpt lon="35.531672927087" lat="33.027799090899"/><trkpt lon="35.531951993577" lat="33.027735242131"/><trkpt lon="35.531566039195" lat="33.02788502942"/><trkpt lon="35.53092199425" lat="33.02857198222"/><trkpt lon="35.530150006353" lat="33.028807869296"/><trkpt lon="35.530665056661" lat="33.030738905863"/><trkpt lon="35.530536070613" lat="33.03168317399"/><trkpt lon="35.53064295462" lat="33.031640065497"/><trkpt lon="35.530643014634" lat="33.031747138097"/><trkpt lon="35.530578965618" lat="33.030523858289"/><trkpt lon="35.530149915808" lat="33.028828720552"/><trkpt lon="35.528691076786" lat="33.029579775551"/><trkpt lon="35.528326000043" lat="33.02945110928"/><trkpt lon="35.527897072618" lat="33.029515902065"/><trkpt lon="35.526930993008" lat="33.030331028907"/><trkpt lon="35.525107011228" lat="33.030996199912"/><trkpt lon="35.524614051508" lat="33.030932095082"/><trkpt lon="35.524634980618" lat="33.030845819598"/><trkpt lon="35.523691039826" lat="33.030437980469"/><trkpt lon="35.523219003546" lat="33.030330987447"/><trkpt lon="35.522360922342" lat="33.030867977266"/><trkpt lon="35.522210993136" lat="33.031360894084"/><trkpt lon="35.521653013369" lat="33.031961921553"/><trkpt lon="35.519935931769" lat="33.032842017875"/><trkpt lon="35.517704064895" lat="33.03445091543"/><trkpt lon="35.517769021242" lat="33.034514995979"/><trkpt lon="35.517661989588" lat="33.034471872078"/><trkpt lon="35.517746943134" lat="33.034515051423"/><trkpt lon="35.516395970555" lat="33.035222862665"/><trkpt lon="35.515193927155" lat="33.035717269999"/><trkpt lon="35.514765025885" lat="33.035610137701"/><trkpt lon="35.514357019644" lat="33.035737948549"/><trkpt lon="35.513498960155" lat="33.035545091904"/><trkpt lon="35.513283992907" lat="33.035630718892"/><trkpt lon="35.513240973209" lat="33.035717047127"/><trkpt lon="35.513456036996" lat="33.03580273639"/><trkpt lon="35.513306046525" lat="33.036102911516"/><trkpt lon="35.513542009235" lat="33.036425236014"/><trkpt lon="35.513390957469" lat="33.036661170197"/><trkpt lon="35.513562968409" lat="33.036918845786"/><trkpt lon="35.513391035016" lat="33.037498027976"/><trkpt lon="35.512533033062" lat="33.037326015657"/><trkpt lon="35.512426027776" lat="33.037627210594"/><trkpt lon="35.511867977115" lat="33.03814197252"/><trkpt lon="35.51062293415" lat="33.038700121848"/><trkpt lon="35.509507959893" lat="33.039922918649"/><trkpt lon="35.508756921823" lat="33.039729767876"/><trkpt lon="35.507533954536" lat="33.03878486968"/><trkpt lon="35.505366017864" lat="33.03874278032"/><trkpt lon="35.504464988154" lat="33.039150136211"/><trkpt lon="35.504143069084" lat="33.039171760975"/><trkpt lon="35.503820920669" lat="33.039471774576"/><trkpt lon="35.503413916613" lat="33.040351874063"/><trkpt lon="35.501374938244" lat="33.042561878078"/><trkpt lon="35.501374991481" lat="33.042777150411"/><trkpt lon="35.501268074847" lat="33.042669205082"/><trkpt lon="35.500194981756" lat="33.043763895139"/><trkpt lon="35.495517071246" lat="33.045951854417"/><trkpt lon="35.494809038907" lat="33.046381231605"/><trkpt lon="35.49244900489" lat="33.04848419952"/><trkpt lon="35.491827006857" lat="33.048784873901"/><trkpt lon="35.490474971278" lat="33.049192039815"/><trkpt lon="35.489830989143" lat="33.048956264467"/><trkpt lon="35.489724019057" lat="33.047947772228"/><trkpt lon="35.489916995928" lat="33.047303767762"/><trkpt lon="35.489423072996" lat="33.046961137562"/><trkpt lon="35.488650917874" lat="33.046188031204"/><trkpt lon="35.487492011809" lat="33.045672772548"/><trkpt lon="35.486720072541" lat="33.045587736496"/><trkpt lon="35.486140060689" lat="33.045887724102"/><trkpt lon="35.485260009396" lat="33.046789118934"/><trkpt lon="35.484488024227" lat="33.047326217834"/><trkpt lon="35.482406991513" lat="33.048119829016"/><trkpt lon="35.480668928718" lat="33.049471114904"/><trkpt lon="35.478351001836" lat="33.051639093754"/><trkpt lon="35.477321066031" lat="33.052045973031"/><trkpt lon="35.47412403267" lat="33.052410774333"/><trkpt lon="35.473073067095" lat="33.052733133019"/><trkpt lon="35.471613019292" lat="33.053763039057"/><trkpt lon="35.469960944394" lat="33.055372092421"/><trkpt lon="35.468244961323" lat="33.057282189115"/><trkpt lon="35.468394926288" lat="33.057302722799"/><trkpt lon="35.468351965001" lat="33.057538936883"/><trkpt lon="35.469359942978" lat="33.058591182708"/><trkpt lon="35.469789944337" lat="33.059491931968"/><trkpt lon="35.469767914108" lat="33.061852082122"/><trkpt lon="35.470262002997" lat="33.062302988508"/><trkpt lon="35.470604987402" lat="33.062967796852"/><trkpt lon="35.471913929457" lat="33.063591088407"/><trkpt lon="35.472278941946" lat="33.063954914828"/><trkpt lon="35.472342977546" lat="33.064491830042"/><trkpt lon="35.473007966195" lat="33.065672141012"/><trkpt lon="35.474253051991" lat="33.066186782083"/><trkpt lon="35.4746599359" lat="33.066831153061"/><trkpt lon="35.47517495483" lat="33.067324259521"/><trkpt lon="35.475905061622" lat="33.067731801411"/><trkpt lon="35.478200959373" lat="33.069642249964"/><trkpt lon="35.47856602363" lat="33.070114256749"/><trkpt lon="35.479745999488" lat="33.073332278466"/><trkpt lon="35.480432974087" lat="33.074640985801"/><trkpt lon="35.480368015097" lat="33.075005738646"/><trkpt lon="35.480604061806" lat="33.075306145332"/><trkpt lon="35.481441058956" lat="33.075885859815"/><trkpt lon="35.482706945937" lat="33.076142832067"/><trkpt lon="35.483308036227" lat="33.076357887659"/><trkpt lon="35.483865997809" lat="33.076850861109"/><trkpt lon="35.484337935191" lat="33.076915736492"/><trkpt lon="35.484574052435" lat="33.07691576976"/><trkpt lon="35.484552026862" lat="33.07683016151"/><trkpt lon="35.4849820461" lat="33.076657879237"/><trkpt lon="35.484530976635" lat="33.076893888561"/><trkpt lon="35.484444959807" lat="33.076787009591"/><trkpt lon="35.484767054224" lat="33.076723169623"/><trkpt lon="35.485733028603" lat="33.076014881308"/><trkpt lon="35.487019993146" lat="33.075584809644"/><trkpt lon="35.487749972853" lat="33.07502694134"/><trkpt lon="35.488457927928" lat="33.074856269411"/><trkpt lon="35.489058005458" lat="33.074963100362"/><trkpt lon="35.490560998305" lat="33.074748897398"/><trkpt lon="35.490646019209" lat="33.074598237681"/><trkpt lon="35.491183070268" lat="33.074362008539"/><trkpt lon="35.491655010737" lat="33.074275828138"/><trkpt lon="35.491911984217" lat="33.074105047532"/><trkpt lon="35.491312019637" lat="33.073568250639"/><trkpt lon="35.491226010959" lat="33.073052811296"/><trkpt lon="35.491418948559" lat="33.072795957636"/><trkpt lon="35.491525914514" lat="33.072859954736"/><trkpt lon="35.491354036944" lat="33.072903179223"/><trkpt lon="35.491375972743" lat="33.072753227652"/><trkpt lon="35.49257798817" lat="33.072517151144"/><trkpt lon="35.492857064436" lat="33.072301797987"/><trkpt lon="35.49347897823" lat="33.072130733022"/><trkpt lon="35.494874079523" lat="33.072302188159"/><trkpt lon="35.495217009756" lat="33.071915928992"/><trkpt lon="35.495988953088" lat="33.071422721394"/><trkpt lon="35.496675917595" lat="33.071293753737"/><trkpt lon="35.498692956862" lat="33.071207860851"/><trkpt lon="35.499358067157" lat="33.071401273699"/><trkpt lon="35.500044956972" lat="33.072002069236"/><trkpt lon="35.500989015125" lat="33.072194811737"/><trkpt lon="35.503713925099" lat="33.073654063101"/><trkpt lon="35.504315013162" lat="33.07410513966"/><trkpt lon="35.504743967448" lat="33.074619744159"/><trkpt lon="35.505859983103" lat="33.074340917965"/><trkpt lon="35.50661092454" lat="33.07481303544"/><trkpt lon="35.509056974806" lat="33.075521085579"/><trkpt lon="35.509400065709" lat="33.075777783484"/><trkpt lon="35.51055903125" lat="33.075627860277"/><trkpt lon="35.511031055565" lat="33.076100071835"/><trkpt lon="35.511482072346" lat="33.076207724709"/><trkpt lon="35.512104031106" lat="33.076100246584"/><trkpt lon="35.514356912879" lat="33.075242035464"/><trkpt lon="35.51478594821" lat="33.074856072397"/><trkpt lon="35.514871912696" lat="33.074318807354"/><trkpt lon="35.51527996808" lat="33.073869215062"/><trkpt lon="35.515859059542" lat="33.073331846075"/><trkpt lon="35.516523928165" lat="33.072967829248"/><trkpt lon="35.518005019708" lat="33.072646278465"/><trkpt lon="35.51875605403" lat="33.07298927247"/><trkpt lon="35.518948942521" lat="33.072882277542"/><trkpt lon="35.519012987461" lat="33.072258843627"/><trkpt lon="35.51952792239" lat="33.071101164633"/><trkpt lon="35.520493992577" lat="33.070327800452"/><trkpt lon="35.521331038621" lat="33.069834834885"/><trkpt lon="35.521288075503" lat="33.069705893947"/><trkpt lon="35.521888986028" lat="33.069298055034"/><trkpt lon="35.522532034593" lat="33.068418988243"/><trkpt lon="35.522683009579" lat="33.06768882169"/><trkpt lon="35.523626948783" lat="33.065994105137"/><trkpt lon="35.525085919472" lat="33.064964159845"/><trkpt lon="35.526502039879" lat="33.06288218255"/><trkpt lon="35.528625965254" lat="33.060522217124"/><trkpt lon="35.529505947541" lat="33.060049935703"/><trkpt lon="35.530685928662" lat="33.059856942215"/><trkpt lon="35.533024982476" lat="33.05889109597"/><trkpt lon="35.534376918933" lat="33.056273272213"/><trkpt lon="35.534548945148" lat="33.055522183682"/><trkpt lon="35.535470926721" lat="33.055028897999"/><trkpt lon="35.536394023853" lat="33.054256087362"/><trkpt lon="35.538111027808" lat="33.053999040613"/><trkpt lon="35.538733000309" lat="33.05359106383"/><trkpt lon="35.539526933702" lat="33.053312235987"/><trkpt lon="35.539956003517" lat="33.052948163657"/><trkpt lon="35.540621021946" lat="33.05268996295"/><trkpt lon="35.541201031004" lat="33.052690088966"/><trkpt lon="35.541843957345" lat="33.052474770333"/><trkpt lon="35.542530985983" lat="33.052024896757"/><trkpt lon="35.541995010218" lat="33.050629899247"/><trkpt lon="35.540686062632" lat="33.048763048752"/><trkpt lon="35.540663985868" lat="33.047883987275"/><trkpt lon="35.540985988263" lat="33.047174750226"/><trkpt lon="35.541350953777" lat="33.046810845803"/><trkpt lon="35.543281997426" lat="33.042948188651"/><trkpt lon="35.543475006797" lat="33.042067979022"/><trkpt lon="35.544290944414" lat="33.041103233255"/><trkpt lon="35.545749995251" lat="33.040566141534"/><trkpt lon="35.54596394491" lat="33.040351974484"/><trkpt lon="35.549246968507" lat="33.038592026093"/><trkpt lon="35.551585992449" lat="33.036747272832"/><trkpt lon="35.552422970514" lat="33.036446828591"/><trkpt lon="35.551521932443" lat="33.03683310912"/><trkpt lon="35.551049918129" lat="33.037218755526"/><trkpt lon="35.551564918131" lat="33.036790160499"/><trkpt lon="35.552315923178" lat="33.036447127115"/><trkpt lon="35.56958897143" lat="33.029580065312"/><trkpt lon="35.571069967005" lat="33.029902012192"/><trkpt lon="35.571712987029" lat="33.030331229229"/><trkpt lon="35.572422034708" lat="33.030267150763"/><trkpt lon="35.572700968424" lat="33.027241244754"/><trkpt lon="35.571841945278" lat="33.022392257307"/><trkpt lon="35.571884982026" lat="33.022285057866"/><trkpt lon="35.5719710737" lat="33.022478098788"/><trkpt lon="35.571949051428" lat="33.022369963839"/><trkpt lon="35.572250025047" lat="33.022156058738"/><trkpt lon="35.572914978204" lat="33.021920227706"/><trkpt lon="35.573064986784" lat="33.021919784682"/><trkpt lon="35.573021976004" lat="33.022113206174"/><trkpt lon="35.573130073853" lat="33.022048079675"/></trkseg></trk></gpx>
