<?xml version="1.0" encoding="utf-8"?>
<gpx version="1.1" creator="IsraelHikingMap_single_track" xmlns="http://www.topografix.com/GPX/1/1">
	<metadata>
		<bounds minlat="33.008266" minlon="35.197843" maxlat="33.01565" maxlon="35.212716" />
	</metadata>
	<trk>
		<name>מסלול 1</name>
		<desc />
		<extensions>
			<Color xmlns="">#0000FF</Color>
			<Opacity xmlns="">0.4</Opacity>
			<Weight xmlns="">9</Weight>
		</extensions>
		<trkseg>
			<trkpt lat="33.00826720283057" lon="35.21263412107302">
				<ele>320.2766440773291</ele>
			</trkpt>
			<trkpt lat="33.008266" lon="35.212632">
				<ele>323</ele>
			</trkpt>
			<trkpt lat="33.008442" lon="35.212501">
				<ele>321</ele>
			</trkpt>
			<trkpt lat="33.008541" lon="35.212487">
				<ele>316.5</ele>
			</trkpt>
			<trkpt lat="33.008838" lon="35.212447">
				<ele>316.5</ele>
			</trkpt>
			<trkpt lat="33.008857" lon="35.212444">
				<ele>312</ele>
			</trkpt>
			<trkpt lat="33.00906" lon="35.212709">
				<ele>310</ele>
			</trkpt>
			<trkpt lat="33.009058" lon="35.212716">
				<ele>314.5</ele>
			</trkpt>
			<trkpt lat="33.00906" lon="35.212709">
				<ele>310</ele>
			</trkpt>
			<trkpt lat="33.009218" lon="35.212594">
				<ele>302</ele>
			</trkpt>
			<trkpt lat="33.009318" lon="35.212035">
				<ele>299</ele>
			</trkpt>
			<trkpt lat="33.009379" lon="35.211446">
				<ele>295.5</ele>
			</trkpt>
			<trkpt lat="33.009382" lon="35.211087">
				<ele>288</ele>
			</trkpt>
			<trkpt lat="33.009414" lon="35.210967">
				<ele>286</ele>
			</trkpt>
			<trkpt lat="33.009395" lon="35.210905">
				<ele>286</ele>
			</trkpt>
			<trkpt lat="33.009459" lon="35.210627">
				<ele>282</ele>
			</trkpt>
			<trkpt lat="33.009403" lon="35.210587">
				<ele>283</ele>
			</trkpt>
			<trkpt lat="33.009417" lon="35.21032">
				<ele>281.5</ele>
			</trkpt>
			<trkpt lat="33.009422" lon="35.210234">
				<ele>280</ele>
			</trkpt>
			<trkpt lat="33.009497" lon="35.210051">
				<ele>277</ele>
			</trkpt>
			<trkpt lat="33.009516" lon="35.20995">
				<ele>277</ele>
			</trkpt>
			<trkpt lat="33.00951" lon="35.209687">
				<ele>277</ele>
			</trkpt>
			<trkpt lat="33.009521" lon="35.209643">
				<ele>275.5</ele>
			</trkpt>
			<trkpt lat="33.009687" lon="35.209082">
				<ele>267.5</ele>
			</trkpt>
			<trkpt lat="33.009722" lon="35.208901">
				<ele>266</ele>
			</trkpt>
			<trkpt lat="33.009748" lon="35.208849">
				<ele>263</ele>
			</trkpt>
			<trkpt lat="33.009939" lon="35.208476">
				<ele>258.5</ele>
			</trkpt>
			<trkpt lat="33.010065" lon="35.208078">
				<ele>258.5</ele>
			</trkpt>
			<trkpt lat="33.010107" lon="35.207945">
				<ele>257</ele>
			</trkpt>
			<trkpt lat="33.010127" lon="35.207772">
				<ele>256</ele>
			</trkpt>
			<trkpt lat="33.010145" lon="35.207626">
				<ele>255</ele>
			</trkpt>
			<trkpt lat="33.010126" lon="35.20753">
				<ele>255</ele>
			</trkpt>
			<trkpt lat="33.010088" lon="35.207508">
				<ele>255</ele>
			</trkpt>
			<trkpt lat="33.010137" lon="35.207391">
				<ele>254</ele>
			</trkpt>
			<trkpt lat="33.010253" lon="35.206898">
				<ele>248</ele>
			</trkpt>
			<trkpt lat="33.010256" lon="35.206872">
				<ele>247</ele>
			</trkpt>
			<trkpt lat="33.010253" lon="35.206898">
				<ele>248</ele>
			</trkpt>
			<trkpt lat="33.009634" lon="35.206238">
				<ele>250.5</ele>
			</trkpt>
			<trkpt lat="33.009452" lon="35.206045">
				<ele>253</ele>
			</trkpt>
			<trkpt lat="33.009407" lon="35.205946">
				<ele>252.5</ele>
			</trkpt>
			<trkpt lat="33.009357" lon="35.205562">
				<ele>250</ele>
			</trkpt>
			<trkpt lat="33.009353" lon="35.205422">
				<ele>249.5</ele>
			</trkpt>
			<trkpt lat="33.009336" lon="35.204943">
				<ele>249.5</ele>
			</trkpt>
			<trkpt lat="33.009299" lon="35.204731">
				<ele>248</ele>
			</trkpt>
			<trkpt lat="33.009303" lon="35.204569">
				<ele>248</ele>
			</trkpt>
			<trkpt lat="33.009306" lon="35.204477">
				<ele>248</ele>
			</trkpt>
			<trkpt lat="33.009342" lon="35.204314">
				<ele>245</ele>
			</trkpt>
			<trkpt lat="33.009426" lon="35.20408">
				<ele>243.5</ele>
			</trkpt>
			<trkpt lat="33.009515" lon="35.20386">
				<ele>242</ele>
			</trkpt>
			<trkpt lat="33.009521" lon="35.203816">
				<ele>240.5</ele>
			</trkpt>
			<trkpt lat="33.009562" lon="35.203507">
				<ele>240.5</ele>
			</trkpt>
			<trkpt lat="33.009837" lon="35.20289">
				<ele>238</ele>
			</trkpt>
			<trkpt lat="33.010008" lon="35.20254">
				<ele>236</ele>
			</trkpt>
			<trkpt lat="33.010123" lon="35.202395">
				<ele>233</ele>
			</trkpt>
			<trkpt lat="33.010236" lon="35.202195">
				<ele>232</ele>
			</trkpt>
			<trkpt lat="33.010335" lon="35.201958">
				<ele>232</ele>
			</trkpt>
			<trkpt lat="33.010368" lon="35.201878">
				<ele>231</ele>
			</trkpt>
			<trkpt lat="33.010503" lon="35.201697">
				<ele>231</ele>
			</trkpt>
			<trkpt lat="33.010565" lon="35.201648">
				<ele>229.5</ele>
			</trkpt>
			<trkpt lat="33.010625" lon="35.201601">
				<ele>228</ele>
			</trkpt>
			<trkpt lat="33.010668" lon="35.201532">
				<ele>228</ele>
			</trkpt>
			<trkpt lat="33.010789" lon="35.201476">
				<ele>225</ele>
			</trkpt>
			<trkpt lat="33.010815" lon="35.201481">
				<ele>225</ele>
			</trkpt>
			<trkpt lat="33.010815" lon="35.20148">
				<ele>225</ele>
			</trkpt>
			<trkpt lat="33.010945" lon="35.201546">
				<ele>224</ele>
			</trkpt>
			<trkpt lat="33.010968" lon="35.201524">
				<ele>224.5</ele>
			</trkpt>
			<trkpt lat="33.011249" lon="35.20126">
				<ele>224.5</ele>
			</trkpt>
			<trkpt lat="33.01127" lon="35.20124">
				<ele>225</ele>
			</trkpt>
			<trkpt lat="33.011524" lon="35.200645">
				<ele>224</ele>
			</trkpt>
			<trkpt lat="33.011705" lon="35.200347">
				<ele>224</ele>
			</trkpt>
			<trkpt lat="33.011786" lon="35.200251">
				<ele>224</ele>
			</trkpt>
			<trkpt lat="33.01191" lon="35.200104">
				<ele>224</ele>
			</trkpt>
			<trkpt lat="33.012088" lon="35.199726">
				<ele>222</ele>
			</trkpt>
			<trkpt lat="33.012333" lon="35.199106">
				<ele>221.5</ele>
			</trkpt>
			<trkpt lat="33.01238" lon="35.198863">
				<ele>219.5</ele>
			</trkpt>
			<trkpt lat="33.012587" lon="35.198491">
				<ele>219</ele>
			</trkpt>
			<trkpt lat="33.01268" lon="35.198286">
				<ele>219</ele>
			</trkpt>
			<trkpt lat="33.012693" lon="35.198197">
				<ele>217.5</ele>
			</trkpt>
			<trkpt lat="33.012731" lon="35.197923">
				<ele>216</ele>
			</trkpt>
			<trkpt lat="33.012746" lon="35.197914">
				<ele>216</ele>
			</trkpt>
			<trkpt lat="33.012863" lon="35.197843">
				<ele>216</ele>
			</trkpt>
			<trkpt lat="33.013022" lon="35.198068">
				<ele>219</ele>
			</trkpt>
			<trkpt lat="33.013058" lon="35.198091">
				<ele>218</ele>
			</trkpt>
			<trkpt lat="33.013157" lon="35.198152">
				<ele>217</ele>
			</trkpt>
			<trkpt lat="33.013309" lon="35.198328">
				<ele>218.5</ele>
			</trkpt>
			<trkpt lat="33.013339" lon="35.198363">
				<ele>220</ele>
			</trkpt>
			<trkpt lat="33.01363" lon="35.198488">
				<ele>219</ele>
			</trkpt>
			<trkpt lat="33.013896" lon="35.198528">
				<ele>219.5</ele>
			</trkpt>
			<trkpt lat="33.014333" lon="35.198846">
				<ele>219.5</ele>
			</trkpt>
			<trkpt lat="33.014471" lon="35.199214">
				<ele>222.5</ele>
			</trkpt>
			<trkpt lat="33.014546" lon="35.199595">
				<ele>224</ele>
			</trkpt>
			<trkpt lat="33.014553" lon="35.199702">
				<ele>222.5</ele>
			</trkpt>
			<trkpt lat="33.014572" lon="35.199991">
				<ele>222</ele>
			</trkpt>
			<trkpt lat="33.014562" lon="35.200207">
				<ele>222</ele>
			</trkpt>
			<trkpt lat="33.014645" lon="35.200473">
				<ele>224.5</ele>
			</trkpt>
			<trkpt lat="33.014768" lon="35.200668">
				<ele>223</ele>
			</trkpt>
			<trkpt lat="33.014823" lon="35.200784">
				<ele>222.5</ele>
			</trkpt>
			<trkpt lat="33.014899" lon="35.200948">
				<ele>222.5</ele>
			</trkpt>
			<trkpt lat="33.014983" lon="35.201402">
				<ele>222</ele>
			</trkpt>
			<trkpt lat="33.015022" lon="35.201783">
				<ele>222</ele>
			</trkpt>
			<trkpt lat="33.01506" lon="35.20216">
				<ele>222</ele>
			</trkpt>
			<trkpt lat="33.015098" lon="35.202518">
				<ele>222</ele>
			</trkpt>
			<trkpt lat="33.015201" lon="35.202795">
				<ele>222</ele>
			</trkpt>
			<trkpt lat="33.015276" lon="35.202995">
				<ele>222</ele>
			</trkpt>
			<trkpt lat="33.015338" lon="35.203136">
				<ele>221.5</ele>
			</trkpt>
			<trkpt lat="33.015397" lon="35.203225">
				<ele>221</ele>
			</trkpt>
			<trkpt lat="33.015491" lon="35.20331">
				<ele>221</ele>
			</trkpt>
			<trkpt lat="33.015503" lon="35.203321">
				<ele>221</ele>
			</trkpt>
			<trkpt lat="33.015645" lon="35.203251">
				<ele>219</ele>
			</trkpt>
			<trkpt lat="33.01565" lon="35.203244">
				<ele>217.5</ele>
			</trkpt>
		</trkseg>
	</trk>
</gpx>