<?xml version="1.0" encoding="UTF-8" standalone="no" ?>
<gpx xmlns="http://www.topografix.com/GPX/1/1" creator="CompeGPS" version="1.1" xmlns:xsi="http://www.w3.org/2001/XMLSchema-instance" xsi:schemaLocation="http://www.topografix.com/GPX/1/1 http://www.topografix.com/GPX/1/1/gpx.xsd http://www.garmin.com/xmlschemas/GpxExtensions/v3 http://www.garmin.com/xmlschemas/GpxExtensionsv3.xsd http://www.garmin.com/xmlschemas/TrackPointExtension/v1 http://www.garmin.com/xmlschemas/TrackPointExtensionv1.xsd" xmlns:gpxtpx="http://www.garmin.com/xmlschemas/TrackPointExtension/v1">
  <metadata>
    <link href="http://www.compegps.com">
      <text>CompeGPS TEAM, SL</text>
    </link>
    <time>2015-09-28T07:53:24Z</time>
    <bounds maxlat="32.670355" maxlon="35.562281" minlat="32.482366" minlon="35.024611"/>
  </metadata>
  <trk>
    <name>גשר עירון</name>
    <trkseg>
      <trkpt lat="32.621112" lon="35.561632">
        <ele>-253.7</ele>
        <time>2015-09-28T07:51:54Z</time>
      </trkpt>
      <trkpt lat="32.620518" lon="35.562281">
        <ele>-254.6</ele>
        <time>2015-09-28T07:52:26Z</time>
      </trkpt>
      <trkpt lat="32.617853" lon="35.559808">
        <ele>-256.6</ele>
        <time>2015-09-28T07:54:41Z</time>
      </trkpt>
      <trkpt lat="32.611540" lon="35.558031">
        <ele>-255.8</ele>
        <time>2015-09-28T07:59:01Z</time>
      </trkpt>
      <trkpt lat="32.608512" lon="35.556866">
        <ele>-255.0</ele>
        <time>2015-09-28T08:01:08Z</time>
      </trkpt>
      <trkpt lat="32.606164" lon="35.553903">
        <ele>-251.9</ele>
        <time>2015-09-28T08:03:26Z</time>
      </trkpt>
      <trkpt lat="32.606646" lon="35.553791">
        <ele>-249.7</ele>
        <time>2015-09-28T08:03:45Z</time>
      </trkpt>
      <trkpt lat="32.606743" lon="35.553110">
        <ele>-248.2</ele>
        <time>2015-09-28T08:04:08Z</time>
      </trkpt>
      <trkpt lat="32.606510" lon="35.550581">
        <ele>-244.7</ele>
        <time>2015-09-28T08:05:34Z</time>
      </trkpt>
      <trkpt lat="32.607098" lon="35.546322">
        <ele>-238.2</ele>
        <time>2015-09-28T08:08:00Z</time>
      </trkpt>
      <trkpt lat="32.608446" lon="35.545844">
        <ele>-226.7</ele>
        <time>2015-09-28T08:08:56Z</time>
      </trkpt>
      <trkpt lat="32.609535" lon="35.546047">
        <ele>-219.3</ele>
        <time>2015-09-28T08:09:40Z</time>
      </trkpt>
      <trkpt lat="32.610004" lon="35.545322">
        <ele>-217.8</ele>
        <time>2015-09-28T08:10:11Z</time>
      </trkpt>
      <trkpt lat="32.610328" lon="35.543796">
        <ele>-218.4</ele>
        <time>2015-09-28T08:11:04Z</time>
      </trkpt>
      <trkpt lat="32.610370" lon="35.542804">
        <ele>-218.6</ele>
        <time>2015-09-28T08:11:38Z</time>
      </trkpt>
      <trkpt lat="32.610654" lon="35.541483">
        <ele>-211.9</ele>
        <time>2015-09-28T08:12:24Z</time>
      </trkpt>
      <trkpt lat="32.611338" lon="35.539848">
        <ele>-213.5</ele>
        <time>2015-09-28T08:13:25Z</time>
      </trkpt>
      <trkpt lat="32.611409" lon="35.537802">
        <ele>-217.7</ele>
        <time>2015-09-28T08:14:34Z</time>
      </trkpt>
      <trkpt lat="32.611720" lon="35.536055">
        <ele>-212.7</ele>
        <time>2015-09-28T08:15:34Z</time>
      </trkpt>
      <trkpt lat="32.612321" lon="35.535837">
        <ele>-210.5</ele>
        <time>2015-09-28T08:15:59Z</time>
      </trkpt>
      <trkpt lat="32.613574" lon="35.535511">
        <ele>-199.8</ele>
        <time>2015-09-28T08:16:51Z</time>
      </trkpt>
      <trkpt lat="32.613443" lon="35.534849">
        <ele>-206.4</ele>
        <time>2015-09-28T08:17:14Z</time>
      </trkpt>
      <trkpt lat="32.613605" lon="35.534094">
        <ele>-202.6</ele>
        <time>2015-09-28T08:17:40Z</time>
      </trkpt>
      <trkpt lat="32.613580" lon="35.533307">
        <ele>-203.9</ele>
        <time>2015-09-28T08:18:07Z</time>
      </trkpt>
      <trkpt lat="32.614047" lon="35.532837">
        <ele>-197.4</ele>
        <time>2015-09-28T08:18:31Z</time>
      </trkpt>
      <trkpt lat="32.614476" lon="35.532020">
        <ele>-198.1</ele>
        <time>2015-09-28T08:19:04Z</time>
      </trkpt>
      <trkpt lat="32.615116" lon="35.531565">
        <ele>-191.9</ele>
        <time>2015-09-28T08:19:33Z</time>
      </trkpt>
      <trkpt lat="32.615632" lon="35.530711">
        <ele>-196.2</ele>
        <time>2015-09-28T08:20:09Z</time>
      </trkpt>
      <trkpt lat="32.616172" lon="35.530357">
        <ele>-193.9</ele>
        <time>2015-09-28T08:20:34Z</time>
      </trkpt>
      <trkpt lat="32.616413" lon="35.529964">
        <ele>-194.1</ele>
        <time>2015-09-28T08:20:50Z</time>
      </trkpt>
      <trkpt lat="32.616294" lon="35.529475">
        <ele>-199.2</ele>
        <time>2015-09-28T08:21:07Z</time>
      </trkpt>
      <trkpt lat="32.616496" lon="35.528579">
        <ele>-191.2</ele>
        <time>2015-09-28T08:21:38Z</time>
      </trkpt>
      <trkpt lat="32.615994" lon="35.527318">
        <ele>-189.7</ele>
        <time>2015-09-28T08:22:25Z</time>
      </trkpt>
      <trkpt lat="32.615903" lon="35.526262">
        <ele>-190.5</ele>
        <time>2015-09-28T08:23:01Z</time>
      </trkpt>
      <trkpt lat="32.615598" lon="35.525506">
        <ele>-188.4</ele>
        <time>2015-09-28T08:23:29Z</time>
      </trkpt>
      <trkpt lat="32.615679" lon="35.525065">
        <ele>-185.5</ele>
        <time>2015-09-28T08:23:45Z</time>
      </trkpt>
      <trkpt lat="32.616720" lon="35.524612">
        <ele>-174.4</ele>
        <time>2015-09-28T08:24:29Z</time>
      </trkpt>
      <trkpt lat="32.617148" lon="35.523857">
        <ele>-174.4</ele>
        <time>2015-09-28T08:25:00Z</time>
      </trkpt>
      <trkpt lat="32.617190" lon="35.522693">
        <ele>-175.8</ele>
        <time>2015-09-28T08:25:39Z</time>
      </trkpt>
      <trkpt lat="32.617300" lon="35.521591">
        <ele>-173.2</ele>
        <time>2015-09-28T08:26:16Z</time>
      </trkpt>
      <trkpt lat="32.617382" lon="35.520930">
        <ele>-171.8</ele>
        <time>2015-09-28T08:26:39Z</time>
      </trkpt>
      <trkpt lat="32.617356" lon="35.520615">
        <ele>-172.0</ele>
        <time>2015-09-28T08:26:50Z</time>
      </trkpt>
      <trkpt lat="32.617544" lon="35.520033">
        <ele>-169.0</ele>
        <time>2015-09-28T08:27:11Z</time>
      </trkpt>
      <trkpt lat="32.617279" lon="35.519308">
        <ele>-169.3</ele>
        <time>2015-09-28T08:27:37Z</time>
      </trkpt>
      <trkpt lat="32.616894" lon="35.518693">
        <ele>-167.8</ele>
        <time>2015-09-28T08:28:03Z</time>
      </trkpt>
      <trkpt lat="32.616936" lon="35.518079">
        <ele>-166.1</ele>
        <time>2015-09-28T08:28:24Z</time>
      </trkpt>
      <trkpt lat="32.617643" lon="35.517389">
        <ele>-160.9</ele>
        <time>2015-09-28T08:29:01Z</time>
      </trkpt>
      <trkpt lat="32.618031" lon="35.516713">
        <ele>-156.4</ele>
        <time>2015-09-28T08:29:28Z</time>
      </trkpt>
      <trkpt lat="32.618289" lon="35.515076">
        <ele>-158.2</ele>
        <time>2015-09-28T08:30:24Z</time>
      </trkpt>
      <trkpt lat="32.617972" lon="35.513942">
        <ele>-157.8</ele>
        <time>2015-09-28T08:31:05Z</time>
      </trkpt>
      <trkpt lat="32.619013" lon="35.513205">
        <ele>-154.0</ele>
        <time>2015-09-28T08:31:53Z</time>
      </trkpt>
      <trkpt lat="32.618909" lon="35.511693">
        <ele>-152.8</ele>
        <time>2015-09-28T08:32:44Z</time>
      </trkpt>
      <trkpt lat="32.619085" lon="35.510702">
        <ele>-151.0</ele>
        <time>2015-09-28T08:33:18Z</time>
      </trkpt>
      <trkpt lat="32.619113" lon="35.510293">
        <ele>-150.0</ele>
        <time>2015-09-28T08:33:32Z</time>
      </trkpt>
      <trkpt lat="32.619367" lon="35.509711">
        <ele>-148.7</ele>
        <time>2015-09-28T08:33:54Z</time>
      </trkpt>
      <trkpt lat="32.619395" lon="35.509129">
        <ele>-147.0</ele>
        <time>2015-09-28T08:34:14Z</time>
      </trkpt>
      <trkpt lat="32.619745" lon="35.507571">
        <ele>-143.3</ele>
        <time>2015-09-28T08:35:08Z</time>
      </trkpt>
      <trkpt lat="32.620053" lon="35.507021">
        <ele>-140.4</ele>
        <time>2015-09-28T08:35:31Z</time>
      </trkpt>
      <trkpt lat="32.620149" lon="35.505951">
        <ele>-139.9</ele>
        <time>2015-09-28T08:36:07Z</time>
      </trkpt>
      <trkpt lat="32.620551" lon="35.505134">
        <ele>-136.6</ele>
        <time>2015-09-28T08:36:39Z</time>
      </trkpt>
      <trkpt lat="32.621099" lon="35.504159">
        <ele>-135.3</ele>
        <time>2015-09-28T08:37:18Z</time>
      </trkpt>
      <trkpt lat="32.621168" lon="35.503262">
        <ele>-134.3</ele>
        <time>2015-09-28T08:37:49Z</time>
      </trkpt>
      <trkpt lat="32.621809" lon="35.502508">
        <ele>-131.4</ele>
        <time>2015-09-28T08:38:25Z</time>
      </trkpt>
      <trkpt lat="32.622171" lon="35.501801">
        <ele>-133.7</ele>
        <time>2015-09-28T08:38:53Z</time>
      </trkpt>
      <trkpt lat="32.623278" lon="35.501002">
        <ele>-132.3</ele>
        <time>2015-09-28T08:39:45Z</time>
      </trkpt>
      <trkpt lat="32.623507" lon="35.499979">
        <ele>-126.7</ele>
        <time>2015-09-28T08:40:20Z</time>
      </trkpt>
      <trkpt lat="32.623441" lon="35.499837">
        <ele>-122.4</ele>
        <time>2015-09-28T08:40:26Z</time>
      </trkpt>
      <trkpt lat="32.623819" lon="35.499333">
        <ele>-83.9</ele>
        <time>2015-09-28T08:40:48Z</time>
      </trkpt>
      <trkpt lat="32.623806" lon="35.497539">
        <ele>-14.2</ele>
        <time>2015-09-28T08:41:49Z</time>
      </trkpt>
      <trkpt lat="32.623847" lon="35.497145">
        <ele>-7.1</ele>
        <time>2015-09-28T08:42:02Z</time>
      </trkpt>
      <trkpt lat="32.625712" lon="35.497073">
        <ele>-8.9</ele>
        <time>2015-09-28T08:43:17Z</time>
      </trkpt>
      <trkpt lat="32.626154" lon="35.496571">
        <ele>-3.3</ele>
        <time>2015-09-28T08:43:42Z</time>
      </trkpt>
      <trkpt lat="32.627182" lon="35.495471">
        <ele>3.5</ele>
        <time>2015-09-28T08:44:37Z</time>
      </trkpt>
      <trkpt lat="32.627584" lon="35.494543">
        <ele>4.0</ele>
        <time>2015-09-28T08:45:12Z</time>
      </trkpt>
      <trkpt lat="32.628038" lon="35.494010">
        <ele>4.0</ele>
        <time>2015-09-28T08:45:38Z</time>
      </trkpt>
      <trkpt lat="32.627401" lon="35.493015">
        <ele>4.0</ele>
        <time>2015-09-28T08:46:20Z</time>
      </trkpt>
      <trkpt lat="32.627188" lon="35.492700">
        <ele>4.0</ele>
        <time>2015-09-28T08:46:33Z</time>
      </trkpt>
      <trkpt lat="32.626789" lon="35.492573">
        <ele>4.0</ele>
        <time>2015-09-28T08:46:50Z</time>
      </trkpt>
      <trkpt lat="32.627110" lon="35.491960">
        <ele>4.0</ele>
        <time>2015-09-28T08:47:14Z</time>
      </trkpt>
      <trkpt lat="32.626938" lon="35.491330">
        <ele>4.0</ele>
        <time>2015-09-28T08:47:37Z</time>
      </trkpt>
      <trkpt lat="32.625979" lon="35.490964">
        <ele>4.0</ele>
        <time>2015-09-28T08:48:17Z</time>
      </trkpt>
      <trkpt lat="32.625140" lon="35.490915">
        <ele>4.0</ele>
        <time>2015-09-28T08:48:51Z</time>
      </trkpt>
      <trkpt lat="32.625048" lon="35.490331">
        <ele>4.0</ele>
        <time>2015-09-28T08:49:11Z</time>
      </trkpt>
      <trkpt lat="32.624877" lon="35.489355">
        <ele>4.0</ele>
        <time>2015-09-28T08:49:44Z</time>
      </trkpt>
      <trkpt lat="32.624971" lon="35.488836">
        <ele>4.0</ele>
        <time>2015-09-28T08:50:02Z</time>
      </trkpt>
      <trkpt lat="32.624693" lon="35.488268">
        <ele>4.0</ele>
        <time>2015-09-28T08:50:24Z</time>
      </trkpt>
      <trkpt lat="32.624868" lon="35.487434">
        <ele>4.0</ele>
        <time>2015-09-28T08:50:53Z</time>
      </trkpt>
      <trkpt lat="32.624722" lon="35.486961">
        <ele>4.0</ele>
        <time>2015-09-28T08:51:10Z</time>
      </trkpt>
      <trkpt lat="32.625017" lon="35.486379">
        <ele>4.0</ele>
        <time>2015-09-28T08:51:33Z</time>
      </trkpt>
      <trkpt lat="32.625049" lon="35.483592">
        <ele>5.7</ele>
        <time>2015-09-28T08:53:07Z</time>
      </trkpt>
      <trkpt lat="32.625770" lon="35.483059">
        <ele>6.4</ele>
        <time>2015-09-28T08:53:41Z</time>
      </trkpt>
      <trkpt lat="32.626626" lon="35.481645">
        <ele>7.9</ele>
        <time>2015-09-28T08:54:40Z</time>
      </trkpt>
      <trkpt lat="32.627851" lon="35.481932">
        <ele>6.1</ele>
        <time>2015-09-28T08:55:30Z</time>
      </trkpt>
      <trkpt lat="32.628452" lon="35.481367">
        <ele>6.6</ele>
        <time>2015-09-28T08:56:00Z</time>
      </trkpt>
      <trkpt lat="32.628961" lon="35.479999">
        <ele>8.1</ele>
        <time>2015-09-28T08:56:51Z</time>
      </trkpt>
      <trkpt lat="32.629601" lon="35.478891">
        <ele>9.5</ele>
        <time>2015-09-28T08:57:36Z</time>
      </trkpt>
      <trkpt lat="32.630685" lon="35.477988">
        <ele>9.8</ele>
        <time>2015-09-28T08:58:29Z</time>
      </trkpt>
      <trkpt lat="32.631460" lon="35.476920">
        <ele>10.0</ele>
        <time>2015-09-28T08:59:17Z</time>
      </trkpt>
      <trkpt lat="32.632473" lon="35.476356">
        <ele>9.4</ele>
        <time>2015-09-28T09:00:01Z</time>
      </trkpt>
      <trkpt lat="32.632793" lon="35.476309">
        <ele>9.1</ele>
        <time>2015-09-28T09:00:14Z</time>
      </trkpt>
      <trkpt lat="32.633115" lon="35.475460">
        <ele>9.0</ele>
        <time>2015-09-28T09:00:46Z</time>
      </trkpt>
      <trkpt lat="32.633689" lon="35.474674">
        <ele>9.0</ele>
        <time>2015-09-28T09:01:21Z</time>
      </trkpt>
      <trkpt lat="32.634396" lon="35.474377">
        <ele>9.0</ele>
        <time>2015-09-28T09:01:51Z</time>
      </trkpt>
      <trkpt lat="32.634837" lon="35.473638">
        <ele>9.0</ele>
        <time>2015-09-28T09:02:21Z</time>
      </trkpt>
      <trkpt lat="32.635278" lon="35.473246">
        <ele>9.0</ele>
        <time>2015-09-28T09:02:43Z</time>
      </trkpt>
      <trkpt lat="32.635800" lon="35.471925">
        <ele>9.2</ele>
        <time>2015-09-28T09:03:33Z</time>
      </trkpt>
      <trkpt lat="32.636576" lon="35.470746">
        <ele>8.0</ele>
        <time>2015-09-28T09:04:23Z</time>
      </trkpt>
      <trkpt lat="32.637232" lon="35.469205">
        <ele>8.0</ele>
        <time>2015-09-28T09:05:21Z</time>
      </trkpt>
      <trkpt lat="32.637776" lon="35.470198">
        <ele>9.0</ele>
        <time>2015-09-28T09:06:01Z</time>
      </trkpt>
      <trkpt lat="32.638349" lon="35.469917">
        <ele>9.0</ele>
        <time>2015-09-28T09:06:26Z</time>
      </trkpt>
      <trkpt lat="32.639258" lon="35.468565">
        <ele>7.9</ele>
        <time>2015-09-28T09:07:24Z</time>
      </trkpt>
      <trkpt lat="32.639699" lon="35.468204">
        <ele>8.0</ele>
        <time>2015-09-28T09:07:46Z</time>
      </trkpt>
      <trkpt lat="32.640725" lon="35.468096">
        <ele>8.0</ele>
        <time>2015-09-28T09:08:27Z</time>
      </trkpt>
      <trkpt lat="32.641712" lon="35.467532">
        <ele>7.9</ele>
        <time>2015-09-28T09:09:11Z</time>
      </trkpt>
      <trkpt lat="32.641089" lon="35.466208">
        <ele>4.9</ele>
        <time>2015-09-28T09:10:02Z</time>
      </trkpt>
      <trkpt lat="32.641317" lon="35.465374">
        <ele>5.9</ele>
        <time>2015-09-28T09:10:32Z</time>
      </trkpt>
      <trkpt lat="32.642009" lon="35.465454">
        <ele>13.6</ele>
        <time>2015-09-28T09:10:59Z</time>
      </trkpt>
      <trkpt lat="32.642355" lon="35.465403">
        <ele>19.1</ele>
        <time>2015-09-28T09:11:13Z</time>
      </trkpt>
      <trkpt lat="32.642571" lon="35.464542">
        <ele>28.2</ele>
        <time>2015-09-28T09:11:44Z</time>
      </trkpt>
      <trkpt lat="32.643027" lon="35.463643">
        <ele>38.1</ele>
        <time>2015-09-28T09:12:19Z</time>
      </trkpt>
      <trkpt lat="32.643811" lon="35.463948">
        <ele>44.9</ele>
        <time>2015-09-28T09:12:52Z</time>
      </trkpt>
      <trkpt lat="32.644132" lon="35.463256">
        <ele>54.9</ele>
        <time>2015-09-28T09:13:19Z</time>
      </trkpt>
      <trkpt lat="32.644308" lon="35.462059">
        <ele>73.3</ele>
        <time>2015-09-28T09:14:00Z</time>
      </trkpt>
      <trkpt lat="32.644259" lon="35.459870">
        <ele>84.0</ele>
        <time>2015-09-28T09:15:13Z</time>
      </trkpt>
      <trkpt lat="32.644234" lon="35.459114">
        <ele>86.1</ele>
        <time>2015-09-28T09:15:39Z</time>
      </trkpt>
      <trkpt lat="32.643968" lon="35.458303">
        <ele>86.1</ele>
        <time>2015-09-28T09:16:08Z</time>
      </trkpt>
      <trkpt lat="32.643930" lon="35.457979">
        <ele>88.8</ele>
        <time>2015-09-28T09:16:19Z</time>
      </trkpt>
      <trkpt lat="32.643038" lon="35.457520">
        <ele>82.6</ele>
        <time>2015-09-28T09:16:58Z</time>
      </trkpt>
      <trkpt lat="32.642772" lon="35.456968">
        <ele>85.2</ele>
        <time>2015-09-28T09:17:20Z</time>
      </trkpt>
      <trkpt lat="32.643056" lon="35.454811">
        <ele>101.0</ele>
        <time>2015-09-28T09:18:33Z</time>
      </trkpt>
      <trkpt lat="32.642857" lon="35.452789">
        <ele>99.2</ele>
        <time>2015-09-28T09:19:42Z</time>
      </trkpt>
      <trkpt lat="32.644057" lon="35.454042">
        <ele>107.1</ele>
        <time>2015-09-28T09:20:46Z</time>
      </trkpt>
      <trkpt lat="32.647311" lon="35.456469">
        <ele>109.4</ele>
        <time>2015-09-28T09:23:20Z</time>
      </trkpt>
      <trkpt lat="32.647812" lon="35.455202">
        <ele>99.1</ele>
        <time>2015-09-28T09:24:07Z</time>
      </trkpt>
      <trkpt lat="32.650135" lon="35.453786">
        <ele>61.0</ele>
        <time>2015-09-28T09:25:51Z</time>
      </trkpt>
      <trkpt lat="32.650976" lon="35.452580">
        <ele>52.6</ele>
        <time>2015-09-28T09:26:44Z</time>
      </trkpt>
      <trkpt lat="32.653471" lon="35.450461">
        <ele>18.2</ele>
        <time>2015-09-28T09:28:47Z</time>
      </trkpt>
      <trkpt lat="32.653792" lon="35.449227">
        <ele>10.3</ele>
        <time>2015-09-28T09:29:30Z</time>
      </trkpt>
      <trkpt lat="32.654314" lon="35.448589">
        <ele>7.0</ele>
        <time>2015-09-28T09:30:00Z</time>
      </trkpt>
      <trkpt lat="32.655057" lon="35.448675">
        <ele>6.0</ele>
        <time>2015-09-28T09:30:30Z</time>
      </trkpt>
      <trkpt lat="32.656569" lon="35.446736">
        <ele>12.4</ele>
        <time>2015-09-28T09:31:59Z</time>
      </trkpt>
      <trkpt lat="32.656825" lon="35.446182">
        <ele>14.0</ele>
        <time>2015-09-28T09:32:21Z</time>
      </trkpt>
      <trkpt lat="32.656920" lon="35.444721">
        <ele>9.8</ele>
        <time>2015-09-28T09:33:10Z</time>
      </trkpt>
      <trkpt lat="32.657383" lon="35.443265">
        <ele>11.2</ele>
        <time>2015-09-28T09:34:03Z</time>
      </trkpt>
      <trkpt lat="32.657764" lon="35.442329">
        <ele>12.8</ele>
        <time>2015-09-28T09:34:38Z</time>
      </trkpt>
      <trkpt lat="32.658552" lon="35.441133">
        <ele>15.2</ele>
        <time>2015-09-28T09:35:29Z</time>
      </trkpt>
      <trkpt lat="32.659471" lon="35.440351">
        <ele>16.5</ele>
        <time>2015-09-28T09:36:14Z</time>
      </trkpt>
      <trkpt lat="32.661094" lon="35.439223">
        <ele>14.5</ele>
        <time>2015-09-28T09:37:29Z</time>
      </trkpt>
      <trkpt lat="32.664016" lon="35.433371">
        <ele>18.0</ele>
        <time>2015-09-28T09:41:19Z</time>
      </trkpt>
      <trkpt lat="32.663394" lon="35.430778">
        <ele>17.7</ele>
        <time>2015-09-28T09:42:49Z</time>
      </trkpt>
      <trkpt lat="32.663058" lon="35.430461">
        <ele>16.5</ele>
        <time>2015-09-28T09:43:07Z</time>
      </trkpt>
      <trkpt lat="32.663697" lon="35.429209">
        <ele>17.8</ele>
        <time>2015-09-28T09:43:56Z</time>
      </trkpt>
      <trkpt lat="32.665677" lon="35.428567">
        <ele>24.6</ele>
        <time>2015-09-28T09:45:18Z</time>
      </trkpt>
      <trkpt lat="32.666086" lon="35.427523">
        <ele>23.1</ele>
        <time>2015-09-28T09:45:57Z</time>
      </trkpt>
      <trkpt lat="32.665965" lon="35.425934">
        <ele>19.9</ele>
        <time>2015-09-28T09:46:51Z</time>
      </trkpt>
      <trkpt lat="32.666905" lon="35.423848">
        <ele>25.1</ele>
        <time>2015-09-28T09:48:10Z</time>
      </trkpt>
      <trkpt lat="32.667491" lon="35.422261">
        <ele>26.2</ele>
        <time>2015-09-28T09:49:09Z</time>
      </trkpt>
      <trkpt lat="32.668590" lon="35.420258">
        <ele>30.0</ele>
        <time>2015-09-28T09:50:29Z</time>
      </trkpt>
      <trkpt lat="32.669069" lon="35.418901">
        <ele>30.2</ele>
        <time>2015-09-28T09:51:19Z</time>
      </trkpt>
      <trkpt lat="32.668751" lon="35.418649">
        <ele>29.0</ele>
        <time>2015-09-28T09:51:34Z</time>
      </trkpt>
      <trkpt lat="32.669815" lon="35.416729">
        <ele>32.9</ele>
        <time>2015-09-28T09:52:52Z</time>
      </trkpt>
      <trkpt lat="32.670200" lon="35.414990">
        <ele>35.2</ele>
        <time>2015-09-28T09:53:52Z</time>
      </trkpt>
      <trkpt lat="32.670355" lon="35.413647">
        <ele>37.6</ele>
        <time>2015-09-28T09:54:38Z</time>
      </trkpt>
      <trkpt lat="32.669785" lon="35.412231">
        <ele>45.9</ele>
        <time>2015-09-28T09:55:31Z</time>
      </trkpt>
      <trkpt lat="32.669743" lon="35.411716">
        <ele>49.6</ele>
        <time>2015-09-28T09:55:48Z</time>
      </trkpt>
      <trkpt lat="32.669925" lon="35.410343">
        <ele>51.0</ele>
        <time>2015-09-28T09:56:35Z</time>
      </trkpt>
      <trkpt lat="32.669832" lon="35.409342">
        <ele>50.1</ele>
        <time>2015-09-28T09:57:09Z</time>
      </trkpt>
      <trkpt lat="32.669091" lon="35.408088">
        <ele>52.5</ele>
        <time>2015-09-28T09:58:01Z</time>
      </trkpt>
      <trkpt lat="32.668221" lon="35.407096">
        <ele>56.8</ele>
        <time>2015-09-28T09:58:49Z</time>
      </trkpt>
      <trkpt lat="32.666966" lon="35.406467">
        <ele>60.7</ele>
        <time>2015-09-28T09:59:43Z</time>
      </trkpt>
      <trkpt lat="32.665873" lon="35.406021">
        <ele>61.2</ele>
        <time>2015-09-28T10:00:30Z</time>
      </trkpt>
      <trkpt lat="32.665514" lon="35.405919">
        <ele>61.5</ele>
        <time>2015-09-28T10:00:45Z</time>
      </trkpt>
      <trkpt lat="32.665490" lon="35.405472">
        <ele>59.9</ele>
        <time>2015-09-28T10:01:00Z</time>
      </trkpt>
      <trkpt lat="32.664535" lon="35.404637">
        <ele>64.5</ele>
        <time>2015-09-28T10:01:47Z</time>
      </trkpt>
      <trkpt lat="32.664753" lon="35.403708">
        <ele>64.3</ele>
        <time>2015-09-28T10:02:20Z</time>
      </trkpt>
      <trkpt lat="32.664722" lon="35.402872">
        <ele>66.0</ele>
        <time>2015-09-28T10:02:48Z</time>
      </trkpt>
      <trkpt lat="32.663801" lon="35.401263">
        <ele>64.9</ele>
        <time>2015-09-28T10:03:53Z</time>
      </trkpt>
      <trkpt lat="32.664056" lon="35.399339">
        <ele>63.7</ele>
        <time>2015-09-28T10:04:59Z</time>
      </trkpt>
      <trkpt lat="32.663837" lon="35.398042">
        <ele>67.7</ele>
        <time>2015-09-28T10:05:44Z</time>
      </trkpt>
      <trkpt lat="32.663469" lon="35.396789">
        <ele>65.0</ele>
        <time>2015-09-28T10:06:28Z</time>
      </trkpt>
      <trkpt lat="32.662788" lon="35.396206">
        <ele>70.9</ele>
        <time>2015-09-28T10:07:02Z</time>
      </trkpt>
      <trkpt lat="32.661780" lon="35.395727">
        <ele>76.2</ele>
        <time>2015-09-28T10:07:45Z</time>
      </trkpt>
      <trkpt lat="32.661312" lon="35.395952">
        <ele>79.6</ele>
        <time>2015-09-28T10:08:06Z</time>
      </trkpt>
      <trkpt lat="32.660707" lon="35.395373">
        <ele>76.8</ele>
        <time>2015-09-28T10:08:37Z</time>
      </trkpt>
      <trkpt lat="32.659783" lon="35.395170">
        <ele>79.4</ele>
        <time>2015-09-28T10:09:14Z</time>
      </trkpt>
      <trkpt lat="32.659391" lon="35.394868">
        <ele>79.7</ele>
        <time>2015-09-28T10:09:33Z</time>
      </trkpt>
      <trkpt lat="32.659147" lon="35.394139">
        <ele>79.2</ele>
        <time>2015-09-28T10:09:59Z</time>
      </trkpt>
      <trkpt lat="32.659106" lon="35.393506">
        <ele>79.2</ele>
        <time>2015-09-28T10:10:21Z</time>
      </trkpt>
      <trkpt lat="32.658947" lon="35.392694">
        <ele>79.8</ele>
        <time>2015-09-28T10:10:49Z</time>
      </trkpt>
      <trkpt lat="32.658694" lon="35.392474">
        <ele>80.8</ele>
        <time>2015-09-28T10:11:01Z</time>
      </trkpt>
      <trkpt lat="32.656983" lon="35.391623">
        <ele>85.9</ele>
        <time>2015-09-28T10:12:16Z</time>
      </trkpt>
      <trkpt lat="32.655744" lon="35.391911">
        <ele>81.3</ele>
        <time>2015-09-28T10:13:06Z</time>
      </trkpt>
      <trkpt lat="32.655622" lon="35.390061">
        <ele>85.3</ele>
        <time>2015-09-28T10:14:09Z</time>
      </trkpt>
      <trkpt lat="32.655383" lon="35.389070">
        <ele>86.9</ele>
        <time>2015-09-28T10:14:44Z</time>
      </trkpt>
      <trkpt lat="32.655078" lon="35.388509">
        <ele>87.2</ele>
        <time>2015-09-28T10:15:06Z</time>
      </trkpt>
      <trkpt lat="32.654134" lon="35.385778">
        <ele>88.6</ele>
        <time>2015-09-28T10:16:46Z</time>
      </trkpt>
      <trkpt lat="32.653943" lon="35.385476">
        <ele>88.2</ele>
        <time>2015-09-28T10:16:58Z</time>
      </trkpt>
      <trkpt lat="32.654028" lon="35.385024">
        <ele>89.4</ele>
        <time>2015-09-28T10:17:14Z</time>
      </trkpt>
      <trkpt lat="32.653616" lon="35.383591">
        <ele>92.5</ele>
        <time>2015-09-28T10:18:05Z</time>
      </trkpt>
      <trkpt lat="32.652035" lon="35.379414">
        <ele>100.0</ele>
        <time>2015-09-28T10:20:39Z</time>
      </trkpt>
      <trkpt lat="32.651925" lon="35.378939">
        <ele>102.1</ele>
        <time>2015-09-28T10:20:56Z</time>
      </trkpt>
      <trkpt lat="32.654101" lon="35.378343">
        <ele>101.6</ele>
        <time>2015-09-28T10:22:25Z</time>
      </trkpt>
      <trkpt lat="32.654354" lon="35.378034">
        <ele>99.9</ele>
        <time>2015-09-28T10:22:40Z</time>
      </trkpt>
      <trkpt lat="32.653129" lon="35.375209">
        <ele>112.7</ele>
        <time>2015-09-28T10:24:27Z</time>
      </trkpt>
      <trkpt lat="32.650426" lon="35.372761">
        <ele>110.8</ele>
        <time>2015-09-28T10:26:43Z</time>
      </trkpt>
      <trkpt lat="32.650189" lon="35.372610">
        <ele>110.7</ele>
        <time>2015-09-28T10:26:54Z</time>
      </trkpt>
      <trkpt lat="32.651512" lon="35.371955">
        <ele>103.0</ele>
        <time>2015-09-28T10:27:51Z</time>
      </trkpt>
      <trkpt lat="32.653410" lon="35.370966">
        <ele>99.2</ele>
        <time>2015-09-28T10:29:14Z</time>
      </trkpt>
      <trkpt lat="32.653189" lon="35.369626">
        <ele>100.9</ele>
        <time>2015-09-28T10:30:00Z</time>
      </trkpt>
      <trkpt lat="32.652551" lon="35.363935">
        <ele>109.8</ele>
        <time>2015-09-28T10:33:14Z</time>
      </trkpt>
      <trkpt lat="32.650974" lon="35.362345">
        <ele>114.0</ele>
        <time>2015-09-28T10:34:36Z</time>
      </trkpt>
      <trkpt lat="32.650712" lon="35.361510">
        <ele>115.0</ele>
        <time>2015-09-28T10:35:06Z</time>
      </trkpt>
      <trkpt lat="32.650936" lon="35.361284">
        <ele>115.0</ele>
        <time>2015-09-28T10:35:18Z</time>
      </trkpt>
      <trkpt lat="32.650763" lon="35.360691">
        <ele>117.8</ele>
        <time>2015-09-28T10:35:39Z</time>
      </trkpt>
      <trkpt lat="32.650767" lon="35.360329">
        <ele>119.1</ele>
        <time>2015-09-28T10:35:52Z</time>
      </trkpt>
      <trkpt lat="32.647785" lon="35.357047">
        <ele>133.0</ele>
        <time>2015-09-28T10:38:34Z</time>
      </trkpt>
      <trkpt lat="32.647701" lon="35.356457">
        <ele>133.1</ele>
        <time>2015-09-28T10:38:54Z</time>
      </trkpt>
      <trkpt lat="32.647574" lon="35.356218">
        <ele>133.1</ele>
        <time>2015-09-28T10:39:04Z</time>
      </trkpt>
      <trkpt lat="32.648147" lon="35.355614">
        <ele>137.0</ele>
        <time>2015-09-28T10:39:35Z</time>
      </trkpt>
      <trkpt lat="32.648387" lon="35.355110">
        <ele>141.9</ele>
        <time>2015-09-28T10:39:54Z</time>
      </trkpt>
      <trkpt lat="32.648367" lon="35.354433">
        <ele>147.1</ele>
        <time>2015-09-28T10:40:17Z</time>
      </trkpt>
      <trkpt lat="32.645902" lon="35.352165">
        <ele>162.3</ele>
        <time>2015-09-28T10:42:22Z</time>
      </trkpt>
      <trkpt lat="32.645143" lon="35.351438">
        <ele>165.0</ele>
        <time>2015-09-28T10:43:01Z</time>
      </trkpt>
      <trkpt lat="32.645477" lon="35.350897">
        <ele>166.1</ele>
        <time>2015-09-28T10:43:24Z</time>
      </trkpt>
      <trkpt lat="32.645758" lon="35.350516">
        <ele>166.4</ele>
        <time>2015-09-28T10:43:41Z</time>
      </trkpt>
      <trkpt lat="32.644790" lon="35.350133">
        <ele>173.5</ele>
        <time>2015-09-28T10:44:21Z</time>
      </trkpt>
      <trkpt lat="32.644613" lon="35.350625">
        <ele>171.3</ele>
        <time>2015-09-28T10:44:39Z</time>
      </trkpt>
      <trkpt lat="32.644321" lon="35.350748">
        <ele>172.3</ele>
        <time>2015-09-28T10:44:52Z</time>
      </trkpt>
      <trkpt lat="32.644144" lon="35.350661">
        <ele>173.2</ele>
        <time>2015-09-28T10:45:00Z</time>
      </trkpt>
      <trkpt lat="32.643655" lon="35.350623">
        <ele>174.8</ele>
        <time>2015-09-28T10:45:19Z</time>
      </trkpt>
      <trkpt lat="32.642814" lon="35.348850">
        <ele>181.0</ele>
        <time>2015-09-28T10:46:28Z</time>
      </trkpt>
      <trkpt lat="32.642866" lon="35.348604">
        <ele>181.6</ele>
        <time>2015-09-28T10:46:36Z</time>
      </trkpt>
      <trkpt lat="32.643221" lon="35.348577">
        <ele>180.5</ele>
        <time>2015-09-28T10:46:51Z</time>
      </trkpt>
      <trkpt lat="32.642670" lon="35.346893">
        <ele>182.9</ele>
        <time>2015-09-28T10:47:51Z</time>
      </trkpt>
      <trkpt lat="32.642182" lon="35.345650">
        <ele>179.8</ele>
        <time>2015-09-28T10:48:38Z</time>
      </trkpt>
      <trkpt lat="32.643131" lon="35.344790">
        <ele>173.7</ele>
        <time>2015-09-28T10:49:25Z</time>
      </trkpt>
      <trkpt lat="32.642234" lon="35.342820">
        <ele>165.0</ele>
        <time>2015-09-28T10:50:41Z</time>
      </trkpt>
      <trkpt lat="32.642259" lon="35.342389">
        <ele>162.2</ele>
        <time>2015-09-28T10:50:56Z</time>
      </trkpt>
      <trkpt lat="32.642332" lon="35.342166">
        <ele>160.6</ele>
        <time>2015-09-28T10:51:04Z</time>
      </trkpt>
      <trkpt lat="32.642696" lon="35.341750">
        <ele>158.0</ele>
        <time>2015-09-28T10:51:24Z</time>
      </trkpt>
      <trkpt lat="32.643441" lon="35.341070">
        <ele>158.9</ele>
        <time>2015-09-28T10:52:01Z</time>
      </trkpt>
      <trkpt lat="32.646395" lon="35.339319">
        <ele>152.0</ele>
        <time>2015-09-28T10:54:14Z</time>
      </trkpt>
      <trkpt lat="32.646847" lon="35.338957">
        <ele>151.0</ele>
        <time>2015-09-28T10:54:35Z</time>
      </trkpt>
      <trkpt lat="32.647171" lon="35.338342">
        <ele>149.4</ele>
        <time>2015-09-28T10:55:00Z</time>
      </trkpt>
      <trkpt lat="32.647668" lon="35.336207">
        <ele>140.7</ele>
        <time>2015-09-28T10:56:15Z</time>
      </trkpt>
      <trkpt lat="32.647899" lon="35.334444">
        <ele>127.0</ele>
        <time>2015-09-28T10:57:15Z</time>
        <sat>9</sat>
        <extensions>
          <gpxtpx:TrackPointExtension>
            <gpxtpx:atemp>291.65</gpxtpx:atemp>
          </gpxtpx:TrackPointExtension>
        </extensions>
      </trkpt>
      <trkpt lat="32.648066" lon="35.332938">
        <ele>114.2</ele>
        <time>2015-09-28T10:58:06Z</time>
      </trkpt>
      <trkpt lat="32.647535" lon="35.331754">
        <ele>108.0</ele>
        <time>2015-09-28T10:58:51Z</time>
        <sat>8</sat>
        <extensions>
          <gpxtpx:TrackPointExtension>
            <gpxtpx:atemp>291.65</gpxtpx:atemp>
          </gpxtpx:TrackPointExtension>
        </extensions>
      </trkpt>
      <trkpt lat="32.648069" lon="35.324382">
        <ele>116.6</ele>
        <time>2015-09-28T11:03:00Z</time>
        <sat>9</sat>
        <extensions>
          <gpxtpx:TrackPointExtension>
            <gpxtpx:atemp>291.65</gpxtpx:atemp>
          </gpxtpx:TrackPointExtension>
        </extensions>
      </trkpt>
      <trkpt lat="32.648352" lon="35.322603">
        <ele>113.5</ele>
        <time>2015-09-28T11:04:01Z</time>
      </trkpt>
      <trkpt lat="32.648343" lon="35.320256">
        <ele>106.9</ele>
        <time>2015-09-28T11:05:21Z</time>
      </trkpt>
      <trkpt lat="32.648717" lon="35.316797">
        <ele>92.0</ele>
        <time>2015-09-28T11:07:18Z</time>
        <sat>10</sat>
        <extensions>
          <gpxtpx:TrackPointExtension>
            <gpxtpx:atemp>291.15</gpxtpx:atemp>
          </gpxtpx:TrackPointExtension>
        </extensions>
      </trkpt>
      <trkpt lat="32.648312" lon="35.313522">
        <ele>82.7</ele>
        <time>2015-09-28T11:09:10Z</time>
      </trkpt>
      <trkpt lat="32.648737" lon="35.312729">
        <ele>79.4</ele>
        <time>2015-09-28T11:09:41Z</time>
        <sat>10</sat>
        <extensions>
          <gpxtpx:TrackPointExtension>
            <gpxtpx:atemp>291.65</gpxtpx:atemp>
          </gpxtpx:TrackPointExtension>
        </extensions>
      </trkpt>
      <trkpt lat="32.648489" lon="35.310879">
        <ele>78.9</ele>
        <time>2015-09-28T11:10:45Z</time>
      </trkpt>
      <trkpt lat="32.647010" lon="35.306899">
        <ele>75.3</ele>
        <time>2015-09-28T11:13:11Z</time>
        <sat>10</sat>
        <extensions>
          <gpxtpx:TrackPointExtension>
            <gpxtpx:atemp>291.15</gpxtpx:atemp>
          </gpxtpx:TrackPointExtension>
        </extensions>
      </trkpt>
      <trkpt lat="32.646577" lon="35.305604">
        <ele>72.0</ele>
        <time>2015-09-28T11:13:58Z</time>
      </trkpt>
      <trkpt lat="32.645719" lon="35.306158">
        <ele>73.8</ele>
        <time>2015-09-28T11:14:37Z</time>
      </trkpt>
      <trkpt lat="32.645592" lon="35.305670">
        <ele>72.9</ele>
        <time>2015-09-28T11:14:54Z</time>
        <sat>8</sat>
        <extensions>
          <gpxtpx:TrackPointExtension>
            <gpxtpx:atemp>292.15</gpxtpx:atemp>
          </gpxtpx:TrackPointExtension>
        </extensions>
      </trkpt>
      <trkpt lat="32.645154" lon="35.299305">
        <ele>70.0</ele>
        <time>2015-09-28T11:18:30Z</time>
        <sat>9</sat>
        <extensions>
          <gpxtpx:TrackPointExtension>
            <gpxtpx:atemp>294.15</gpxtpx:atemp>
          </gpxtpx:TrackPointExtension>
        </extensions>
      </trkpt>
      <trkpt lat="32.644762" lon="35.296800">
        <ele>73.0</ele>
        <time>2015-09-28T11:19:56Z</time>
      </trkpt>
      <trkpt lat="32.645379" lon="35.296935">
        <ele>71.7</ele>
        <time>2015-09-28T11:20:21Z</time>
      </trkpt>
      <trkpt lat="32.648868" lon="35.297129">
        <ele>72.5</ele>
        <time>2015-09-28T11:22:40Z</time>
      </trkpt>
      <trkpt lat="32.649200" lon="35.294031">
        <ele>79.0</ele>
        <time>2015-09-28T11:24:26Z</time>
      </trkpt>
      <trkpt lat="32.648730" lon="35.293153">
        <ele>81.0</ele>
        <time>2015-09-28T11:25:01Z</time>
      </trkpt>
      <trkpt lat="32.648822" lon="35.290744">
        <ele>88.3</ele>
        <time>2015-09-28T11:26:22Z</time>
      </trkpt>
      <trkpt lat="32.648982" lon="35.288514">
        <ele>93.0</ele>
        <time>2015-09-28T11:27:38Z</time>
      </trkpt>
      <trkpt lat="32.647186" lon="35.288432">
        <ele>87.0</ele>
        <time>2015-09-28T11:28:49Z</time>
      </trkpt>
      <trkpt lat="32.646923" lon="35.280869">
        <ele>75.4</ele>
        <time>2015-09-28T11:33:05Z</time>
      </trkpt>
      <trkpt lat="32.646741" lon="35.278771">
        <ele>71.8</ele>
        <time>2015-09-28T11:34:16Z</time>
      </trkpt>
      <trkpt lat="32.646247" lon="35.278533">
        <ele>70.0</ele>
        <time>2015-09-28T11:34:37Z</time>
      </trkpt>
      <trkpt lat="32.644102" lon="35.279522">
        <ele>68.0</ele>
        <time>2015-09-28T11:36:09Z</time>
      </trkpt>
      <trkpt lat="32.641107" lon="35.280581">
        <ele>63.6</ele>
        <time>2015-09-28T11:38:14Z</time>
      </trkpt>
      <trkpt lat="32.639264" lon="35.279891">
        <ele>70.0</ele>
        <time>2015-09-28T11:39:32Z</time>
      </trkpt>
      <trkpt lat="32.637300" lon="35.278612">
        <ele>60.5</ele>
        <time>2015-09-28T11:41:01Z</time>
      </trkpt>
      <trkpt lat="32.634113" lon="35.278798">
        <ele>55.9</ele>
        <time>2015-09-28T11:43:09Z</time>
      </trkpt>
      <trkpt lat="32.630491" lon="35.279069">
        <ele>59.8</ele>
        <time>2015-09-28T11:45:34Z</time>
      </trkpt>
      <trkpt lat="32.630236" lon="35.273644">
        <ele>51.4</ele>
        <time>2015-09-28T11:48:37Z</time>
      </trkpt>
      <trkpt lat="32.627988" lon="35.273909">
        <ele>56.1</ele>
        <time>2015-09-28T11:50:08Z</time>
      </trkpt>
      <trkpt lat="32.627979" lon="35.272165">
        <ele>51.6</ele>
        <time>2015-09-28T11:51:07Z</time>
      </trkpt>
      <trkpt lat="32.627724" lon="35.271863">
        <ele>51.0</ele>
        <time>2015-09-28T11:51:21Z</time>
      </trkpt>
      <trkpt lat="32.623619" lon="35.272531">
        <ele>56.8</ele>
        <time>2015-09-28T11:54:07Z</time>
      </trkpt>
      <trkpt lat="32.622513" lon="35.270999">
        <ele>56.1</ele>
        <time>2015-09-28T11:55:15Z</time>
      </trkpt>
      <trkpt lat="32.622081" lon="35.270030">
        <ele>52.6</ele>
        <time>2015-09-28T11:55:52Z</time>
      </trkpt>
      <trkpt lat="32.621590" lon="35.269924">
        <ele>53.8</ele>
        <time>2015-09-28T11:56:12Z</time>
      </trkpt>
      <trkpt lat="32.621129" lon="35.269309">
        <ele>53.0</ele>
        <time>2015-09-28T11:56:40Z</time>
      </trkpt>
      <trkpt lat="32.620997" lon="35.267728">
        <ele>49.3</ele>
        <time>2015-09-28T11:57:33Z</time>
      </trkpt>
      <trkpt lat="32.620818" lon="35.267640">
        <ele>49.6</ele>
        <time>2015-09-28T11:57:41Z</time>
      </trkpt>
      <trkpt lat="32.620615" lon="35.267961">
        <ele>50.3</ele>
        <time>2015-09-28T11:57:54Z</time>
      </trkpt>
      <trkpt lat="32.619147" lon="35.266693">
        <ele>55.4</ele>
        <time>2015-09-28T11:59:07Z</time>
      </trkpt>
      <trkpt lat="32.618798" lon="35.265288">
        <ele>47.6</ele>
        <time>2015-09-28T11:59:57Z</time>
      </trkpt>
      <trkpt lat="32.618752" lon="35.262973">
        <ele>47.0</ele>
        <time>2015-09-28T12:01:15Z</time>
      </trkpt>
      <trkpt lat="32.618450" lon="35.261789">
        <ele>46.0</ele>
        <time>2015-09-28T12:01:56Z</time>
      </trkpt>
      <trkpt lat="32.618963" lon="35.259970">
        <ele>44.0</ele>
        <time>2015-09-28T12:03:01Z</time>
      </trkpt>
      <trkpt lat="32.618870" lon="35.258868">
        <ele>46.4</ele>
        <time>2015-09-28T12:03:38Z</time>
      </trkpt>
      <trkpt lat="32.617215" lon="35.257517">
        <ele>47.6</ele>
        <time>2015-09-28T12:04:59Z</time>
      </trkpt>
      <trkpt lat="32.617006" lon="35.256856">
        <ele>45.2</ele>
        <time>2015-09-28T12:05:23Z</time>
      </trkpt>
      <trkpt lat="32.617310" lon="35.255616">
        <ele>42.7</ele>
        <time>2015-09-28T12:06:06Z</time>
      </trkpt>
      <trkpt lat="32.617474" lon="35.251786">
        <ele>41.1</ele>
        <time>2015-09-28T12:08:15Z</time>
      </trkpt>
      <trkpt lat="32.617754" lon="35.251042">
        <ele>44.1</ele>
        <time>2015-09-28T12:08:43Z</time>
      </trkpt>
      <trkpt lat="32.617684" lon="35.250436">
        <ele>48.7</ele>
        <time>2015-09-28T12:09:04Z</time>
      </trkpt>
      <trkpt lat="32.619760" lon="35.249638">
        <ele>44.9</ele>
        <time>2015-09-28T12:10:31Z</time>
      </trkpt>
      <trkpt lat="32.621253" lon="35.246277">
        <ele>51.1</ele>
        <time>2015-09-28T12:12:39Z</time>
      </trkpt>
      <trkpt lat="32.622303" lon="35.243743">
        <ele>45.0</ele>
        <time>2015-09-28T12:14:14Z</time>
      </trkpt>
      <trkpt lat="32.620555" lon="35.238948">
        <ele>46.6</ele>
        <time>2015-09-28T12:17:10Z</time>
      </trkpt>
      <trkpt lat="32.621535" lon="35.235449">
        <ele>44.1</ele>
        <time>2015-09-28T12:19:15Z</time>
      </trkpt>
      <trkpt lat="32.621279" lon="35.234539">
        <ele>40.2</ele>
        <time>2015-09-28T12:19:47Z</time>
      </trkpt>
      <trkpt lat="32.620929" lon="35.234126">
        <ele>39.0</ele>
        <time>2015-09-28T12:20:07Z</time>
      </trkpt>
      <trkpt lat="32.620393" lon="35.233355">
        <ele>42.2</ele>
        <time>2015-09-28T12:20:41Z</time>
      </trkpt>
      <trkpt lat="32.612725" lon="35.224592">
        <ele>46.7</ele>
        <time>2015-09-28T12:27:47Z</time>
      </trkpt>
      <trkpt lat="32.612616" lon="35.224223">
        <ele>45.9</ele>
        <time>2015-09-28T12:28:00Z</time>
      </trkpt>
      <trkpt lat="32.612418" lon="35.223814">
        <ele>45.8</ele>
        <time>2015-09-28T12:28:16Z</time>
      </trkpt>
      <trkpt lat="32.611464" lon="35.222677">
        <ele>55.1</ele>
        <time>2015-09-28T12:29:10Z</time>
      </trkpt>
      <trkpt lat="32.611030" lon="35.221592">
        <ele>57.8</ele>
        <time>2015-09-28T12:29:50Z</time>
      </trkpt>
      <trkpt lat="32.610168" lon="35.220275">
        <ele>56.8</ele>
        <time>2015-09-28T12:30:46Z</time>
      </trkpt>
      <trkpt lat="32.609062" lon="35.218768">
        <ele>54.8</ele>
        <time>2015-09-28T12:31:54Z</time>
      </trkpt>
      <trkpt lat="32.607974" lon="35.216784">
        <ele>59.5</ele>
        <time>2015-09-28T12:33:14Z</time>
      </trkpt>
      <trkpt lat="32.607527" lon="35.216126">
        <ele>59.7</ele>
        <time>2015-09-28T12:33:42Z</time>
      </trkpt>
      <trkpt lat="32.606821" lon="35.215257">
        <ele>58.3</ele>
        <time>2015-09-28T12:34:23Z</time>
      </trkpt>
      <trkpt lat="32.606254" lon="35.213895">
        <ele>59.0</ele>
        <time>2015-09-28T12:35:14Z</time>
      </trkpt>
      <trkpt lat="32.605747" lon="35.213084">
        <ele>59.4</ele>
        <time>2015-09-28T12:35:48Z</time>
      </trkpt>
      <trkpt lat="32.605479" lon="35.212344">
        <ele>57.7</ele>
        <time>2015-09-28T12:36:15Z</time>
      </trkpt>
      <trkpt lat="32.604930" lon="35.211216">
        <ele>57.5</ele>
        <time>2015-09-28T12:36:59Z</time>
      </trkpt>
      <trkpt lat="32.604548" lon="35.209382">
        <ele>62.4</ele>
        <time>2015-09-28T12:38:03Z</time>
      </trkpt>
      <trkpt lat="32.604437" lon="35.208756">
        <ele>63.1</ele>
        <time>2015-09-28T12:38:25Z</time>
      </trkpt>
      <trkpt lat="32.604499" lon="35.207809">
        <ele>63.9</ele>
        <time>2015-09-28T12:38:57Z</time>
      </trkpt>
      <trkpt lat="32.604289" lon="35.206514">
        <ele>67.1</ele>
        <time>2015-09-28T12:39:41Z</time>
      </trkpt>
      <trkpt lat="32.604043" lon="35.205437">
        <ele>65.0</ele>
        <time>2015-09-28T12:40:19Z</time>
      </trkpt>
      <trkpt lat="32.604018" lon="35.204869">
        <ele>63.1</ele>
        <time>2015-09-28T12:40:38Z</time>
      </trkpt>
      <trkpt lat="32.603772" lon="35.203661">
        <ele>63.5</ele>
        <time>2015-09-28T12:41:20Z</time>
      </trkpt>
      <trkpt lat="32.603796" lon="35.203122">
        <ele>62.9</ele>
        <time>2015-09-28T12:41:38Z</time>
      </trkpt>
      <trkpt lat="32.603735" lon="35.202511">
        <ele>64.6</ele>
        <time>2015-09-28T12:41:59Z</time>
      </trkpt>
      <trkpt lat="32.603697" lon="35.202059">
        <ele>65.4</ele>
        <time>2015-09-28T12:42:14Z</time>
      </trkpt>
      <trkpt lat="32.603241" lon="35.201390">
        <ele>67.7</ele>
        <time>2015-09-28T12:42:43Z</time>
      </trkpt>
      <trkpt lat="32.602002" lon="35.200468">
        <ele>69.8</ele>
        <time>2015-09-28T12:43:42Z</time>
      </trkpt>
      <trkpt lat="32.601542" lon="35.199715">
        <ele>66.4</ele>
        <time>2015-09-28T12:44:13Z</time>
      </trkpt>
      <trkpt lat="32.601443" lon="35.198962">
        <ele>66.3</ele>
        <time>2015-09-28T12:44:39Z</time>
      </trkpt>
      <trkpt lat="32.601356" lon="35.198410">
        <ele>67.8</ele>
        <time>2015-09-28T12:44:58Z</time>
      </trkpt>
      <trkpt lat="32.601249" lon="35.198195">
        <ele>69.0</ele>
        <time>2015-09-28T12:45:06Z</time>
      </trkpt>
      <trkpt lat="32.601202" lon="35.198080">
        <ele>69.1</ele>
        <time>2015-09-28T12:45:10Z</time>
      </trkpt>
      <trkpt lat="32.601139" lon="35.197699">
        <ele>69.4</ele>
        <time>2015-09-28T12:45:23Z</time>
      </trkpt>
      <trkpt lat="32.601530" lon="35.197380">
        <ele>68.0</ele>
        <time>2015-09-28T12:45:42Z</time>
      </trkpt>
      <trkpt lat="32.602958" lon="35.196288">
        <ele>67.4</ele>
        <time>2015-09-28T12:46:50Z</time>
      </trkpt>
      <trkpt lat="32.604069" lon="35.195497">
        <ele>72.2</ele>
        <time>2015-09-28T12:47:42Z</time>
      </trkpt>
      <trkpt lat="32.604805" lon="35.194841">
        <ele>79.1</ele>
        <time>2015-09-28T12:48:19Z</time>
      </trkpt>
      <trkpt lat="32.604790" lon="35.194140">
        <ele>84.0</ele>
        <time>2015-09-28T12:48:43Z</time>
      </trkpt>
      <trkpt lat="32.605709" lon="35.193331">
        <ele>92.5</ele>
        <time>2015-09-28T12:49:29Z</time>
      </trkpt>
      <trkpt lat="32.605012" lon="35.192443">
        <ele>88.9</ele>
        <time>2015-09-28T12:50:10Z</time>
      </trkpt>
      <trkpt lat="32.601784" lon="35.190992">
        <ele>97.8</ele>
        <time>2015-09-28T12:52:28Z</time>
      </trkpt>
      <trkpt lat="32.599270" lon="35.187352">
        <ele>100.2</ele>
        <time>2015-09-28T12:55:06Z</time>
      </trkpt>
      <trkpt lat="32.595687" lon="35.184062">
        <ele>104.9</ele>
        <time>2015-09-28T12:58:08Z</time>
      </trkpt>
      <trkpt lat="32.594182" lon="35.182819">
        <ele>118.0</ele>
        <time>2015-09-28T12:59:21Z</time>
      </trkpt>
      <trkpt lat="32.595427" lon="35.181979">
        <ele>107.9</ele>
        <time>2015-09-28T13:00:18Z</time>
      </trkpt>
      <trkpt lat="32.595577" lon="35.181639">
        <ele>106.8</ele>
        <time>2015-09-28T13:00:31Z</time>
      </trkpt>
      <trkpt lat="32.595399" lon="35.181171">
        <ele>107.8</ele>
        <time>2015-09-28T13:00:49Z</time>
      </trkpt>
      <trkpt lat="32.595221" lon="35.180266">
        <ele>108.0</ele>
        <time>2015-09-28T13:01:20Z</time>
      </trkpt>
      <trkpt lat="32.595207" lon="35.179136">
        <ele>108.9</ele>
        <time>2015-09-28T13:01:58Z</time>
      </trkpt>
      <trkpt lat="32.595357" lon="35.178505">
        <ele>107.4</ele>
        <time>2015-09-28T13:02:20Z</time>
      </trkpt>
      <trkpt lat="32.595644" lon="35.177245">
        <ele>105.9</ele>
        <time>2015-09-28T13:03:04Z</time>
      </trkpt>
      <trkpt lat="32.596204" lon="35.174595">
        <ele>108.3</ele>
        <time>2015-09-28T13:04:36Z</time>
      </trkpt>
      <trkpt lat="32.596507" lon="35.173640">
        <ele>103.2</ele>
        <time>2015-09-28T13:05:11Z</time>
      </trkpt>
      <trkpt lat="32.596632" lon="35.172900">
        <ele>99.2</ele>
        <time>2015-09-28T13:05:36Z</time>
      </trkpt>
      <trkpt lat="32.597248" lon="35.171690">
        <ele>92.4</ele>
        <time>2015-09-28T13:06:24Z</time>
      </trkpt>
      <trkpt lat="32.598303" lon="35.169875">
        <ele>90.0</ele>
        <time>2015-09-28T13:07:38Z</time>
      </trkpt>
      <trkpt lat="32.598867" lon="35.168726">
        <ele>88.6</ele>
        <time>2015-09-28T13:08:23Z</time>
      </trkpt>
      <trkpt lat="32.599900" lon="35.166726">
        <ele>84.6</ele>
        <time>2015-09-28T13:09:42Z</time>
      </trkpt>
      <trkpt lat="32.600360" lon="35.166541">
        <ele>81.5</ele>
        <time>2015-09-28T13:10:02Z</time>
      </trkpt>
      <trkpt lat="32.600433" lon="35.166368">
        <ele>80.8</ele>
        <time>2015-09-28T13:10:08Z</time>
      </trkpt>
      <trkpt lat="32.600297" lon="35.166047">
        <ele>82.9</ele>
        <time>2015-09-28T13:10:20Z</time>
      </trkpt>
      <trkpt lat="32.601205" lon="35.164157">
        <ele>84.5</ele>
        <time>2015-09-28T13:11:34Z</time>
      </trkpt>
      <trkpt lat="32.599682" lon="35.163164">
        <ele>98.1</ele>
        <time>2015-09-28T13:12:43Z</time>
      </trkpt>
      <trkpt lat="32.599880" lon="35.162404">
        <ele>94.0</ele>
        <time>2015-09-28T13:13:10Z</time>
        <sat>9</sat>
        <extensions>
          <gpxtpx:TrackPointExtension>
            <gpxtpx:atemp>292.65</gpxtpx:atemp>
          </gpxtpx:TrackPointExtension>
        </extensions>
      </trkpt>
      <trkpt lat="32.598635" lon="35.160916">
        <ele>97.8</ele>
        <time>2015-09-28T13:14:21Z</time>
      </trkpt>
      <trkpt lat="32.598542" lon="35.160280">
        <ele>99.5</ele>
        <time>2015-09-28T13:14:43Z</time>
      </trkpt>
      <trkpt lat="32.598180" lon="35.160060">
        <ele>98.3</ele>
        <time>2015-09-28T13:14:59Z</time>
      </trkpt>
      <trkpt lat="32.598097" lon="35.159571">
        <ele>100.4</ele>
        <time>2015-09-28T13:15:16Z</time>
      </trkpt>
      <trkpt lat="32.598231" lon="35.159302">
        <ele>102.1</ele>
        <time>2015-09-28T13:15:26Z</time>
      </trkpt>
      <trkpt lat="32.598179" lon="35.158801">
        <ele>103.8</ele>
        <time>2015-09-28T13:15:43Z</time>
      </trkpt>
      <trkpt lat="32.597827" lon="35.157811">
        <ele>108.7</ele>
        <time>2015-09-28T13:16:19Z</time>
      </trkpt>
      <trkpt lat="32.598002" lon="35.156809">
        <ele>113.0</ele>
        <time>2015-09-28T13:16:54Z</time>
      </trkpt>
      <trkpt lat="32.597774" lon="35.155049">
        <ele>118.0</ele>
        <time>2015-09-28T13:17:54Z</time>
      </trkpt>
      <trkpt lat="32.598001" lon="35.153436">
        <ele>121.2</ele>
        <time>2015-09-28T13:18:49Z</time>
      </trkpt>
      <trkpt lat="32.597691" lon="35.153240">
        <ele>123.3</ele>
        <time>2015-09-28T13:19:03Z</time>
      </trkpt>
      <trkpt lat="32.597752" lon="35.152543">
        <ele>125.7</ele>
        <time>2015-09-28T13:19:27Z</time>
      </trkpt>
      <trkpt lat="32.597131" lon="35.151004">
        <ele>130.7</ele>
        <time>2015-09-28T13:20:25Z</time>
      </trkpt>
      <trkpt lat="32.596448" lon="35.150699">
        <ele>133.0</ele>
        <time>2015-09-28T13:20:54Z</time>
      </trkpt>
      <trkpt lat="32.596229" lon="35.149660">
        <ele>134.7</ele>
        <time>2015-09-28T13:21:30Z</time>
        <sat>10</sat>
        <extensions>
          <gpxtpx:TrackPointExtension>
            <gpxtpx:atemp>294.15</gpxtpx:atemp>
          </gpxtpx:TrackPointExtension>
        </extensions>
      </trkpt>
      <trkpt lat="32.596250" lon="35.148731">
        <ele>137.0</ele>
        <time>2015-09-28T13:22:01Z</time>
      </trkpt>
      <trkpt lat="32.596033" lon="35.148071">
        <ele>137.7</ele>
        <time>2015-09-28T13:22:25Z</time>
      </trkpt>
      <trkpt lat="32.595724" lon="35.147727">
        <ele>138.7</ele>
        <time>2015-09-28T13:22:42Z</time>
        <sat>10</sat>
        <extensions>
          <gpxtpx:TrackPointExtension>
            <gpxtpx:atemp>294.65</gpxtpx:atemp>
          </gpxtpx:TrackPointExtension>
        </extensions>
      </trkpt>
      <trkpt lat="32.594419" lon="35.146080">
        <ele>151.2</ele>
        <time>2015-09-28T13:23:58Z</time>
        <sat>10</sat>
        <extensions>
          <gpxtpx:TrackPointExtension>
            <gpxtpx:atemp>295.15</gpxtpx:atemp>
          </gpxtpx:TrackPointExtension>
        </extensions>
      </trkpt>
      <trkpt lat="32.594272" lon="35.145775">
        <ele>153.0</ele>
        <time>2015-09-28T13:24:10Z</time>
      </trkpt>
      <trkpt lat="32.590977" lon="35.143312">
        <ele>173.2</ele>
        <time>2015-09-28T13:26:46Z</time>
        <sat>9</sat>
        <extensions>
          <gpxtpx:TrackPointExtension>
            <gpxtpx:atemp>295.65</gpxtpx:atemp>
          </gpxtpx:TrackPointExtension>
        </extensions>
      </trkpt>
      <trkpt lat="32.589604" lon="35.142502">
        <ele>182.5</ele>
        <time>2015-09-28T13:27:47Z</time>
      </trkpt>
      <trkpt lat="32.588548" lon="35.142320">
        <ele>180.7</ele>
        <time>2015-09-28T13:28:30Z</time>
      </trkpt>
      <trkpt lat="32.588117" lon="35.141940">
        <ele>181.0</ele>
        <time>2015-09-28T13:28:52Z</time>
        <sat>10</sat>
        <extensions>
          <gpxtpx:TrackPointExtension>
            <gpxtpx:atemp>295.15</gpxtpx:atemp>
          </gpxtpx:TrackPointExtension>
        </extensions>
      </trkpt>
      <trkpt lat="32.587968" lon="35.141294">
        <ele>186.7</ele>
        <time>2015-09-28T13:29:14Z</time>
      </trkpt>
      <trkpt lat="32.587482" lon="35.141086">
        <ele>191.3</ele>
        <time>2015-09-28T13:29:35Z</time>
      </trkpt>
      <trkpt lat="32.587264" lon="35.140268">
        <ele>202.2</ele>
        <time>2015-09-28T13:30:04Z</time>
      </trkpt>
      <trkpt lat="32.587733" lon="35.139977">
        <ele>197.9</ele>
        <time>2015-09-28T13:30:25Z</time>
      </trkpt>
      <trkpt lat="32.588249" lon="35.139249">
        <ele>199.8</ele>
        <time>2015-09-28T13:30:57Z</time>
      </trkpt>
      <trkpt lat="32.588704" lon="35.137920">
        <ele>224.9</ele>
        <time>2015-09-28T13:31:45Z</time>
      </trkpt>
      <trkpt lat="32.588450" lon="35.136776">
        <ele>242.6</ele>
        <time>2015-09-28T13:32:25Z</time>
        <sat>8</sat>
        <extensions>
          <gpxtpx:TrackPointExtension>
            <gpxtpx:atemp>294.15</gpxtpx:atemp>
          </gpxtpx:TrackPointExtension>
        </extensions>
      </trkpt>
      <trkpt lat="32.588101" lon="35.135793">
        <ele>253.3</ele>
        <time>2015-09-28T13:33:01Z</time>
      </trkpt>
      <trkpt lat="32.587706" lon="35.135180">
        <ele>256.0</ele>
        <time>2015-09-28T13:33:27Z</time>
        <sat>9</sat>
        <extensions>
          <gpxtpx:TrackPointExtension>
            <gpxtpx:atemp>293.65</gpxtpx:atemp>
          </gpxtpx:TrackPointExtension>
        </extensions>
      </trkpt>
      <trkpt lat="32.587623" lon="35.134051">
        <ele>261.8</ele>
        <time>2015-09-28T13:34:06Z</time>
      </trkpt>
      <trkpt lat="32.587775" lon="35.133058">
        <ele>266.5</ele>
        <time>2015-09-28T13:34:40Z</time>
      </trkpt>
      <trkpt lat="32.587524" lon="35.132557">
        <ele>268.4</ele>
        <time>2015-09-28T13:34:59Z</time>
        <sat>9</sat>
        <extensions>
          <gpxtpx:TrackPointExtension>
            <gpxtpx:atemp>293.65</gpxtpx:atemp>
          </gpxtpx:TrackPointExtension>
        </extensions>
      </trkpt>
      <trkpt lat="32.587516" lon="35.132409">
        <ele>268.4</ele>
        <time>2015-09-28T13:35:04Z</time>
      </trkpt>
      <trkpt lat="32.585643" lon="35.131856">
        <ele>278.7</ele>
        <time>2015-09-28T13:36:22Z</time>
      </trkpt>
      <trkpt lat="32.585689" lon="35.131348">
        <ele>282.9</ele>
        <time>2015-09-28T13:36:39Z</time>
      </trkpt>
      <trkpt lat="32.583729" lon="35.130769">
        <ele>272.6</ele>
        <time>2015-09-28T13:38:00Z</time>
        <sat>9</sat>
        <extensions>
          <gpxtpx:TrackPointExtension>
            <gpxtpx:atemp>294.65</gpxtpx:atemp>
          </gpxtpx:TrackPointExtension>
        </extensions>
      </trkpt>
      <trkpt lat="32.583087" lon="35.130068">
        <ele>264.0</ele>
        <time>2015-09-28T13:38:35Z</time>
      </trkpt>
      <trkpt lat="32.582439" lon="35.130592">
        <ele>265.5</ele>
        <time>2015-09-28T13:39:06Z</time>
      </trkpt>
      <trkpt lat="32.582010" lon="35.130580">
        <ele>271.0</ele>
        <time>2015-09-28T13:39:23Z</time>
        <sat>10</sat>
        <extensions>
          <gpxtpx:TrackPointExtension>
            <gpxtpx:atemp>295.15</gpxtpx:atemp>
          </gpxtpx:TrackPointExtension>
        </extensions>
      </trkpt>
      <trkpt lat="32.581545" lon="35.130468">
        <ele>278.3</ele>
        <time>2015-09-28T13:39:42Z</time>
      </trkpt>
      <trkpt lat="32.581051" lon="35.129920">
        <ele>288.0</ele>
        <time>2015-09-28T13:40:09Z</time>
        <sat>10</sat>
        <extensions>
          <gpxtpx:TrackPointExtension>
            <gpxtpx:atemp>295.15</gpxtpx:atemp>
          </gpxtpx:TrackPointExtension>
        </extensions>
      </trkpt>
      <trkpt lat="32.580578" lon="35.128553">
        <ele>292.3</ele>
        <time>2015-09-28T13:40:59Z</time>
      </trkpt>
      <trkpt lat="32.580399" lon="35.128397">
        <ele>291.7</ele>
        <time>2015-09-28T13:41:08Z</time>
      </trkpt>
      <trkpt lat="32.579785" lon="35.127069">
        <ele>293.0</ele>
        <time>2015-09-28T13:41:59Z</time>
        <sat>10</sat>
        <extensions>
          <gpxtpx:TrackPointExtension>
            <gpxtpx:atemp>295.15</gpxtpx:atemp>
          </gpxtpx:TrackPointExtension>
        </extensions>
      </trkpt>
      <trkpt lat="32.579544" lon="35.126115">
        <ele>290.4</ele>
        <time>2015-09-28T13:42:33Z</time>
      </trkpt>
      <trkpt lat="32.579557" lon="35.125561">
        <ele>287.5</ele>
        <time>2015-09-28T13:42:51Z</time>
      </trkpt>
      <trkpt lat="32.578765" lon="35.123154">
        <ele>282.9</ele>
        <time>2015-09-28T13:44:18Z</time>
        <sat>10</sat>
        <extensions>
          <gpxtpx:TrackPointExtension>
            <gpxtpx:atemp>295.15</gpxtpx:atemp>
          </gpxtpx:TrackPointExtension>
        </extensions>
      </trkpt>
      <trkpt lat="32.577297" lon="35.121154">
        <ele>248.0</ele>
        <time>2015-09-28T13:45:48Z</time>
      </trkpt>
      <trkpt lat="32.575022" lon="35.117812">
        <ele>241.8</ele>
        <time>2015-09-28T13:48:13Z</time>
      </trkpt>
      <trkpt lat="32.574899" lon="35.117412">
        <ele>237.8</ele>
        <time>2015-09-28T13:48:27Z</time>
      </trkpt>
      <trkpt lat="32.574844" lon="35.117043">
        <ele>234.7</ele>
        <time>2015-09-28T13:48:40Z</time>
      </trkpt>
      <trkpt lat="32.574912" lon="35.116715">
        <ele>234.4</ele>
        <time>2015-09-28T13:48:51Z</time>
      </trkpt>
      <trkpt lat="32.574851" lon="35.116410">
        <ele>234.4</ele>
        <time>2015-09-28T13:49:02Z</time>
      </trkpt>
      <trkpt lat="32.573813" lon="35.116139">
        <ele>231.8</ele>
        <time>2015-09-28T13:49:44Z</time>
      </trkpt>
      <trkpt lat="32.573030" lon="35.115887">
        <ele>233.6</ele>
        <time>2015-09-28T13:50:17Z</time>
      </trkpt>
      <trkpt lat="32.572237" lon="35.115420">
        <ele>233.1</ele>
        <time>2015-09-28T13:50:52Z</time>
      </trkpt>
      <trkpt lat="32.571484" lon="35.114813">
        <ele>225.5</ele>
        <time>2015-09-28T13:51:29Z</time>
      </trkpt>
      <trkpt lat="32.570823" lon="35.114190">
        <ele>220.5</ele>
        <time>2015-09-28T13:52:02Z</time>
      </trkpt>
      <trkpt lat="32.570663" lon="35.114061">
        <ele>219.4</ele>
        <time>2015-09-28T13:52:10Z</time>
      </trkpt>
      <trkpt lat="32.570230" lon="35.114081">
        <ele>219.8</ele>
        <time>2015-09-28T13:52:28Z</time>
      </trkpt>
      <trkpt lat="32.570333" lon="35.114451">
        <ele>224.0</ele>
        <time>2015-09-28T13:52:41Z</time>
      </trkpt>
      <trkpt lat="32.570545" lon="35.114993">
        <ele>225.7</ele>
        <time>2015-09-28T13:53:01Z</time>
      </trkpt>
      <trkpt lat="32.570794" lon="35.115989">
        <ele>225.0</ele>
        <time>2015-09-28T13:53:36Z</time>
      </trkpt>
      <trkpt lat="32.571011" lon="35.116775">
        <ele>227.0</ele>
        <time>2015-09-28T13:54:04Z</time>
      </trkpt>
      <trkpt lat="32.570747" lon="35.118040">
        <ele>234.0</ele>
        <time>2015-09-28T13:54:48Z</time>
      </trkpt>
      <trkpt lat="32.570450" lon="35.118889">
        <ele>239.5</ele>
        <time>2015-09-28T13:55:19Z</time>
      </trkpt>
      <trkpt lat="32.569491" lon="35.118255">
        <ele>240.1</ele>
        <time>2015-09-28T13:56:03Z</time>
      </trkpt>
      <trkpt lat="32.568682" lon="35.117608">
        <ele>244.4</ele>
        <time>2015-09-28T13:56:42Z</time>
      </trkpt>
      <trkpt lat="32.567851" lon="35.117799">
        <ele>232.0</ele>
        <time>2015-09-28T13:57:16Z</time>
      </trkpt>
      <trkpt lat="32.567291" lon="35.117603">
        <ele>229.3</ele>
        <time>2015-09-28T13:57:39Z</time>
      </trkpt>
      <trkpt lat="32.566981" lon="35.117060">
        <ele>228.9</ele>
        <time>2015-09-28T13:58:01Z</time>
      </trkpt>
      <trkpt lat="32.566098" lon="35.115001">
        <ele>219.0</ele>
        <time>2015-09-28T13:59:19Z</time>
      </trkpt>
      <trkpt lat="32.565549" lon="35.114223">
        <ele>226.9</ele>
        <time>2015-09-28T13:59:53Z</time>
      </trkpt>
      <trkpt lat="32.563880" lon="35.113315">
        <ele>222.1</ele>
        <time>2015-09-28T14:01:07Z</time>
      </trkpt>
      <trkpt lat="32.563121" lon="35.112400">
        <ele>215.1</ele>
        <time>2015-09-28T14:01:50Z</time>
      </trkpt>
      <trkpt lat="32.562334" lon="35.111851">
        <ele>207.7</ele>
        <time>2015-09-28T14:02:27Z</time>
      </trkpt>
      <trkpt lat="32.562117" lon="35.111590">
        <ele>204.7</ele>
        <time>2015-09-28T14:02:39Z</time>
      </trkpt>
      <trkpt lat="32.561884" lon="35.110798">
        <ele>198.9</ele>
        <time>2015-09-28T14:03:07Z</time>
      </trkpt>
      <trkpt lat="32.561313" lon="35.110138">
        <ele>196.3</ele>
        <time>2015-09-28T14:03:39Z</time>
      </trkpt>
      <trkpt lat="32.560768" lon="35.109170">
        <ele>190.0</ele>
        <time>2015-09-28T14:04:19Z</time>
      </trkpt>
      <trkpt lat="32.560038" lon="35.108851">
        <ele>186.0</ele>
        <time>2015-09-28T14:04:50Z</time>
      </trkpt>
      <trkpt lat="32.559442" lon="35.108963">
        <ele>185.6</ele>
        <time>2015-09-28T14:05:14Z</time>
      </trkpt>
      <trkpt lat="32.560064" lon="35.107925">
        <ele>181.3</ele>
        <time>2015-09-28T14:05:57Z</time>
      </trkpt>
      <trkpt lat="32.560239" lon="35.107413">
        <ele>180.3</ele>
        <time>2015-09-28T14:06:15Z</time>
      </trkpt>
      <trkpt lat="32.560320" lon="35.106854">
        <ele>178.5</ele>
        <time>2015-09-28T14:06:35Z</time>
      </trkpt>
      <trkpt lat="32.560658" lon="35.106327">
        <ele>175.6</ele>
        <time>2015-09-28T14:06:57Z</time>
      </trkpt>
      <trkpt lat="32.560684" lon="35.105257">
        <ele>173.9</ele>
        <time>2015-09-28T14:07:33Z</time>
      </trkpt>
      <trkpt lat="32.560717" lon="35.104524">
        <ele>171.1</ele>
        <time>2015-09-28T14:07:58Z</time>
      </trkpt>
      <trkpt lat="32.560019" lon="35.103344">
        <ele>176.3</ele>
        <time>2015-09-28T14:08:46Z</time>
        <sat>10</sat>
        <extensions>
          <gpxtpx:TrackPointExtension>
            <gpxtpx:atemp>296.15</gpxtpx:atemp>
          </gpxtpx:TrackPointExtension>
        </extensions>
      </trkpt>
      <trkpt lat="32.560186" lon="35.102602">
        <ele>176.5</ele>
        <time>2015-09-28T14:09:12Z</time>
      </trkpt>
      <trkpt lat="32.560106" lon="35.101836">
        <ele>178.5</ele>
        <time>2015-09-28T14:09:38Z</time>
      </trkpt>
      <trkpt lat="32.560457" lon="35.101430">
        <ele>173.6</ele>
        <time>2015-09-28T14:09:58Z</time>
      </trkpt>
      <trkpt lat="32.560350" lon="35.100854">
        <ele>175.3</ele>
        <time>2015-09-28T14:10:18Z</time>
        <sat>7</sat>
        <extensions>
          <gpxtpx:TrackPointExtension>
            <gpxtpx:atemp>296.15</gpxtpx:atemp>
          </gpxtpx:TrackPointExtension>
        </extensions>
      </trkpt>
      <trkpt lat="32.560773" lon="35.100100">
        <ele>169.9</ele>
        <time>2015-09-28T14:10:48Z</time>
      </trkpt>
      <trkpt lat="32.560838" lon="35.098952">
        <ele>168.7</ele>
        <time>2015-09-28T14:11:27Z</time>
      </trkpt>
      <trkpt lat="32.560824" lon="35.098029">
        <ele>170.2</ele>
        <time>2015-09-28T14:11:58Z</time>
      </trkpt>
      <trkpt lat="32.561161" lon="35.096927">
        <ele>166.0</ele>
        <time>2015-09-28T14:12:38Z</time>
      </trkpt>
      <trkpt lat="32.561532" lon="35.094590">
        <ele>159.0</ele>
        <time>2015-09-28T14:13:58Z</time>
        <sat>9</sat>
        <extensions>
          <gpxtpx:TrackPointExtension>
            <gpxtpx:atemp>295.65</gpxtpx:atemp>
          </gpxtpx:TrackPointExtension>
        </extensions>
      </trkpt>
      <trkpt lat="32.561588" lon="35.093651">
        <ele>158.1</ele>
        <time>2015-09-28T14:14:30Z</time>
      </trkpt>
      <trkpt lat="32.561514" lon="35.092378">
        <ele>157.2</ele>
        <time>2015-09-28T14:15:13Z</time>
      </trkpt>
      <trkpt lat="32.560937" lon="35.091157">
        <ele>153.8</ele>
        <time>2015-09-28T14:16:00Z</time>
        <sat>9</sat>
        <extensions>
          <gpxtpx:TrackPointExtension>
            <gpxtpx:atemp>295.15</gpxtpx:atemp>
          </gpxtpx:TrackPointExtension>
        </extensions>
      </trkpt>
      <trkpt lat="32.560327" lon="35.090269">
        <ele>146.3</ele>
        <time>2015-09-28T14:16:39Z</time>
      </trkpt>
      <trkpt lat="32.560227" lon="35.089488">
        <ele>140.1</ele>
        <time>2015-09-28T14:17:05Z</time>
      </trkpt>
      <trkpt lat="32.559970" lon="35.089421">
        <ele>137.6</ele>
        <time>2015-09-28T14:17:16Z</time>
        <sat>10</sat>
        <extensions>
          <gpxtpx:TrackPointExtension>
            <gpxtpx:atemp>294.65</gpxtpx:atemp>
          </gpxtpx:TrackPointExtension>
        </extensions>
      </trkpt>
      <trkpt lat="32.559882" lon="35.089277">
        <ele>136.0</ele>
        <time>2015-09-28T14:17:22Z</time>
      </trkpt>
      <trkpt lat="32.559506" lon="35.089700">
        <ele>136.1</ele>
        <time>2015-09-28T14:17:43Z</time>
      </trkpt>
      <trkpt lat="32.558467" lon="35.089850">
        <ele>139.1</ele>
        <time>2015-09-28T14:18:25Z</time>
      </trkpt>
      <trkpt lat="32.558419" lon="35.089177">
        <ele>143.1</ele>
        <time>2015-09-28T14:18:47Z</time>
        <sat>10</sat>
        <extensions>
          <gpxtpx:TrackPointExtension>
            <gpxtpx:atemp>294.15</gpxtpx:atemp>
          </gpxtpx:TrackPointExtension>
        </extensions>
      </trkpt>
      <trkpt lat="32.558505" lon="35.088201">
        <ele>146.6</ele>
        <time>2015-09-28T14:19:21Z</time>
      </trkpt>
      <trkpt lat="32.558837" lon="35.087605">
        <ele>145.5</ele>
        <time>2015-09-28T14:19:45Z</time>
        <sat>11</sat>
        <extensions>
          <gpxtpx:TrackPointExtension>
            <gpxtpx:atemp>294.15</gpxtpx:atemp>
          </gpxtpx:TrackPointExtension>
        </extensions>
      </trkpt>
      <trkpt lat="32.559278" lon="35.086707">
        <ele>142.7</ele>
        <time>2015-09-28T14:20:20Z</time>
      </trkpt>
      <trkpt lat="32.560210" lon="35.085807">
        <ele>137.5</ele>
        <time>2015-09-28T14:21:08Z</time>
      </trkpt>
      <trkpt lat="32.560567" lon="35.085540">
        <ele>136.3</ele>
        <time>2015-09-28T14:21:25Z</time>
      </trkpt>
      <trkpt lat="32.560745" lon="35.084962">
        <ele>139.9</ele>
        <time>2015-09-28T14:21:46Z</time>
        <sat>8</sat>
        <extensions>
          <gpxtpx:TrackPointExtension>
            <gpxtpx:atemp>293.65</gpxtpx:atemp>
          </gpxtpx:TrackPointExtension>
        </extensions>
      </trkpt>
      <trkpt lat="32.560591" lon="35.082680">
        <ele>139.3</ele>
        <time>2015-09-28T14:23:03Z</time>
      </trkpt>
      <trkpt lat="32.560381" lon="35.081581">
        <ele>138.1</ele>
        <time>2015-09-28T14:23:41Z</time>
        <sat>11</sat>
        <extensions>
          <gpxtpx:TrackPointExtension>
            <gpxtpx:atemp>293.15</gpxtpx:atemp>
          </gpxtpx:TrackPointExtension>
        </extensions>
      </trkpt>
      <trkpt lat="32.560324" lon="35.081344">
        <ele>134.7</ele>
        <time>2015-09-28T14:23:49Z</time>
      </trkpt>
      <trkpt lat="32.561099" lon="35.080850">
        <ele>126.7</ele>
        <time>2015-09-28T14:24:24Z</time>
      </trkpt>
      <trkpt lat="32.561317" lon="35.080577">
        <ele>123.9</ele>
        <time>2015-09-28T14:24:37Z</time>
      </trkpt>
      <trkpt lat="32.561514" lon="35.079187">
        <ele>122.1</ele>
        <time>2015-09-28T14:25:24Z</time>
        <sat>11</sat>
        <extensions>
          <gpxtpx:TrackPointExtension>
            <gpxtpx:atemp>293.65</gpxtpx:atemp>
          </gpxtpx:TrackPointExtension>
        </extensions>
      </trkpt>
      <trkpt lat="32.562849" lon="35.077324">
        <ele>120.7</ele>
        <time>2015-09-28T14:26:47Z</time>
      </trkpt>
      <trkpt lat="32.563622" lon="35.076243">
        <ele>117.0</ele>
        <time>2015-09-28T14:27:35Z</time>
      </trkpt>
      <trkpt lat="32.563872" lon="35.075467">
        <ele>117.9</ele>
        <time>2015-09-28T14:28:03Z</time>
        <sat>11</sat>
        <extensions>
          <gpxtpx:TrackPointExtension>
            <gpxtpx:atemp>294.15</gpxtpx:atemp>
          </gpxtpx:TrackPointExtension>
        </extensions>
      </trkpt>
      <trkpt lat="32.564012" lon="35.072647">
        <ele>114.2</ele>
        <time>2015-09-28T14:29:38Z</time>
        <sat>10</sat>
        <extensions>
          <gpxtpx:TrackPointExtension>
            <gpxtpx:atemp>294.65</gpxtpx:atemp>
          </gpxtpx:TrackPointExtension>
        </extensions>
      </trkpt>
      <trkpt lat="32.563929" lon="35.071944">
        <ele>115.5</ele>
        <time>2015-09-28T14:30:02Z</time>
      </trkpt>
      <trkpt lat="32.563232" lon="35.071258">
        <ele>116.9</ele>
        <time>2015-09-28T14:30:38Z</time>
      </trkpt>
      <trkpt lat="32.563219" lon="35.068894">
        <ele>107.6</ele>
        <time>2015-09-28T14:31:58Z</time>
        <sat>11</sat>
        <extensions>
          <gpxtpx:TrackPointExtension>
            <gpxtpx:atemp>295.65</gpxtpx:atemp>
          </gpxtpx:TrackPointExtension>
        </extensions>
      </trkpt>
      <trkpt lat="32.563268" lon="35.067717">
        <ele>103.4</ele>
        <time>2015-09-28T14:32:38Z</time>
      </trkpt>
      <trkpt lat="32.564002" lon="35.066089">
        <ele>100.0</ele>
        <time>2015-09-28T14:33:40Z</time>
        <sat>11</sat>
        <extensions>
          <gpxtpx:TrackPointExtension>
            <gpxtpx:atemp>296.15</gpxtpx:atemp>
          </gpxtpx:TrackPointExtension>
        </extensions>
      </trkpt>
      <trkpt lat="32.563973" lon="35.065114">
        <ele>100.1</ele>
        <time>2015-09-28T14:34:13Z</time>
      </trkpt>
      <trkpt lat="32.564177" lon="35.064554">
        <ele>99.6</ele>
        <time>2015-09-28T14:34:34Z</time>
        <sat>11</sat>
        <extensions>
          <gpxtpx:TrackPointExtension>
            <gpxtpx:atemp>297.15</gpxtpx:atemp>
          </gpxtpx:TrackPointExtension>
        </extensions>
      </trkpt>
      <trkpt lat="32.564181" lon="35.062049">
        <ele>103.5</ele>
        <time>2015-09-28T14:35:58Z</time>
      </trkpt>
      <trkpt lat="32.563941" lon="35.060166">
        <ele>94.7</ele>
        <time>2015-09-28T14:37:02Z</time>
      </trkpt>
      <trkpt lat="32.564132" lon="35.058908">
        <ele>96.5</ele>
        <time>2015-09-28T14:37:45Z</time>
      </trkpt>
      <trkpt lat="32.564360" lon="35.057901">
        <ele>93.3</ele>
        <time>2015-09-28T14:38:21Z</time>
      </trkpt>
      <trkpt lat="32.563904" lon="35.056907">
        <ele>92.2</ele>
        <time>2015-09-28T14:38:59Z</time>
      </trkpt>
      <trkpt lat="32.563838" lon="35.056626">
        <ele>93.2</ele>
        <time>2015-09-28T14:39:09Z</time>
      </trkpt>
      <trkpt lat="32.563386" lon="35.055204">
        <ele>102.9</ele>
        <time>2015-09-28T14:40:00Z</time>
      </trkpt>
      <trkpt lat="32.563657" lon="35.055079">
        <ele>100.6</ele>
        <time>2015-09-28T14:40:12Z</time>
      </trkpt>
      <trkpt lat="32.563709" lon="35.054619">
        <ele>98.9</ele>
        <time>2015-09-28T14:40:27Z</time>
        <sat>11</sat>
        <extensions>
          <gpxtpx:TrackPointExtension>
            <gpxtpx:atemp>296.15</gpxtpx:atemp>
          </gpxtpx:TrackPointExtension>
        </extensions>
      </trkpt>
      <trkpt lat="32.563874" lon="35.054015">
        <ele>94.3</ele>
        <time>2015-09-28T14:40:49Z</time>
      </trkpt>
      <trkpt lat="32.565147" lon="35.051805">
        <ele>89.9</ele>
        <time>2015-09-28T14:42:19Z</time>
        <sat>11</sat>
        <extensions>
          <gpxtpx:TrackPointExtension>
            <gpxtpx:atemp>296.65</gpxtpx:atemp>
          </gpxtpx:TrackPointExtension>
        </extensions>
      </trkpt>
      <trkpt lat="32.566290" lon="35.050274">
        <ele>83.0</ele>
        <time>2015-09-28T14:43:28Z</time>
        <sat>11</sat>
        <extensions>
          <gpxtpx:TrackPointExtension>
            <gpxtpx:atemp>297.15</gpxtpx:atemp>
          </gpxtpx:TrackPointExtension>
        </extensions>
      </trkpt>
      <trkpt lat="32.566726" lon="35.048641">
        <ele>83.3</ele>
        <time>2015-09-28T14:44:26Z</time>
      </trkpt>
      <trkpt lat="32.566917" lon="35.047695">
        <ele>84.8</ele>
        <time>2015-09-28T14:44:59Z</time>
      </trkpt>
      <trkpt lat="32.566795" lon="35.046995">
        <ele>84.0</ele>
        <time>2015-09-28T14:45:23Z</time>
        <sat>11</sat>
        <extensions>
          <gpxtpx:TrackPointExtension>
            <gpxtpx:atemp>297.15</gpxtpx:atemp>
          </gpxtpx:TrackPointExtension>
        </extensions>
      </trkpt>
      <trkpt lat="32.566754" lon="35.044827">
        <ele>82.8</ele>
        <time>2015-09-28T14:46:36Z</time>
      </trkpt>
      <trkpt lat="32.566564" lon="35.043129">
        <ele>79.8</ele>
        <time>2015-09-28T14:47:34Z</time>
        <sat>11</sat>
        <extensions>
          <gpxtpx:TrackPointExtension>
            <gpxtpx:atemp>297.15</gpxtpx:atemp>
          </gpxtpx:TrackPointExtension>
        </extensions>
      </trkpt>
      <trkpt lat="32.566598" lon="35.042029">
        <ele>76.1</ele>
        <time>2015-09-28T14:48:11Z</time>
      </trkpt>
      <trkpt lat="32.565684" lon="35.041405">
        <ele>76.6</ele>
        <time>2015-09-28T14:48:53Z</time>
      </trkpt>
      <trkpt lat="32.564087" lon="35.040689">
        <ele>80.0</ele>
        <time>2015-09-28T14:50:01Z</time>
        <sat>11</sat>
        <extensions>
          <gpxtpx:TrackPointExtension>
            <gpxtpx:atemp>296.65</gpxtpx:atemp>
          </gpxtpx:TrackPointExtension>
        </extensions>
      </trkpt>
      <trkpt lat="32.561764" lon="35.040290">
        <ele>76.5</ele>
        <time>2015-09-28T14:51:35Z</time>
        <sat>11</sat>
        <extensions>
          <gpxtpx:TrackPointExtension>
            <gpxtpx:atemp>297.15</gpxtpx:atemp>
          </gpxtpx:TrackPointExtension>
        </extensions>
      </trkpt>
      <trkpt lat="32.554645" lon="35.039571">
        <ele>94.0</ele>
        <time>2015-09-28T14:56:21Z</time>
        <sat>10</sat>
        <extensions>
          <gpxtpx:TrackPointExtension>
            <gpxtpx:atemp>297.65</gpxtpx:atemp>
          </gpxtpx:TrackPointExtension>
        </extensions>
      </trkpt>
      <trkpt lat="32.550101" lon="35.036897">
        <ele>101.6</ele>
        <time>2015-09-28T14:59:44Z</time>
        <sat>10</sat>
        <extensions>
          <gpxtpx:TrackPointExtension>
            <gpxtpx:atemp>299.15</gpxtpx:atemp>
          </gpxtpx:TrackPointExtension>
        </extensions>
      </trkpt>
      <trkpt lat="32.548325" lon="35.035359">
        <ele>118.0</ele>
        <time>2015-09-28T15:01:12Z</time>
        <sat>9</sat>
        <extensions>
          <gpxtpx:TrackPointExtension>
            <gpxtpx:atemp>299.15</gpxtpx:atemp>
          </gpxtpx:TrackPointExtension>
        </extensions>
      </trkpt>
      <trkpt lat="32.543309" lon="35.032789">
        <ele>96.1</ele>
        <time>2015-09-28T15:04:51Z</time>
        <sat>10</sat>
        <extensions>
          <gpxtpx:TrackPointExtension>
            <gpxtpx:atemp>299.15</gpxtpx:atemp>
          </gpxtpx:TrackPointExtension>
        </extensions>
      </trkpt>
      <trkpt lat="32.542076" lon="35.032167">
        <ele>98.0</ele>
        <time>2015-09-28T15:05:45Z</time>
      </trkpt>
      <trkpt lat="32.541964" lon="35.032245">
        <ele>98.0</ele>
        <time>2015-09-28T15:05:50Z</time>
      </trkpt>
      <trkpt lat="32.540660" lon="35.031818">
        <ele>101.2</ele>
        <time>2015-09-28T15:06:44Z</time>
      </trkpt>
      <trkpt lat="32.540248" lon="35.031444">
        <ele>99.7</ele>
        <time>2015-09-28T15:07:05Z</time>
      </trkpt>
      <trkpt lat="32.536952" lon="35.029919">
        <ele>104.4</ele>
        <time>2015-09-28T15:09:26Z</time>
        <sat>10</sat>
        <extensions>
          <gpxtpx:TrackPointExtension>
            <gpxtpx:atemp>298.65</gpxtpx:atemp>
          </gpxtpx:TrackPointExtension>
        </extensions>
      </trkpt>
      <trkpt lat="32.531409" lon="35.029238">
        <ele>91.1</ele>
        <time>2015-09-28T15:13:10Z</time>
        <sat>10</sat>
        <extensions>
          <gpxtpx:TrackPointExtension>
            <gpxtpx:atemp>298.65</gpxtpx:atemp>
          </gpxtpx:TrackPointExtension>
        </extensions>
      </trkpt>
      <trkpt lat="32.525660" lon="35.029677">
        <ele>71.8</ele>
        <time>2015-09-28T15:17:00Z</time>
        <sat>10</sat>
        <extensions>
          <gpxtpx:TrackPointExtension>
            <gpxtpx:atemp>298.65</gpxtpx:atemp>
          </gpxtpx:TrackPointExtension>
        </extensions>
      </trkpt>
      <trkpt lat="32.525156" lon="35.029763">
        <ele>74.2</ele>
        <time>2015-09-28T15:17:21Z</time>
      </trkpt>
      <trkpt lat="32.525052" lon="35.029229">
        <ele>73.2</ele>
        <time>2015-09-28T15:17:39Z</time>
        <sat>10</sat>
        <extensions>
          <gpxtpx:TrackPointExtension>
            <gpxtpx:atemp>298.65</gpxtpx:atemp>
          </gpxtpx:TrackPointExtension>
        </extensions>
      </trkpt>
      <trkpt lat="32.524875" lon="35.027709">
        <ele>76.8</ele>
        <time>2015-09-28T15:18:31Z</time>
      </trkpt>
      <trkpt lat="32.524315" lon="35.025559">
        <ele>76.4</ele>
        <time>2015-09-28T15:19:47Z</time>
        <sat>8</sat>
        <extensions>
          <gpxtpx:TrackPointExtension>
            <gpxtpx:atemp>298.65</gpxtpx:atemp>
          </gpxtpx:TrackPointExtension>
        </extensions>
      </trkpt>
      <trkpt lat="32.524163" lon="35.025250">
        <ele>78.1</ele>
        <time>2015-09-28T15:19:59Z</time>
      </trkpt>
      <trkpt lat="32.522404" lon="35.024957">
        <ele>92.0</ele>
        <time>2015-09-28T15:21:10Z</time>
        <sat>9</sat>
        <extensions>
          <gpxtpx:TrackPointExtension>
            <gpxtpx:atemp>298.65</gpxtpx:atemp>
          </gpxtpx:TrackPointExtension>
        </extensions>
      </trkpt>
      <trkpt lat="32.521337" lon="35.024951">
        <ele>87.1</ele>
        <time>2015-09-28T15:21:53Z</time>
      </trkpt>
      <trkpt lat="32.519603" lon="35.025033">
        <ele>89.7</ele>
        <time>2015-09-28T15:23:02Z</time>
      </trkpt>
      <trkpt lat="32.516876" lon="35.025093">
        <ele>96.3</ele>
        <time>2015-09-28T15:24:51Z</time>
      </trkpt>
      <trkpt lat="32.515566" lon="35.025315">
        <ele>39.5</ele>
        <time>2015-09-28T15:25:44Z</time>
        <sat>9</sat>
        <extensions>
          <gpxtpx:TrackPointExtension>
            <gpxtpx:atemp>299.15</gpxtpx:atemp>
          </gpxtpx:TrackPointExtension>
        </extensions>
      </trkpt>
      <trkpt lat="32.514599" lon="35.025262">
        <ele>15.7</ele>
        <time>2015-09-28T15:26:23Z</time>
      </trkpt>
      <trkpt lat="32.512422" lon="35.025415">
        <ele>31.4</ele>
        <time>2015-09-28T15:27:50Z</time>
      </trkpt>
      <trkpt lat="32.503769" lon="35.025807">
        <ele>78.7</ele>
        <time>2015-09-28T15:33:37Z</time>
        <sat>8</sat>
        <extensions>
          <gpxtpx:TrackPointExtension>
            <gpxtpx:atemp>298.65</gpxtpx:atemp>
          </gpxtpx:TrackPointExtension>
        </extensions>
      </trkpt>
      <trkpt lat="32.502865" lon="35.025684">
        <ele>78.3</ele>
        <time>2015-09-28T15:34:13Z</time>
      </trkpt>
      <trkpt lat="32.499665" lon="35.025697">
        <ele>69.9</ele>
        <time>2015-09-28T15:36:21Z</time>
        <sat>9</sat>
        <extensions>
          <gpxtpx:TrackPointExtension>
            <gpxtpx:atemp>298.65</gpxtpx:atemp>
          </gpxtpx:TrackPointExtension>
        </extensions>
      </trkpt>
      <trkpt lat="32.497537" lon="35.025415">
        <ele>66.6</ele>
        <time>2015-09-28T15:37:47Z</time>
      </trkpt>
      <trkpt lat="32.494302" lon="35.025334">
        <ele>61.6</ele>
        <time>2015-09-28T15:39:57Z</time>
        <sat>9</sat>
        <extensions>
          <gpxtpx:TrackPointExtension>
            <gpxtpx:atemp>298.15</gpxtpx:atemp>
          </gpxtpx:TrackPointExtension>
        </extensions>
      </trkpt>
      <trkpt lat="32.490382" lon="35.025078">
        <ele>64.8</ele>
        <time>2015-09-28T15:42:34Z</time>
      </trkpt>
      <trkpt lat="32.489812" lon="35.025132">
        <ele>61.4</ele>
        <time>2015-09-28T15:42:57Z</time>
        <sat>9</sat>
        <extensions>
          <gpxtpx:TrackPointExtension>
            <gpxtpx:atemp>298.15</gpxtpx:atemp>
          </gpxtpx:TrackPointExtension>
        </extensions>
      </trkpt>
      <trkpt lat="32.484670" lon="35.024762">
        <ele>50.3</ele>
        <time>2015-09-28T15:46:23Z</time>
      </trkpt>
      <trkpt lat="32.483313" lon="35.024624">
        <ele>50.6</ele>
        <time>2015-09-28T15:47:18Z</time>
      </trkpt>
      <trkpt lat="32.482366" lon="35.024611">
        <ele>51.0</ele>
        <time>2015-09-28T15:47:55Z</time>
        <sat>11</sat>
        <extensions>
          <gpxtpx:TrackPointExtension>
            <gpxtpx:atemp>297.65</gpxtpx:atemp>
          </gpxtpx:TrackPointExtension>
        </extensions>
      </trkpt>
    </trkseg>
  </trk>
</gpx>
