<?xml version="1.0" encoding="UTF-8"?>
<gpx xmlns="Amud Anan http://amudanan.co.il/" version="1.0" xmlns:xsi="http://www.w3.org/2001/XMLSchema-instance" xsi:schemaLocation="http://www.topografix.com/GPX/1/0 http://www.topografix.com/GPX/1/0/gpx.xsd"><trk><name>Amud Anan</name><trkseg><trkpt lon="35.23907661438" lat="33.033491926506"/><trkpt lon="35.241994857788" lat="33.032844317116"/><trkpt lon="35.243539810181" lat="33.033060187442"/><trkpt lon="35.244998931885" lat="33.032052788066"/><trkpt lon="35.252380371094" lat="33.030181872955"/><trkpt lon="35.25598526001" lat="33.028166996877"/><trkpt lon="35.253839492798" lat="33.025072633209"/><trkpt lon="35.249118804932" lat="33.025360485575"/><trkpt lon="35.240707397461" lat="33.02572029971"/><trkpt lon="35.229635238647" lat="33.025936187486"/><trkpt lon="35.217533111572" lat="33.023129605151"/><trkpt lon="35.208606719971" lat="33.02240995426"/><trkpt lon="35.202083587646" lat="33.021114567852"/><trkpt lon="35.192127227783" lat="33.019675227296"/><trkpt lon="35.181655883789" lat="33.020394900511"/><trkpt lon="35.171613693237" lat="33.016004802515"/><trkpt lon="35.157451629639" lat="33.0157169196"/><trkpt lon="35.142688751221" lat="33.016940415499"/><trkpt lon="35.144577026367" lat="33.011686460094"/><trkpt lon="35.145349502563" lat="33.007295928516"/><trkpt lon="35.142517089844" lat="32.996210663321"/><trkpt lon="35.14723777771" lat="32.987211859069"/><trkpt lon="35.150585174561" lat="32.98346808627"/><trkpt lon="35.150756835938" lat="32.977636123912"/><trkpt lon="35.151615142822" lat="32.971587756088"/><trkpt lon="35.148181915283" lat="32.967627290851"/><trkpt lon="35.149641036987" lat="32.964242752579"/><trkpt lon="35.154790878296" lat="32.960858084644"/><trkpt lon="35.16019821167" lat="32.956609062635"/><trkpt lon="35.162773132324" lat="32.95243185881"/><trkpt lon="35.163803100586" lat="32.941771892389"/><trkpt lon="35.160713195801" lat="32.932407348069"/><trkpt lon="35.158910751343" lat="32.921240634012"/><trkpt lon="35.156936645508" lat="32.916629450665"/><trkpt lon="35.160884857178" lat="32.916557399019"/><trkpt lon="35.164833068848" lat="32.920015811869"/><trkpt lon="35.165948867798" lat="32.919223270861"/><trkpt lon="35.165863037109" lat="32.917854319675"/><trkpt lon="35.168609619141" lat="32.917638167552"/><trkpt lon="35.169467926025" lat="32.920015811869"/><trkpt lon="35.171785354614" lat="32.920159909471"/><trkpt lon="35.177879333496" lat="32.917998420797"/><trkpt lon="35.182342529297" lat="32.919079171733"/><trkpt lon="35.184488296509" lat="32.919367369754"/><trkpt lon="35.188522338867" lat="32.918430722755"/><trkpt lon="35.193500518799" lat="32.918863022601"/><trkpt lon="35.196418762207" lat="32.918142521684"/><trkpt lon="35.199851989746" lat="32.918502772876"/><trkpt lon="35.202941894531" lat="32.91821457204"/><trkpt lon="35.206804275513" lat="32.915980983739"/><trkpt lon="35.212125778198" lat="32.916269191848"/><trkpt lon="35.214443206787" lat="32.9173499639"/><trkpt lon="35.217447280884" lat="32.916413295551"/><trkpt lon="35.220623016357" lat="32.915836879332"/><trkpt lon="35.223026275635" lat="32.914972247966"/><trkpt lon="35.225858688354" lat="32.915620722282"/><trkpt lon="35.226202011108" lat="32.914756088804"/><trkpt lon="35.238819122314" lat="32.916701502253"/><trkpt lon="35.256586074829" lat="32.915836879332"/><trkpt lon="35.274782180786" lat="32.922033156954"/><trkpt lon="35.277786254883" lat="32.922321345355"/><trkpt lon="35.28920173645" lat="32.925491355819"/><trkpt lon="35.298728942871" lat="32.925059088352"/><trkpt lon="35.301389694214" lat="32.934352373473"/><trkpt lon="35.313234329224" lat="32.938602465322"/><trkpt lon="35.314350128174" lat="32.939610931711"/><trkpt lon="35.312633514404" lat="32.939971095491"/><trkpt lon="35.309543609619" lat="32.940331257804"/><trkpt lon="35.295724868774" lat="32.939754997399"/><trkpt lon="35.292119979858" lat="32.938962633209"/><trkpt lon="35.282077789307" lat="32.941771892389"/><trkpt lon="35.276412963867" lat="32.940763450644"/><trkpt lon="35.27400970459" lat="32.940907514455"/><trkpt lon="35.272121429443" lat="32.94249220088"/><trkpt lon="35.270490646362" lat="32.942636261875"/><trkpt lon="35.268001556396" lat="32.946885955606"/><trkpt lon="35.269117355347" lat="32.948614586136"/><trkpt lon="35.266370773315" lat="32.950127110121"/><trkpt lon="35.261993408203" lat="32.950703302927"/><trkpt lon="35.261392593384" lat="32.95243185881"/><trkpt lon="35.262079238892" lat="32.955024629252"/><trkpt lon="35.265254974365" lat="32.956032908328"/><trkpt lon="35.266284942627" lat="32.96229838472"/><trkpt lon="35.269374847412" lat="32.965466962242"/><trkpt lon="35.273923873901" lat="32.962946512094"/><trkpt lon="35.286626815796" lat="32.96020994195"/><trkpt lon="35.287742614746" lat="32.962946512094"/><trkpt lon="35.291690826416" lat="32.963450607876"/><trkpt lon="35.291604995728" lat="32.964674828515"/><trkpt lon="35.285425186157" lat="32.967987340483"/><trkpt lon="35.282421112061" lat="32.970867684708"/><trkpt lon="35.277700424194" lat="32.973243897985"/><trkpt lon="35.27512550354" lat="32.975764054327"/><trkpt lon="35.275297164917" lat="32.976916101845"/><trkpt lon="35.272722244263" lat="32.977564121969"/><trkpt lon="35.271949768066" lat="32.978932148836"/><trkpt lon="35.271778106689" lat="32.980660152479"/><trkpt lon="35.277185440063" lat="32.982820109475"/><trkpt lon="35.281648635864" lat="32.984980013628"/><trkpt lon="35.282506942749" lat="32.986491915092"/><trkpt lon="35.279760360718" lat="32.988075784091"/><trkpt lon="35.278387069702" lat="32.990163567984"/><trkpt lon="35.279588699341" lat="32.992539261997"/><trkpt lon="35.283536911011" lat="32.993187167447"/><trkpt lon="35.282163619995" lat="32.997650386851"/><trkpt lon="35.281734466553" lat="33.00175347003"/><trkpt lon="35.283966064453" lat="33.004200832296"/><trkpt lon="35.283708572388" lat="33.006000320058"/><trkpt lon="35.276498794556" lat="33.015141150949"/><trkpt lon="35.270147323608" lat="33.017804049442"/><trkpt lon="35.263967514038" lat="33.020035064638"/><trkpt lon="35.259675979614" lat="33.023201569917"/><trkpt lon="35.254354476929" lat="33.024928706673"/><trkpt lon="35.256500244141" lat="33.029030520837"/><trkpt lon="35.253753662109" lat="33.030181872955"/><trkpt lon="35.248517990112" lat="33.032196702967"/><trkpt lon="35.244569778442" lat="33.03334801372"/><trkpt lon="35.239162445068" lat="33.034355398288"/></trkseg></trk></gpx>
