<?xml version="1.0" encoding="UTF-8"?>
<gpx creator="Wikiloc - https://www.wikiloc.com" version="1.1" xmlns="http://www.topografix.com/GPX/1/1" xmlns:xsi="http://www.w3.org/2001/XMLSchema-instance" xsi:schemaLocation="http://www.topografix.com/GPX/1/1 http://www.topografix.com/GPX/1/1/gpx.xsd">
  <metadata>
    <name>Wikiloc - -ISRAEL- FORTALEZA DE MONTFORT “Parque Natural de Goren”</name>
    <link href="https://www.wikiloc.com/hiking-trails/israel-fortaleza-de-montfort-parque-natural-de-goren-44209995">
      <text>-ISRAEL- FORTALEZA DE MONTFORT “Parque Natural de Goren” on Wikiloc</text>
    </link>
    <time>2019-12-02T12:32:11Z</time>
  </metadata>
  <trk>
    <name>-ISRAEL- FORTALEZA DE MONTFORT “Parque Natural de Goren”</name>
    <cmt></cmt>
    <desc></desc>
    <trkseg>
      <trkpt lat="33.038390" lon="35.235110">
        <ele>436.348</ele>
        <time>2019-12-02T08:44:33Z</time>
      </trkpt>
      <trkpt lat="33.039265" lon="35.235164">
        <ele>434.161</ele>
        <time>2019-12-02T08:49:44Z</time>
      </trkpt>
      <trkpt lat="33.039633" lon="35.235030">
        <ele>430.417</ele>
        <time>2019-12-02T08:50:35Z</time>
      </trkpt>
      <trkpt lat="33.040245" lon="35.235286">
        <ele>419.208</ele>
        <time>2019-12-02T08:51:44Z</time>
      </trkpt>
      <trkpt lat="33.041906" lon="35.234875">
        <ele>411.298</ele>
        <time>2019-12-02T08:53:46Z</time>
      </trkpt>
      <trkpt lat="33.042969" lon="35.234836">
        <ele>399.278</ele>
        <time>2019-12-02T08:55:11Z</time>
      </trkpt>
      <trkpt lat="33.043022" lon="35.232982">
        <ele>389.386</ele>
        <time>2019-12-02T08:57:11Z</time>
      </trkpt>
      <trkpt lat="33.043806" lon="35.230292">
        <ele>371.244</ele>
        <time>2019-12-02T09:00:20Z</time>
      </trkpt>
      <trkpt lat="33.043927" lon="35.229653">
        <ele>367.883</ele>
        <time>2019-12-02T09:02:00Z</time>
      </trkpt>
      <trkpt lat="33.043738" lon="35.229041">
        <ele>347.583</ele>
        <time>2019-12-02T09:04:20Z</time>
      </trkpt>
      <trkpt lat="33.044141" lon="35.227576">
        <ele>324.623</ele>
        <time>2019-12-02T09:09:34Z</time>
      </trkpt>
      <trkpt lat="33.043997" lon="35.227664">
        <ele>323.179</ele>
        <time>2019-12-02T09:16:41Z</time>
      </trkpt>
      <trkpt lat="33.043885" lon="35.227539">
        <ele>311.885</ele>
        <time>2019-12-02T09:18:08Z</time>
      </trkpt>
      <trkpt lat="33.043830" lon="35.227701">
        <ele>309.289</ele>
        <time>2019-12-02T09:18:45Z</time>
      </trkpt>
      <trkpt lat="33.043930" lon="35.227496">
        <ele>307.517</ele>
        <time>2019-12-02T09:19:23Z</time>
      </trkpt>
      <trkpt lat="33.044314" lon="35.227488">
        <ele>311.208</ele>
        <time>2019-12-02T09:21:37Z</time>
      </trkpt>
      <trkpt lat="33.044481" lon="35.226631">
        <ele>309.232</ele>
        <time>2019-12-02T09:23:49Z</time>
      </trkpt>
      <trkpt lat="33.044383" lon="35.226528">
        <ele>313.922</ele>
        <time>2019-12-02T09:24:36Z</time>
      </trkpt>
      <trkpt lat="33.044341" lon="35.226730">
        <ele>321.890</ele>
        <time>2019-12-02T09:27:41Z</time>
      </trkpt>
      <trkpt lat="33.044346" lon="35.226538">
        <ele>322.028</ele>
        <time>2019-12-02T09:33:23Z</time>
      </trkpt>
      <trkpt lat="33.044663" lon="35.225983">
        <ele>310.297</ele>
        <time>2019-12-02T09:37:23Z</time>
      </trkpt>
      <trkpt lat="33.044649" lon="35.226249">
        <ele>308.887</ele>
        <time>2019-12-02T09:54:48Z</time>
      </trkpt>
      <trkpt lat="33.044716" lon="35.226176">
        <ele>306.667</ele>
        <time>2019-12-02T09:55:11Z</time>
      </trkpt>
      <trkpt lat="33.044767" lon="35.225779">
        <ele>302.773</ele>
        <time>2019-12-02T09:56:01Z</time>
      </trkpt>
      <trkpt lat="33.044377" lon="35.225894">
        <ele>302.146</ele>
        <time>2019-12-02T09:57:50Z</time>
      </trkpt>
      <trkpt lat="33.043963" lon="35.226465">
        <ele>298.588</ele>
        <time>2019-12-02T09:59:26Z</time>
      </trkpt>
      <trkpt lat="33.043931" lon="35.226714">
        <ele>293.316</ele>
        <time>2019-12-02T09:59:52Z</time>
      </trkpt>
      <trkpt lat="33.043754" lon="35.226810">
        <ele>295.808</ele>
        <time>2019-12-02T10:00:06Z</time>
      </trkpt>
      <trkpt lat="33.043842" lon="35.226207">
        <ele>277.358</ele>
        <time>2019-12-02T10:01:46Z</time>
      </trkpt>
      <trkpt lat="33.044669" lon="35.224559">
        <ele>237.168</ele>
        <time>2019-12-02T10:06:34Z</time>
      </trkpt>
      <trkpt lat="33.045358" lon="35.224590">
        <ele>218.566</ele>
        <time>2019-12-02T10:08:34Z</time>
      </trkpt>
      <trkpt lat="33.045908" lon="35.224853">
        <ele>205.144</ele>
        <time>2019-12-02T10:09:49Z</time>
      </trkpt>
      <trkpt lat="33.046298" lon="35.225714">
        <ele>187.083</ele>
        <time>2019-12-02T10:11:34Z</time>
      </trkpt>
      <trkpt lat="33.045926" lon="35.226941">
        <ele>180.913</ele>
        <time>2019-12-02T10:13:53Z</time>
      </trkpt>
      <trkpt lat="33.046061" lon="35.227148">
        <ele>185.983</ele>
        <time>2019-12-02T10:15:06Z</time>
      </trkpt>
      <trkpt lat="33.046107" lon="35.227959">
        <ele>187.459</ele>
        <time>2019-12-02T10:17:20Z</time>
      </trkpt>
      <trkpt lat="33.046413" lon="35.228646">
        <ele>188.532</ele>
        <time>2019-12-02T10:18:25Z</time>
      </trkpt>
      <trkpt lat="33.047205" lon="35.229380">
        <ele>191.592</ele>
        <time>2019-12-02T10:20:03Z</time>
      </trkpt>
      <trkpt lat="33.048090" lon="35.232425">
        <ele>192.911</ele>
        <time>2019-12-02T10:23:51Z</time>
      </trkpt>
      <trkpt lat="33.048027" lon="35.232825">
        <ele>192.208</ele>
        <time>2019-12-02T10:24:29Z</time>
      </trkpt>
      <trkpt lat="33.048164" lon="35.233507">
        <ele>188.237</ele>
        <time>2019-12-02T10:25:29Z</time>
      </trkpt>
      <trkpt lat="33.048902" lon="35.235085">
        <ele>200.787</ele>
        <time>2019-12-02T10:28:13Z</time>
      </trkpt>
      <trkpt lat="33.049041" lon="35.236427">
        <ele>200.595</ele>
        <time>2019-12-02T10:32:13Z</time>
      </trkpt>
      <trkpt lat="33.049934" lon="35.237456">
        <ele>204.533</ele>
        <time>2019-12-02T10:35:42Z</time>
      </trkpt>
      <trkpt lat="33.049927" lon="35.237906">
        <ele>202.672</ele>
        <time>2019-12-02T10:36:18Z</time>
      </trkpt>
      <trkpt lat="33.049656" lon="35.238433">
        <ele>196.922</ele>
        <time>2019-12-02T10:37:07Z</time>
      </trkpt>
      <trkpt lat="33.049794" lon="35.238991">
        <ele>202.672</ele>
        <time>2019-12-02T10:38:11Z</time>
      </trkpt>
      <trkpt lat="33.049501" lon="35.239820">
        <ele>200.468</ele>
        <time>2019-12-02T10:41:51Z</time>
      </trkpt>
      <trkpt lat="33.049213" lon="35.239806">
        <ele>216.377</ele>
        <time>2019-12-02T10:43:35Z</time>
      </trkpt>
      <trkpt lat="33.049024" lon="35.240059">
        <ele>217.461</ele>
        <time>2019-12-02T10:44:42Z</time>
      </trkpt>
      <trkpt lat="33.049121" lon="35.241039">
        <ele>201.827</ele>
        <time>2019-12-02T10:47:21Z</time>
      </trkpt>
      <trkpt lat="33.048923" lon="35.241815">
        <ele>193.408</ele>
        <time>2019-12-02T10:48:50Z</time>
      </trkpt>
      <trkpt lat="33.047906" lon="35.243080">
        <ele>231.151</ele>
        <time>2019-12-02T10:52:07Z</time>
      </trkpt>
      <trkpt lat="33.047143" lon="35.243687">
        <ele>254.721</ele>
        <time>2019-12-02T10:54:34Z</time>
      </trkpt>
      <trkpt lat="33.045663" lon="35.244288">
        <ele>265.889</ele>
        <time>2019-12-02T10:57:22Z</time>
      </trkpt>
      <trkpt lat="33.045323" lon="35.244202">
        <ele>256.487</ele>
        <time>2019-12-02T10:58:06Z</time>
      </trkpt>
      <trkpt lat="33.045232" lon="35.244301">
        <ele>253.586</ele>
        <time>2019-12-02T10:58:40Z</time>
      </trkpt>
      <trkpt lat="33.045280" lon="35.244186">
        <ele>249.846</ele>
        <time>2019-12-02T10:59:39Z</time>
      </trkpt>
      <trkpt lat="33.044560" lon="35.243821">
        <ele>256.986</ele>
        <time>2019-12-02T11:02:42Z</time>
      </trkpt>
      <trkpt lat="33.044460" lon="35.243497">
        <ele>279.252</ele>
        <time>2019-12-02T11:15:30Z</time>
      </trkpt>
      <trkpt lat="33.044293" lon="35.243808">
        <ele>284.748</ele>
        <time>2019-12-02T11:16:24Z</time>
      </trkpt>
      <trkpt lat="33.043587" lon="35.244327">
        <ele>263.161</ele>
        <time>2019-12-02T11:18:29Z</time>
      </trkpt>
      <trkpt lat="33.043424" lon="35.245014">
        <ele>218.117</ele>
        <time>2019-12-02T11:20:27Z</time>
      </trkpt>
      <trkpt lat="33.043143" lon="35.245118">
        <ele>221.608</ele>
        <time>2019-12-02T11:21:58Z</time>
      </trkpt>
      <trkpt lat="33.042932" lon="35.245553">
        <ele>231.278</ele>
        <time>2019-12-02T11:23:28Z</time>
      </trkpt>
      <trkpt lat="33.042801" lon="35.246217">
        <ele>246.348</ele>
        <time>2019-12-02T11:27:08Z</time>
      </trkpt>
      <trkpt lat="33.041966" lon="35.247207">
        <ele>258.216</ele>
        <time>2019-12-02T11:33:26Z</time>
      </trkpt>
      <trkpt lat="33.042557" lon="35.246238">
        <ele>268.764</ele>
        <time>2019-12-02T11:36:53Z</time>
      </trkpt>
      <trkpt lat="33.042569" lon="35.245904">
        <ele>279.633</ele>
        <time>2019-12-02T11:38:23Z</time>
      </trkpt>
      <trkpt lat="33.041764" lon="35.246325">
        <ele>310.943</ele>
        <time>2019-12-02T11:41:20Z</time>
      </trkpt>
      <trkpt lat="33.041077" lon="35.246892">
        <ele>334.273</ele>
        <time>2019-12-02T11:45:27Z</time>
      </trkpt>
      <trkpt lat="33.040927" lon="35.246251">
        <ele>350.649</ele>
        <time>2019-12-02T11:46:57Z</time>
      </trkpt>
      <trkpt lat="33.041031" lon="35.245383">
        <ele>359.828</ele>
        <time>2019-12-02T11:48:50Z</time>
      </trkpt>
      <trkpt lat="33.041258" lon="35.244685">
        <ele>378.889</ele>
        <time>2019-12-02T11:51:00Z</time>
      </trkpt>
      <trkpt lat="33.042184" lon="35.242991">
        <ele>404.617</ele>
        <time>2019-12-02T11:59:19Z</time>
      </trkpt>
      <trkpt lat="33.042668" lon="35.242276">
        <ele>417.908</ele>
        <time>2019-12-02T12:01:50Z</time>
      </trkpt>
      <trkpt lat="33.043050" lon="35.242011">
        <ele>418.586</ele>
        <time>2019-12-02T12:02:52Z</time>
      </trkpt>
      <trkpt lat="33.043108" lon="35.241559">
        <ele>422.926</ele>
        <time>2019-12-02T12:04:04Z</time>
      </trkpt>
      <trkpt lat="33.042639" lon="35.241247">
        <ele>432.844</ele>
        <time>2019-12-02T12:05:40Z</time>
      </trkpt>
      <trkpt lat="33.041366" lon="35.241623">
        <ele>443.682</ele>
        <time>2019-12-02T12:08:40Z</time>
      </trkpt>
      <trkpt lat="33.040707" lon="35.241904">
        <ele>447.651</ele>
        <time>2019-12-02T12:09:59Z</time>
      </trkpt>
      <trkpt lat="33.039813" lon="35.242815">
        <ele>447.571</ele>
        <time>2019-12-02T12:12:14Z</time>
      </trkpt>
      <trkpt lat="33.038930" lon="35.242987">
        <ele>455.321</ele>
        <time>2019-12-02T12:13:53Z</time>
      </trkpt>
      <trkpt lat="33.038783" lon="35.242435">
        <ele>445.337</ele>
        <time>2019-12-02T12:14:53Z</time>
      </trkpt>
      <trkpt lat="33.038879" lon="35.241878">
        <ele>437.882</ele>
        <time>2019-12-02T12:16:21Z</time>
      </trkpt>
      <trkpt lat="33.038494" lon="35.241457">
        <ele>442.143</ele>
        <time>2019-12-02T12:17:38Z</time>
      </trkpt>
      <trkpt lat="33.038138" lon="35.239392">
        <ele>440.217</ele>
        <time>2019-12-02T12:21:45Z</time>
      </trkpt>
      <trkpt lat="33.037895" lon="35.238809">
        <ele>425.808</ele>
        <time>2019-12-02T12:22:45Z</time>
      </trkpt>
      <trkpt lat="33.037385" lon="35.238167">
        <ele>413.982</ele>
        <time>2019-12-02T12:23:59Z</time>
      </trkpt>
      <trkpt lat="33.036680" lon="35.237782">
        <ele>417.692</ele>
        <time>2019-12-02T12:25:25Z</time>
      </trkpt>
      <trkpt lat="33.036988" lon="35.237178">
        <ele>416.770</ele>
        <time>2019-12-02T12:26:30Z</time>
      </trkpt>
      <trkpt lat="33.037374" lon="35.236914">
        <ele>425.698</ele>
        <time>2019-12-02T12:27:18Z</time>
      </trkpt>
      <trkpt lat="33.037372" lon="35.236708">
        <ele>425.127</ele>
        <time>2019-12-02T12:27:57Z</time>
      </trkpt>
      <trkpt lat="33.037969" lon="35.236155">
        <ele>442.487</ele>
        <time>2019-12-02T12:30:06Z</time>
      </trkpt>
      <trkpt lat="33.038217" lon="35.235089">
        <ele>447.477</ele>
        <time>2019-12-02T12:32:11Z</time>
      </trkpt>
    </trkseg>
  </trk></gpx>