<?xml version="1.0" encoding="UTF-8"?>
<gpx xmlns="Amud Anan http://amudanan.co.il/" version="1.0" xmlns:xsi="http://www.w3.org/2001/XMLSchema-instance" xsi:schemaLocation="http://www.topografix.com/GPX/1/0 http://www.topografix.com/GPX/1/0/gpx.xsd"><trk><name>Amud Anan</name><trkseg><trkpt lon="35.729757209931" lat="33.250160275399"/><trkpt lon="35.728813072358" lat="33.250985728676"/><trkpt lon="35.728212257538" lat="33.251595841305"/><trkpt lon="35.72812642685" lat="33.252385392501"/><trkpt lon="35.727611442719" lat="33.253533817869"/><trkpt lon="35.726881881867" lat="33.25328260111"/><trkpt lon="35.726281067048" lat="33.252923718772"/><trkpt lon="35.725808998261" lat="33.252995495357"/><trkpt lon="35.724607368622" lat="33.253462041726"/><trkpt lon="35.723963638459" lat="33.253426153632"/><trkpt lon="35.723663231049" lat="33.253426153632"/><trkpt lon="35.723105331574" lat="33.253569705919"/><trkpt lon="35.722547432099" lat="33.25321082476"/><trkpt lon="35.722118278657" lat="33.252851942127"/><trkpt lon="35.721259971772" lat="33.252995495357"/><trkpt lon="35.720830818329" lat="33.25321082476"/><trkpt lon="35.719972511445" lat="33.253569705919"/><trkpt lon="35.719500442658" lat="33.253497929805"/><trkpt lon="35.719157119904" lat="33.253390265524"/><trkpt lon="35.719500442658" lat="33.253103160125"/><trkpt lon="35.719500442658" lat="33.252816053783"/><trkpt lon="35.718599220429" lat="33.252995495357"/><trkpt lon="35.7176979982" lat="33.25256483496"/><trkpt lon="35.717225929413" lat="33.252385392501"/><trkpt lon="35.716367622529" lat="33.25274427705"/><trkpt lon="35.715809723054" lat="33.25249305802"/><trkpt lon="35.714994331513" lat="33.252421281022"/><trkpt lon="35.714479347382" lat="33.252170061064"/><trkpt lon="35.713663955842" lat="33.251954729096"/><trkpt lon="35.71293439499" lat="33.251703507797"/><trkpt lon="35.711861511384" lat="33.251811174157"/><trkpt lon="35.71091737381" lat="33.251954729096"/><trkpt lon="35.709586998139" lat="33.251739396598"/><trkpt lon="35.709029098664" lat="33.251918840384"/><trkpt lon="35.7083853685" lat="33.251990617795"/><trkpt lon="35.707612892304" lat="33.252205949674"/><trkpt lon="35.707183738862" lat="33.252313615414"/><trkpt lon="35.706840416108" lat="33.252349503965"/><trkpt lon="35.70585336319" lat="33.252385392501"/><trkpt lon="35.705381294404" lat="33.252313615414"/><trkpt lon="35.704480072175" lat="33.252170061064"/><trkpt lon="35.704179664765" lat="33.25213417244"/><trkpt lon="35.703879257355" lat="33.25213417244"/><trkpt lon="35.703493019257" lat="33.251990617795"/><trkpt lon="35.702892204438" lat="33.251775285385"/><trkpt lon="35.702291389619" lat="33.251452285775"/><trkpt lon="35.701518913422" lat="33.251201063031"/><trkpt lon="35.701347252045" lat="33.250949839565"/><trkpt lon="35.700961013947" lat="33.250590947647"/><trkpt lon="35.700660606537" lat="33.250411501135"/><trkpt lon="35.700102707062" lat="33.250375611788"/><trkpt lon="35.699072738801" lat="33.250196164834"/><trkpt lon="35.698471923981" lat="33.250052607005"/><trkpt lon="35.697999855195" lat="33.24990904894"/><trkpt lon="35.697399040375" lat="33.249693711401"/><trkpt lon="35.696884056245" lat="33.249442483602"/><trkpt lon="35.696326156769" lat="33.248940025837"/><trkpt lon="35.696154495392" lat="33.24872468591"/><trkpt lon="35.695854087983" lat="33.248473455325"/><trkpt lon="35.695811172639" lat="33.248294004465"/><trkpt lon="35.695768285439" lat="33.248079416138"/><trkpt lon="35.69557516639" lat="33.248097361285"/><trkpt lon="35.695403505013" lat="33.248205032088"/><trkpt lon="35.695124555275" lat="33.248330647856"/><trkpt lon="35.695103097603" lat="33.248205032088"/><trkpt lon="35.69497435157" lat="33.24798969035"/><trkpt lon="35.694952893898" lat="33.247864074091"/><trkpt lon="35.694759774849" lat="33.24798969035"/><trkpt lon="35.694352079079" lat="33.248133251567"/></trkseg></trk></gpx>
