<?xml version="1.0" encoding="UTF-8" standalone="yes"?>
<gpx version="1.1" creator="IsraelHikingMap" xmlns:xsi="http://www.w3.org/2001/XMLSchema-instance" xsi:schemaLocation="http://www.topografix.com/GPX/1/1 http://www.topografix.com/GPX/1/1/gpx.xsd">
  <metadata>
    <bounds maxlat="32.818921" maxlon="34.993709" minlat="32.80542217821723" minlon="34.987752"></bounds>
  </metadata>
  <trk>
    <name>מסלול 1</name>
    <desc></desc>
    <extensions>
      <Color xmlns="">#0000FF</Color>
      <Opacity xmlns="">0.4</Opacity>
      <Weight xmlns="">9</Weight>
    </extensions>
    <trkseg>
      <trkpt lat="32.80542217821723" lon="34.98917263464833">
        <ele>266.28657061339106</ele>
      </trkpt>
      <trkpt lat="32.80542217821723" lon="34.98917263464833">
        <ele>266.28657061339106</ele>
      </trkpt>
      <extensions>
        <RoutingType xmlns="">Hike</RoutingType>
      </extensions>
    </trkseg>
    <trkseg>
      <trkpt lat="32.80543" lon="34.989165">
        <ele>265.5</ele>
      </trkpt>
      <trkpt lat="32.805459" lon="34.989208">
        <ele>264</ele>
      </trkpt>
      <trkpt lat="32.805475" lon="34.989283">
        <ele>262</ele>
      </trkpt>
      <trkpt lat="32.80556" lon="34.989377">
        <ele>259</ele>
      </trkpt>
      <trkpt lat="32.805632" lon="34.98949">
        <ele>255</ele>
      </trkpt>
      <trkpt lat="32.80563" lon="34.989794">
        <ele>244</ele>
      </trkpt>
      <trkpt lat="32.805514" lon="34.990403">
        <ele>231</ele>
      </trkpt>
      <trkpt lat="32.805468" lon="34.990583">
        <ele>226.5</ele>
      </trkpt>
      <extensions>
        <RoutingType xmlns="">Hike</RoutingType>
      </extensions>
    </trkseg>
    <trkseg>
      <trkpt lat="32.805468" lon="34.990583">
        <ele>226.5</ele>
      </trkpt>
      <trkpt lat="32.805447" lon="34.990665">
        <ele>222</ele>
      </trkpt>
      <trkpt lat="32.805682" lon="34.990506">
        <ele>223</ele>
      </trkpt>
      <trkpt lat="32.805855" lon="34.990726">
        <ele>215</ele>
      </trkpt>
      <trkpt lat="32.806421" lon="34.991316">
        <ele>189</ele>
      </trkpt>
      <trkpt lat="32.806426" lon="34.991384">
        <ele>187</ele>
      </trkpt>
      <trkpt lat="32.806478" lon="34.991337">
        <ele>185.5</ele>
      </trkpt>
      <extensions>
        <RoutingType xmlns="">Hike</RoutingType>
      </extensions>
    </trkseg>
    <trkseg>
      <trkpt lat="32.806478" lon="34.991337">
        <ele>185.5</ele>
      </trkpt>
      <trkpt lat="32.806927" lon="34.990929">
        <ele>184</ele>
      </trkpt>
      <trkpt lat="32.808225" lon="34.989854">
        <ele>175</ele>
      </trkpt>
      <trkpt lat="32.808667" lon="34.989523">
        <ele>173</ele>
      </trkpt>
      <trkpt lat="32.808803" lon="34.989432">
        <ele>171</ele>
      </trkpt>
      <trkpt lat="32.808917" lon="34.989386">
        <ele>169</ele>
      </trkpt>
      <extensions>
        <RoutingType xmlns="">Hike</RoutingType>
      </extensions>
    </trkseg>
    <trkseg>
      <trkpt lat="32.808917" lon="34.989386">
        <ele>169</ele>
      </trkpt>
      <trkpt lat="32.809187" lon="34.989275">
        <ele>167</ele>
      </trkpt>
      <trkpt lat="32.808941" lon="34.989586">
        <ele>164</ele>
      </trkpt>
      <trkpt lat="32.809496" lon="34.990227">
        <ele>141</ele>
      </trkpt>
      <trkpt lat="32.809586" lon="34.990236">
        <ele>141</ele>
      </trkpt>
      <trkpt lat="32.809619" lon="34.990276">
        <ele>141</ele>
      </trkpt>
      <trkpt lat="32.809654" lon="34.990248">
        <ele>142</ele>
      </trkpt>
      <extensions>
        <RoutingType xmlns="">Hike</RoutingType>
      </extensions>
    </trkseg>
    <trkseg>
      <trkpt lat="32.809654" lon="34.990248">
        <ele>142</ele>
      </trkpt>
      <trkpt lat="32.810508" lon="34.989558">
        <ele>143</ele>
      </trkpt>
      <trkpt lat="32.810717" lon="34.98936">
        <ele>145</ele>
      </trkpt>
      <trkpt lat="32.810766" lon="34.989421">
        <ele>142</ele>
      </trkpt>
      <trkpt lat="32.810898" lon="34.989305">
        <ele>143.5</ele>
      </trkpt>
      <extensions>
        <RoutingType xmlns="">Hike</RoutingType>
      </extensions>
    </trkseg>
    <trkseg>
      <trkpt lat="32.810898" lon="34.989305">
        <ele>143.5</ele>
      </trkpt>
      <trkpt lat="32.811018" lon="34.9892">
        <ele>145</ele>
      </trkpt>
      <trkpt lat="32.811214" lon="34.989476">
        <ele>133</ele>
      </trkpt>
      <extensions>
        <RoutingType xmlns="">Hike</RoutingType>
      </extensions>
    </trkseg>
    <trkseg>
      <trkpt lat="32.811214" lon="34.989476">
        <ele>133</ele>
      </trkpt>
      <trkpt lat="32.811495" lon="34.989874">
        <ele>121</ele>
      </trkpt>
      <trkpt lat="32.811508" lon="34.989868">
        <ele>122</ele>
      </trkpt>
      <extensions>
        <RoutingType xmlns="">Hike</RoutingType>
      </extensions>
    </trkseg>
    <trkseg>
      <trkpt lat="32.811508" lon="34.989868">
        <ele>122</ele>
      </trkpt>
      <trkpt lat="32.811731" lon="34.989768">
        <ele>123</ele>
      </trkpt>
      <trkpt lat="32.812385" lon="34.989147">
        <ele>126</ele>
      </trkpt>
      <trkpt lat="32.812514" lon="34.989007">
        <ele>126</ele>
      </trkpt>
      <trkpt lat="32.812622" lon="34.988945">
        <ele>126</ele>
      </trkpt>
      <trkpt lat="32.812722" lon="34.988913">
        <ele>124</ele>
      </trkpt>
      <trkpt lat="32.81283" lon="34.988913">
        <ele>123</ele>
      </trkpt>
      <trkpt lat="32.812834" lon="34.988888">
        <ele>125.5</ele>
      </trkpt>
      <extensions>
        <RoutingType xmlns="">Hike</RoutingType>
      </extensions>
    </trkseg>
    <trkseg>
      <trkpt lat="32.812834" lon="34.988888">
        <ele>125.5</ele>
      </trkpt>
      <trkpt lat="32.812889" lon="34.988532">
        <ele>128</ele>
      </trkpt>
      <trkpt lat="32.812887" lon="34.98839">
        <ele>130</ele>
      </trkpt>
      <trkpt lat="32.812929" lon="34.988151">
        <ele>131</ele>
      </trkpt>
      <trkpt lat="32.813092" lon="34.987752">
        <ele>136.5</ele>
      </trkpt>
      <extensions>
        <RoutingType xmlns="">Hike</RoutingType>
      </extensions>
    </trkseg>
    <trkseg>
      <trkpt lat="32.813092" lon="34.987752">
        <ele>136.5</ele>
      </trkpt>
      <trkpt lat="32.813078" lon="34.987774">
        <ele>136</ele>
      </trkpt>
      <trkpt lat="32.813873" lon="34.988911">
        <ele>125.5</ele>
      </trkpt>
      <extensions>
        <RoutingType xmlns="">Hike</RoutingType>
      </extensions>
    </trkseg>
    <trkseg>
      <trkpt lat="32.813873" lon="34.988911">
        <ele>125.5</ele>
      </trkpt>
      <trkpt lat="32.813876" lon="34.988917">
        <ele>115</ele>
      </trkpt>
      <trkpt lat="32.814128" lon="34.989034">
        <ele>110</ele>
      </trkpt>
      <trkpt lat="32.81422" lon="34.988985">
        <ele>108</ele>
      </trkpt>
      <trkpt lat="32.81431" lon="34.988935">
        <ele>108</ele>
      </trkpt>
      <trkpt lat="32.814663" lon="34.989056">
        <ele>94</ele>
      </trkpt>
      <trkpt lat="32.81514" lon="34.989296">
        <ele>79</ele>
      </trkpt>
      <trkpt lat="32.815487" lon="34.989446">
        <ele>74</ele>
      </trkpt>
      <extensions>
        <RoutingType xmlns="">Hike</RoutingType>
      </extensions>
    </trkseg>
    <trkseg>
      <trkpt lat="32.815487" lon="34.989446">
        <ele>74</ele>
      </trkpt>
      <trkpt lat="32.815507" lon="34.989455">
        <ele>69</ele>
      </trkpt>
      <trkpt lat="32.815631" lon="34.988911">
        <ele>73</ele>
      </trkpt>
      <trkpt lat="32.81574" lon="34.988968">
        <ele>64.5</ele>
      </trkpt>
      <extensions>
        <RoutingType xmlns="">Hike</RoutingType>
      </extensions>
    </trkseg>
    <trkseg>
      <trkpt lat="32.81574" lon="34.988968">
        <ele>64.5</ele>
      </trkpt>
      <trkpt lat="32.816344" lon="34.989281">
        <ele>56</ele>
      </trkpt>
      <trkpt lat="32.816896" lon="34.989604">
        <ele>50</ele>
      </trkpt>
      <extensions>
        <RoutingType xmlns="">Hike</RoutingType>
      </extensions>
    </trkseg>
    <trkseg>
      <trkpt lat="32.816896" lon="34.989604">
        <ele>50</ele>
      </trkpt>
      <trkpt lat="32.816972" lon="34.989648">
        <ele>44</ele>
      </trkpt>
      <trkpt lat="32.816955" lon="34.989769">
        <ele>44</ele>
      </trkpt>
      <trkpt lat="32.818833" lon="34.990941">
        <ele>26</ele>
      </trkpt>
      <trkpt lat="32.818832" lon="34.990924">
        <ele>27</ele>
      </trkpt>
      <extensions>
        <RoutingType xmlns="">Hike</RoutingType>
      </extensions>
    </trkseg>
    <trkseg>
      <trkpt lat="32.818832" lon="34.990924">
        <ele>27</ele>
      </trkpt>
      <trkpt lat="32.818871" lon="34.992091">
        <ele>26</ele>
      </trkpt>
      <trkpt lat="32.81885" lon="34.993467">
        <ele>21</ele>
      </trkpt>
      <trkpt lat="32.818884" lon="34.993629">
        <ele>20</ele>
      </trkpt>
      <trkpt lat="32.818921" lon="34.993709">
        <ele>19</ele>
      </trkpt>
      <extensions>
        <RoutingType xmlns="">Hike</RoutingType>
      </extensions>
    </trkseg>
  </trk>
</gpx>
