<?xml version="1.0" encoding="UTF-8" standalone="yes"?>
<gpx version="1.1" creator="IsraelHikingMap" xmlns:xsi="http://www.w3.org/2001/XMLSchema-instance" xsi:schemaLocation="http://www.topografix.com/GPX/1/1 http://www.topografix.com/GPX/1/1/gpx.xsd">
  <metadata>
    <bounds maxlat="32.818946" maxlon="34.994953" minlat="32.804322" minlon="34.989069"></bounds>
  </metadata>
  <trk>
    <name>מסלול 1</name>
    <desc></desc>
    <extensions>
      <Color xmlns="">#0000FF</Color>
      <Opacity xmlns="">0.4</Opacity>
      <Weight xmlns="">9</Weight>
    </extensions>
    <trkseg>
      <trkpt lat="32.818901581498594" lon="34.993792980064256">
        <ele>19.26467519853266</ele>
      </trkpt>
      <trkpt lat="32.818901581498594" lon="34.993792980064256">
        <ele>19.26467519853266</ele>
      </trkpt>
      <extensions>
        <RoutingType xmlns="">Hike</RoutingType>
      </extensions>
    </trkseg>
    <trkseg>
      <trkpt lat="32.818946" lon="34.993736">
        <ele>19</ele>
      </trkpt>
      <trkpt lat="32.818919" lon="34.993707">
        <ele>20</ele>
      </trkpt>
      <trkpt lat="32.818829" lon="34.993665">
        <ele>20</ele>
      </trkpt>
      <trkpt lat="32.818712" lon="34.993649">
        <ele>21</ele>
      </trkpt>
      <trkpt lat="32.818703" lon="34.993715">
        <ele>20</ele>
      </trkpt>
      <trkpt lat="32.818663" lon="34.993671">
        <ele>21</ele>
      </trkpt>
      <trkpt lat="32.818572" lon="34.993661">
        <ele>22</ele>
      </trkpt>
      <extensions>
        <RoutingType xmlns="">Hike</RoutingType>
      </extensions>
    </trkseg>
    <trkseg>
      <trkpt lat="32.818572" lon="34.993661">
        <ele>22</ele>
      </trkpt>
      <trkpt lat="32.818374" lon="34.993638">
        <ele>23</ele>
      </trkpt>
      <trkpt lat="32.817839" lon="34.993751">
        <ele>26</ele>
      </trkpt>
      <trkpt lat="32.817712" lon="34.993857">
        <ele>27</ele>
      </trkpt>
      <trkpt lat="32.817719" lon="34.993842">
        <ele>27</ele>
      </trkpt>
      <extensions>
        <RoutingType xmlns="">Hike</RoutingType>
      </extensions>
    </trkseg>
    <trkseg>
      <trkpt lat="32.817719" lon="34.993842">
        <ele>27</ele>
      </trkpt>
      <trkpt lat="32.817712" lon="34.993857">
        <ele>27</ele>
      </trkpt>
      <trkpt lat="32.817284" lon="34.993787">
        <ele>30</ele>
      </trkpt>
      <trkpt lat="32.816956" lon="34.993784">
        <ele>32</ele>
      </trkpt>
      <trkpt lat="32.816573" lon="34.993836">
        <ele>34</ele>
      </trkpt>
      <trkpt lat="32.816358" lon="34.993835">
        <ele>33</ele>
      </trkpt>
      <trkpt lat="32.816196" lon="34.993934">
        <ele>34</ele>
      </trkpt>
      <trkpt lat="32.816064" lon="34.993972">
        <ele>37.5</ele>
      </trkpt>
      <extensions>
        <RoutingType xmlns="">Hike</RoutingType>
      </extensions>
    </trkseg>
    <trkseg>
      <trkpt lat="32.816064" lon="34.993972">
        <ele>37.5</ele>
      </trkpt>
      <trkpt lat="32.814986" lon="34.994094">
        <ele>41</ele>
      </trkpt>
      <trkpt lat="32.814944" lon="34.994095">
        <ele>42</ele>
      </trkpt>
      <trkpt lat="32.814797" lon="34.994022">
        <ele>42</ele>
      </trkpt>
      <trkpt lat="32.814795" lon="34.994017">
        <ele>47.5</ele>
      </trkpt>
      <extensions>
        <RoutingType xmlns="">Hike</RoutingType>
      </extensions>
    </trkseg>
    <trkseg>
      <trkpt lat="32.814795" lon="34.994017">
        <ele>47.5</ele>
      </trkpt>
      <trkpt lat="32.814502" lon="34.99323">
        <ele>53</ele>
      </trkpt>
      <trkpt lat="32.814493" lon="34.993237">
        <ele>53</ele>
      </trkpt>
      <extensions>
        <RoutingType xmlns="">Hike</RoutingType>
      </extensions>
    </trkseg>
    <trkseg>
      <trkpt lat="32.814493" lon="34.993237">
        <ele>53</ele>
      </trkpt>
      <trkpt lat="32.813355" lon="34.994079">
        <ele>56</ele>
      </trkpt>
      <extensions>
        <RoutingType xmlns="">Hike</RoutingType>
      </extensions>
    </trkseg>
    <trkseg>
      <trkpt lat="32.813355" lon="34.994079">
        <ele>56</ele>
      </trkpt>
      <trkpt lat="32.813349" lon="34.994085">
        <ele>56</ele>
      </trkpt>
      <trkpt lat="32.813059" lon="34.993617">
        <ele>62</ele>
      </trkpt>
      <trkpt lat="32.812858" lon="34.993249">
        <ele>68</ele>
      </trkpt>
      <trkpt lat="32.812715" lon="34.992975">
        <ele>72</ele>
      </trkpt>
      <trkpt lat="32.812719" lon="34.992971">
        <ele>71.5</ele>
      </trkpt>
      <extensions>
        <RoutingType xmlns="">Hike</RoutingType>
      </extensions>
    </trkseg>
    <trkseg>
      <trkpt lat="32.812719" lon="34.992971">
        <ele>71.5</ele>
      </trkpt>
      <trkpt lat="32.812154" lon="34.993492">
        <ele>72</ele>
      </trkpt>
      <trkpt lat="32.811951" lon="34.993709">
        <ele>71</ele>
      </trkpt>
      <trkpt lat="32.811766" lon="34.993959">
        <ele>70</ele>
      </trkpt>
      <extensions>
        <RoutingType xmlns="">Hike</RoutingType>
      </extensions>
    </trkseg>
    <trkseg>
      <trkpt lat="32.811766" lon="34.993959">
        <ele>70</ele>
      </trkpt>
      <trkpt lat="32.811759" lon="34.993968">
        <ele>69</ele>
      </trkpt>
      <trkpt lat="32.811643" lon="34.99404">
        <ele>69</ele>
      </trkpt>
      <trkpt lat="32.811507" lon="34.994065">
        <ele>69</ele>
      </trkpt>
      <trkpt lat="32.811376" lon="34.993981">
        <ele>70</ele>
      </trkpt>
      <trkpt lat="32.811126" lon="34.993733">
        <ele>75</ele>
      </trkpt>
      <extensions>
        <RoutingType xmlns="">Hike</RoutingType>
      </extensions>
    </trkseg>
    <trkseg>
      <trkpt lat="32.811126" lon="34.993733">
        <ele>75</ele>
      </trkpt>
      <trkpt lat="32.811055" lon="34.993624">
        <ele>76</ele>
      </trkpt>
      <trkpt lat="32.810783" lon="34.993294">
        <ele>81</ele>
      </trkpt>
      <trkpt lat="32.810758" lon="34.993265">
        <ele>83</ele>
      </trkpt>
      <extensions>
        <RoutingType xmlns="">Hike</RoutingType>
      </extensions>
    </trkseg>
    <trkseg>
      <trkpt lat="32.810758" lon="34.993265">
        <ele>83</ele>
      </trkpt>
      <trkpt lat="32.81038" lon="34.992833">
        <ele>91</ele>
      </trkpt>
      <trkpt lat="32.809813" lon="34.992841">
        <ele>96.5</ele>
      </trkpt>
      <extensions>
        <RoutingType xmlns="">Hike</RoutingType>
      </extensions>
    </trkseg>
    <trkseg>
      <trkpt lat="32.809813" lon="34.992841">
        <ele>96.5</ele>
      </trkpt>
      <trkpt lat="32.8098" lon="34.992841">
        <ele>102</ele>
      </trkpt>
      <trkpt lat="32.809789" lon="34.993029">
        <ele>101</ele>
      </trkpt>
      <trkpt lat="32.80974" lon="34.993191">
        <ele>101</ele>
      </trkpt>
      <trkpt lat="32.809672" lon="34.993338">
        <ele>100</ele>
      </trkpt>
      <trkpt lat="32.809122" lon="34.992879">
        <ele>113</ele>
      </trkpt>
      <trkpt lat="32.80887" lon="34.992624">
        <ele>117</ele>
      </trkpt>
      <trkpt lat="32.808462" lon="34.992284">
        <ele>124</ele>
      </trkpt>
      <extensions>
        <RoutingType xmlns="">Hike</RoutingType>
      </extensions>
    </trkseg>
    <trkseg>
      <trkpt lat="32.808462" lon="34.992284">
        <ele>124</ele>
      </trkpt>
      <trkpt lat="32.808447" lon="34.992272">
        <ele>131</ele>
      </trkpt>
      <trkpt lat="32.808306" lon="34.99258">
        <ele>128</ele>
      </trkpt>
      <trkpt lat="32.808347" lon="34.992623">
        <ele>127</ele>
      </trkpt>
      <trkpt lat="32.808351" lon="34.992719">
        <ele>126</ele>
      </trkpt>
      <trkpt lat="32.808315" lon="34.992767">
        <ele>126</ele>
      </trkpt>
      <trkpt lat="32.808235" lon="34.992773">
        <ele>126</ele>
      </trkpt>
      <trkpt lat="32.807776" lon="34.993817">
        <ele>122</ele>
      </trkpt>
      <trkpt lat="32.80763" lon="34.994207">
        <ele>119</ele>
      </trkpt>
      <trkpt lat="32.807634" lon="34.99421">
        <ele>114.5</ele>
      </trkpt>
      <extensions>
        <RoutingType xmlns="">Hike</RoutingType>
      </extensions>
    </trkseg>
    <trkseg>
      <trkpt lat="32.807634" lon="34.99421">
        <ele>114.5</ele>
      </trkpt>
      <trkpt lat="32.80763" lon="34.994207">
        <ele>119</ele>
      </trkpt>
      <trkpt lat="32.807347" lon="34.994936">
        <ele>122</ele>
      </trkpt>
      <trkpt lat="32.807377" lon="34.994953">
        <ele>118</ele>
      </trkpt>
      <extensions>
        <RoutingType xmlns="">Hike</RoutingType>
      </extensions>
    </trkseg>
    <trkseg>
      <trkpt lat="32.807377" lon="34.994953">
        <ele>118</ele>
      </trkpt>
      <trkpt lat="32.807347" lon="34.994936">
        <ele>122</ele>
      </trkpt>
      <trkpt lat="32.806774" lon="34.994658">
        <ele>140</ele>
      </trkpt>
      <trkpt lat="32.806156" lon="34.994316">
        <ele>157</ele>
      </trkpt>
      <trkpt lat="32.805417" lon="34.993755">
        <ele>182</ele>
      </trkpt>
      <trkpt lat="32.805444" lon="34.993738">
        <ele>181</ele>
      </trkpt>
      <extensions>
        <RoutingType xmlns="">Hike</RoutingType>
      </extensions>
    </trkseg>
    <trkseg>
      <trkpt lat="32.805444" lon="34.993738">
        <ele>181</ele>
      </trkpt>
      <trkpt lat="32.805417" lon="34.993755">
        <ele>182</ele>
      </trkpt>
      <trkpt lat="32.805312" lon="34.993976">
        <ele>179</ele>
      </trkpt>
      <trkpt lat="32.805011" lon="34.994159">
        <ele>175.5</ele>
      </trkpt>
      <extensions>
        <RoutingType xmlns="">Hike</RoutingType>
      </extensions>
    </trkseg>
    <trkseg>
      <trkpt lat="32.805011" lon="34.994159">
        <ele>175.5</ele>
      </trkpt>
      <trkpt lat="32.804852" lon="34.993982">
        <ele>172</ele>
      </trkpt>
      <trkpt lat="32.804678" lon="34.993158">
        <ele>182</ele>
      </trkpt>
      <trkpt lat="32.804336" lon="34.992684">
        <ele>186</ele>
      </trkpt>
      <trkpt lat="32.804322" lon="34.992472">
        <ele>190</ele>
      </trkpt>
      <trkpt lat="32.804368" lon="34.992293">
        <ele>193.5</ele>
      </trkpt>
      <extensions>
        <RoutingType xmlns="">Hike</RoutingType>
      </extensions>
    </trkseg>
    <trkseg>
      <trkpt lat="32.804368" lon="34.992293">
        <ele>193.5</ele>
      </trkpt>
      <trkpt lat="32.804392" lon="34.992199">
        <ele>197</ele>
      </trkpt>
      <trkpt lat="32.804463" lon="34.992229">
        <ele>197</ele>
      </trkpt>
      <trkpt lat="32.80448" lon="34.992124">
        <ele>199</ele>
      </trkpt>
      <trkpt lat="32.804523" lon="34.992045">
        <ele>200</ele>
      </trkpt>
      <trkpt lat="32.805118" lon="34.991478">
        <ele>205.5</ele>
      </trkpt>
      <extensions>
        <RoutingType xmlns="">Hike</RoutingType>
      </extensions>
    </trkseg>
    <trkseg>
      <trkpt lat="32.805118" lon="34.991478">
        <ele>205.5</ele>
      </trkpt>
      <trkpt lat="32.805136" lon="34.991461">
        <ele>211</ele>
      </trkpt>
      <trkpt lat="32.805184" lon="34.991338">
        <ele>216.5</ele>
      </trkpt>
      <extensions>
        <RoutingType xmlns="">Hike</RoutingType>
      </extensions>
    </trkseg>
    <trkseg>
      <trkpt lat="32.805184" lon="34.991338">
        <ele>216.5</ele>
      </trkpt>
      <trkpt lat="32.805447" lon="34.990665">
        <ele>222</ele>
      </trkpt>
      <trkpt lat="32.805514" lon="34.990403">
        <ele>231</ele>
      </trkpt>
      <trkpt lat="32.80563" lon="34.989794">
        <ele>244</ele>
      </trkpt>
      <trkpt lat="32.805632" lon="34.98949">
        <ele>255</ele>
      </trkpt>
      <trkpt lat="32.805606" lon="34.989449">
        <ele>257</ele>
      </trkpt>
      <extensions>
        <RoutingType xmlns="">Hike</RoutingType>
      </extensions>
    </trkseg>
    <trkseg>
      <trkpt lat="32.805606" lon="34.989449">
        <ele>257</ele>
      </trkpt>
      <trkpt lat="32.805475" lon="34.989283">
        <ele>262</ele>
      </trkpt>
      <trkpt lat="32.805459" lon="34.989208">
        <ele>264</ele>
      </trkpt>
      <trkpt lat="32.805437" lon="34.989176">
        <ele>265.5</ele>
      </trkpt>
      <extensions>
        <RoutingType xmlns="">Hike</RoutingType>
      </extensions>
    </trkseg>
    <trkseg>
      <trkpt lat="32.805437" lon="34.989176">
        <ele>265.5</ele>
      </trkpt>
      <trkpt lat="32.805369" lon="34.989076">
        <ele>267</ele>
      </trkpt>
      <trkpt lat="32.805376" lon="34.989069">
        <ele>267.5</ele>
      </trkpt>
      <extensions>
        <RoutingType xmlns="">Hike</RoutingType>
      </extensions>
    </trkseg>
  </trk>
</gpx>
