<?xml version="1.0" encoding="UTF-8" standalone="yes"?>
<gpx version="1.1" creator="IsraelHikingMap" xmlns:xsi="http://www.w3.org/2001/XMLSchema-instance" xsi:schemaLocation="http://www.topografix.com/GPX/1/1 http://www.topografix.com/GPX/1/1/gpx.xsd">
  <metadata>
    <bounds maxlat="32.743489" maxlon="35.076107" minlat="32.724267" minlon="35.065972"></bounds>
  </metadata>
  <trk>
    <name>מסלול 1</name>
    <desc></desc>
    <extensions>
      <Color xmlns="">#0000FF</Color>
      <Opacity xmlns="">0.4</Opacity>
      <Weight xmlns="">9</Weight>
    </extensions>
    <trkseg>
      <trkpt lat="32.743460541284975" lon="35.07193330135098">
        <ele>23.969027213221615</ele>
      </trkpt>
      <trkpt lat="32.743460541284975" lon="35.07193330135098">
        <ele>23.969027213221615</ele>
      </trkpt>
      <extensions>
        <RoutingType xmlns="">Hike</RoutingType>
      </extensions>
    </trkseg>
    <trkseg>
      <trkpt lat="32.743443" lon="35.071948">
        <ele>24.5</ele>
      </trkpt>
      <trkpt lat="32.743489" lon="35.072025">
        <ele>23</ele>
      </trkpt>
      <trkpt lat="32.743044" lon="35.072618">
        <ele>26</ele>
      </trkpt>
      <extensions>
        <RoutingType xmlns="">Hike</RoutingType>
      </extensions>
    </trkseg>
    <trkseg>
      <trkpt lat="32.743044" lon="35.072618">
        <ele>26</ele>
      </trkpt>
      <trkpt lat="32.742972" lon="35.072714">
        <ele>29</ele>
      </trkpt>
      <trkpt lat="32.742461" lon="35.072639">
        <ele>37</ele>
      </trkpt>
      <trkpt lat="32.742416" lon="35.072649">
        <ele>37</ele>
      </trkpt>
      <trkpt lat="32.742381" lon="35.072559">
        <ele>39</ele>
      </trkpt>
      <extensions>
        <RoutingType xmlns="">Hike</RoutingType>
      </extensions>
    </trkseg>
    <trkseg>
      <trkpt lat="32.742381" lon="35.072559">
        <ele>39</ele>
      </trkpt>
      <trkpt lat="32.742416" lon="35.072649">
        <ele>37</ele>
      </trkpt>
      <trkpt lat="32.742334" lon="35.072667">
        <ele>37</ele>
      </trkpt>
      <trkpt lat="32.742148" lon="35.072548">
        <ele>40</ele>
      </trkpt>
      <trkpt lat="32.741867" lon="35.072486">
        <ele>44</ele>
      </trkpt>
      <trkpt lat="32.741776" lon="35.072508">
        <ele>49.5</ele>
      </trkpt>
      <extensions>
        <RoutingType xmlns="">Hike</RoutingType>
      </extensions>
    </trkseg>
    <trkseg>
      <trkpt lat="32.741776" lon="35.072508">
        <ele>49.5</ele>
      </trkpt>
      <trkpt lat="32.741613" lon="35.072548">
        <ele>55</ele>
      </trkpt>
      <trkpt lat="32.74153" lon="35.072635">
        <ele>60</ele>
      </trkpt>
      <extensions>
        <RoutingType xmlns="">Hike</RoutingType>
      </extensions>
    </trkseg>
    <trkseg>
      <trkpt lat="32.74153" lon="35.072635">
        <ele>60</ele>
      </trkpt>
      <trkpt lat="32.74142" lon="35.07275">
        <ele>65</ele>
      </trkpt>
      <trkpt lat="32.741356" lon="35.072654">
        <ele>70</ele>
      </trkpt>
      <trkpt lat="32.741138" lon="35.072674">
        <ele>78.5</ele>
      </trkpt>
      <extensions>
        <RoutingType xmlns="">Hike</RoutingType>
      </extensions>
    </trkseg>
    <trkseg>
      <trkpt lat="32.741138" lon="35.072674">
        <ele>78.5</ele>
      </trkpt>
      <trkpt lat="32.741098" lon="35.072678">
        <ele>87</ele>
      </trkpt>
      <trkpt lat="32.74095" lon="35.072715">
        <ele>92.5</ele>
      </trkpt>
      <extensions>
        <RoutingType xmlns="">Hike</RoutingType>
      </extensions>
    </trkseg>
    <trkseg>
      <trkpt lat="32.74095" lon="35.072716">
        <ele>92.5</ele>
      </trkpt>
      <trkpt lat="32.740907" lon="35.072727">
        <ele>98</ele>
      </trkpt>
      <trkpt lat="32.740755" lon="35.07309">
        <ele>102.5</ele>
      </trkpt>
      <extensions>
        <RoutingType xmlns="">Hike</RoutingType>
      </extensions>
    </trkseg>
    <trkseg>
      <trkpt lat="32.740755" lon="35.07309">
        <ele>102.5</ele>
      </trkpt>
      <trkpt lat="32.740726" lon="35.073161">
        <ele>107</ele>
      </trkpt>
      <trkpt lat="32.740122" lon="35.073019">
        <ele>122</ele>
      </trkpt>
      <trkpt lat="32.740032" lon="35.073053">
        <ele>117</ele>
      </trkpt>
      <trkpt lat="32.739708" lon="35.073007">
        <ele>102.5</ele>
      </trkpt>
      <extensions>
        <RoutingType xmlns="">Hike</RoutingType>
      </extensions>
    </trkseg>
    <trkseg>
      <trkpt lat="32.739708" lon="35.073007">
        <ele>102.5</ele>
      </trkpt>
      <trkpt lat="32.739631" lon="35.073045">
        <ele>99</ele>
      </trkpt>
      <trkpt lat="32.739439" lon="35.073504">
        <ele>79</ele>
      </trkpt>
      <trkpt lat="32.739341" lon="35.07367">
        <ele>72</ele>
      </trkpt>
      <extensions>
        <RoutingType xmlns="">Hike</RoutingType>
      </extensions>
    </trkseg>
    <trkseg>
      <trkpt lat="32.739342" lon="35.07367">
        <ele>72</ele>
      </trkpt>
      <trkpt lat="32.739331" lon="35.073688">
        <ele>65</ele>
      </trkpt>
      <trkpt lat="32.739231" lon="35.073697">
        <ele>61</ele>
      </trkpt>
      <trkpt lat="32.738976" lon="35.07361">
        <ele>59</ele>
      </trkpt>
      <trkpt lat="32.738952" lon="35.073622">
        <ele>59</ele>
      </trkpt>
      <extensions>
        <RoutingType xmlns="">Hike</RoutingType>
      </extensions>
    </trkseg>
    <trkseg>
      <trkpt lat="32.738952" lon="35.073622">
        <ele>59</ele>
      </trkpt>
      <trkpt lat="32.73888" lon="35.073659">
        <ele>59</ele>
      </trkpt>
      <trkpt lat="32.738841" lon="35.073785">
        <ele>59</ele>
      </trkpt>
      <trkpt lat="32.73887" lon="35.073976">
        <ele>60</ele>
      </trkpt>
      <trkpt lat="32.738857" lon="35.07433">
        <ele>62</ele>
      </trkpt>
      <trkpt lat="32.738888" lon="35.074759">
        <ele>62</ele>
      </trkpt>
      <trkpt lat="32.738879" lon="35.075387">
        <ele>73</ele>
      </trkpt>
      <trkpt lat="32.738897" lon="35.075632">
        <ele>71.5</ele>
      </trkpt>
      <extensions>
        <RoutingType xmlns="">Hike</RoutingType>
      </extensions>
    </trkseg>
    <trkseg>
      <trkpt lat="32.738897" lon="35.075632">
        <ele>71.5</ele>
      </trkpt>
      <trkpt lat="32.738904" lon="35.075741">
        <ele>70</ele>
      </trkpt>
      <trkpt lat="32.738825" lon="35.075867">
        <ele>76</ele>
      </trkpt>
      <trkpt lat="32.738809" lon="35.075867">
        <ele>79</ele>
      </trkpt>
      <extensions>
        <RoutingType xmlns="">Hike</RoutingType>
      </extensions>
    </trkseg>
    <trkseg>
      <trkpt lat="32.738809" lon="35.075867">
        <ele>79</ele>
      </trkpt>
      <trkpt lat="32.738753" lon="35.075869">
        <ele>82</ele>
      </trkpt>
      <trkpt lat="32.73861" lon="35.075824">
        <ele>93</ele>
      </trkpt>
      <trkpt lat="32.738451" lon="35.075708">
        <ele>96</ele>
      </trkpt>
      <trkpt lat="32.73836821136339" lon="35.07573306034406">
        <ele>100.92256758240191</ele>
      </trkpt>
      <extensions>
        <RoutingType xmlns="">Hike</RoutingType>
      </extensions>
    </trkseg>
    <trkseg>
      <trkpt lat="32.73836821136339" lon="35.07573306034406">
        <ele>100.92256758240191</ele>
      </trkpt>
      <trkpt lat="32.738266" lon="35.075764">
        <ele>107</ele>
      </trkpt>
      <trkpt lat="32.73812" lon="35.075638">
        <ele>117</ele>
      </trkpt>
      <trkpt lat="32.738045" lon="35.07561">
        <ele>119.5</ele>
      </trkpt>
      <extensions>
        <RoutingType xmlns="">Hike</RoutingType>
      </extensions>
    </trkseg>
    <trkseg>
      <trkpt lat="32.738045" lon="35.07561">
        <ele>119.5</ele>
      </trkpt>
      <trkpt lat="32.738008" lon="35.075596">
        <ele>122</ele>
      </trkpt>
      <trkpt lat="32.737869" lon="35.075741">
        <ele>132</ele>
      </trkpt>
      <trkpt lat="32.737646" lon="35.075828">
        <ele>140</ele>
      </trkpt>
      <trkpt lat="32.737456" lon="35.076016">
        <ele>143.5</ele>
      </trkpt>
      <extensions>
        <RoutingType xmlns="">Hike</RoutingType>
      </extensions>
    </trkseg>
    <trkseg>
      <trkpt lat="32.737456" lon="35.076016">
        <ele>143.5</ele>
      </trkpt>
      <trkpt lat="32.737383" lon="35.076107">
        <ele>144</ele>
      </trkpt>
      <trkpt lat="32.737258" lon="35.076052">
        <ele>151</ele>
      </trkpt>
      <trkpt lat="32.737175" lon="35.07593">
        <ele>155</ele>
      </trkpt>
      <extensions>
        <RoutingType xmlns="">Hike</RoutingType>
      </extensions>
    </trkseg>
    <trkseg>
      <trkpt lat="32.737175" lon="35.07593">
        <ele>155</ele>
      </trkpt>
      <trkpt lat="32.737139" lon="35.075898">
        <ele>157</ele>
      </trkpt>
      <trkpt lat="32.737015" lon="35.07592">
        <ele>157.5</ele>
      </trkpt>
      <extensions>
        <RoutingType xmlns="">Hike</RoutingType>
      </extensions>
    </trkseg>
    <trkseg>
      <trkpt lat="32.737015" lon="35.07592">
        <ele>157.5</ele>
      </trkpt>
      <trkpt lat="32.736833" lon="35.075855">
        <ele>164</ele>
      </trkpt>
      <trkpt lat="32.736756" lon="35.075737">
        <ele>169</ele>
      </trkpt>
      <trkpt lat="32.736716" lon="35.075716">
        <ele>172.5</ele>
      </trkpt>
      <extensions>
        <RoutingType xmlns="">Hike</RoutingType>
      </extensions>
    </trkseg>
    <trkseg>
      <trkpt lat="32.736716" lon="35.075716">
        <ele>172.5</ele>
      </trkpt>
      <trkpt lat="32.736617" lon="35.075665">
        <ele>176</ele>
      </trkpt>
      <trkpt lat="32.736529" lon="35.075581">
        <ele>180</ele>
      </trkpt>
      <trkpt lat="32.736468" lon="35.075587">
        <ele>181.5</ele>
      </trkpt>
      <extensions>
        <RoutingType xmlns="">Hike</RoutingType>
      </extensions>
    </trkseg>
    <trkseg>
      <trkpt lat="32.736468" lon="35.075587">
        <ele>181.5</ele>
      </trkpt>
      <trkpt lat="32.736399" lon="35.075593">
        <ele>183</ele>
      </trkpt>
      <trkpt lat="32.736298" lon="35.075693">
        <ele>185.5</ele>
      </trkpt>
      <extensions>
        <RoutingType xmlns="">Hike</RoutingType>
      </extensions>
    </trkseg>
    <trkseg>
      <trkpt lat="32.736298" lon="35.075693">
        <ele>185.5</ele>
      </trkpt>
      <trkpt lat="32.736222" lon="35.075719">
        <ele>187</ele>
      </trkpt>
      <trkpt lat="32.736088" lon="35.075546">
        <ele>190.5</ele>
      </trkpt>
      <extensions>
        <RoutingType xmlns="">Hike</RoutingType>
      </extensions>
    </trkseg>
    <trkseg>
      <trkpt lat="32.736088" lon="35.075546">
        <ele>190.5</ele>
      </trkpt>
      <trkpt lat="32.736002" lon="35.075553">
        <ele>197</ele>
      </trkpt>
      <trkpt lat="32.735952" lon="35.075524">
        <ele>199</ele>
      </trkpt>
      <trkpt lat="32.735806" lon="35.075569">
        <ele>203</ele>
      </trkpt>
      <trkpt lat="32.735644" lon="35.075505">
        <ele>211</ele>
      </trkpt>
      <trkpt lat="32.735486" lon="35.075528">
        <ele>215</ele>
      </trkpt>
      <trkpt lat="32.735432" lon="35.075596">
        <ele>216</ele>
      </trkpt>
      <trkpt lat="32.7352" lon="35.075565">
        <ele>229.5</ele>
      </trkpt>
      <extensions>
        <RoutingType xmlns="">Hike</RoutingType>
      </extensions>
    </trkseg>
    <trkseg>
      <trkpt lat="32.7352" lon="35.075565">
        <ele>229.5</ele>
      </trkpt>
      <trkpt lat="32.734966" lon="35.075591">
        <ele>235</ele>
      </trkpt>
      <trkpt lat="32.734945" lon="35.075541">
        <ele>237.5</ele>
      </trkpt>
      <extensions>
        <RoutingType xmlns="">Hike</RoutingType>
      </extensions>
    </trkseg>
    <trkseg>
      <trkpt lat="32.734945" lon="35.075541">
        <ele>237.5</ele>
      </trkpt>
      <trkpt lat="32.734919" lon="35.075482">
        <ele>240</ele>
      </trkpt>
      <trkpt lat="32.7348" lon="35.075413">
        <ele>245</ele>
      </trkpt>
      <trkpt lat="32.73471" lon="35.07527">
        <ele>252</ele>
      </trkpt>
      <trkpt lat="32.734526" lon="35.07522">
        <ele>258</ele>
      </trkpt>
      <trkpt lat="32.734358" lon="35.075081">
        <ele>267</ele>
      </trkpt>
      <trkpt lat="32.73419" lon="35.07497">
        <ele>274</ele>
      </trkpt>
      <trkpt lat="32.734145" lon="35.074974">
        <ele>275</ele>
      </trkpt>
      <extensions>
        <RoutingType xmlns="">Hike</RoutingType>
      </extensions>
    </trkseg>
    <trkseg>
      <trkpt lat="32.734145" lon="35.074974">
        <ele>275</ele>
      </trkpt>
      <trkpt lat="32.734092" lon="35.074979">
        <ele>276</ele>
      </trkpt>
      <trkpt lat="32.734047" lon="35.074855">
        <ele>278</ele>
      </trkpt>
      <trkpt lat="32.733831" lon="35.074745">
        <ele>283.5</ele>
      </trkpt>
      <extensions>
        <RoutingType xmlns="">Hike</RoutingType>
      </extensions>
    </trkseg>
    <trkseg>
      <trkpt lat="32.733831" lon="35.074745">
        <ele>283.5</ele>
      </trkpt>
      <trkpt lat="32.733731" lon="35.074695">
        <ele>289</ele>
      </trkpt>
      <trkpt lat="32.733679" lon="35.074614">
        <ele>291</ele>
      </trkpt>
      <trkpt lat="32.733566" lon="35.074635">
        <ele>295</ele>
      </trkpt>
      <trkpt lat="32.733433" lon="35.074635">
        <ele>296</ele>
      </trkpt>
      <trkpt lat="32.733119" lon="35.074556">
        <ele>299.5</ele>
      </trkpt>
      <extensions>
        <RoutingType xmlns="">Hike</RoutingType>
      </extensions>
    </trkseg>
    <trkseg>
      <trkpt lat="32.733119" lon="35.074556">
        <ele>299.5</ele>
      </trkpt>
      <trkpt lat="32.733054" lon="35.074539">
        <ele>303</ele>
      </trkpt>
      <trkpt lat="32.732927" lon="35.074442">
        <ele>307</ele>
      </trkpt>
      <trkpt lat="32.732497" lon="35.074496">
        <ele>315.5</ele>
      </trkpt>
      <extensions>
        <RoutingType xmlns="">Hike</RoutingType>
      </extensions>
    </trkseg>
    <trkseg>
      <trkpt lat="32.732497" lon="35.074496">
        <ele>315.5</ele>
      </trkpt>
      <trkpt lat="32.73209" lon="35.074496">
        <ele>315.5</ele>
      </trkpt>
      <extensions>
        <RoutingType xmlns="">Hike</RoutingType>
      </extensions>
    </trkseg>
    <trkseg>
      <trkpt lat="32.73209" lon="35.074496">
        <ele>315.5</ele>
      </trkpt>
      <trkpt lat="32.73198" lon="35.074496">
        <ele>319</ele>
      </trkpt>
      <trkpt lat="32.731888" lon="35.074351">
        <ele>323</ele>
      </trkpt>
      <trkpt lat="32.73165" lon="35.074218">
        <ele>326</ele>
      </trkpt>
      <extensions>
        <RoutingType xmlns="">Hike</RoutingType>
      </extensions>
    </trkseg>
    <trkseg>
      <trkpt lat="32.73165" lon="35.074218">
        <ele>326</ele>
      </trkpt>
      <trkpt lat="32.731602" lon="35.074192">
        <ele>329</ele>
      </trkpt>
      <trkpt lat="32.731413" lon="35.074169">
        <ele>331</ele>
      </trkpt>
      <trkpt lat="32.731296" lon="35.074232">
        <ele>331</ele>
      </trkpt>
      <extensions>
        <RoutingType xmlns="">Hike</RoutingType>
      </extensions>
    </trkseg>
    <trkseg>
      <trkpt lat="32.731296" lon="35.074232">
        <ele>331</ele>
      </trkpt>
      <trkpt lat="32.731275" lon="35.074244">
        <ele>331</ele>
      </trkpt>
      <trkpt lat="32.730897" lon="35.074071">
        <ele>339</ele>
      </trkpt>
      <trkpt lat="32.730885" lon="35.074079">
        <ele>340</ele>
      </trkpt>
      <extensions>
        <RoutingType xmlns="">Hike</RoutingType>
      </extensions>
    </trkseg>
    <trkseg>
      <trkpt lat="32.730885" lon="35.074079">
        <ele>340</ele>
      </trkpt>
      <trkpt lat="32.730764" lon="35.074154">
        <ele>341</ele>
      </trkpt>
      <trkpt lat="32.730718" lon="35.074106">
        <ele>341</ele>
      </trkpt>
      <trkpt lat="32.730739" lon="35.074092">
        <ele>340</ele>
      </trkpt>
      <extensions>
        <RoutingType xmlns="">Hike</RoutingType>
      </extensions>
    </trkseg>
    <trkseg>
      <trkpt lat="32.730739" lon="35.074092">
        <ele>340</ele>
      </trkpt>
      <trkpt lat="32.730718" lon="35.074106">
        <ele>341</ele>
      </trkpt>
      <trkpt lat="32.730416" lon="35.073768">
        <ele>353</ele>
      </trkpt>
      <trkpt lat="32.730367" lon="35.07365">
        <ele>357</ele>
      </trkpt>
      <trkpt lat="32.730233" lon="35.07356">
        <ele>361</ele>
      </trkpt>
      <extensions>
        <RoutingType xmlns="">Hike</RoutingType>
      </extensions>
    </trkseg>
    <trkseg>
      <trkpt lat="32.730233" lon="35.07356">
        <ele>361</ele>
      </trkpt>
      <trkpt lat="32.730099" lon="35.07347">
        <ele>365</ele>
      </trkpt>
      <trkpt lat="32.73021" lon="35.073315">
        <ele>366</ele>
      </trkpt>
      <trkpt lat="32.730154" lon="35.073291">
        <ele>368</ele>
      </trkpt>
      <trkpt lat="32.730034" lon="35.073333">
        <ele>368</ele>
      </trkpt>
      <trkpt lat="32.729869" lon="35.073209">
        <ele>371</ele>
      </trkpt>
      <trkpt lat="32.729609" lon="35.072857">
        <ele>377</ele>
      </trkpt>
      <extensions>
        <RoutingType xmlns="">Hike</RoutingType>
      </extensions>
    </trkseg>
    <trkseg>
      <trkpt lat="32.729609" lon="35.072857">
        <ele>377</ele>
      </trkpt>
      <trkpt lat="32.729579" lon="35.072817">
        <ele>383</ele>
      </trkpt>
      <trkpt lat="32.729389" lon="35.07268">
        <ele>388</ele>
      </trkpt>
      <trkpt lat="32.729326" lon="35.072482">
        <ele>397</ele>
      </trkpt>
      <trkpt lat="32.729249" lon="35.072402">
        <ele>398</ele>
      </trkpt>
      <trkpt lat="32.729211" lon="35.072338">
        <ele>401.5</ele>
      </trkpt>
      <extensions>
        <RoutingType xmlns="">Hike</RoutingType>
      </extensions>
    </trkseg>
    <trkseg>
      <trkpt lat="32.729211" lon="35.072338">
        <ele>401.5</ele>
      </trkpt>
      <trkpt lat="32.72905" lon="35.072116">
        <ele>411</ele>
      </trkpt>
      <trkpt lat="32.728906" lon="35.072008">
        <ele>416</ele>
      </trkpt>
      <trkpt lat="32.728873" lon="35.071835">
        <ele>419</ele>
      </trkpt>
      <trkpt lat="32.728695" lon="35.071799">
        <ele>423</ele>
      </trkpt>
      <trkpt lat="32.728628" lon="35.071715">
        <ele>426</ele>
      </trkpt>
      <trkpt lat="32.72869" lon="35.071678">
        <ele>426</ele>
      </trkpt>
      <extensions>
        <RoutingType xmlns="">Hike</RoutingType>
      </extensions>
    </trkseg>
    <trkseg>
      <trkpt lat="32.72869" lon="35.071678">
        <ele>426</ele>
      </trkpt>
      <trkpt lat="32.728713" lon="35.071664">
        <ele>426</ele>
      </trkpt>
      <trkpt lat="32.72876" lon="35.071568">
        <ele>424</ele>
      </trkpt>
      <trkpt lat="32.728756" lon="35.071393">
        <ele>422</ele>
      </trkpt>
      <trkpt lat="32.728689" lon="35.071188">
        <ele>421.5</ele>
      </trkpt>
      <extensions>
        <RoutingType xmlns="">Hike</RoutingType>
      </extensions>
    </trkseg>
    <trkseg>
      <trkpt lat="32.728689" lon="35.071188">
        <ele>421.5</ele>
      </trkpt>
      <trkpt lat="32.728605" lon="35.070932">
        <ele>421</ele>
      </trkpt>
      <trkpt lat="32.728508" lon="35.070753">
        <ele>421</ele>
      </trkpt>
      <trkpt lat="32.728365" lon="35.070539">
        <ele>421</ele>
      </trkpt>
      <trkpt lat="32.728223" lon="35.070228">
        <ele>417</ele>
      </trkpt>
      <extensions>
        <RoutingType xmlns="">Hike</RoutingType>
      </extensions>
    </trkseg>
    <trkseg>
      <trkpt lat="32.728223" lon="35.070228">
        <ele>417</ele>
      </trkpt>
      <trkpt lat="32.72806" lon="35.069869">
        <ele>413</ele>
      </trkpt>
      <trkpt lat="32.72791" lon="35.069602">
        <ele>412</ele>
      </trkpt>
      <extensions>
        <RoutingType xmlns="">Hike</RoutingType>
      </extensions>
    </trkseg>
    <trkseg>
      <trkpt lat="32.72791" lon="35.069602">
        <ele>412</ele>
      </trkpt>
      <trkpt lat="32.727799" lon="35.069489">
        <ele>411</ele>
      </trkpt>
      <trkpt lat="32.727609" lon="35.069381">
        <ele>408</ele>
      </trkpt>
      <extensions>
        <RoutingType xmlns="">Hike</RoutingType>
      </extensions>
    </trkseg>
    <trkseg>
      <trkpt lat="32.727609" lon="35.069381">
        <ele>408</ele>
      </trkpt>
      <trkpt lat="32.727508" lon="35.069335">
        <ele>407</ele>
      </trkpt>
      <trkpt lat="32.727043" lon="35.069285">
        <ele>406.5</ele>
      </trkpt>
      <extensions>
        <RoutingType xmlns="">Hike</RoutingType>
      </extensions>
    </trkseg>
    <trkseg>
      <trkpt lat="32.727043" lon="35.069285">
        <ele>406.5</ele>
      </trkpt>
      <trkpt lat="32.726916" lon="35.069271">
        <ele>406</ele>
      </trkpt>
      <trkpt lat="32.726577" lon="35.069277">
        <ele>405</ele>
      </trkpt>
      <extensions>
        <RoutingType xmlns="">Hike</RoutingType>
      </extensions>
    </trkseg>
    <trkseg>
      <trkpt lat="32.726577" lon="35.069277">
        <ele>405</ele>
      </trkpt>
      <trkpt lat="32.726402" lon="35.069273">
        <ele>404</ele>
      </trkpt>
      <extensions>
        <RoutingType xmlns="">Hike</RoutingType>
      </extensions>
    </trkseg>
    <trkseg>
      <trkpt lat="32.726402" lon="35.069273">
        <ele>404</ele>
      </trkpt>
      <trkpt lat="32.726372" lon="35.069269">
        <ele>404</ele>
      </trkpt>
      <trkpt lat="32.726305" lon="35.069213">
        <ele>404</ele>
      </trkpt>
      <trkpt lat="32.726274" lon="35.069078">
        <ele>402</ele>
      </trkpt>
      <trkpt lat="32.726285" lon="35.06897">
        <ele>401.5</ele>
      </trkpt>
      <extensions>
        <RoutingType xmlns="">Hike</RoutingType>
      </extensions>
    </trkseg>
    <trkseg>
      <trkpt lat="32.726285" lon="35.06897">
        <ele>401.5</ele>
      </trkpt>
      <trkpt lat="32.726294" lon="35.06888">
        <ele>401</ele>
      </trkpt>
      <trkpt lat="32.726386" lon="35.068509">
        <ele>397</ele>
      </trkpt>
      <trkpt lat="32.726392" lon="35.068392">
        <ele>396.5</ele>
      </trkpt>
      <extensions>
        <RoutingType xmlns="">Hike</RoutingType>
      </extensions>
    </trkseg>
    <trkseg>
      <trkpt lat="32.726392" lon="35.068392">
        <ele>396.5</ele>
      </trkpt>
      <trkpt lat="32.726394" lon="35.068355">
        <ele>396</ele>
      </trkpt>
      <trkpt lat="32.726357" lon="35.06823">
        <ele>394</ele>
      </trkpt>
      <trkpt lat="32.726317" lon="35.068161">
        <ele>391</ele>
      </trkpt>
      <trkpt lat="32.72599" lon="35.067717">
        <ele>383.5</ele>
      </trkpt>
      <extensions>
        <RoutingType xmlns="">Hike</RoutingType>
      </extensions>
    </trkseg>
    <trkseg>
      <trkpt lat="32.72599" lon="35.067717">
        <ele>383.5</ele>
      </trkpt>
      <trkpt lat="32.725672" lon="35.067216">
        <ele>383.5</ele>
      </trkpt>
      <extensions>
        <RoutingType xmlns="">Hike</RoutingType>
      </extensions>
    </trkseg>
    <trkseg>
      <trkpt lat="32.725672" lon="35.067216">
        <ele>383.5</ele>
      </trkpt>
      <trkpt lat="32.725589" lon="35.067086">
        <ele>380</ele>
      </trkpt>
      <trkpt lat="32.725351" lon="35.066794">
        <ele>377.5</ele>
      </trkpt>
      <extensions>
        <RoutingType xmlns="">Hike</RoutingType>
      </extensions>
    </trkseg>
    <trkseg>
      <trkpt lat="32.725351" lon="35.066794">
        <ele>377.5</ele>
      </trkpt>
      <trkpt lat="32.725177" lon="35.066603">
        <ele>373</ele>
      </trkpt>
      <trkpt lat="32.724982" lon="35.066476">
        <ele>372.5</ele>
      </trkpt>
      <extensions>
        <RoutingType xmlns="">Hike</RoutingType>
      </extensions>
    </trkseg>
    <trkseg>
      <trkpt lat="32.724982" lon="35.066476">
        <ele>372.5</ele>
      </trkpt>
      <trkpt lat="32.724934" lon="35.066445">
        <ele>372</ele>
      </trkpt>
      <trkpt lat="32.724662" lon="35.066361">
        <ele>370</ele>
      </trkpt>
      <trkpt lat="32.724504" lon="35.066346">
        <ele>370.5</ele>
      </trkpt>
      <extensions>
        <RoutingType xmlns="">Hike</RoutingType>
      </extensions>
    </trkseg>
    <trkseg>
      <trkpt lat="32.724504" lon="35.066346">
        <ele>370.5</ele>
      </trkpt>
      <trkpt lat="32.724401" lon="35.066317">
        <ele>371</ele>
      </trkpt>
      <trkpt lat="32.724328" lon="35.066231">
        <ele>368</ele>
      </trkpt>
      <extensions>
        <RoutingType xmlns="">Hike</RoutingType>
      </extensions>
    </trkseg>
    <trkseg>
      <trkpt lat="32.724328" lon="35.066231">
        <ele>368</ele>
      </trkpt>
      <trkpt lat="32.724267" lon="35.066062">
        <ele>368</ele>
      </trkpt>
      <trkpt lat="32.724316" lon="35.06608">
        <ele>366.5</ele>
      </trkpt>
      <extensions>
        <RoutingType xmlns="">Hike</RoutingType>
      </extensions>
    </trkseg>
    <trkseg>
      <trkpt lat="32.724316" lon="35.06608">
        <ele>366.5</ele>
      </trkpt>
      <trkpt lat="32.724444" lon="35.066127">
        <ele>365</ele>
      </trkpt>
      <trkpt lat="32.724463" lon="35.066099">
        <ele>363.5</ele>
      </trkpt>
      <extensions>
        <RoutingType xmlns="">Hike</RoutingType>
      </extensions>
    </trkseg>
    <trkseg>
      <trkpt lat="32.724463" lon="35.066099">
        <ele>363.5</ele>
      </trkpt>
      <trkpt lat="32.724526" lon="35.066009">
        <ele>362</ele>
      </trkpt>
      <trkpt lat="32.724634" lon="35.065972">
        <ele>361</ele>
      </trkpt>
      <extensions>
        <RoutingType xmlns="">Hike</RoutingType>
      </extensions>
    </trkseg>
    <trkseg>
      <trkpt lat="32.724634" lon="35.065972">
        <ele>361</ele>
      </trkpt>
      <trkpt lat="32.724725" lon="35.066014">
        <ele>360.5</ele>
      </trkpt>
      <extensions>
        <RoutingType xmlns="">Hike</RoutingType>
      </extensions>
    </trkseg>
    <trkseg>
      <trkpt lat="32.724725" lon="35.066014">
        <ele>360.5</ele>
      </trkpt>
      <trkpt lat="32.725237" lon="35.066302">
        <ele>360.5</ele>
      </trkpt>
      <extensions>
        <RoutingType xmlns="">Hike</RoutingType>
      </extensions>
    </trkseg>
    <trkseg>
      <trkpt lat="32.725237" lon="35.066302">
        <ele>360.5</ele>
      </trkpt>
      <trkpt lat="32.725375" lon="35.06638">
        <ele>361</ele>
      </trkpt>
      <trkpt lat="32.725542" lon="35.066504">
        <ele>358</ele>
      </trkpt>
      <extensions>
        <RoutingType xmlns="">Hike</RoutingType>
      </extensions>
    </trkseg>
    <trkseg>
      <trkpt lat="32.725542" lon="35.066504">
        <ele>358</ele>
      </trkpt>
      <trkpt lat="32.725684" lon="35.066609">
        <ele>355</ele>
      </trkpt>
      <trkpt lat="32.725826" lon="35.066756">
        <ele>357</ele>
      </trkpt>
      <extensions>
        <RoutingType xmlns="">Hike</RoutingType>
      </extensions>
    </trkseg>
    <trkseg>
      <trkpt lat="32.725826" lon="35.066756">
        <ele>357</ele>
      </trkpt>
      <trkpt lat="32.726099" lon="35.06714">
        <ele>362.5</ele>
      </trkpt>
      <extensions>
        <RoutingType xmlns="">Hike</RoutingType>
      </extensions>
    </trkseg>
    <trkseg>
      <trkpt lat="32.726099" lon="35.06714">
        <ele>362.5</ele>
      </trkpt>
      <trkpt lat="32.72627" lon="35.067389">
        <ele>362.5</ele>
      </trkpt>
      <extensions>
        <RoutingType xmlns="">Hike</RoutingType>
      </extensions>
    </trkseg>
    <trkseg>
      <trkpt lat="32.72627" lon="35.067389">
        <ele>362.5</ele>
      </trkpt>
      <trkpt lat="32.726391" lon="35.067564">
        <ele>362.5</ele>
      </trkpt>
      <extensions>
        <RoutingType xmlns="">Hike</RoutingType>
      </extensions>
    </trkseg>
    <trkseg>
      <trkpt lat="32.726391" lon="35.067564">
        <ele>362.5</ele>
      </trkpt>
      <trkpt lat="32.726414" lon="35.067597">
        <ele>366</ele>
      </trkpt>
      <trkpt lat="32.72633" lon="35.067625">
        <ele>369</ele>
      </trkpt>
      <extensions>
        <RoutingType xmlns="">Hike</RoutingType>
      </extensions>
    </trkseg>
    <trkseg>
      <trkpt lat="32.72633" lon="35.067625">
        <ele>369</ele>
      </trkpt>
      <trkpt lat="32.726527" lon="35.067907">
        <ele>373</ele>
      </trkpt>
      <extensions>
        <RoutingType xmlns="">Hike</RoutingType>
      </extensions>
    </trkseg>
    <trkseg>
      <trkpt lat="32.726527" lon="35.067907">
        <ele>373</ele>
      </trkpt>
      <trkpt lat="32.726536" lon="35.06792">
        <ele>377</ele>
      </trkpt>
      <trkpt lat="32.726465" lon="35.067965">
        <ele>381</ele>
      </trkpt>
      <extensions>
        <RoutingType xmlns="">Hike</RoutingType>
      </extensions>
    </trkseg>
    <trkseg>
      <trkpt lat="32.726465" lon="35.067965">
        <ele>381</ele>
      </trkpt>
      <trkpt lat="32.726588" lon="35.06823">
        <ele>379.5</ele>
      </trkpt>
      <extensions>
        <RoutingType xmlns="">Hike</RoutingType>
      </extensions>
    </trkseg>
    <trkseg>
      <trkpt lat="32.726588" lon="35.06823">
        <ele>379.5</ele>
      </trkpt>
      <trkpt lat="32.726542" lon="35.068711">
        <ele>387</ele>
      </trkpt>
      <trkpt lat="32.726542" lon="35.068831">
        <ele>389.5</ele>
      </trkpt>
      <extensions>
        <RoutingType xmlns="">Hike</RoutingType>
      </extensions>
    </trkseg>
    <trkseg>
      <trkpt lat="32.726542" lon="35.068831">
        <ele>389.5</ele>
      </trkpt>
      <trkpt lat="32.726542" lon="35.068909">
        <ele>392</ele>
      </trkpt>
      <trkpt lat="32.726635" lon="35.068946">
        <ele>391</ele>
      </trkpt>
      <extensions>
        <RoutingType xmlns="">Hike</RoutingType>
      </extensions>
    </trkseg>
    <trkseg>
      <trkpt lat="32.726635" lon="35.068946">
        <ele>391</ele>
      </trkpt>
      <trkpt lat="32.726704" lon="35.068913">
        <ele>391</ele>
      </trkpt>
      <trkpt lat="32.726973" lon="35.068892">
        <ele>387</ele>
      </trkpt>
      <trkpt lat="32.727662" lon="35.06872">
        <ele>379</ele>
      </trkpt>
      <extensions>
        <RoutingType xmlns="">Hike</RoutingType>
      </extensions>
    </trkseg>
    <trkseg>
      <trkpt lat="32.727662" lon="35.06872">
        <ele>379</ele>
      </trkpt>
      <trkpt lat="32.727968" lon="35.068722">
        <ele>376</ele>
      </trkpt>
      <trkpt lat="32.728011" lon="35.068746">
        <ele>373</ele>
      </trkpt>
      <extensions>
        <RoutingType xmlns="">Hike</RoutingType>
      </extensions>
    </trkseg>
    <trkseg>
      <trkpt lat="32.728011" lon="35.068746">
        <ele>373</ele>
      </trkpt>
      <trkpt lat="32.728206" lon="35.068856">
        <ele>370</ele>
      </trkpt>
      <trkpt lat="32.728347" lon="35.068998">
        <ele>367.5</ele>
      </trkpt>
      <extensions>
        <RoutingType xmlns="">Hike</RoutingType>
      </extensions>
    </trkseg>
    <trkseg>
      <trkpt lat="32.728347" lon="35.068998">
        <ele>367.5</ele>
      </trkpt>
      <trkpt lat="32.728566" lon="35.069161">
        <ele>363</ele>
      </trkpt>
      <trkpt lat="32.728653" lon="35.069265">
        <ele>364.5</ele>
      </trkpt>
      <extensions>
        <RoutingType xmlns="">Hike</RoutingType>
      </extensions>
    </trkseg>
    <trkseg>
      <trkpt lat="32.728653" lon="35.069265">
        <ele>364.5</ele>
      </trkpt>
      <trkpt lat="32.728881" lon="35.069413">
        <ele>360</ele>
      </trkpt>
      <trkpt lat="32.729139" lon="35.069682">
        <ele>351</ele>
      </trkpt>
      <extensions>
        <RoutingType xmlns="">Hike</RoutingType>
      </extensions>
    </trkseg>
    <trkseg>
      <trkpt lat="32.729139" lon="35.069682">
        <ele>351</ele>
      </trkpt>
      <trkpt lat="32.729674" lon="35.070237">
        <ele>351</ele>
      </trkpt>
      <extensions>
        <RoutingType xmlns="">Hike</RoutingType>
      </extensions>
    </trkseg>
    <trkseg>
      <trkpt lat="32.729674" lon="35.070237">
        <ele>351</ele>
      </trkpt>
      <trkpt lat="32.729767" lon="35.070334">
        <ele>342</ele>
      </trkpt>
      <trkpt lat="32.730027" lon="35.070735">
        <ele>341</ele>
      </trkpt>
      <extensions>
        <RoutingType xmlns="">Hike</RoutingType>
      </extensions>
    </trkseg>
    <trkseg>
      <trkpt lat="32.730027" lon="35.070735">
        <ele>341</ele>
      </trkpt>
      <trkpt lat="32.730454" lon="35.071247">
        <ele>330</ele>
      </trkpt>
      <extensions>
        <RoutingType xmlns="">Hike</RoutingType>
      </extensions>
    </trkseg>
    <trkseg>
      <trkpt lat="32.730454" lon="35.071247">
        <ele>330</ele>
      </trkpt>
      <trkpt lat="32.730803" lon="35.071836">
        <ele>331</ele>
      </trkpt>
      <trkpt lat="32.730891" lon="35.071898">
        <ele>331</ele>
      </trkpt>
      <extensions>
        <RoutingType xmlns="">Hike</RoutingType>
      </extensions>
    </trkseg>
    <trkseg>
      <trkpt lat="32.730891" lon="35.071898">
        <ele>331</ele>
      </trkpt>
      <trkpt lat="32.730925" lon="35.071922">
        <ele>331</ele>
      </trkpt>
      <trkpt lat="32.730993" lon="35.072031">
        <ele>330</ele>
      </trkpt>
      <trkpt lat="32.731178" lon="35.072188">
        <ele>331</ele>
      </trkpt>
      <trkpt lat="32.731502" lon="35.072376">
        <ele>329.5</ele>
      </trkpt>
      <extensions>
        <RoutingType xmlns="">Hike</RoutingType>
      </extensions>
    </trkseg>
    <trkseg>
      <trkpt lat="32.731502" lon="35.072376">
        <ele>329.5</ele>
      </trkpt>
      <trkpt lat="32.731778" lon="35.072537">
        <ele>328</ele>
      </trkpt>
      <trkpt lat="32.732071" lon="35.072642">
        <ele>325</ele>
      </trkpt>
      <extensions>
        <RoutingType xmlns="">Hike</RoutingType>
      </extensions>
    </trkseg>
    <trkseg>
      <trkpt lat="32.732071" lon="35.072642">
        <ele>325</ele>
      </trkpt>
      <trkpt lat="32.73217" lon="35.0727">
        <ele>321</ele>
      </trkpt>
      <trkpt lat="32.732255" lon="35.072712">
        <ele>319</ele>
      </trkpt>
      <trkpt lat="32.732265" lon="35.07273">
        <ele>320</ele>
      </trkpt>
      <extensions>
        <RoutingType xmlns="">Hike</RoutingType>
      </extensions>
    </trkseg>
    <trkseg>
      <trkpt lat="32.732265" lon="35.07273">
        <ele>320</ele>
      </trkpt>
      <trkpt lat="32.732318" lon="35.07282">
        <ele>321</ele>
      </trkpt>
      <trkpt lat="32.732648" lon="35.073102">
        <ele>318</ele>
      </trkpt>
      <trkpt lat="32.732695" lon="35.073185">
        <ele>318</ele>
      </trkpt>
      <trkpt lat="32.732742" lon="35.073218">
        <ele>318</ele>
      </trkpt>
      <extensions>
        <RoutingType xmlns="">Hike</RoutingType>
      </extensions>
    </trkseg>
    <trkseg>
      <trkpt lat="32.732742" lon="35.073218">
        <ele>318</ele>
      </trkpt>
      <trkpt lat="32.732847" lon="35.073291">
        <ele>318</ele>
      </trkpt>
      <trkpt lat="32.732966" lon="35.073266">
        <ele>316</ele>
      </trkpt>
      <extensions>
        <RoutingType xmlns="">Hike</RoutingType>
      </extensions>
    </trkseg>
    <trkseg>
      <trkpt lat="32.732966" lon="35.073266">
        <ele>316</ele>
      </trkpt>
      <trkpt lat="32.733047" lon="35.073249">
        <ele>314</ele>
      </trkpt>
      <trkpt lat="32.733242" lon="35.073253">
        <ele>311</ele>
      </trkpt>
      <trkpt lat="32.733341" lon="35.073316">
        <ele>309</ele>
      </trkpt>
      <extensions>
        <RoutingType xmlns="">Hike</RoutingType>
      </extensions>
    </trkseg>
    <trkseg>
      <trkpt lat="32.733341" lon="35.073316">
        <ele>309</ele>
      </trkpt>
      <trkpt lat="32.733465" lon="35.073322">
        <ele>308</ele>
      </trkpt>
      <trkpt lat="32.733492" lon="35.073343">
        <ele>307.5</ele>
      </trkpt>
      <extensions>
        <RoutingType xmlns="">Hike</RoutingType>
      </extensions>
    </trkseg>
    <trkseg>
      <trkpt lat="32.733492" lon="35.073343">
        <ele>307.5</ele>
      </trkpt>
      <trkpt lat="32.733562" lon="35.0734">
        <ele>307</ele>
      </trkpt>
      <trkpt lat="32.733609" lon="35.073494">
        <ele>304.5</ele>
      </trkpt>
      <extensions>
        <RoutingType xmlns="">Hike</RoutingType>
      </extensions>
    </trkseg>
    <trkseg>
      <trkpt lat="32.733609" lon="35.073494">
        <ele>304.5</ele>
      </trkpt>
      <trkpt lat="32.73364" lon="35.073849">
        <ele>303</ele>
      </trkpt>
      <trkpt lat="32.733666" lon="35.073867">
        <ele>302</ele>
      </trkpt>
      <extensions>
        <RoutingType xmlns="">Hike</RoutingType>
      </extensions>
    </trkseg>
    <trkseg>
      <trkpt lat="32.733666" lon="35.073867">
        <ele>302</ele>
      </trkpt>
      <trkpt lat="32.733697" lon="35.073888">
        <ele>301</ele>
      </trkpt>
      <trkpt lat="32.73389" lon="35.073871">
        <ele>297</ele>
      </trkpt>
      <extensions>
        <RoutingType xmlns="">Hike</RoutingType>
      </extensions>
    </trkseg>
    <trkseg>
      <trkpt lat="32.73389" lon="35.073871">
        <ele>297</ele>
      </trkpt>
      <trkpt lat="32.733986" lon="35.073849">
        <ele>296</ele>
      </trkpt>
      <trkpt lat="32.734046" lon="35.073684">
        <ele>295.5</ele>
      </trkpt>
      <extensions>
        <RoutingType xmlns="">Hike</RoutingType>
      </extensions>
    </trkseg>
    <trkseg>
      <trkpt lat="32.734046" lon="35.073684">
        <ele>295.5</ele>
      </trkpt>
      <trkpt lat="32.734069" lon="35.073621">
        <ele>295</ele>
      </trkpt>
      <trkpt lat="32.734109" lon="35.073334">
        <ele>296</ele>
      </trkpt>
      <trkpt lat="32.734095" lon="35.07321">
        <ele>295</ele>
      </trkpt>
      <extensions>
        <RoutingType xmlns="">Hike</RoutingType>
      </extensions>
    </trkseg>
    <trkseg>
      <trkpt lat="32.734095" lon="35.07321">
        <ele>295</ele>
      </trkpt>
      <trkpt lat="32.733933" lon="35.07287">
        <ele>288.5</ele>
      </trkpt>
      <extensions>
        <RoutingType xmlns="">Hike</RoutingType>
      </extensions>
    </trkseg>
    <trkseg>
      <trkpt lat="32.733933" lon="35.07287">
        <ele>288.5</ele>
      </trkpt>
      <trkpt lat="32.733867" lon="35.072736">
        <ele>283</ele>
      </trkpt>
      <trkpt lat="32.733775" lon="35.072676">
        <ele>286</ele>
      </trkpt>
      <trkpt lat="32.733649" lon="35.072548">
        <ele>279</ele>
      </trkpt>
      <extensions>
        <RoutingType xmlns="">Hike</RoutingType>
      </extensions>
    </trkseg>
    <trkseg>
      <trkpt lat="32.733649" lon="35.072548">
        <ele>279</ele>
      </trkpt>
      <trkpt lat="32.733431" lon="35.072328">
        <ele>279</ele>
      </trkpt>
      <extensions>
        <RoutingType xmlns="">Hike</RoutingType>
      </extensions>
    </trkseg>
    <trkseg>
      <trkpt lat="32.733431" lon="35.072328">
        <ele>279</ele>
      </trkpt>
      <trkpt lat="32.733249" lon="35.072144">
        <ele>279</ele>
      </trkpt>
      <extensions>
        <RoutingType xmlns="">Hike</RoutingType>
      </extensions>
    </trkseg>
    <trkseg>
      <trkpt lat="32.733249" lon="35.072144">
        <ele>279</ele>
      </trkpt>
      <trkpt lat="32.732825" lon="35.071938">
        <ele>268.5</ele>
      </trkpt>
      <extensions>
        <RoutingType xmlns="">Hike</RoutingType>
      </extensions>
    </trkseg>
    <trkseg>
      <trkpt lat="32.732825" lon="35.071938">
        <ele>268.5</ele>
      </trkpt>
      <trkpt lat="32.732742" lon="35.071898">
        <ele>265</ele>
      </trkpt>
      <trkpt lat="32.732472" lon="35.071681">
        <ele>264</ele>
      </trkpt>
      <extensions>
        <RoutingType xmlns="">Hike</RoutingType>
      </extensions>
    </trkseg>
    <trkseg>
      <trkpt lat="32.732472" lon="35.071681">
        <ele>264</ele>
      </trkpt>
      <trkpt lat="32.732404" lon="35.071626">
        <ele>263</ele>
      </trkpt>
      <trkpt lat="32.732221" lon="35.071414">
        <ele>259</ele>
      </trkpt>
      <extensions>
        <RoutingType xmlns="">Hike</RoutingType>
      </extensions>
    </trkseg>
    <trkseg>
      <trkpt lat="32.732221" lon="35.071414">
        <ele>259</ele>
      </trkpt>
      <trkpt lat="32.732005" lon="35.071212">
        <ele>253</ele>
      </trkpt>
      <trkpt lat="32.732071" lon="35.071238">
        <ele>252</ele>
      </trkpt>
      <extensions>
        <RoutingType xmlns="">Hike</RoutingType>
      </extensions>
    </trkseg>
    <trkseg>
      <trkpt lat="32.732071" lon="35.071238">
        <ele>252</ele>
      </trkpt>
      <trkpt lat="32.732184" lon="35.071281">
        <ele>251</ele>
      </trkpt>
      <trkpt lat="32.732436" lon="35.071454">
        <ele>251.5</ele>
      </trkpt>
      <extensions>
        <RoutingType xmlns="">Hike</RoutingType>
      </extensions>
    </trkseg>
    <trkseg>
      <trkpt lat="32.732436" lon="35.071454">
        <ele>251.5</ele>
      </trkpt>
      <trkpt lat="32.732568" lon="35.071544">
        <ele>252</ele>
      </trkpt>
      <trkpt lat="32.732716" lon="35.071576">
        <ele>249</ele>
      </trkpt>
      <extensions>
        <RoutingType xmlns="">Hike</RoutingType>
      </extensions>
    </trkseg>
    <trkseg>
      <trkpt lat="32.732716" lon="35.071576">
        <ele>249</ele>
      </trkpt>
      <trkpt lat="32.732907" lon="35.071617">
        <ele>246</ele>
      </trkpt>
      <trkpt lat="32.733041" lon="35.071622">
        <ele>244.5</ele>
      </trkpt>
      <extensions>
        <RoutingType xmlns="">Hike</RoutingType>
      </extensions>
    </trkseg>
    <trkseg>
      <trkpt lat="32.733041" lon="35.071622">
        <ele>244.5</ele>
      </trkpt>
      <trkpt lat="32.733064" lon="35.071623">
        <ele>243</ele>
      </trkpt>
      <trkpt lat="32.733069" lon="35.071575">
        <ele>240.5</ele>
      </trkpt>
      <extensions>
        <RoutingType xmlns="">Hike</RoutingType>
      </extensions>
    </trkseg>
    <trkseg>
      <trkpt lat="32.733069" lon="35.071575">
        <ele>240.5</ele>
      </trkpt>
      <trkpt lat="32.732956" lon="35.071507">
        <ele>237</ele>
      </trkpt>
      <extensions>
        <RoutingType xmlns="">Hike</RoutingType>
      </extensions>
    </trkseg>
    <trkseg>
      <trkpt lat="32.732956" lon="35.071507">
        <ele>237</ele>
      </trkpt>
      <trkpt lat="32.732776" lon="35.071403">
        <ele>237</ele>
      </trkpt>
      <extensions>
        <RoutingType xmlns="">Hike</RoutingType>
      </extensions>
    </trkseg>
    <trkseg>
      <trkpt lat="32.732776" lon="35.071403">
        <ele>237</ele>
      </trkpt>
      <trkpt lat="32.732647" lon="35.071328">
        <ele>237</ele>
      </trkpt>
      <extensions>
        <RoutingType xmlns="">Hike</RoutingType>
      </extensions>
    </trkseg>
    <trkseg>
      <trkpt lat="32.732647" lon="35.071328">
        <ele>237</ele>
      </trkpt>
      <trkpt lat="32.732556" lon="35.071227">
        <ele>234.5</ele>
      </trkpt>
      <extensions>
        <RoutingType xmlns="">Hike</RoutingType>
      </extensions>
    </trkseg>
    <trkseg>
      <trkpt lat="32.732556" lon="35.071227">
        <ele>234.5</ele>
      </trkpt>
      <trkpt lat="32.732481" lon="35.071135">
        <ele>233</ele>
      </trkpt>
      <trkpt lat="32.732514" lon="35.071148">
        <ele>231.5</ele>
      </trkpt>
      <extensions>
        <RoutingType xmlns="">Hike</RoutingType>
      </extensions>
    </trkseg>
    <trkseg>
      <trkpt lat="32.732514" lon="35.071148">
        <ele>231.5</ele>
      </trkpt>
      <trkpt lat="32.732785" lon="35.071257">
        <ele>230</ele>
      </trkpt>
      <trkpt lat="32.732913" lon="35.071263">
        <ele>227.5</ele>
      </trkpt>
      <extensions>
        <RoutingType xmlns="">Hike</RoutingType>
      </extensions>
    </trkseg>
    <trkseg>
      <trkpt lat="32.732913" lon="35.071263">
        <ele>227.5</ele>
      </trkpt>
      <trkpt lat="32.733026" lon="35.071268">
        <ele>225</ele>
      </trkpt>
      <trkpt lat="32.733347" lon="35.071189">
        <ele>207.5</ele>
      </trkpt>
      <extensions>
        <RoutingType xmlns="">Hike</RoutingType>
      </extensions>
    </trkseg>
    <trkseg>
      <trkpt lat="32.733347" lon="35.071189">
        <ele>207.5</ele>
      </trkpt>
      <trkpt lat="32.733627" lon="35.071179">
        <ele>204</ele>
      </trkpt>
      <trkpt lat="32.733691" lon="35.071195">
        <ele>204.5</ele>
      </trkpt>
      <extensions>
        <RoutingType xmlns="">Hike</RoutingType>
      </extensions>
    </trkseg>
    <trkseg>
      <trkpt lat="32.733691" lon="35.071195">
        <ele>204.5</ele>
      </trkpt>
      <trkpt lat="32.733987" lon="35.071266">
        <ele>204.5</ele>
      </trkpt>
      <extensions>
        <RoutingType xmlns="">Hike</RoutingType>
      </extensions>
    </trkseg>
    <trkseg>
      <trkpt lat="32.733987" lon="35.071266">
        <ele>204.5</ele>
      </trkpt>
      <trkpt lat="32.734291" lon="35.071553">
        <ele>206.5</ele>
      </trkpt>
      <extensions>
        <RoutingType xmlns="">Hike</RoutingType>
      </extensions>
    </trkseg>
    <trkseg>
      <trkpt lat="32.734291" lon="35.071553">
        <ele>206.5</ele>
      </trkpt>
      <trkpt lat="32.734683" lon="35.071943">
        <ele>208.5</ele>
      </trkpt>
      <extensions>
        <RoutingType xmlns="">Hike</RoutingType>
      </extensions>
    </trkseg>
    <trkseg>
      <trkpt lat="32.734683" lon="35.071943">
        <ele>208.5</ele>
      </trkpt>
      <trkpt lat="32.734773" lon="35.072037">
        <ele>209</ele>
      </trkpt>
      <trkpt lat="32.735007" lon="35.072215">
        <ele>211.5</ele>
      </trkpt>
      <extensions>
        <RoutingType xmlns="">Hike</RoutingType>
      </extensions>
    </trkseg>
    <trkseg>
      <trkpt lat="32.735007" lon="35.072215">
        <ele>211.5</ele>
      </trkpt>
      <trkpt lat="32.73511" lon="35.072555">
        <ele>215</ele>
      </trkpt>
      <trkpt lat="32.735152" lon="35.072609">
        <ele>212.5</ele>
      </trkpt>
      <extensions>
        <RoutingType xmlns="">Hike</RoutingType>
      </extensions>
    </trkseg>
    <trkseg>
      <trkpt lat="32.735152" lon="35.072609">
        <ele>212.5</ele>
      </trkpt>
      <trkpt lat="32.735478" lon="35.073026">
        <ele>212.5</ele>
      </trkpt>
      <extensions>
        <RoutingType xmlns="">Hike</RoutingType>
      </extensions>
    </trkseg>
    <trkseg>
      <trkpt lat="32.735478" lon="35.073026">
        <ele>212.5</ele>
      </trkpt>
      <trkpt lat="32.735712" lon="35.073242">
        <ele>211</ele>
      </trkpt>
      <trkpt lat="32.735823" lon="35.073282">
        <ele>206</ele>
      </trkpt>
      <extensions>
        <RoutingType xmlns="">Hike</RoutingType>
      </extensions>
    </trkseg>
    <trkseg>
      <trkpt lat="32.735823" lon="35.073282">
        <ele>206</ele>
      </trkpt>
      <trkpt lat="32.735857" lon="35.073294">
        <ele>201</ele>
      </trkpt>
      <trkpt lat="32.735915" lon="35.073495">
        <ele>207.5</ele>
      </trkpt>
      <extensions>
        <RoutingType xmlns="">Hike</RoutingType>
      </extensions>
    </trkseg>
    <trkseg>
      <trkpt lat="32.735915" lon="35.073495">
        <ele>207.5</ele>
      </trkpt>
      <trkpt lat="32.735964" lon="35.073668">
        <ele>214</ele>
      </trkpt>
      <trkpt lat="32.73598" lon="35.073677">
        <ele>209.5</ele>
      </trkpt>
      <extensions>
        <RoutingType xmlns="">Hike</RoutingType>
      </extensions>
    </trkseg>
    <trkseg>
      <trkpt lat="32.73598" lon="35.073677">
        <ele>209.5</ele>
      </trkpt>
      <trkpt lat="32.736127" lon="35.073754">
        <ele>205</ele>
      </trkpt>
      <trkpt lat="32.736259" lon="35.073975">
        <ele>203.5</ele>
      </trkpt>
      <extensions>
        <RoutingType xmlns="">Hike</RoutingType>
      </extensions>
    </trkseg>
    <trkseg>
      <trkpt lat="32.736259" lon="35.073975">
        <ele>203.5</ele>
      </trkpt>
      <trkpt lat="32.736323" lon="35.074082">
        <ele>202</ele>
      </trkpt>
      <trkpt lat="32.736418" lon="35.074438">
        <ele>200</ele>
      </trkpt>
      <extensions>
        <RoutingType xmlns="">Hike</RoutingType>
      </extensions>
    </trkseg>
    <trkseg>
      <trkpt lat="32.736418" lon="35.074438">
        <ele>200</ele>
      </trkpt>
      <trkpt lat="32.736424" lon="35.074462">
        <ele>198</ele>
      </trkpt>
      <trkpt lat="32.736346" lon="35.074795">
        <ele>198</ele>
      </trkpt>
      <extensions>
        <RoutingType xmlns="">Hike</RoutingType>
      </extensions>
    </trkseg>
    <trkseg>
      <trkpt lat="32.736346" lon="35.074795">
        <ele>198</ele>
      </trkpt>
      <trkpt lat="32.736275" lon="35.075095">
        <ele>198</ele>
      </trkpt>
      <extensions>
        <RoutingType xmlns="">Hike</RoutingType>
      </extensions>
    </trkseg>
    <trkseg>
      <trkpt lat="32.736275" lon="35.075095">
        <ele>198</ele>
      </trkpt>
      <trkpt lat="32.736254" lon="35.07518">
        <ele>198</ele>
      </trkpt>
      <trkpt lat="32.736315" lon="35.075201">
        <ele>195.5</ele>
      </trkpt>
      <extensions>
        <RoutingType xmlns="">Hike</RoutingType>
      </extensions>
    </trkseg>
    <trkseg>
      <trkpt lat="32.736315" lon="35.075201">
        <ele>195.5</ele>
      </trkpt>
      <trkpt lat="32.736335" lon="35.075208">
        <ele>193</ele>
      </trkpt>
      <trkpt lat="32.736404" lon="35.075088">
        <ele>190</ele>
      </trkpt>
      <extensions>
        <RoutingType xmlns="">Hike</RoutingType>
      </extensions>
    </trkseg>
    <trkseg>
      <trkpt lat="32.736404" lon="35.075088">
        <ele>190</ele>
      </trkpt>
      <trkpt lat="32.73656" lon="35.074644">
        <ele>188</ele>
      </trkpt>
      <trkpt lat="32.736573" lon="35.074484">
        <ele>187.5</ele>
      </trkpt>
      <extensions>
        <RoutingType xmlns="">Hike</RoutingType>
      </extensions>
    </trkseg>
    <trkseg>
      <trkpt lat="32.736573" lon="35.074484">
        <ele>187.5</ele>
      </trkpt>
      <trkpt lat="32.736597" lon="35.07421">
        <ele>187.5</ele>
      </trkpt>
      <extensions>
        <RoutingType xmlns="">Hike</RoutingType>
      </extensions>
    </trkseg>
    <trkseg>
      <trkpt lat="32.736597" lon="35.07421">
        <ele>187.5</ele>
      </trkpt>
      <trkpt lat="32.736564" lon="35.073979">
        <ele>184.5</ele>
      </trkpt>
      <extensions>
        <RoutingType xmlns="">Hike</RoutingType>
      </extensions>
    </trkseg>
    <trkseg>
      <trkpt lat="32.736563" lon="35.073979">
        <ele>184.5</ele>
      </trkpt>
      <trkpt lat="32.736516" lon="35.073727">
        <ele>182</ele>
      </trkpt>
      <trkpt lat="32.736536" lon="35.073751">
        <ele>180.5</ele>
      </trkpt>
      <extensions>
        <RoutingType xmlns="">Hike</RoutingType>
      </extensions>
    </trkseg>
    <trkseg>
      <trkpt lat="32.736536" lon="35.073751">
        <ele>180.5</ele>
      </trkpt>
      <trkpt lat="32.736682" lon="35.073929">
        <ele>179</ele>
      </trkpt>
      <trkpt lat="32.736705" lon="35.073997">
        <ele>176.5</ele>
      </trkpt>
      <extensions>
        <RoutingType xmlns="">Hike</RoutingType>
      </extensions>
    </trkseg>
    <trkseg>
      <trkpt lat="32.736705" lon="35.073997">
        <ele>176.5</ele>
      </trkpt>
      <trkpt lat="32.736867" lon="35.074471">
        <ele>176.5</ele>
      </trkpt>
      <extensions>
        <RoutingType xmlns="">Hike</RoutingType>
      </extensions>
    </trkseg>
    <trkseg>
      <trkpt lat="32.736867" lon="35.074471">
        <ele>176.5</ele>
      </trkpt>
      <trkpt lat="32.736945" lon="35.074563">
        <ele>170</ele>
      </trkpt>
      <trkpt lat="32.737092" lon="35.07499">
        <ele>167</ele>
      </trkpt>
      <extensions>
        <RoutingType xmlns="">Hike</RoutingType>
      </extensions>
    </trkseg>
    <trkseg>
      <trkpt lat="32.737092" lon="35.07499">
        <ele>167</ele>
      </trkpt>
      <trkpt lat="32.737181" lon="35.075407">
        <ele>159</ele>
      </trkpt>
      <trkpt lat="32.737176" lon="35.075464">
        <ele>159.5</ele>
      </trkpt>
      <extensions>
        <RoutingType xmlns="">Hike</RoutingType>
      </extensions>
    </trkseg>
    <trkseg>
      <trkpt lat="32.737176" lon="35.075464">
        <ele>159.5</ele>
      </trkpt>
      <trkpt lat="32.73716" lon="35.075621">
        <ele>160</ele>
      </trkpt>
      <trkpt lat="32.737186" lon="35.075674">
        <ele>156</ele>
      </trkpt>
      <trkpt lat="32.737202" lon="35.075657">
        <ele>156.5</ele>
      </trkpt>
      <extensions>
        <RoutingType xmlns="">Hike</RoutingType>
      </extensions>
    </trkseg>
    <trkseg>
      <trkpt lat="32.737202" lon="35.075657">
        <ele>156.5</ele>
      </trkpt>
      <trkpt lat="32.737263" lon="35.075591">
        <ele>157</ele>
      </trkpt>
      <trkpt lat="32.737317" lon="35.07535">
        <ele>151.5</ele>
      </trkpt>
      <extensions>
        <RoutingType xmlns="">Hike</RoutingType>
      </extensions>
    </trkseg>
    <trkseg>
      <trkpt lat="32.737317" lon="35.07535">
        <ele>151.5</ele>
      </trkpt>
      <trkpt lat="32.737405" lon="35.074947">
        <ele>151.5</ele>
      </trkpt>
      <extensions>
        <RoutingType xmlns="">Hike</RoutingType>
      </extensions>
    </trkseg>
    <trkseg>
      <trkpt lat="32.737405" lon="35.074947">
        <ele>151.5</ele>
      </trkpt>
      <trkpt lat="32.737448" lon="35.074753">
        <ele>146</ele>
      </trkpt>
      <trkpt lat="32.737433" lon="35.074635">
        <ele>144.5</ele>
      </trkpt>
      <extensions>
        <RoutingType xmlns="">Hike</RoutingType>
      </extensions>
    </trkseg>
    <trkseg>
      <trkpt lat="32.737433" lon="35.074635">
        <ele>144.5</ele>
      </trkpt>
      <trkpt lat="32.73737" lon="35.074133">
        <ele>143</ele>
      </trkpt>
      <trkpt lat="32.737294" lon="35.073961">
        <ele>137.5</ele>
      </trkpt>
      <extensions>
        <RoutingType xmlns="">Hike</RoutingType>
      </extensions>
    </trkseg>
    <trkseg>
      <trkpt lat="32.737294" lon="35.073961">
        <ele>137.5</ele>
      </trkpt>
      <trkpt lat="32.737147" lon="35.073627">
        <ele>137.5</ele>
      </trkpt>
      <extensions>
        <RoutingType xmlns="">Hike</RoutingType>
      </extensions>
    </trkseg>
    <trkseg>
      <trkpt lat="32.737147" lon="35.073627">
        <ele>137.5</ele>
      </trkpt>
      <trkpt lat="32.737025" lon="35.073351">
        <ele>132</ele>
      </trkpt>
      <trkpt lat="32.737072" lon="35.073403">
        <ele>133</ele>
      </trkpt>
      <extensions>
        <RoutingType xmlns="">Hike</RoutingType>
      </extensions>
    </trkseg>
    <trkseg>
      <trkpt lat="32.737072" lon="35.073403">
        <ele>133</ele>
      </trkpt>
      <trkpt lat="32.737243" lon="35.073596">
        <ele>134</ele>
      </trkpt>
      <trkpt lat="32.737271" lon="35.07356">
        <ele>129.5</ele>
      </trkpt>
      <extensions>
        <RoutingType xmlns="">Hike</RoutingType>
      </extensions>
    </trkseg>
    <trkseg>
      <trkpt lat="32.737271" lon="35.07356">
        <ele>129.5</ele>
      </trkpt>
      <trkpt lat="32.737303" lon="35.07352">
        <ele>125</ele>
      </trkpt>
      <trkpt lat="32.737322" lon="35.073544">
        <ele>124</ele>
      </trkpt>
      <extensions>
        <RoutingType xmlns="">Hike</RoutingType>
      </extensions>
    </trkseg>
    <trkseg>
      <trkpt lat="32.737322" lon="35.073544">
        <ele>124</ele>
      </trkpt>
      <trkpt lat="32.737597" lon="35.073905">
        <ele>124</ele>
      </trkpt>
      <extensions>
        <RoutingType xmlns="">Hike</RoutingType>
      </extensions>
    </trkseg>
    <trkseg>
      <trkpt lat="32.737597" lon="35.073905">
        <ele>124</ele>
      </trkpt>
      <trkpt lat="32.737679" lon="35.074011">
        <ele>123</ele>
      </trkpt>
      <trkpt lat="32.737807" lon="35.074142">
        <ele>119</ele>
      </trkpt>
      <extensions>
        <RoutingType xmlns="">Hike</RoutingType>
      </extensions>
    </trkseg>
    <trkseg>
      <trkpt lat="32.737807" lon="35.074142">
        <ele>119</ele>
      </trkpt>
      <trkpt lat="32.737986" lon="35.074323">
        <ele>115</ele>
      </trkpt>
      <extensions>
        <RoutingType xmlns="">Hike</RoutingType>
      </extensions>
    </trkseg>
    <trkseg>
      <trkpt lat="32.737986" lon="35.074323">
        <ele>115</ele>
      </trkpt>
      <trkpt lat="32.738097" lon="35.074685">
        <ele>108.5</ele>
      </trkpt>
      <extensions>
        <RoutingType xmlns="">Hike</RoutingType>
      </extensions>
    </trkseg>
    <trkseg>
      <trkpt lat="32.738097" lon="35.074685">
        <ele>108.5</ele>
      </trkpt>
      <trkpt lat="32.738238" lon="35.075142">
        <ele>108.5</ele>
      </trkpt>
      <extensions>
        <RoutingType xmlns="">Hike</RoutingType>
      </extensions>
    </trkseg>
    <trkseg>
      <trkpt lat="32.738238" lon="35.075142">
        <ele>108.5</ele>
      </trkpt>
      <trkpt lat="32.738308" lon="35.07544">
        <ele>102</ele>
      </trkpt>
      <extensions>
        <RoutingType xmlns="">Hike</RoutingType>
      </extensions>
    </trkseg>
  </trk>
</gpx>
