<?xml version="1.0" encoding="UTF-8"?><gpx creator="Wikiloc - https://www.wikiloc.com" version="1.1" xmlns="http://www.topografix.com/GPX/1/1" xmlns:xsi="http://www.w3.org/2001/XMLSchema-instance" xsi:schemaLocation="http://www.topografix.com/GPX/1/1 http://www.topografix.com/GPX/1/1/gpx.xsd"><metadata><name>Wikiloc - נחל עמוד</name><author><name>shemesh</name><link href="https://www.wikiloc.com/wikiloc/user.do?id=460874"><text>shemesh on Wikiloc</text></link></author><link href="https://www.wikiloc.com/hiking-trails/nkhl-mvd-3873336"><text>נחל עמוד on Wikiloc</text></link><time>2013-01-19T16:11:35Z</time></metadata><trk><name>נחל עמוד</name><cmt></cmt><desc></desc><trkseg><trkpt lat="32.963837" lon="35.487057"><ele>602.022</ele><time>2013-01-19T12:58:33Z</time></trkpt><trkpt lat="32.963806" lon="35.486729"><ele>602.062</ele><time>2013-01-19T12:59:03Z</time></trkpt><trkpt lat="32.964153" lon="35.486412"><ele>602.008</ele><time>2013-01-19T12:59:33Z</time></trkpt><trkpt lat="32.964439" lon="35.486092"><ele>586.007</ele><time>2013-01-19T13:00:03Z</time></trkpt><trkpt lat="32.964699" lon="35.485729"><ele>604.055</ele><time>2013-01-19T13:00:32Z</time></trkpt><trkpt lat="32.965023" lon="35.485390"><ele>590.090</ele><time>2013-01-19T13:01:03Z</time></trkpt><trkpt lat="32.965405" lon="35.485233"><ele>590.039</ele><time>2013-01-19T13:01:33Z</time></trkpt><trkpt lat="32.965435" lon="35.485229"><ele>604.085</ele><time>2013-01-19T13:02:03Z</time></trkpt><trkpt lat="32.965820" lon="35.485275"><ele>604.085</ele><time>2013-01-19T13:02:33Z</time></trkpt><trkpt lat="32.966125" lon="35.485153"><ele>604.085</ele><time>2013-01-19T13:03:03Z</time></trkpt><trkpt lat="32.966278" lon="35.484756"><ele>612.048</ele><time>2013-01-19T13:03:33Z</time></trkpt><trkpt lat="32.966297" lon="35.484726"><ele>612.036</ele><time>2013-01-19T13:04:03Z</time></trkpt><trkpt lat="32.966400" lon="35.484295"><ele>605.017</ele><time>2013-01-19T13:04:33Z</time></trkpt><trkpt lat="32.966503" lon="35.483852"><ele>605.018</ele><time>2013-01-19T13:05:03Z</time></trkpt><trkpt lat="32.966888" lon="35.483707"><ele>595.007</ele><time>2013-01-19T13:05:33Z</time></trkpt><trkpt lat="32.967281" lon="35.483677"><ele>603.046</ele><time>2013-01-19T13:06:03Z</time></trkpt><trkpt lat="32.967686" lon="35.483627"><ele>603.071</ele><time>2013-01-19T13:06:33Z</time></trkpt><trkpt lat="32.968082" lon="35.483524"><ele>607.070</ele><time>2013-01-19T13:07:03Z</time></trkpt><trkpt lat="32.968479" lon="35.483463"><ele>607.076</ele><time>2013-01-19T13:07:33Z</time></trkpt><trkpt lat="32.968884" lon="35.483475"><ele>611.096</ele><time>2013-01-19T13:08:03Z</time></trkpt><trkpt lat="32.968884" lon="35.483475"><ele>611.056</ele><time>2013-01-19T13:08:33Z</time></trkpt><trkpt lat="32.968884" lon="35.483475"><ele>611.029</ele><time>2013-01-19T13:09:03Z</time></trkpt><trkpt lat="32.969265" lon="35.483574"><ele>611.052</ele><time>2013-01-19T13:09:33Z</time></trkpt><trkpt lat="32.969658" lon="35.483662"><ele>612.053</ele><time>2013-01-19T13:10:03Z</time></trkpt><trkpt lat="32.969673" lon="35.483662"><ele>612.008</ele><time>2013-01-19T13:10:33Z</time></trkpt><trkpt lat="32.970074" lon="35.483692"><ele>612.007</ele><time>2013-01-19T13:11:03Z</time></trkpt><trkpt lat="32.970444" lon="35.483601"><ele>607.028</ele><time>2013-01-19T13:11:33Z</time></trkpt><trkpt lat="32.970798" lon="35.483421"><ele>607.063</ele><time>2013-01-19T13:12:03Z</time></trkpt><trkpt lat="32.971050" lon="35.483074"><ele>607.062</ele><time>2013-01-19T13:12:33Z</time></trkpt><trkpt lat="32.971210" lon="35.482666"><ele>601.098</ele><time>2013-01-19T13:13:03Z</time></trkpt><trkpt lat="32.971210" lon="35.482666"><ele>601.028</ele><time>2013-01-19T13:13:33Z</time></trkpt><trkpt lat="32.971588" lon="35.482548"><ele>590.078</ele><time>2013-01-19T13:14:03Z</time></trkpt><trkpt lat="32.971851" lon="35.482826"><ele>590.061</ele><time>2013-01-19T13:14:33Z</time></trkpt><trkpt lat="32.971851" lon="35.482826"><ele>590.019</ele><time>2013-01-19T13:15:03Z</time></trkpt><trkpt lat="32.971897" lon="35.483307"><ele>599.009</ele><time>2013-01-19T13:15:33Z</time></trkpt><trkpt lat="32.972183" lon="35.483624"><ele>590.019</ele><time>2013-01-19T13:16:03Z</time></trkpt><trkpt lat="32.972454" lon="35.483307"><ele>590.007</ele><time>2013-01-19T13:16:33Z</time></trkpt><trkpt lat="32.972454" lon="35.483307"><ele>590.034</ele><time>2013-01-19T13:17:03Z</time></trkpt><trkpt lat="32.972610" lon="35.482899"><ele>572.049</ele><time>2013-01-19T13:17:33Z</time></trkpt><trkpt lat="32.972610" lon="35.482899"><ele>572.018</ele><time>2013-01-19T13:18:03Z</time></trkpt><trkpt lat="32.972610" lon="35.482899"><ele>572.014</ele><time>2013-01-19T13:18:33Z</time></trkpt><trkpt lat="32.972610" lon="35.482899"><ele>572.054</ele><time>2013-01-19T13:19:03Z</time></trkpt><trkpt lat="32.972610" lon="35.482899"><ele>572.024</ele><time>2013-01-19T13:19:33Z</time></trkpt><trkpt lat="32.972816" lon="35.482544"><ele>572.027</ele><time>2013-01-19T13:20:03Z</time></trkpt><trkpt lat="32.972816" lon="35.482544"><ele>572.087</ele><time>2013-01-19T13:20:33Z</time></trkpt><trkpt lat="32.973186" lon="35.482697"><ele>554.042</ele><time>2013-01-19T13:21:03Z</time></trkpt><trkpt lat="32.973186" lon="35.482697"><ele>554.026</ele><time>2013-01-19T13:21:33Z</time></trkpt><trkpt lat="32.973186" lon="35.482697"><ele>554.007</ele><time>2013-01-19T13:22:03Z</time></trkpt><trkpt lat="32.973186" lon="35.482697"><ele>554.091</ele><time>2013-01-19T13:22:33Z</time></trkpt><trkpt lat="32.973186" lon="35.482697"><ele>554.096</ele><time>2013-01-19T13:23:03Z</time></trkpt><trkpt lat="32.973186" lon="35.482697"><ele>554.065</ele><time>2013-01-19T13:23:33Z</time></trkpt><trkpt lat="32.973251" lon="35.482334"><ele>554.031</ele><time>2013-01-19T13:24:03Z</time></trkpt><trkpt lat="32.973251" lon="35.482334"><ele>554.021</ele><time>2013-01-19T13:24:33Z</time></trkpt><trkpt lat="32.973053" lon="35.481960"><ele>546.091</ele><time>2013-01-19T13:25:03Z</time></trkpt><trkpt lat="32.973053" lon="35.481960"><ele>546.014</ele><time>2013-01-19T13:25:33Z</time></trkpt><trkpt lat="32.973053" lon="35.481960"><ele>546.048</ele><time>2013-01-19T13:26:03Z</time></trkpt><trkpt lat="32.973053" lon="35.481960"><ele>546.061</ele><time>2013-01-19T13:26:33Z</time></trkpt><trkpt lat="32.972809" lon="35.481621"><ele>540.017</ele><time>2013-01-19T13:27:03Z</time></trkpt><trkpt lat="32.972809" lon="35.481621"><ele>540.007</ele><time>2013-01-19T13:27:33Z</time></trkpt><trkpt lat="32.972527" lon="35.481323"><ele>540.047</ele><time>2013-01-19T13:28:03Z</time></trkpt><trkpt lat="32.972527" lon="35.481323"><ele>540.022</ele><time>2013-01-19T13:28:33Z</time></trkpt><trkpt lat="32.972252" lon="35.481037"><ele>536.031</ele><time>2013-01-19T13:29:03Z</time></trkpt><trkpt lat="32.972252" lon="35.481037"><ele>536.077</ele><time>2013-01-19T13:29:33Z</time></trkpt><trkpt lat="32.972252" lon="35.481037"><ele>536.087</ele><time>2013-01-19T13:30:03Z</time></trkpt><trkpt lat="32.971985" lon="35.480766"><ele>529.077</ele><time>2013-01-19T13:30:33Z</time></trkpt><trkpt lat="32.971733" lon="35.480438"><ele>529.010</ele><time>2013-01-19T13:31:03Z</time></trkpt><trkpt lat="32.971733" lon="35.480438"><ele>529.028</ele><time>2013-01-19T13:31:33Z</time></trkpt><trkpt lat="32.971733" lon="35.480438"><ele>529.089</ele><time>2013-01-19T13:32:03Z</time></trkpt><trkpt lat="32.971733" lon="35.480438"><ele>529.017</ele><time>2013-01-19T13:32:33Z</time></trkpt><trkpt lat="32.971474" lon="35.480213"><ele>521.007</ele><time>2013-01-19T13:33:03Z</time></trkpt><trkpt lat="32.971474" lon="35.480213"><ele>521.055</ele><time>2013-01-19T13:33:33Z</time></trkpt><trkpt lat="32.971233" lon="35.479904"><ele>533.020</ele><time>2013-01-19T13:34:03Z</time></trkpt><trkpt lat="32.971233" lon="35.479904"><ele>533.029</ele><time>2013-01-19T13:34:33Z</time></trkpt><trkpt lat="32.971127" lon="35.479538"><ele>507.015</ele><time>2013-01-19T13:35:03Z</time></trkpt><trkpt lat="32.971127" lon="35.479538"><ele>507.025</ele><time>2013-01-19T13:35:33Z</time></trkpt><trkpt lat="32.971249" lon="35.479214"><ele>507.065</ele><time>2013-01-19T13:36:03Z</time></trkpt><trkpt lat="32.971249" lon="35.479214"><ele>507.098</ele><time>2013-01-19T13:36:33Z</time></trkpt><trkpt lat="32.971249" lon="35.479214"><ele>507.086</ele><time>2013-01-19T13:37:03Z</time></trkpt><trkpt lat="32.971249" lon="35.479214"><ele>507.060</ele><time>2013-01-19T13:37:33Z</time></trkpt><trkpt lat="32.971249" lon="35.479214"><ele>507.026</ele><time>2013-01-19T13:38:03Z</time></trkpt><trkpt lat="32.971249" lon="35.479214"><ele>507.007</ele><time>2013-01-19T13:38:33Z</time></trkpt><trkpt lat="32.971062" lon="35.478840"><ele>507.071</ele><time>2013-01-19T13:39:03Z</time></trkpt><trkpt lat="32.971062" lon="35.478840"><ele>507.026</ele><time>2013-01-19T13:39:33Z</time></trkpt><trkpt lat="32.971062" lon="35.478840"><ele>507.075</ele><time>2013-01-19T13:40:03Z</time></trkpt><trkpt lat="32.970879" lon="35.478458"><ele>488.041</ele><time>2013-01-19T13:40:33Z</time></trkpt><trkpt lat="32.970879" lon="35.478458"><ele>488.041</ele><time>2013-01-19T13:41:03Z</time></trkpt><trkpt lat="32.970879" lon="35.478458"><ele>488.071</ele><time>2013-01-19T13:41:33Z</time></trkpt><trkpt lat="32.970879" lon="35.478458"><ele>488.054</ele><time>2013-01-19T13:42:03Z</time></trkpt><trkpt lat="32.970879" lon="35.478458"><ele>488.016</ele><time>2013-01-19T13:42:33Z</time></trkpt><trkpt lat="32.970768" lon="35.478024"><ele>488.076</ele><time>2013-01-19T13:43:03Z</time></trkpt><trkpt lat="32.970768" lon="35.478024"><ele>488.013</ele><time>2013-01-19T13:43:33Z</time></trkpt><trkpt lat="32.970768" lon="35.478024"><ele>488.007</ele><time>2013-01-19T13:44:03Z</time></trkpt><trkpt lat="32.970768" lon="35.478024"><ele>488.084</ele><time>2013-01-19T13:44:33Z</time></trkpt><trkpt lat="32.970814" lon="35.477570"><ele>476.059</ele><time>2013-01-19T13:45:03Z</time></trkpt><trkpt lat="32.970737" lon="35.477261"><ele>476.038</ele><time>2013-01-19T13:45:33Z</time></trkpt><trkpt lat="32.970737" lon="35.477261"><ele>476.084</ele><time>2013-01-19T13:46:03Z</time></trkpt><trkpt lat="32.970665" lon="35.476883"><ele>465.044</ele><time>2013-01-19T13:46:33Z</time></trkpt><trkpt lat="32.970665" lon="35.476883"><ele>465.024</ele><time>2013-01-19T13:47:03Z</time></trkpt><trkpt lat="32.970600" lon="35.476448"><ele>465.037</ele><time>2013-01-19T13:47:33Z</time></trkpt><trkpt lat="32.970600" lon="35.476448"><ele>465.018</ele><time>2013-01-19T13:48:03Z</time></trkpt><trkpt lat="32.970600" lon="35.476448"><ele>465.098</ele><time>2013-01-19T13:48:33Z</time></trkpt><trkpt lat="32.970371" lon="35.476120"><ele>456.017</ele><time>2013-01-19T13:49:03Z</time></trkpt><trkpt lat="32.970310" lon="35.475712"><ele>456.007</ele><time>2013-01-19T13:49:33Z</time></trkpt><trkpt lat="32.970295" lon="35.475685"><ele>456.024</ele><time>2013-01-19T13:50:03Z</time></trkpt><trkpt lat="32.970295" lon="35.475685"><ele>456.089</ele><time>2013-01-19T13:50:33Z</time></trkpt><trkpt lat="32.970089" lon="35.475388"><ele>434.018</ele><time>2013-01-19T13:51:03Z</time></trkpt><trkpt lat="32.970089" lon="35.475388"><ele>434.014</ele><time>2013-01-19T13:51:33Z</time></trkpt><trkpt lat="32.970089" lon="35.475388"><ele>434.074</ele><time>2013-01-19T13:52:03Z</time></trkpt><trkpt lat="32.969841" lon="35.475281"><ele>434.014</ele><time>2013-01-19T13:52:33Z</time></trkpt><trkpt lat="32.969841" lon="35.475281"><ele>434.027</ele><time>2013-01-19T13:53:03Z</time></trkpt><trkpt lat="32.969841" lon="35.475281"><ele>434.088</ele><time>2013-01-19T13:53:33Z</time></trkpt><trkpt lat="32.969841" lon="35.475281"><ele>434.024</ele><time>2013-01-19T13:54:03Z</time></trkpt><trkpt lat="32.969913" lon="35.475224"><ele>434.026</ele><time>2013-01-19T13:54:33Z</time></trkpt><trkpt lat="32.969913" lon="35.475224"><ele>434.007</ele><time>2013-01-19T13:55:03Z</time></trkpt><trkpt lat="32.969765" lon="35.475353"><ele>434.011</ele><time>2013-01-19T13:55:33Z</time></trkpt><trkpt lat="32.969765" lon="35.475353"><ele>434.096</ele><time>2013-01-19T13:56:03Z</time></trkpt><trkpt lat="32.969765" lon="35.475353"><ele>434.065</ele><time>2013-01-19T13:56:33Z</time></trkpt><trkpt lat="32.969994" lon="35.475258"><ele>434.021</ele><time>2013-01-19T13:57:03Z</time></trkpt><trkpt lat="32.969994" lon="35.475258"><ele>434.041</ele><time>2013-01-19T13:57:33Z</time></trkpt><trkpt lat="32.969994" lon="35.475258"><ele>434.041</ele><time>2013-01-19T13:58:03Z</time></trkpt><trkpt lat="32.969994" lon="35.475258"><ele>434.064</ele><time>2013-01-19T13:58:33Z</time></trkpt><trkpt lat="32.969994" lon="35.475258"><ele>434.029</ele><time>2013-01-19T13:59:03Z</time></trkpt><trkpt lat="32.969994" lon="35.475258"><ele>434.000</ele><time>2013-01-19T13:59:33Z</time></trkpt><trkpt lat="32.969994" lon="35.475258"><ele>434.020</ele><time>2013-01-19T14:00:03Z</time></trkpt><trkpt lat="32.969994" lon="35.475258"><ele>434.007</ele><time>2013-01-19T14:00:33Z</time></trkpt><trkpt lat="32.969994" lon="35.475258"><ele>434.055</ele><time>2013-01-19T14:01:03Z</time></trkpt><trkpt lat="32.969994" lon="35.475258"><ele>434.050</ele><time>2013-01-19T14:01:33Z</time></trkpt><trkpt lat="32.969994" lon="35.475258"><ele>434.039</ele><time>2013-01-19T14:02:03Z</time></trkpt><trkpt lat="32.969994" lon="35.475258"><ele>434.025</ele><time>2013-01-19T14:02:33Z</time></trkpt><trkpt lat="32.969994" lon="35.475258"><ele>434.015</ele><time>2013-01-19T14:03:03Z</time></trkpt><trkpt lat="32.969994" lon="35.475258"><ele>434.065</ele><time>2013-01-19T14:03:33Z</time></trkpt><trkpt lat="32.969994" lon="35.475258"><ele>434.098</ele><time>2013-01-19T14:04:03Z</time></trkpt><trkpt lat="32.969994" lon="35.475258"><ele>434.098</ele><time>2013-01-19T14:04:33Z</time></trkpt><trkpt lat="32.969994" lon="35.475258"><ele>434.015</ele><time>2013-01-19T14:05:03Z</time></trkpt><trkpt lat="32.970005" lon="35.475109"><ele>434.026</ele><time>2013-01-19T14:05:33Z</time></trkpt><trkpt lat="32.970005" lon="35.475109"><ele>434.007</ele><time>2013-01-19T14:06:03Z</time></trkpt><trkpt lat="32.970005" lon="35.475109"><ele>434.042</ele><time>2013-01-19T14:06:33Z</time></trkpt><trkpt lat="32.970005" lon="35.475109"><ele>434.097</ele><time>2013-01-19T14:07:03Z</time></trkpt><trkpt lat="32.969975" lon="35.475147"><ele>434.026</ele><time>2013-01-19T14:07:33Z</time></trkpt><trkpt lat="32.969975" lon="35.475143"><ele>434.052</ele><time>2013-01-19T14:08:03Z</time></trkpt><trkpt lat="32.969975" lon="35.475143"><ele>434.042</ele><time>2013-01-19T14:08:33Z</time></trkpt><trkpt lat="32.970039" lon="35.475227"><ele>434.092</ele><time>2013-01-19T14:09:03Z</time></trkpt><trkpt lat="32.970009" lon="35.475624"><ele>456.025</ele><time>2013-01-19T14:09:33Z</time></trkpt><trkpt lat="32.970009" lon="35.475624"><ele>456.049</ele><time>2013-01-19T14:10:03Z</time></trkpt><trkpt lat="32.970009" lon="35.475624"><ele>456.002</ele><time>2013-01-19T14:10:33Z</time></trkpt><trkpt lat="32.970009" lon="35.475624"><ele>456.022</ele><time>2013-01-19T14:11:03Z</time></trkpt><trkpt lat="32.970009" lon="35.475624"><ele>456.007</ele><time>2013-01-19T14:11:33Z</time></trkpt><trkpt lat="32.969818" lon="35.475777"><ele>456.087</ele><time>2013-01-19T14:12:03Z</time></trkpt><trkpt lat="32.970070" lon="35.475674"><ele>456.022</ele><time>2013-01-19T14:12:33Z</time></trkpt><trkpt lat="32.970070" lon="35.475674"><ele>456.051</ele><time>2013-01-19T14:13:03Z</time></trkpt><trkpt lat="32.970203" lon="35.475540"><ele>456.017</ele><time>2013-01-19T14:13:33Z</time></trkpt><trkpt lat="32.970203" lon="35.475540"><ele>456.087</ele><time>2013-01-19T14:14:03Z</time></trkpt><trkpt lat="32.970173" lon="35.475250"><ele>434.087</ele><time>2013-01-19T14:14:33Z</time></trkpt><trkpt lat="32.970173" lon="35.475254"><ele>434.060</ele><time>2013-01-19T14:15:03Z</time></trkpt><trkpt lat="32.970089" lon="35.475216"><ele>434.097</ele><time>2013-01-19T14:15:33Z</time></trkpt><trkpt lat="32.970089" lon="35.475216"><ele>434.023</ele><time>2013-01-19T14:16:03Z</time></trkpt><trkpt lat="32.970089" lon="35.475216"><ele>434.025</ele><time>2013-01-19T14:16:33Z</time></trkpt><trkpt lat="32.970089" lon="35.475216"><ele>434.007</ele><time>2013-01-19T14:17:03Z</time></trkpt><trkpt lat="32.970089" lon="35.475216"><ele>434.032</ele><time>2013-01-19T14:17:33Z</time></trkpt><trkpt lat="32.969742" lon="35.475365"><ele>434.057</ele><time>2013-01-19T14:18:03Z</time></trkpt><trkpt lat="32.969738" lon="35.475368"><ele>434.026</ele><time>2013-01-19T14:18:33Z</time></trkpt><trkpt lat="32.969738" lon="35.475368"><ele>434.062</ele><time>2013-01-19T14:19:03Z</time></trkpt><trkpt lat="32.969738" lon="35.475368"><ele>434.062</ele><time>2013-01-19T14:19:33Z</time></trkpt><trkpt lat="32.969738" lon="35.475368"><ele>434.042</ele><time>2013-01-19T14:20:03Z</time></trkpt><trkpt lat="32.969383" lon="35.475430"><ele>455.095</ele><time>2013-01-19T14:20:33Z</time></trkpt><trkpt lat="32.969383" lon="35.475430"><ele>455.013</ele><time>2013-01-19T14:21:03Z</time></trkpt><trkpt lat="32.969383" lon="35.475430"><ele>455.043</ele><time>2013-01-19T14:21:33Z</time></trkpt><trkpt lat="32.968990" lon="35.475407"><ele>433.007</ele><time>2013-01-19T14:22:03Z</time></trkpt><trkpt lat="32.968990" lon="35.475407"><ele>433.007</ele><time>2013-01-19T14:22:33Z</time></trkpt><trkpt lat="32.968590" lon="35.475494"><ele>429.014</ele><time>2013-01-19T14:23:03Z</time></trkpt><trkpt lat="32.968216" lon="35.475658"><ele>429.049</ele><time>2013-01-19T14:23:33Z</time></trkpt><trkpt lat="32.967869" lon="35.475819"><ele>420.068</ele><time>2013-01-19T14:24:03Z</time></trkpt><trkpt lat="32.967506" lon="35.475933"><ele>420.044</ele><time>2013-01-19T14:24:33Z</time></trkpt><trkpt lat="32.967148" lon="35.475971"><ele>420.054</ele><time>2013-01-19T14:25:03Z</time></trkpt><trkpt lat="32.967140" lon="35.475971"><ele>420.024</ele><time>2013-01-19T14:25:33Z</time></trkpt><trkpt lat="32.966751" lon="35.475979"><ele>414.087</ele><time>2013-01-19T14:26:03Z</time></trkpt><trkpt lat="32.966751" lon="35.475979"><ele>414.044</ele><time>2013-01-19T14:26:33Z</time></trkpt><trkpt lat="32.966400" lon="35.475903"><ele>414.005</ele><time>2013-01-19T14:27:03Z</time></trkpt><trkpt lat="32.966400" lon="35.475903"><ele>414.015</ele><time>2013-01-19T14:27:33Z</time></trkpt><trkpt lat="32.966400" lon="35.475903"><ele>414.007</ele><time>2013-01-19T14:28:03Z</time></trkpt><trkpt lat="32.966011" lon="35.475956"><ele>414.077</ele><time>2013-01-19T14:28:33Z</time></trkpt><trkpt lat="32.965641" lon="35.475964"><ele>414.032</ele><time>2013-01-19T14:29:03Z</time></trkpt><trkpt lat="32.965641" lon="35.475964"><ele>414.091</ele><time>2013-01-19T14:29:33Z</time></trkpt><trkpt lat="32.965286" lon="35.475929"><ele>417.057</ele><time>2013-01-19T14:30:03Z</time></trkpt><trkpt lat="32.964905" lon="35.476006"><ele>417.087</ele><time>2013-01-19T14:30:33Z</time></trkpt><trkpt lat="32.964905" lon="35.476006"><ele>417.087</ele><time>2013-01-19T14:31:03Z</time></trkpt><trkpt lat="32.964905" lon="35.476006"><ele>417.040</ele><time>2013-01-19T14:31:33Z</time></trkpt><trkpt lat="32.964592" lon="35.476242"><ele>417.039</ele><time>2013-01-19T14:32:03Z</time></trkpt><trkpt lat="32.964592" lon="35.476242"><ele>417.001</ele><time>2013-01-19T14:32:33Z</time></trkpt><trkpt lat="32.964592" lon="35.476242"><ele>417.021</ele><time>2013-01-19T14:33:03Z</time></trkpt><trkpt lat="32.964592" lon="35.476242"><ele>417.007</ele><time>2013-01-19T14:33:33Z</time></trkpt><trkpt lat="32.964344" lon="35.476551"><ele>398.026</ele><time>2013-01-19T14:34:03Z</time></trkpt><trkpt lat="32.964344" lon="35.476551"><ele>398.091</ele><time>2013-01-19T14:34:33Z</time></trkpt><trkpt lat="32.964012" lon="35.476646"><ele>398.040</ele><time>2013-01-19T14:35:03Z</time></trkpt><trkpt lat="32.964012" lon="35.476646"><ele>398.036</ele><time>2013-01-19T14:35:33Z</time></trkpt><trkpt lat="32.963676" lon="35.476860"><ele>392.036</ele><time>2013-01-19T14:36:03Z</time></trkpt><trkpt lat="32.963459" lon="35.476925"><ele>392.086</ele><time>2013-01-19T14:36:33Z</time></trkpt><trkpt lat="32.963459" lon="35.476925"><ele>392.079</ele><time>2013-01-19T14:37:03Z</time></trkpt><trkpt lat="32.963459" lon="35.476925"><ele>392.061</ele><time>2013-01-19T14:37:33Z</time></trkpt><trkpt lat="32.963459" lon="35.476925"><ele>392.021</ele><time>2013-01-19T14:38:03Z</time></trkpt><trkpt lat="32.963459" lon="35.476925"><ele>392.013</ele><time>2013-01-19T14:38:33Z</time></trkpt><trkpt lat="32.963459" lon="35.476925"><ele>392.007</ele><time>2013-01-19T14:39:03Z</time></trkpt><trkpt lat="32.963387" lon="35.476887"><ele>392.059</ele><time>2013-01-19T14:39:33Z</time></trkpt><trkpt lat="32.963387" lon="35.476891"><ele>392.014</ele><time>2013-01-19T14:40:03Z</time></trkpt><trkpt lat="32.963261" lon="35.476864"><ele>392.033</ele><time>2013-01-19T14:40:33Z</time></trkpt><trkpt lat="32.963261" lon="35.476864"><ele>392.099</ele><time>2013-01-19T14:41:03Z</time></trkpt><trkpt lat="32.963261" lon="35.476864"><ele>392.099</ele><time>2013-01-19T14:41:33Z</time></trkpt><trkpt lat="32.963261" lon="35.476864"><ele>392.099</ele><time>2013-01-19T14:42:03Z</time></trkpt><trkpt lat="32.962963" lon="35.477112"><ele>417.082</ele><time>2013-01-19T14:42:33Z</time></trkpt><trkpt lat="32.962952" lon="35.477108"><ele>417.067</ele><time>2013-01-19T14:43:03Z</time></trkpt><trkpt lat="32.962616" lon="35.477348"><ele>386.081</ele><time>2013-01-19T14:43:33Z</time></trkpt><trkpt lat="32.962616" lon="35.477348"><ele>386.019</ele><time>2013-01-19T14:44:03Z</time></trkpt><trkpt lat="32.962337" lon="35.477451"><ele>386.007</ele><time>2013-01-19T14:44:33Z</time></trkpt><trkpt lat="32.961948" lon="35.477444"><ele>387.079</ele><time>2013-01-19T14:45:03Z</time></trkpt><trkpt lat="32.961948" lon="35.477444"><ele>387.064</ele><time>2013-01-19T14:45:33Z</time></trkpt><trkpt lat="32.961620" lon="35.477283"><ele>387.033</ele><time>2013-01-19T14:46:03Z</time></trkpt><trkpt lat="32.961620" lon="35.477283"><ele>387.069</ele><time>2013-01-19T14:46:33Z</time></trkpt><trkpt lat="32.961246" lon="35.477242"><ele>385.029</ele><time>2013-01-19T14:47:03Z</time></trkpt><trkpt lat="32.961246" lon="35.477242"><ele>385.029</ele><time>2013-01-19T14:47:33Z</time></trkpt><trkpt lat="32.960876" lon="35.477192"><ele>385.082</ele><time>2013-01-19T14:48:03Z</time></trkpt><trkpt lat="32.960876" lon="35.477192"><ele>385.039</ele><time>2013-01-19T14:48:33Z</time></trkpt><trkpt lat="32.960876" lon="35.477192"><ele>385.001</ele><time>2013-01-19T14:49:03Z</time></trkpt><trkpt lat="32.960510" lon="35.477219"><ele>385.021</ele><time>2013-01-19T14:49:33Z</time></trkpt><trkpt lat="32.960480" lon="35.477226"><ele>385.007</ele><time>2013-01-19T14:50:03Z</time></trkpt><trkpt lat="32.960125" lon="35.477402"><ele>367.056</ele><time>2013-01-19T14:50:33Z</time></trkpt><trkpt lat="32.960125" lon="35.477402"><ele>367.051</ele><time>2013-01-19T14:51:03Z</time></trkpt><trkpt lat="32.959923" lon="35.477734"><ele>367.060</ele><time>2013-01-19T14:51:33Z</time></trkpt><trkpt lat="32.959923" lon="35.477734"><ele>367.026</ele><time>2013-01-19T14:52:03Z</time></trkpt><trkpt lat="32.959923" lon="35.477734"><ele>367.086</ele><time>2013-01-19T14:52:33Z</time></trkpt><trkpt lat="32.959923" lon="35.477734"><ele>367.096</ele><time>2013-01-19T14:53:03Z</time></trkpt><trkpt lat="32.959461" lon="35.477867"><ele>382.079</ele><time>2013-01-19T14:54:35Z</time></trkpt><trkpt lat="32.959705" lon="35.477901"><ele>367.086</ele><time>2013-01-19T14:55:05Z</time></trkpt><trkpt lat="32.959705" lon="35.477901"><ele>367.060</ele><time>2013-01-19T14:55:35Z</time></trkpt><trkpt lat="32.959320" lon="35.478058"><ele>364.026</ele><time>2013-01-19T14:56:05Z</time></trkpt><trkpt lat="32.959190" lon="35.478203"><ele>364.007</ele><time>2013-01-19T14:56:35Z</time></trkpt><trkpt lat="32.958790" lon="35.478252"><ele>364.051</ele><time>2013-01-19T14:57:05Z</time></trkpt><trkpt lat="32.958580" lon="35.478287"><ele>364.096</ele><time>2013-01-19T14:57:35Z</time></trkpt><trkpt lat="32.958271" lon="35.478436"><ele>364.055</ele><time>2013-01-19T14:58:05Z</time></trkpt><trkpt lat="32.958096" lon="35.478596"><ele>364.041</ele><time>2013-01-19T14:58:35Z</time></trkpt><trkpt lat="32.958096" lon="35.478596"><ele>364.061</ele><time>2013-01-19T14:59:05Z</time></trkpt><trkpt lat="32.957752" lon="35.478783"><ele>353.051</ele><time>2013-01-19T14:59:35Z</time></trkpt><trkpt lat="32.957752" lon="35.478783"><ele>353.054</ele><time>2013-01-19T15:00:05Z</time></trkpt><trkpt lat="32.957752" lon="35.478783"><ele>353.056</ele><time>2013-01-19T15:00:35Z</time></trkpt><trkpt lat="32.957420" lon="35.479008"><ele>353.059</ele><time>2013-01-19T15:01:05Z</time></trkpt><trkpt lat="32.957195" lon="35.479065"><ele>353.014</ele><time>2013-01-19T15:01:35Z</time></trkpt><trkpt lat="32.956829" lon="35.479069"><ele>346.007</ele><time>2013-01-19T15:02:05Z</time></trkpt><trkpt lat="32.956493" lon="35.479061"><ele>346.088</ele><time>2013-01-19T15:02:35Z</time></trkpt><trkpt lat="32.956169" lon="35.479008"><ele>359.063</ele><time>2013-01-19T15:03:05Z</time></trkpt><trkpt lat="32.956169" lon="35.479008"><ele>359.022</ele><time>2013-01-19T15:03:35Z</time></trkpt><trkpt lat="32.955833" lon="35.478840"><ele>359.078</ele><time>2013-01-19T15:04:05Z</time></trkpt><trkpt lat="32.955521" lon="35.478554"><ele>344.068</ele><time>2013-01-19T15:04:35Z</time></trkpt><trkpt lat="32.955521" lon="35.478554"><ele>344.078</ele><time>2013-01-19T15:05:05Z</time></trkpt><trkpt lat="32.955189" lon="35.478325"><ele>349.041</ele><time>2013-01-19T15:05:35Z</time></trkpt><trkpt lat="32.954880" lon="35.478149"><ele>349.014</ele><time>2013-01-19T15:06:05Z</time></trkpt><trkpt lat="32.954880" lon="35.478149"><ele>349.054</ele><time>2013-01-19T15:06:35Z</time></trkpt><trkpt lat="32.954533" lon="35.477955"><ele>354.009</ele><time>2013-01-19T15:07:05Z</time></trkpt><trkpt lat="32.954521" lon="35.477947"><ele>354.007</ele><time>2013-01-19T15:07:35Z</time></trkpt><trkpt lat="32.954521" lon="35.477947"><ele>354.064</ele><time>2013-01-19T15:08:05Z</time></trkpt><trkpt lat="32.954521" lon="35.477947"><ele>354.099</ele><time>2013-01-19T15:08:35Z</time></trkpt><trkpt lat="32.954132" lon="35.477825"><ele>342.028</ele><time>2013-01-19T15:09:05Z</time></trkpt><trkpt lat="32.954132" lon="35.477825"><ele>342.054</ele><time>2013-01-19T15:09:35Z</time></trkpt><trkpt lat="32.954132" lon="35.477825"><ele>342.094</ele><time>2013-01-19T15:10:05Z</time></trkpt><trkpt lat="32.953754" lon="35.477718"><ele>342.034</ele><time>2013-01-19T15:10:35Z</time></trkpt><trkpt lat="32.953396" lon="35.477615"><ele>333.057</ele><time>2013-01-19T15:11:05Z</time></trkpt><trkpt lat="32.953396" lon="35.477615"><ele>333.093</ele><time>2013-01-19T15:11:35Z</time></trkpt><trkpt lat="32.953396" lon="35.477615"><ele>333.065</ele><time>2013-01-19T15:12:05Z</time></trkpt><trkpt lat="32.952999" lon="35.477501"><ele>333.021</ele><time>2013-01-19T15:12:35Z</time></trkpt><trkpt lat="32.952682" lon="35.477627"><ele>324.007</ele><time>2013-01-19T15:13:05Z</time></trkpt><trkpt lat="32.952682" lon="35.477627"><ele>324.092</ele><time>2013-01-19T15:13:35Z</time></trkpt><trkpt lat="32.952324" lon="35.477482"><ele>324.087</ele><time>2013-01-19T15:14:05Z</time></trkpt><trkpt lat="32.951988" lon="35.477257"><ele>331.096</ele><time>2013-01-19T15:14:35Z</time></trkpt><trkpt lat="32.951763" lon="35.477051"><ele>323.052</ele><time>2013-01-19T15:15:05Z</time></trkpt><trkpt lat="32.951763" lon="35.477051"><ele>323.032</ele><time>2013-01-19T15:15:35Z</time></trkpt><trkpt lat="32.951763" lon="35.477051"><ele>323.042</ele><time>2013-01-19T15:16:05Z</time></trkpt><trkpt lat="32.951763" lon="35.477051"><ele>323.045</ele><time>2013-01-19T15:16:35Z</time></trkpt><trkpt lat="32.951580" lon="35.476891"><ele>323.014</ele><time>2013-01-19T15:17:05Z</time></trkpt><trkpt lat="32.951580" lon="35.476891"><ele>323.054</ele><time>2013-01-19T15:17:35Z</time></trkpt><trkpt lat="32.951580" lon="35.476891"><ele>323.009</ele><time>2013-01-19T15:18:05Z</time></trkpt><trkpt lat="32.951580" lon="35.476891"><ele>323.007</ele><time>2013-01-19T15:18:35Z</time></trkpt><trkpt lat="32.951580" lon="35.476891"><ele>323.014</ele><time>2013-01-19T15:19:05Z</time></trkpt><trkpt lat="32.951580" lon="35.476891"><ele>323.019</ele><time>2013-01-19T15:19:35Z</time></trkpt><trkpt lat="32.951580" lon="35.476891"><ele>323.068</ele><time>2013-01-19T15:20:05Z</time></trkpt><trkpt lat="32.951542" lon="35.476929"><ele>323.074</ele><time>2013-01-19T15:20:35Z</time></trkpt><trkpt lat="32.951542" lon="35.476929"><ele>323.044</ele><time>2013-01-19T15:21:05Z</time></trkpt><trkpt lat="32.951542" lon="35.476929"><ele>323.094</ele><time>2013-01-19T15:21:35Z</time></trkpt><trkpt lat="32.951542" lon="35.476929"><ele>323.077</ele><time>2013-01-19T15:22:05Z</time></trkpt><trkpt lat="32.951542" lon="35.476929"><ele>323.066</ele><time>2013-01-19T15:22:35Z</time></trkpt><trkpt lat="32.951542" lon="35.476929"><ele>323.029</ele><time>2013-01-19T15:23:05Z</time></trkpt><trkpt lat="32.951542" lon="35.476929"><ele>323.021</ele><time>2013-01-19T15:23:35Z</time></trkpt><trkpt lat="32.951786" lon="35.476974"><ele>323.007</ele><time>2013-01-19T15:24:05Z</time></trkpt><trkpt lat="32.951591" lon="35.476906"><ele>323.099</ele><time>2013-01-19T15:24:35Z</time></trkpt><trkpt lat="32.951591" lon="35.476906"><ele>323.034</ele><time>2013-01-19T15:25:05Z</time></trkpt><trkpt lat="32.951591" lon="35.476906"><ele>323.093</ele><time>2013-01-19T15:25:35Z</time></trkpt><trkpt lat="32.951591" lon="35.476906"><ele>323.099</ele><time>2013-01-19T15:26:05Z</time></trkpt><trkpt lat="32.951366" lon="35.477207"><ele>331.059</ele><time>2013-01-19T15:26:35Z</time></trkpt><trkpt lat="32.951366" lon="35.477207"><ele>331.059</ele><time>2013-01-19T15:27:05Z</time></trkpt><trkpt lat="32.951366" lon="35.477207"><ele>331.062</ele><time>2013-01-19T15:27:35Z</time></trkpt><trkpt lat="32.951462" lon="35.477558"><ele>331.021</ele><time>2013-01-19T15:28:05Z</time></trkpt><trkpt lat="32.951469" lon="35.477570"><ele>331.041</ele><time>2013-01-19T15:28:35Z</time></trkpt><trkpt lat="32.951469" lon="35.477570"><ele>331.005</ele><time>2013-01-19T15:29:05Z</time></trkpt><trkpt lat="32.951469" lon="35.477570"><ele>331.007</ele><time>2013-01-19T15:29:35Z</time></trkpt><trkpt lat="32.951702" lon="35.477901"><ele>331.045</ele><time>2013-01-19T15:30:05Z</time></trkpt><trkpt lat="32.951702" lon="35.477901"><ele>331.060</ele><time>2013-01-19T15:30:35Z</time></trkpt><trkpt lat="32.951702" lon="35.477901"><ele>331.059</ele><time>2013-01-19T15:31:05Z</time></trkpt><trkpt lat="32.951702" lon="35.477901"><ele>331.065</ele><time>2013-01-19T15:31:35Z</time></trkpt><trkpt lat="32.951702" lon="35.477901"><ele>331.085</ele><time>2013-01-19T15:32:05Z</time></trkpt><trkpt lat="32.951488" lon="35.478142"><ele>381.045</ele><time>2013-01-19T15:32:35Z</time></trkpt><trkpt lat="32.951477" lon="35.478153"><ele>381.068</ele><time>2013-01-19T15:33:05Z</time></trkpt><trkpt lat="32.951477" lon="35.478153"><ele>381.085</ele><time>2013-01-19T15:33:35Z</time></trkpt><trkpt lat="32.951477" lon="35.478153"><ele>381.089</ele><time>2013-01-19T15:34:05Z</time></trkpt><trkpt lat="32.951477" lon="35.478153"><ele>381.017</ele><time>2013-01-19T15:34:35Z</time></trkpt><trkpt lat="32.951233" lon="35.478294"><ele>400.007</ele><time>2013-01-19T15:35:05Z</time></trkpt><trkpt lat="32.951233" lon="35.478294"><ele>400.081</ele><time>2013-01-19T15:35:35Z</time></trkpt><trkpt lat="32.950882" lon="35.478222"><ele>400.016</ele><time>2013-01-19T15:36:05Z</time></trkpt><trkpt lat="32.950882" lon="35.478222"><ele>400.045</ele><time>2013-01-19T15:36:35Z</time></trkpt><trkpt lat="32.951118" lon="35.478516"><ele>400.041</ele><time>2013-01-19T15:37:05Z</time></trkpt><trkpt lat="32.951122" lon="35.478516"><ele>400.051</ele><time>2013-01-19T15:37:35Z</time></trkpt><trkpt lat="32.951122" lon="35.478516"><ele>400.071</ele><time>2013-01-19T15:38:05Z</time></trkpt><trkpt lat="32.951462" lon="35.478588"><ele>381.024</ele><time>2013-01-19T15:38:35Z</time></trkpt><trkpt lat="32.951462" lon="35.478588"><ele>381.068</ele><time>2013-01-19T15:39:05Z</time></trkpt><trkpt lat="32.951462" lon="35.478588"><ele>381.042</ele><time>2013-01-19T15:39:35Z</time></trkpt><trkpt lat="32.951679" lon="35.478931"><ele>421.026</ele><time>2013-01-19T15:40:05Z</time></trkpt><trkpt lat="32.951683" lon="35.478935"><ele>421.007</ele><time>2013-01-19T15:40:35Z</time></trkpt><trkpt lat="32.951683" lon="35.478935"><ele>421.099</ele><time>2013-01-19T15:41:05Z</time></trkpt><trkpt lat="32.951595" lon="35.479382"><ele>421.094</ele><time>2013-01-19T15:41:35Z</time></trkpt><trkpt lat="32.951595" lon="35.479382"><ele>421.073</ele><time>2013-01-19T15:42:05Z</time></trkpt><trkpt lat="32.951595" lon="35.479382"><ele>421.059</ele><time>2013-01-19T15:42:35Z</time></trkpt><trkpt lat="32.951473" lon="35.479794"><ele>443.039</ele><time>2013-01-19T15:43:05Z</time></trkpt><trkpt lat="32.951473" lon="35.479794"><ele>443.059</ele><time>2013-01-19T15:43:35Z</time></trkpt><trkpt lat="32.951473" lon="35.479794"><ele>443.012</ele><time>2013-01-19T15:44:05Z</time></trkpt><trkpt lat="32.951431" lon="35.480206"><ele>443.037</ele><time>2013-01-19T15:44:35Z</time></trkpt><trkpt lat="32.951431" lon="35.480206"><ele>443.049</ele><time>2013-01-19T15:45:05Z</time></trkpt><trkpt lat="32.951286" lon="35.480629"><ele>457.013</ele><time>2013-01-19T15:45:35Z</time></trkpt><trkpt lat="32.951073" lon="35.481003"><ele>464.007</ele><time>2013-01-19T15:46:05Z</time></trkpt><trkpt lat="32.951073" lon="35.481003"><ele>464.086</ele><time>2013-01-19T15:46:35Z</time></trkpt><trkpt lat="32.950958" lon="35.481441"><ele>474.081</ele><time>2013-01-19T15:47:05Z</time></trkpt><trkpt lat="32.950958" lon="35.481441"><ele>474.060</ele><time>2013-01-19T15:47:35Z</time></trkpt><trkpt lat="32.950958" lon="35.481441"><ele>474.036</ele><time>2013-01-19T15:48:05Z</time></trkpt><trkpt lat="32.951427" lon="35.482021"><ele>463.016</ele><time>2013-01-19T15:48:35Z</time></trkpt><trkpt lat="32.951496" lon="35.482098"><ele>474.066</ele><time>2013-01-19T15:49:05Z</time></trkpt><trkpt lat="32.951794" lon="35.482410"><ele>474.019</ele><time>2013-01-19T15:49:35Z</time></trkpt><trkpt lat="32.952122" lon="35.482708"><ele>472.026</ele><time>2013-01-19T15:50:05Z</time></trkpt><trkpt lat="32.952518" lon="35.482723"><ele>472.047</ele><time>2013-01-19T15:50:35Z</time></trkpt><trkpt lat="32.952919" lon="35.482605"><ele>474.011</ele><time>2013-01-19T15:51:05Z</time></trkpt><trkpt lat="32.953327" lon="35.482605"><ele>474.007</ele><time>2013-01-19T15:51:35Z</time></trkpt><trkpt lat="32.953739" lon="35.482876"><ele>474.085</ele><time>2013-01-19T15:52:05Z</time></trkpt><trkpt lat="32.954056" lon="35.483135"><ele>482.060</ele><time>2013-01-19T15:52:35Z</time></trkpt><trkpt lat="32.954067" lon="35.483147"><ele>482.079</ele><time>2013-01-19T15:53:05Z</time></trkpt><trkpt lat="32.954391" lon="35.483398"><ele>482.055</ele><time>2013-01-19T15:53:35Z</time></trkpt><trkpt lat="32.954823" lon="35.483940"><ele>486.075</ele><time>2013-01-19T15:54:05Z</time></trkpt><trkpt lat="32.954819" lon="35.483910"><ele>486.015</ele><time>2013-01-19T15:54:35Z</time></trkpt><trkpt lat="32.955147" lon="35.484173"><ele>486.068</ele><time>2013-01-19T15:55:05Z</time></trkpt><trkpt lat="32.955513" lon="35.484360"><ele>489.033</ele><time>2013-01-19T15:55:35Z</time></trkpt><trkpt lat="32.955875" lon="35.484604"><ele>500.023</ele><time>2013-01-19T15:56:05Z</time></trkpt><trkpt lat="32.956230" lon="35.484829"><ele>500.015</ele><time>2013-01-19T15:56:35Z</time></trkpt><trkpt lat="32.956558" lon="35.485096"><ele>499.007</ele><time>2013-01-19T15:57:05Z</time></trkpt><trkpt lat="32.956894" lon="35.485367"><ele>499.086</ele><time>2013-01-19T15:57:35Z</time></trkpt><trkpt lat="32.957233" lon="35.485634"><ele>508.041</ele><time>2013-01-19T15:58:05Z</time></trkpt><trkpt lat="32.957577" lon="35.485889"><ele>508.090</ele><time>2013-01-19T15:58:35Z</time></trkpt><trkpt lat="32.957912" lon="35.486134"><ele>508.076</ele><time>2013-01-19T15:59:05Z</time></trkpt><trkpt lat="32.957912" lon="35.486134"><ele>508.066</ele><time>2013-01-19T15:59:35Z</time></trkpt><trkpt lat="32.958256" lon="35.486378"><ele>524.086</ele><time>2013-01-19T16:00:05Z</time></trkpt><trkpt lat="32.958584" lon="35.486568"><ele>524.029</ele><time>2013-01-19T16:00:35Z</time></trkpt><trkpt lat="32.958954" lon="35.486763"><ele>530.032</ele><time>2013-01-19T16:01:05Z</time></trkpt><trkpt lat="32.959316" lon="35.486828"><ele>530.092</ele><time>2013-01-19T16:01:35Z</time></trkpt><trkpt lat="32.959335" lon="35.486835"><ele>530.011</ele><time>2013-01-19T16:02:05Z</time></trkpt><trkpt lat="32.959671" lon="35.487068"><ele>537.007</ele><time>2013-01-19T16:02:35Z</time></trkpt><trkpt lat="32.959988" lon="35.487339"><ele>548.046</ele><time>2013-01-19T16:03:05Z</time></trkpt><trkpt lat="32.959988" lon="35.487339"><ele>548.061</ele><time>2013-01-19T16:03:35Z</time></trkpt><trkpt lat="32.959988" lon="35.487339"><ele>548.010</ele><time>2013-01-19T16:04:05Z</time></trkpt><trkpt lat="32.960262" lon="35.487671"><ele>548.066</ele><time>2013-01-19T16:04:35Z</time></trkpt><trkpt lat="32.960640" lon="35.487782"><ele>558.096</ele><time>2013-01-19T16:05:05Z</time></trkpt><trkpt lat="32.960979" lon="35.487534"><ele>558.096</ele><time>2013-01-19T16:05:35Z</time></trkpt><trkpt lat="32.961288" lon="35.487244"><ele>568.099</ele><time>2013-01-19T16:06:05Z</time></trkpt><trkpt lat="32.961609" lon="35.486935"><ele>561.087</ele><time>2013-01-19T16:06:35Z</time></trkpt><trkpt lat="32.961960" lon="35.486835"><ele>561.042</ele><time>2013-01-19T16:07:05Z</time></trkpt><trkpt lat="32.961987" lon="35.486858"><ele>561.026</ele><time>2013-01-19T16:07:35Z</time></trkpt><trkpt lat="32.962177" lon="35.487270"><ele>578.007</ele><time>2013-01-19T16:08:05Z</time></trkpt><trkpt lat="32.962425" lon="35.487785"><ele>578.051</ele><time>2013-01-19T16:08:35Z</time></trkpt><trkpt lat="32.962666" lon="35.488159"><ele>587.016</ele><time>2013-01-19T16:09:05Z</time></trkpt><trkpt lat="32.962978" lon="35.487885"><ele>597.015</ele><time>2013-01-19T16:09:35Z</time></trkpt><trkpt lat="32.963078" lon="35.487461"><ele>597.011</ele><time>2013-01-19T16:10:05Z</time></trkpt><trkpt lat="32.963142" lon="35.487366"><ele>597.041</ele><time>2013-01-19T16:10:35Z</time></trkpt><trkpt lat="32.963482" lon="35.487122"><ele>597.081</ele><time>2013-01-19T16:11:05Z</time></trkpt><trkpt lat="32.963482" lon="35.487122"><ele>597.064</ele><time>2013-01-19T16:11:35Z</time></trkpt></trkseg></trk></gpx>