<?xml version="1.0" encoding="utf-8"?>
<gpx version="1.1" creator="IsraelHikingMap_single_track" xmlns="http://www.topografix.com/GPX/1/1">
	<metadata>
		<bounds minlat="31.263498" minlon="35.227027" maxlat="31.307824" maxlon="35.269211" />
	</metadata>
	<trk>
		<name>מסלול 1</name>
		<desc />
		<extensions>
			<Color xmlns="">#0000FF</Color>
			<Opacity xmlns="">0.4</Opacity>
			<Weight xmlns="">9</Weight>
		</extensions>
		<trkseg>
			<trkpt lat="31.30687432058535" lon="35.2691415766821">
				<ele>313.3198717948806</ele>
			</trkpt>
			<trkpt lat="31.306843" lon="35.269211">
				<ele>314.5</ele>
			</trkpt>
			<trkpt lat="31.306568" lon="35.269042">
				<ele>316</ele>
			</trkpt>
			<trkpt lat="31.306289" lon="35.268697">
				<ele>318</ele>
			</trkpt>
			<trkpt lat="31.306205" lon="35.268523">
				<ele>319</ele>
			</trkpt>
			<trkpt lat="31.306108" lon="35.268271">
				<ele>320</ele>
			</trkpt>
			<trkpt lat="31.30598" lon="35.267778">
				<ele>321</ele>
			</trkpt>
			<trkpt lat="31.305826" lon="35.266892">
				<ele>323</ele>
			</trkpt>
			<trkpt lat="31.305625" lon="35.266161">
				<ele>324</ele>
			</trkpt>
			<trkpt lat="31.305594" lon="35.266057">
				<ele>324</ele>
			</trkpt>
			<trkpt lat="31.30557" lon="35.265757">
				<ele>326</ele>
			</trkpt>
			<trkpt lat="31.305612" lon="35.265462">
				<ele>326</ele>
			</trkpt>
			<trkpt lat="31.30587" lon="35.264765">
				<ele>326</ele>
			</trkpt>
			<trkpt lat="31.305918" lon="35.264523">
				<ele>329</ele>
			</trkpt>
			<trkpt lat="31.305907" lon="35.26434">
				<ele>329.5</ele>
			</trkpt>
			<trkpt lat="31.305896" lon="35.264149">
				<ele>330</ele>
			</trkpt>
			<trkpt lat="31.30585" lon="35.263811">
				<ele>331</ele>
			</trkpt>
			<trkpt lat="31.305787" lon="35.263542">
				<ele>332</ele>
			</trkpt>
			<trkpt lat="31.305607" lon="35.262956">
				<ele>334</ele>
			</trkpt>
			<trkpt lat="31.305592" lon="35.262784">
				<ele>334</ele>
			</trkpt>
			<trkpt lat="31.305599" lon="35.262688">
				<ele>334</ele>
			</trkpt>
			<trkpt lat="31.305658" lon="35.262418">
				<ele>336</ele>
			</trkpt>
			<trkpt lat="31.305759" lon="35.262128">
				<ele>336</ele>
			</trkpt>
			<trkpt lat="31.306339" lon="35.26089">
				<ele>341</ele>
			</trkpt>
			<trkpt lat="31.306483" lon="35.260499">
				<ele>344.5</ele>
			</trkpt>
			<trkpt lat="31.306538" lon="35.260289">
				<ele>345</ele>
			</trkpt>
			<trkpt lat="31.30664" lon="35.259664">
				<ele>348</ele>
			</trkpt>
			<trkpt lat="31.306744" lon="35.259416">
				<ele>350.5</ele>
			</trkpt>
			<trkpt lat="31.307185" lon="35.258511">
				<ele>353</ele>
			</trkpt>
			<trkpt lat="31.307647" lon="35.257314">
				<ele>362</ele>
			</trkpt>
			<trkpt lat="31.307742" lon="35.256925">
				<ele>365</ele>
			</trkpt>
			<trkpt lat="31.30781" lon="35.256306">
				<ele>369.5</ele>
			</trkpt>
			<trkpt lat="31.307824" lon="35.25612">
				<ele>370</ele>
			</trkpt>
			<trkpt lat="31.307783" lon="35.255561">
				<ele>378</ele>
			</trkpt>
			<trkpt lat="31.307759" lon="35.255419">
				<ele>380</ele>
			</trkpt>
			<trkpt lat="31.307699" lon="35.255235">
				<ele>384</ele>
			</trkpt>
			<trkpt lat="31.307572" lon="35.254997">
				<ele>386</ele>
			</trkpt>
			<trkpt lat="31.307254" lon="35.254624">
				<ele>389</ele>
			</trkpt>
			<trkpt lat="31.307009" lon="35.254231">
				<ele>397</ele>
			</trkpt>
			<trkpt lat="31.306896" lon="35.254131">
				<ele>398</ele>
			</trkpt>
			<trkpt lat="31.30629" lon="35.253747">
				<ele>403</ele>
			</trkpt>
			<trkpt lat="31.305993" lon="35.253612">
				<ele>406</ele>
			</trkpt>
			<trkpt lat="31.305679" lon="35.253549">
				<ele>407</ele>
			</trkpt>
			<trkpt lat="31.305556" lon="35.253552">
				<ele>407</ele>
			</trkpt>
			<trkpt lat="31.305258" lon="35.253607">
				<ele>410</ele>
			</trkpt>
			<trkpt lat="31.305088" lon="35.253613">
				<ele>411</ele>
			</trkpt>
			<trkpt lat="31.304844" lon="35.253548">
				<ele>413.5</ele>
			</trkpt>
			<trkpt lat="31.304064" lon="35.253265">
				<ele>416</ele>
			</trkpt>
			<trkpt lat="31.303855" lon="35.253148">
				<ele>419</ele>
			</trkpt>
			<trkpt lat="31.303704" lon="35.252988">
				<ele>420</ele>
			</trkpt>
			<trkpt lat="31.30331" lon="35.252257">
				<ele>427</ele>
			</trkpt>
			<trkpt lat="31.303197" lon="35.252072">
				<ele>428</ele>
			</trkpt>
			<trkpt lat="31.303066" lon="35.2519">
				<ele>429</ele>
			</trkpt>
			<trkpt lat="31.302977" lon="35.251814">
				<ele>430</ele>
			</trkpt>
			<trkpt lat="31.302547" lon="35.251579">
				<ele>434</ele>
			</trkpt>
			<trkpt lat="31.302094" lon="35.251247">
				<ele>442</ele>
			</trkpt>
			<trkpt lat="31.301731" lon="35.251044">
				<ele>444</ele>
			</trkpt>
			<trkpt lat="31.30164" lon="35.251022">
				<ele>445</ele>
			</trkpt>
			<trkpt lat="31.301534" lon="35.251061">
				<ele>446</ele>
			</trkpt>
			<trkpt lat="31.301315" lon="35.251285">
				<ele>447</ele>
			</trkpt>
			<trkpt lat="31.301089" lon="35.251469">
				<ele>447</ele>
			</trkpt>
			<trkpt lat="31.300935" lon="35.251553">
				<ele>448</ele>
			</trkpt>
			<trkpt lat="31.300866" lon="35.251567">
				<ele>449</ele>
			</trkpt>
			<trkpt lat="31.300786" lon="35.25156">
				<ele>450</ele>
			</trkpt>
			<trkpt lat="31.300678" lon="35.251514">
				<ele>450</ele>
			</trkpt>
			<trkpt lat="31.300525" lon="35.251387">
				<ele>453</ele>
			</trkpt>
			<trkpt lat="31.300247" lon="35.251018">
				<ele>457</ele>
			</trkpt>
			<trkpt lat="31.299863" lon="35.250394">
				<ele>461</ele>
			</trkpt>
			<trkpt lat="31.29973" lon="35.250243">
				<ele>460</ele>
			</trkpt>
			<trkpt lat="31.299583" lon="35.250129">
				<ele>461</ele>
			</trkpt>
			<trkpt lat="31.299354" lon="35.249991">
				<ele>465</ele>
			</trkpt>
			<trkpt lat="31.299079" lon="35.249794">
				<ele>471</ele>
			</trkpt>
			<trkpt lat="31.298899" lon="35.249622">
				<ele>472</ele>
			</trkpt>
			<trkpt lat="31.298847" lon="35.249552">
				<ele>474</ele>
			</trkpt>
			<trkpt lat="31.298464" lon="35.248535">
				<ele>486</ele>
			</trkpt>
			<trkpt lat="31.298377" lon="35.248197">
				<ele>488</ele>
			</trkpt>
			<trkpt lat="31.298322" lon="35.248055">
				<ele>491</ele>
			</trkpt>
			<trkpt lat="31.29828" lon="35.247988">
				<ele>490</ele>
			</trkpt>
			<trkpt lat="31.298204" lon="35.2479">
				<ele>491</ele>
			</trkpt>
			<trkpt lat="31.297838" lon="35.247565">
				<ele>495</ele>
			</trkpt>
			<trkpt lat="31.297707" lon="35.247478">
				<ele>497</ele>
			</trkpt>
			<trkpt lat="31.297312" lon="35.247401">
				<ele>499</ele>
			</trkpt>
			<trkpt lat="31.297203" lon="35.247359">
				<ele>502</ele>
			</trkpt>
			<trkpt lat="31.297069" lon="35.247239">
				<ele>503</ele>
			</trkpt>
			<trkpt lat="31.29694" lon="35.247052">
				<ele>505</ele>
			</trkpt>
			<trkpt lat="31.296779" lon="35.246751">
				<ele>509</ele>
			</trkpt>
			<trkpt lat="31.29672" lon="35.246599">
				<ele>511</ele>
			</trkpt>
			<trkpt lat="31.296664" lon="35.246307">
				<ele>513</ele>
			</trkpt>
			<trkpt lat="31.296668" lon="35.246058">
				<ele>516</ele>
			</trkpt>
			<trkpt lat="31.296714" lon="35.245663">
				<ele>517</ele>
			</trkpt>
			<trkpt lat="31.296705" lon="35.24529">
				<ele>517</ele>
			</trkpt>
			<trkpt lat="31.296658" lon="35.245133">
				<ele>519</ele>
			</trkpt>
			<trkpt lat="31.296367" lon="35.244647">
				<ele>519</ele>
			</trkpt>
			<trkpt lat="31.296098" lon="35.244">
				<ele>524</ele>
			</trkpt>
			<trkpt lat="31.295926" lon="35.243746">
				<ele>524</ele>
			</trkpt>
			<trkpt lat="31.295782" lon="35.243625">
				<ele>527</ele>
			</trkpt>
			<trkpt lat="31.295459" lon="35.243474">
				<ele>529</ele>
			</trkpt>
			<trkpt lat="31.294997" lon="35.243366">
				<ele>531</ele>
			</trkpt>
			<trkpt lat="31.294842" lon="35.243284">
				<ele>533</ele>
			</trkpt>
			<trkpt lat="31.294536" lon="35.243072">
				<ele>536</ele>
			</trkpt>
			<trkpt lat="31.294405" lon="35.242961">
				<ele>535</ele>
			</trkpt>
			<trkpt lat="31.293838" lon="35.242679">
				<ele>538</ele>
			</trkpt>
			<trkpt lat="31.293673" lon="35.242649">
				<ele>540</ele>
			</trkpt>
			<trkpt lat="31.293401" lon="35.2427">
				<ele>540</ele>
			</trkpt>
			<trkpt lat="31.293188" lon="35.242718">
				<ele>542</ele>
			</trkpt>
			<trkpt lat="31.293091" lon="35.242704">
				<ele>542</ele>
			</trkpt>
			<trkpt lat="31.292894" lon="35.242608">
				<ele>542</ele>
			</trkpt>
			<trkpt lat="31.292755" lon="35.242512">
				<ele>543</ele>
			</trkpt>
			<trkpt lat="31.292486" lon="35.242288">
				<ele>545</ele>
			</trkpt>
			<trkpt lat="31.29234" lon="35.242152">
				<ele>548</ele>
			</trkpt>
			<trkpt lat="31.292268" lon="35.242061">
				<ele>549</ele>
			</trkpt>
			<trkpt lat="31.292219" lon="35.241963">
				<ele>550</ele>
			</trkpt>
			<trkpt lat="31.292184" lon="35.241845">
				<ele>552</ele>
			</trkpt>
			<trkpt lat="31.292141" lon="35.241583">
				<ele>554</ele>
			</trkpt>
			<trkpt lat="31.292127" lon="35.241368">
				<ele>554</ele>
			</trkpt>
			<trkpt lat="31.292083" lon="35.241134">
				<ele>556</ele>
			</trkpt>
			<trkpt lat="31.292004" lon="35.241012">
				<ele>557</ele>
			</trkpt>
			<trkpt lat="31.291926" lon="35.240965">
				<ele>556</ele>
			</trkpt>
			<trkpt lat="31.291858" lon="35.240958">
				<ele>558</ele>
			</trkpt>
			<trkpt lat="31.291761" lon="35.241004">
				<ele>558</ele>
			</trkpt>
			<trkpt lat="31.291707" lon="35.241058">
				<ele>559</ele>
			</trkpt>
			<trkpt lat="31.291663" lon="35.241163">
				<ele>559</ele>
			</trkpt>
			<trkpt lat="31.2916" lon="35.24154">
				<ele>560</ele>
			</trkpt>
			<trkpt lat="31.291486" lon="35.241893">
				<ele>561</ele>
			</trkpt>
			<trkpt lat="31.29141" lon="35.242016">
				<ele>560</ele>
			</trkpt>
			<trkpt lat="31.291193" lon="35.24226">
				<ele>561</ele>
			</trkpt>
			<trkpt lat="31.290793" lon="35.242628">
				<ele>561</ele>
			</trkpt>
			<trkpt lat="31.290374" lon="35.243049">
				<ele>565</ele>
			</trkpt>
			<trkpt lat="31.290261" lon="35.243133">
				<ele>565</ele>
			</trkpt>
			<trkpt lat="31.290075" lon="35.243231">
				<ele>566</ele>
			</trkpt>
			<trkpt lat="31.289937" lon="35.243276">
				<ele>565</ele>
			</trkpt>
			<trkpt lat="31.289769" lon="35.243287">
				<ele>566</ele>
			</trkpt>
			<trkpt lat="31.289655" lon="35.243265">
				<ele>566</ele>
			</trkpt>
			<trkpt lat="31.289522" lon="35.243208">
				<ele>568</ele>
			</trkpt>
			<trkpt lat="31.289419" lon="35.243124">
				<ele>569</ele>
			</trkpt>
			<trkpt lat="31.289281" lon="35.242934">
				<ele>570</ele>
			</trkpt>
			<trkpt lat="31.289205" lon="35.242783">
				<ele>572</ele>
			</trkpt>
			<trkpt lat="31.28909" lon="35.242492">
				<ele>575</ele>
			</trkpt>
			<trkpt lat="31.288874" lon="35.241764">
				<ele>580</ele>
			</trkpt>
			<trkpt lat="31.288806" lon="35.241393">
				<ele>583</ele>
			</trkpt>
			<trkpt lat="31.28877" lon="35.240326">
				<ele>592</ele>
			</trkpt>
			<trkpt lat="31.288737" lon="35.240122">
				<ele>593</ele>
			</trkpt>
			<trkpt lat="31.288643" lon="35.239827">
				<ele>595</ele>
			</trkpt>
			<trkpt lat="31.288603" lon="35.239729">
				<ele>596</ele>
			</trkpt>
			<trkpt lat="31.287893" lon="35.238575">
				<ele>608</ele>
			</trkpt>
			<trkpt lat="31.287612" lon="35.237635">
				<ele>604</ele>
			</trkpt>
			<trkpt lat="31.28746" lon="35.237283">
				<ele>603</ele>
			</trkpt>
			<trkpt lat="31.287223" lon="35.236858">
				<ele>601</ele>
			</trkpt>
			<trkpt lat="31.287067" lon="35.236644">
				<ele>599</ele>
			</trkpt>
			<trkpt lat="31.286475" lon="35.236008">
				<ele>594</ele>
			</trkpt>
			<trkpt lat="31.28589" lon="35.235326">
				<ele>588</ele>
			</trkpt>
			<trkpt lat="31.285684" lon="35.23511">
				<ele>588</ele>
			</trkpt>
			<trkpt lat="31.28494" lon="35.234926">
				<ele>592</ele>
			</trkpt>
			<trkpt lat="31.284583" lon="35.234908">
				<ele>595</ele>
			</trkpt>
			<trkpt lat="31.284254" lon="35.234932">
				<ele>598</ele>
			</trkpt>
			<trkpt lat="31.284114" lon="35.23491">
				<ele>598</ele>
			</trkpt>
			<trkpt lat="31.283983" lon="35.234847">
				<ele>597</ele>
			</trkpt>
			<trkpt lat="31.283893" lon="35.234778">
				<ele>597</ele>
			</trkpt>
			<trkpt lat="31.283524" lon="35.234436">
				<ele>598</ele>
			</trkpt>
			<trkpt lat="31.283352" lon="35.234307">
				<ele>599</ele>
			</trkpt>
			<trkpt lat="31.282558" lon="35.233769">
				<ele>602</ele>
			</trkpt>
			<trkpt lat="31.28243" lon="35.2337">
				<ele>603</ele>
			</trkpt>
			<trkpt lat="31.282148" lon="35.233611">
				<ele>604</ele>
			</trkpt>
			<trkpt lat="31.281883" lon="35.233576">
				<ele>603</ele>
			</trkpt>
			<trkpt lat="31.281303" lon="35.233663">
				<ele>602</ele>
			</trkpt>
			<trkpt lat="31.281026" lon="35.23365">
				<ele>601</ele>
			</trkpt>
			<trkpt lat="31.280397" lon="35.233453">
				<ele>602</ele>
			</trkpt>
			<trkpt lat="31.279991" lon="35.233358">
				<ele>600</ele>
			</trkpt>
			<trkpt lat="31.279046" lon="35.233279">
				<ele>598</ele>
			</trkpt>
			<trkpt lat="31.279151" lon="35.233163">
				<ele>597</ele>
			</trkpt>
			<trkpt lat="31.278997" lon="35.233156">
				<ele>596.5</ele>
			</trkpt>
			<trkpt lat="31.278623" lon="35.233141">
				<ele>596</ele>
			</trkpt>
			<trkpt lat="31.278757" lon="35.233255">
				<ele>597</ele>
			</trkpt>
			<trkpt lat="31.278147" lon="35.233247">
				<ele>595</ele>
			</trkpt>
			<trkpt lat="31.27794" lon="35.233189">
				<ele>595</ele>
			</trkpt>
			<trkpt lat="31.277696" lon="35.233094">
				<ele>595</ele>
			</trkpt>
			<trkpt lat="31.277531" lon="35.233057">
				<ele>595</ele>
			</trkpt>
			<trkpt lat="31.2772" lon="35.233038">
				<ele>595</ele>
			</trkpt>
			<trkpt lat="31.276978" lon="35.23306">
				<ele>595</ele>
			</trkpt>
			<trkpt lat="31.27654" lon="35.233052">
				<ele>595</ele>
			</trkpt>
			<trkpt lat="31.276048" lon="35.232929">
				<ele>593</ele>
			</trkpt>
			<trkpt lat="31.275611" lon="35.232846">
				<ele>588</ele>
			</trkpt>
			<trkpt lat="31.275398" lon="35.232719">
				<ele>586</ele>
			</trkpt>
			<trkpt lat="31.275181" lon="35.232506">
				<ele>583</ele>
			</trkpt>
			<trkpt lat="31.274708" lon="35.231958">
				<ele>576</ele>
			</trkpt>
			<trkpt lat="31.27442" lon="35.231535">
				<ele>573</ele>
			</trkpt>
			<trkpt lat="31.273414" lon="35.230355">
				<ele>561</ele>
			</trkpt>
			<trkpt lat="31.273186" lon="35.230106">
				<ele>560</ele>
			</trkpt>
			<trkpt lat="31.273136" lon="35.23002">
				<ele>559</ele>
			</trkpt>
			<trkpt lat="31.272758" lon="35.229757">
				<ele>559</ele>
			</trkpt>
			<trkpt lat="31.272475" lon="35.229635">
				<ele>559</ele>
			</trkpt>
			<trkpt lat="31.271966" lon="35.229501">
				<ele>559</ele>
			</trkpt>
			<trkpt lat="31.271258" lon="35.229343">
				<ele>558</ele>
			</trkpt>
			<trkpt lat="31.271001" lon="35.229244">
				<ele>558</ele>
			</trkpt>
			<trkpt lat="31.270849" lon="35.229162">
				<ele>558</ele>
			</trkpt>
			<trkpt lat="31.270775" lon="35.229103">
				<ele>559</ele>
			</trkpt>
			<trkpt lat="31.270641" lon="35.228951">
				<ele>559</ele>
			</trkpt>
			<trkpt lat="31.270352" lon="35.228567">
				<ele>558</ele>
			</trkpt>
			<trkpt lat="31.269766" lon="35.227914">
				<ele>552</ele>
			</trkpt>
			<trkpt lat="31.26942" lon="35.227493">
				<ele>549</ele>
			</trkpt>
			<trkpt lat="31.269071" lon="35.227135">
				<ele>549</ele>
			</trkpt>
			<trkpt lat="31.268888" lon="35.227027">
				<ele>550</ele>
			</trkpt>
			<trkpt lat="31.268824" lon="35.227056">
				<ele>550</ele>
			</trkpt>
			<trkpt lat="31.268633" lon="35.227249">
				<ele>551</ele>
			</trkpt>
			<trkpt lat="31.268545" lon="35.227313">
				<ele>551</ele>
			</trkpt>
			<trkpt lat="31.267591" lon="35.227751">
				<ele>554</ele>
			</trkpt>
			<trkpt lat="31.26744" lon="35.227845">
				<ele>554</ele>
			</trkpt>
			<trkpt lat="31.267308" lon="35.227953">
				<ele>553</ele>
			</trkpt>
			<trkpt lat="31.267184" lon="35.228095">
				<ele>551</ele>
			</trkpt>
			<trkpt lat="31.267066" lon="35.228274">
				<ele>552</ele>
			</trkpt>
			<trkpt lat="31.266979" lon="35.22845">
				<ele>552</ele>
			</trkpt>
			<trkpt lat="31.266916" lon="35.228605">
				<ele>552</ele>
			</trkpt>
			<trkpt lat="31.266872" lon="35.228777">
				<ele>552</ele>
			</trkpt>
			<trkpt lat="31.266817" lon="35.229571">
				<ele>552</ele>
			</trkpt>
			<trkpt lat="31.266791" lon="35.229738">
				<ele>551</ele>
			</trkpt>
			<trkpt lat="31.266751" lon="35.229875">
				<ele>552</ele>
			</trkpt>
			<trkpt lat="31.266688" lon="35.230008">
				<ele>551</ele>
			</trkpt>
			<trkpt lat="31.266615" lon="35.230116">
				<ele>550</ele>
			</trkpt>
			<trkpt lat="31.266523" lon="35.230202">
				<ele>550</ele>
			</trkpt>
			<trkpt lat="31.266414" lon="35.230274">
				<ele>551</ele>
			</trkpt>
			<trkpt lat="31.266314" lon="35.230317">
				<ele>550</ele>
			</trkpt>
			<trkpt lat="31.266094" lon="35.230356">
				<ele>550</ele>
			</trkpt>
			<trkpt lat="31.265907" lon="35.230313">
				<ele>549</ele>
			</trkpt>
			<trkpt lat="31.265834" lon="35.230279">
				<ele>551</ele>
			</trkpt>
			<trkpt lat="31.265199" lon="35.229849">
				<ele>557</ele>
			</trkpt>
			<trkpt lat="31.265056" lon="35.229777">
				<ele>555</ele>
			</trkpt>
			<trkpt lat="31.264814" lon="35.229682">
				<ele>556</ele>
			</trkpt>
			<trkpt lat="31.26469" lon="35.229656">
				<ele>558</ele>
			</trkpt>
			<trkpt lat="31.264282" lon="35.229618">
				<ele>562</ele>
			</trkpt>
			<trkpt lat="31.264022" lon="35.229532">
				<ele>565</ele>
			</trkpt>
			<trkpt lat="31.263908" lon="35.229446">
				<ele>567</ele>
			</trkpt>
			<trkpt lat="31.263798" lon="35.229326">
				<ele>568</ele>
			</trkpt>
			<trkpt lat="31.263498" lon="35.228837">
				<ele>570</ele>
			</trkpt>
		</trkseg>
	</trk>
</gpx>