<?xml version="1.0" encoding="UTF-8"?>
<gpx version="1.1" creator="yairron.com route editor" xmlns="http://www.topografix.com/GPX/1/1">
  <trk>
    <name>מסלול חדש</name>
    <trkseg>
      <trkpt lat="33.015620" lon="35.171144"><ele>140.7</ele></trkpt>
      <trkpt lat="33.015810" lon="35.171094"><ele>143.7</ele></trkpt>
      <trkpt lat="33.016004" lon="35.171050"><ele>143.1</ele></trkpt>
      <trkpt lat="33.016245" lon="35.171058"><ele>141.8</ele></trkpt>
      <trkpt lat="33.016432" lon="35.171120"><ele>143.4</ele></trkpt>
      <trkpt lat="33.016566" lon="35.171306"><ele>144.4</ele></trkpt>
      <trkpt lat="33.016654" lon="35.171505"><ele>145.1</ele></trkpt>
      <trkpt lat="33.016712" lon="35.171714"><ele>144.2</ele></trkpt>
      <trkpt lat="33.016780" lon="35.171935"><ele>144.2</ele></trkpt>
      <trkpt lat="33.016838" lon="35.172162"><ele>146.4</ele></trkpt>
      <trkpt lat="33.016993" lon="35.172320"><ele>147.3</ele></trkpt>
      <trkpt lat="33.017202" lon="35.172325"><ele>146.4</ele></trkpt>
      <trkpt lat="33.017398" lon="35.172311"><ele>145.3</ele></trkpt>
      <trkpt lat="33.017596" lon="35.172292"><ele>143.6</ele></trkpt>
      <trkpt lat="33.017711" lon="35.172094"><ele>142.9</ele></trkpt>
      <trkpt lat="33.017700" lon="35.171871"><ele>145.8</ele></trkpt>
      <trkpt lat="33.017708" lon="35.171627"><ele>146.2</ele></trkpt>
      <trkpt lat="33.017692" lon="35.171383"><ele>145.0</ele></trkpt>
      <trkpt lat="33.017677" lon="35.171155"><ele>144.3</ele></trkpt>
      <trkpt lat="33.017562" lon="35.170937"><ele>143.4</ele></trkpt>
      <trkpt lat="33.017429" lon="35.170734"><ele>143.0</ele></trkpt>
      <trkpt lat="33.017310" lon="35.170531"><ele>142.3</ele></trkpt>
      <trkpt lat="33.017221" lon="35.170318"><ele>142.3</ele></trkpt>
      <trkpt lat="33.017167" lon="35.170071"><ele>141.3</ele></trkpt>
      <trkpt lat="33.017147" lon="35.169807"><ele>140.1</ele></trkpt>
      <trkpt lat="33.017142" lon="35.169591"><ele>138.3</ele></trkpt>
      <trkpt lat="33.017140" lon="35.169370"><ele>136.3</ele></trkpt>
      <trkpt lat="33.017135" lon="35.169151"><ele>135.8</ele></trkpt>
      <trkpt lat="33.017133" lon="35.168920"><ele>134.2</ele></trkpt>
      <trkpt lat="33.017141" lon="35.168702"><ele>133.6</ele></trkpt>
      <trkpt lat="33.017213" lon="35.168450"><ele>133.8</ele></trkpt>
      <trkpt lat="33.017371" lon="35.168328"><ele>131.5</ele></trkpt>
      <trkpt lat="33.017529" lon="35.168216"><ele>128.8</ele></trkpt>
      <trkpt lat="33.017701" lon="35.168093"><ele>126.5</ele></trkpt>
      <trkpt lat="33.017901" lon="35.167960"><ele>125.5</ele></trkpt>
      <trkpt lat="33.017957" lon="35.167750"><ele>125.1</ele></trkpt>
      <trkpt lat="33.017935" lon="35.167523"><ele>125.8</ele></trkpt>
      <trkpt lat="33.017929" lon="35.167287"><ele>124.7</ele></trkpt>
      <trkpt lat="33.017904" lon="35.167032"><ele>122.7</ele></trkpt>
      <trkpt lat="33.017888" lon="35.166788"><ele>122.5</ele></trkpt>
      <trkpt lat="33.017938" lon="35.166557"><ele>124.1</ele></trkpt>
      <trkpt lat="33.018122" lon="35.166493"><ele>123.5</ele></trkpt>
      <trkpt lat="33.018294" lon="35.166336"><ele>120.6</ele></trkpt>
      <trkpt lat="33.018463" lon="35.166240"><ele>118.5</ele></trkpt>
      <trkpt lat="33.018636" lon="35.166170"><ele>116.0</ele></trkpt>
      <trkpt lat="33.018852" lon="35.166114"><ele>113.2</ele></trkpt>
      <trkpt lat="33.019032" lon="35.166065"><ele>110.2</ele></trkpt>
      <trkpt lat="33.019229" lon="35.165996"><ele>107.8</ele></trkpt>
      <trkpt lat="33.019368" lon="35.166175"><ele>105.4</ele></trkpt>
      <trkpt lat="33.019480" lon="35.166381"><ele>104.8</ele></trkpt>
      <trkpt lat="33.019600" lon="35.166588"><ele>107.0</ele></trkpt>
      <trkpt lat="33.019683" lon="35.166786"><ele>107.0</ele></trkpt>
      <trkpt lat="33.019804" lon="35.166983"><ele>108.3</ele></trkpt>
      <trkpt lat="33.019969" lon="35.167082"><ele>109.7</ele></trkpt>
      <trkpt lat="33.020149" lon="35.167138"><ele>110.4</ele></trkpt>
      <trkpt lat="33.020266" lon="35.167302"><ele>112.3</ele></trkpt>
      <trkpt lat="33.020338" lon="35.167507"><ele>112.7</ele></trkpt>
      <trkpt lat="33.020465" lon="35.167674"><ele>116.7</ele></trkpt>
      <trkpt lat="33.020631" lon="35.167766"><ele>122.9</ele></trkpt>
      <trkpt lat="33.020826" lon="35.167822"><ele>124.4</ele></trkpt>
      <trkpt lat="33.021026" lon="35.167749"><ele>122.4</ele></trkpt>
      <trkpt lat="33.021207" lon="35.167672"><ele>122.1</ele></trkpt>
      <trkpt lat="33.021375" lon="35.167576"><ele>122.0</ele></trkpt>
      <trkpt lat="33.021492" lon="35.167399"><ele>120.1</ele></trkpt>
      <trkpt lat="33.021577" lon="35.167184"><ele>120.0</ele></trkpt>
      <trkpt lat="33.021645" lon="35.166983"><ele>121.6</ele></trkpt>
      <trkpt lat="33.021713" lon="35.166778"><ele>124.3</ele></trkpt>
      <trkpt lat="33.021781" lon="35.166577"><ele>127.4</ele></trkpt>
      <trkpt lat="33.021850" lon="35.166341"><ele>126.6</ele></trkpt>
      <trkpt lat="33.021918" lon="35.166134"><ele>129.9</ele></trkpt>
      <trkpt lat="33.022006" lon="35.165935"><ele>128.8</ele></trkpt>
      <trkpt lat="33.022095" lon="35.165744"><ele>127.5</ele></trkpt>
      <trkpt lat="33.022121" lon="35.165523"><ele>128.2</ele></trkpt>
      <trkpt lat="33.022067" lon="35.165286"><ele>129.6</ele></trkpt>
      <trkpt lat="33.022044" lon="35.165034"><ele>130.3</ele></trkpt>
      <trkpt lat="33.022054" lon="35.164776"><ele>132.2</ele></trkpt>
      <trkpt lat="33.022049" lon="35.164561"><ele>132.0</ele></trkpt>
      <trkpt lat="33.022035" lon="35.164301"><ele>131.3</ele></trkpt>
      <trkpt lat="33.022014" lon="35.164075"><ele>131.8</ele></trkpt>
      <trkpt lat="33.022019" lon="35.163836"><ele>131.8</ele></trkpt>
      <trkpt lat="33.022030" lon="35.163611"><ele>133.2</ele></trkpt>
      <trkpt lat="33.022020" lon="35.163382"><ele>132.1</ele></trkpt>
      <trkpt lat="33.022017" lon="35.163165"><ele>131.5</ele></trkpt>
      <trkpt lat="33.022083" lon="35.162938"><ele>130.3</ele></trkpt>
      <trkpt lat="33.022198" lon="35.162738"><ele>130.6</ele></trkpt>
      <trkpt lat="33.022356" lon="35.162566"><ele>131.1</ele></trkpt>
      <trkpt lat="33.022490" lon="35.162404"><ele>132.7</ele></trkpt>
      <trkpt lat="33.022640" lon="35.162251"><ele>133.3</ele></trkpt>
      <trkpt lat="33.022764" lon="35.162067"><ele>133.5</ele></trkpt>
      <trkpt lat="33.022915" lon="35.161894"><ele>133.9</ele></trkpt>
      <trkpt lat="33.023034" lon="35.161715"><ele>133.2</ele></trkpt>
      <trkpt lat="33.023133" lon="35.161490"><ele>134.6</ele></trkpt>
      <trkpt lat="33.023246" lon="35.161276"><ele>135.8</ele></trkpt>
      <trkpt lat="33.023289" lon="35.161061"><ele>134.4</ele></trkpt>
      <trkpt lat="33.023439" lon="35.160908"><ele>132.5</ele></trkpt>
      <trkpt lat="33.023630" lon="35.160994"><ele>132.1</ele></trkpt>
      <trkpt lat="33.023820" lon="35.160910"><ele>130.8</ele></trkpt>
      <trkpt lat="33.024010" lon="35.160897"><ele>130.8</ele></trkpt>
      <trkpt lat="33.024216" lon="35.160901"><ele>129.8</ele></trkpt>
      <trkpt lat="33.024396" lon="35.160971"><ele>130.7</ele></trkpt>
      <trkpt lat="33.024568" lon="35.161068"><ele>131.9</ele></trkpt>
      <trkpt lat="33.024732" lon="35.160978"><ele>128.8</ele></trkpt>
      <trkpt lat="33.024691" lon="35.160726"><ele>126.8</ele></trkpt>
      <trkpt lat="33.024739" lon="35.160516"><ele>127.7</ele></trkpt>
      <trkpt lat="33.024957" lon="35.160503"><ele>127.3</ele></trkpt>
      <trkpt lat="33.025109" lon="35.160314"><ele>125.5</ele></trkpt>
      <trkpt lat="33.025266" lon="35.160174"><ele>123.5</ele></trkpt>
      <trkpt lat="33.025393" lon="35.160006"><ele>119.5</ele></trkpt>
      <trkpt lat="33.025534" lon="35.159826"><ele>121.7</ele></trkpt>
      <trkpt lat="33.025703" lon="35.159681"><ele>121.1</ele></trkpt>
      <trkpt lat="33.025870" lon="35.159595"><ele>120.5</ele></trkpt>
      <trkpt lat="33.026030" lon="35.159493"><ele>119.5</ele></trkpt>
      <trkpt lat="33.026069" lon="35.159273"><ele>120.0</ele></trkpt>
      <trkpt lat="33.026153" lon="35.159077"><ele>118.3</ele></trkpt>
      <trkpt lat="33.026331" lon="35.158982"><ele>119.7</ele></trkpt>
      <trkpt lat="33.026400" lon="35.158771"><ele>118.2</ele></trkpt>
      <trkpt lat="33.026548" lon="35.158643"><ele>119.7</ele></trkpt>
      <trkpt lat="33.026664" lon="35.158465"><ele>116.7</ele></trkpt>
      <trkpt lat="33.026791" lon="35.158279"><ele>119.3</ele></trkpt>
      <trkpt lat="33.026748" lon="35.158070"><ele>119.4</ele></trkpt>
      <trkpt lat="33.026699" lon="35.157859"><ele>116.4</ele></trkpt>
      <trkpt lat="33.026634" lon="35.157646"><ele>114.8</ele></trkpt>
      <trkpt lat="33.026517" lon="35.157432"><ele>112.0</ele></trkpt>
      <trkpt lat="33.026367" lon="35.157253"><ele>109.3</ele></trkpt>
      <trkpt lat="33.026371" lon="35.157015"><ele>107.5</ele></trkpt>
      <trkpt lat="33.026232" lon="35.156845"><ele>108.2</ele></trkpt>
      <trkpt lat="33.026212" lon="35.156631"><ele>107.8</ele></trkpt>
      <trkpt lat="33.026342" lon="35.156421"><ele>106.1</ele></trkpt>
      <trkpt lat="33.026390" lon="35.156173"><ele>106.4</ele></trkpt>
      <trkpt lat="33.026497" lon="35.155968"><ele>105.9</ele></trkpt>
      <trkpt lat="33.026643" lon="35.155815"><ele>101.6</ele></trkpt>
      <trkpt lat="33.026716" lon="35.155615"><ele>100.5</ele></trkpt>
      <trkpt lat="33.026862" lon="35.155468"><ele>99.4</ele></trkpt>
      <trkpt lat="33.027058" lon="35.155446"><ele>101.4</ele></trkpt>
      <trkpt lat="33.027123" lon="35.155243"><ele>104.6</ele></trkpt>
      <trkpt lat="33.027087" lon="35.155028"><ele>101.9</ele></trkpt>
      <trkpt lat="33.027269" lon="35.154995"><ele>102.8</ele></trkpt>
      <trkpt lat="33.027453" lon="35.154975"><ele>102.5</ele></trkpt>
      <trkpt lat="33.027636" lon="35.154991"><ele>103.2</ele></trkpt>
      <trkpt lat="33.027558" lon="35.154753"><ele>100.9</ele></trkpt>
      <trkpt lat="33.027544" lon="35.154525"><ele>101.7</ele></trkpt>
      <trkpt lat="33.027584" lon="35.154290"><ele>100.3</ele></trkpt>
      <trkpt lat="33.027487" lon="35.154105"><ele>99.7</ele></trkpt>
      <trkpt lat="33.027401" lon="35.153898"><ele>97.5</ele></trkpt>
      <trkpt lat="33.027297" lon="35.153698"><ele>97.0</ele></trkpt>
      <trkpt lat="33.027499" lon="35.153691"><ele>96.0</ele></trkpt>
      <trkpt lat="33.027690" lon="35.153758"><ele>92.3</ele></trkpt>
      <trkpt lat="33.027849" lon="35.153877"><ele>95.6</ele></trkpt>
      <trkpt lat="33.027976" lon="35.154078"><ele>96.0</ele></trkpt>
      <trkpt lat="33.028150" lon="35.154218"><ele>96.8</ele></trkpt>
      <trkpt lat="33.028269" lon="35.154422"><ele>94.6</ele></trkpt>
      <trkpt lat="33.028401" lon="35.154261"><ele>90.5</ele></trkpt>
      <trkpt lat="33.028522" lon="35.154438"><ele>88.8</ele></trkpt>
      <trkpt lat="33.028628" lon="35.154638"><ele>86.4</ele></trkpt>
      <trkpt lat="33.028733" lon="35.154840"><ele>85.0</ele></trkpt>
      <trkpt lat="33.028727" lon="35.155104"><ele>87.9</ele></trkpt>
      <trkpt lat="33.028885" lon="35.155219"><ele>84.9</ele></trkpt>
      <trkpt lat="33.028921" lon="35.154972"><ele>79.5</ele></trkpt>
      <trkpt lat="33.028961" lon="35.154691"><ele>76.5</ele></trkpt>
      <trkpt lat="33.028988" lon="35.154462"><ele>75.3</ele></trkpt>
      <trkpt lat="33.029006" lon="35.154212"><ele>74.7</ele></trkpt>
      <trkpt lat="33.029014" lon="35.153994"><ele>75.5</ele></trkpt>
      <trkpt lat="33.029088" lon="35.153761"><ele>72.6</ele></trkpt>
      <trkpt lat="33.029144" lon="35.153490"><ele>70.9</ele></trkpt>
      <trkpt lat="33.029205" lon="35.153247"><ele>69.1</ele></trkpt>
      <trkpt lat="33.029267" lon="35.153024"><ele>67.2</ele></trkpt>
      <trkpt lat="33.029331" lon="35.152815"><ele>66.5</ele></trkpt>
      <trkpt lat="33.029474" lon="35.152951"><ele>65.4</ele></trkpt>
      <trkpt lat="33.029516" lon="35.153193"><ele>62.8</ele></trkpt>
      <trkpt lat="33.029545" lon="35.153433"><ele>62.6</ele></trkpt>
      <trkpt lat="33.029548" lon="35.153651"><ele>66.6</ele></trkpt>
      <trkpt lat="33.029585" lon="35.153877"><ele>67.5</ele></trkpt>
      <trkpt lat="33.029602" lon="35.154115"><ele>68.9</ele></trkpt>
      <trkpt lat="33.029637" lon="35.154340"><ele>68.4</ele></trkpt>
      <trkpt lat="33.029655" lon="35.154591"><ele>69.3</ele></trkpt>
      <trkpt lat="33.029685" lon="35.154830"><ele>70.8</ele></trkpt>
      <trkpt lat="33.029741" lon="35.155058"><ele>70.7</ele></trkpt>
      <trkpt lat="33.029762" lon="35.155276"><ele>72.3</ele></trkpt>
      <trkpt lat="33.029819" lon="35.155500"><ele>74.1</ele></trkpt>
      <trkpt lat="33.029843" lon="35.155735"><ele>76.2</ele></trkpt>
      <trkpt lat="33.029914" lon="35.155952"><ele>77.3</ele></trkpt>
      <trkpt lat="33.030035" lon="35.156129"><ele>73.1</ele></trkpt>
      <trkpt lat="33.030091" lon="35.156336"><ele>74.6</ele></trkpt>
      <trkpt lat="33.030191" lon="35.156524"><ele>77.1</ele></trkpt>
      <trkpt lat="33.030274" lon="35.156743"><ele>75.4</ele></trkpt>
      <trkpt lat="33.030375" lon="35.156932"><ele>74.0</ele></trkpt>
      <trkpt lat="33.030392" lon="35.157165"><ele>75.7</ele></trkpt>
      <trkpt lat="33.030417" lon="35.157411"><ele>74.8</ele></trkpt>
      <trkpt lat="33.030571" lon="35.157601"><ele>75.2</ele></trkpt>
      <trkpt lat="33.030747" lon="35.157502"><ele>76.0</ele></trkpt>
      <trkpt lat="33.030932" lon="35.157571"><ele>74.5</ele></trkpt>
      <trkpt lat="33.031070" lon="35.157713"><ele>77.2</ele></trkpt>
      <trkpt lat="33.031234" lon="35.157834"><ele>78.7</ele></trkpt>
      <trkpt lat="33.031424" lon="35.157795"><ele>80.0</ele></trkpt>
      <trkpt lat="33.031517" lon="35.157983"><ele>84.2</ele></trkpt>
      <trkpt lat="33.031567" lon="35.158211"><ele>86.3</ele></trkpt>
      <trkpt lat="33.031600" lon="35.158436"><ele>88.5</ele></trkpt>
      <trkpt lat="33.031691" lon="35.158624"><ele>91.6</ele></trkpt>
      <trkpt lat="33.031844" lon="35.158739"><ele>94.8</ele></trkpt>
      <trkpt lat="33.032025" lon="35.158733"><ele>98.1</ele></trkpt>
      <trkpt lat="33.032204" lon="35.158687"><ele>101.1</ele></trkpt>
      <trkpt lat="33.032382" lon="35.158775"><ele>102.1</ele></trkpt>
      <trkpt lat="33.032546" lon="35.158883"><ele>106.1</ele></trkpt>
      <trkpt lat="33.032728" lon="35.158800"><ele>107.2</ele></trkpt>
      <trkpt lat="33.032924" lon="35.158751"><ele>107.0</ele></trkpt>
      <trkpt lat="33.033114" lon="35.158770"><ele>106.8</ele></trkpt>
      <trkpt lat="33.033309" lon="35.158778"><ele>106.9</ele></trkpt>
      <trkpt lat="33.033509" lon="35.158743"><ele>108.8</ele></trkpt>
      <trkpt lat="33.033710" lon="35.158766"><ele>107.8</ele></trkpt>
      <trkpt lat="33.033886" lon="35.158843"><ele>109.2</ele></trkpt>
      <trkpt lat="33.034057" lon="35.158957"><ele>110.7</ele></trkpt>
      <trkpt lat="33.034237" lon="35.159013"><ele>110.7</ele></trkpt>
      <trkpt lat="33.034436" lon="35.158966"><ele>110.0</ele></trkpt>
      <trkpt lat="33.034631" lon="35.158992"><ele>110.9</ele></trkpt>
      <trkpt lat="33.034806" lon="35.159105"><ele>113.2</ele></trkpt>
      <trkpt lat="33.034990" lon="35.159188"><ele>112.3</ele></trkpt>
      <trkpt lat="33.035196" lon="35.159193"><ele>112.5</ele></trkpt>
      <trkpt lat="33.035378" lon="35.159187"><ele>110.5</ele></trkpt>
      <trkpt lat="33.035581" lon="35.159200"><ele>111.3</ele></trkpt>
      <trkpt lat="33.035776" lon="35.159200"><ele>112.6</ele></trkpt>
      <trkpt lat="33.035970" lon="35.159138"><ele>112.5</ele></trkpt>
      <trkpt lat="33.036183" lon="35.159130"><ele>112.6</ele></trkpt>
      <trkpt lat="33.036386" lon="35.159157"><ele>110.5</ele></trkpt>
      <trkpt lat="33.036590" lon="35.159133"><ele>110.1</ele></trkpt>
      <trkpt lat="33.036793" lon="35.159130"><ele>108.1</ele></trkpt>
      <trkpt lat="33.036999" lon="35.159128"><ele>109.5</ele></trkpt>
      <trkpt lat="33.037189" lon="35.159087"><ele>109.0</ele></trkpt>
      <trkpt lat="33.037400" lon="35.159069"><ele>108.4</ele></trkpt>
      <trkpt lat="33.037586" lon="35.159120"><ele>106.5</ele></trkpt>
      <trkpt lat="33.037768" lon="35.159174"><ele>106.9</ele></trkpt>
      <trkpt lat="33.037968" lon="35.159214"><ele>106.0</ele></trkpt>
      <trkpt lat="33.038174" lon="35.159254"><ele>106.4</ele></trkpt>
      <trkpt lat="33.038359" lon="35.159282"><ele>110.0</ele></trkpt>
      <trkpt lat="33.038294" lon="35.159503"><ele>109.3</ele></trkpt>
      <trkpt lat="33.038234" lon="35.159725"><ele>111.5</ele></trkpt>
      <trkpt lat="33.038214" lon="35.159950"><ele>111.1</ele></trkpt>
      <trkpt lat="33.038138" lon="35.160155"><ele>112.2</ele></trkpt>
      <trkpt lat="33.038115" lon="35.160397"><ele>114.6</ele></trkpt>
      <trkpt lat="33.038162" lon="35.160610"><ele>117.7</ele></trkpt>
      <trkpt lat="33.038283" lon="35.160804"><ele>116.5</ele></trkpt>
      <trkpt lat="33.038338" lon="35.161021"><ele>117.5</ele></trkpt>
      <trkpt lat="33.038335" lon="35.161243"><ele>117.7</ele></trkpt>
      <trkpt lat="33.038300" lon="35.161472"><ele>119.7</ele></trkpt>
      <trkpt lat="33.038421" lon="35.161636"><ele>120.5</ele></trkpt>
      <trkpt lat="33.038586" lon="35.161752"><ele>119.9</ele></trkpt>
      <trkpt lat="33.038765" lon="35.161771"><ele>121.3</ele></trkpt>
      <trkpt lat="33.038947" lon="35.161801"><ele>120.7</ele></trkpt>
      <trkpt lat="33.039035" lon="35.161989"><ele>123.3</ele></trkpt>
      <trkpt lat="33.038893" lon="35.162152"><ele>121.2</ele></trkpt>
      <trkpt lat="33.038815" lon="35.162350"><ele>120.6</ele></trkpt>
      <trkpt lat="33.038852" lon="35.162579"><ele>123.7</ele></trkpt>
      <trkpt lat="33.039022" lon="35.162688"><ele>126.7</ele></trkpt>
      <trkpt lat="33.039186" lon="35.162780"><ele>126.7</ele></trkpt>
      <trkpt lat="33.039209" lon="35.162993"><ele>126.5</ele></trkpt>
      <trkpt lat="33.039184" lon="35.163215"><ele>128.2</ele></trkpt>
      <trkpt lat="33.039116" lon="35.163447"><ele>128.8</ele></trkpt>
      <trkpt lat="33.039013" lon="35.163644"><ele>127.4</ele></trkpt>
      <trkpt lat="33.039170" lon="35.163787"><ele>127.7</ele></trkpt>
      <trkpt lat="33.039324" lon="35.163939"><ele>133.8</ele></trkpt>
      <trkpt lat="33.039394" lon="35.164138"><ele>133.5</ele></trkpt>
      <trkpt lat="33.039415" lon="35.164352"><ele>132.1</ele></trkpt>
      <trkpt lat="33.039536" lon="35.164561"><ele>131.4</ele></trkpt>
      <trkpt lat="33.039497" lon="35.164772"><ele>133.7</ele></trkpt>
      <trkpt lat="33.039480" lon="35.165013"><ele>133.2</ele></trkpt>
      <trkpt lat="33.039505" lon="35.165229"><ele>135.5</ele></trkpt>
      <trkpt lat="33.039606" lon="35.165433"><ele>136.6</ele></trkpt>
      <trkpt lat="33.039425" lon="35.165581"><ele>137.1</ele></trkpt>
      <trkpt lat="33.039602" lon="35.165720"><ele>136.1</ele></trkpt>
      <trkpt lat="33.039720" lon="35.165908"><ele>137.1</ele></trkpt>
      <trkpt lat="33.039647" lon="35.166121"><ele>139.2</ele></trkpt>
      <trkpt lat="33.039675" lon="35.166345"><ele>139.4</ele></trkpt>
      <trkpt lat="33.039784" lon="35.166523"><ele>140.8</ele></trkpt>
      <trkpt lat="33.039951" lon="35.166607"><ele>141.8</ele></trkpt>
      <trkpt lat="33.040135" lon="35.166601"><ele>140.9</ele></trkpt>
      <trkpt lat="33.040339" lon="35.166637"><ele>141.5</ele></trkpt>
    </trkseg>
  </trk>
</gpx>
