<?xml version="1.0" encoding="UTF-8" standalone="yes"?>
<gpx version="1.1" creator="IsraelHikingMap" xmlns:xsi="http://www.w3.org/2001/XMLSchema-instance" xsi:schemaLocation="http://www.topografix.com/GPX/1/1 http://www.topografix.com/GPX/1/1/gpx.xsd">
  <metadata>
    <bounds maxlat="33.140607" maxlon="35.798584" minlat="33.090754" minlon="35.777926"></bounds>
  </metadata>
  <trk>
    <name>ממאגר בנטל לעין זיוון - שביל הגולן מקטע 5 - אתר נָאקֶבּ</name>
    <desc>טיפוס לנוף הנהדר של הר בנטל, מהתצפיות היפות בארצנו.
מסומן לכל אורכו, מתאים לכלבים.</desc>
    <extensions>
      <Color xmlns="">#FF6600</Color>
      <Opacity xmlns="">0.4</Opacity>
      <Weight xmlns="">9</Weight>
    </extensions>
    <trkseg>
      <trkpt lat="33.140607" lon="35.777958">
        <ele>955.3866671956498</ele>
      </trkpt>
      <trkpt lat="33.140607" lon="35.777958">
        <ele>955.3866671956498</ele>
      </trkpt>
      <extensions>
        <RoutingType xmlns="">Hike</RoutingType>
      </extensions>
    </trkseg>
    <trkseg>
      <trkpt lat="33.140607" lon="35.777958">
        <ele>955.3866671956498</ele>
      </trkpt>
      <trkpt lat="33.140607" lon="35.777958">
        <ele>955.3866671956498</ele>
      </trkpt>
      <trkpt lat="33.140607" lon="35.777958">
        <ele>955.3866671956498</ele>
      </trkpt>
      <trkpt lat="33.140471" lon="35.777926">
        <ele>956.845704943473</ele>
      </trkpt>
      <trkpt lat="33.140157" lon="35.778291">
        <ele>956.4590033554982</ele>
      </trkpt>
      <trkpt lat="33.139537" lon="35.778651">
        <ele>956.5689895765933</ele>
      </trkpt>
      <trkpt lat="33.139204" lon="35.778769">
        <ele>959.4427792741162</ele>
      </trkpt>
      <trkpt lat="33.138288" lon="35.779659">
        <ele>956.474106916229</ele>
      </trkpt>
      <trkpt lat="33.137345" lon="35.780346">
        <ele>956.7046386632076</ele>
      </trkpt>
      <trkpt lat="33.136896" lon="35.780539">
        <ele>956.5423347824496</ele>
      </trkpt>
      <trkpt lat="33.135521" lon="35.780646">
        <ele>957.8219600385983</ele>
      </trkpt>
      <trkpt lat="33.135251" lon="35.780786">
        <ele>957.0506548872523</ele>
      </trkpt>
      <trkpt lat="33.135072" lon="35.781402">
        <ele>955.9622484264466</ele>
      </trkpt>
      <trkpt lat="33.134944" lon="35.782656">
        <ele>958.2975647526007</ele>
      </trkpt>
      <trkpt lat="33.134694" lon="35.783229">
        <ele>961.5944087290079</ele>
      </trkpt>
      <trkpt lat="33.134593" lon="35.78399">
        <ele>961.8468994402276</ele>
      </trkpt>
      <trkpt lat="33.134451" lon="35.784639">
        <ele>960.7314065469059</ele>
      </trkpt>
      <trkpt lat="33.134289" lon="35.784598">
        <ele>966.3173094140095</ele>
      </trkpt>
      <trkpt lat="33.134263" lon="35.784529">
        <ele>968.2191638157785</ele>
      </trkpt>
      <trkpt lat="33.134372" lon="35.784144">
        <ele>968.3130704102261</ele>
      </trkpt>
      <trkpt lat="33.134362" lon="35.784029">
        <ele>969.6987042518258</ele>
      </trkpt>
      <trkpt lat="33.134452" lon="35.783946">
        <ele>966.3525032584369</ele>
      </trkpt>
      <extensions>
        <RoutingType xmlns="">Hike</RoutingType>
      </extensions>
    </trkseg>
    <trkseg>
      <trkpt lat="33.134452" lon="35.783946">
        <ele>966.3525032584369</ele>
      </trkpt>
      <trkpt lat="33.134536" lon="35.783379">
        <ele>967.6574614491885</ele>
      </trkpt>
      <trkpt lat="33.134513" lon="35.783023">
        <ele>970.1816526478246</ele>
      </trkpt>
      <trkpt lat="33.134513" lon="35.783023">
        <ele>970.1816526478246</ele>
      </trkpt>
      <trkpt lat="33.134459" lon="35.782212">
        <ele>975.4043507060446</ele>
      </trkpt>
      <trkpt lat="33.13439" lon="35.781771">
        <ele>979.4248394100541</ele>
      </trkpt>
      <trkpt lat="33.134074" lon="35.781119">
        <ele>990.0681873015495</ele>
      </trkpt>
      <trkpt lat="33.133725" lon="35.78072">
        <ele>1001.2028980571756</ele>
      </trkpt>
      <trkpt lat="33.133645" lon="35.78057">
        <ele>1002.734263356109</ele>
      </trkpt>
      <trkpt lat="33.133645" lon="35.78057">
        <ele>1002.734263356109</ele>
      </trkpt>
      <trkpt lat="33.133435" lon="35.780215">
        <ele>1008.1093583333684</ele>
      </trkpt>
      <trkpt lat="33.133347" lon="35.780169">
        <ele>1011.3984383333187</ele>
      </trkpt>
      <trkpt lat="33.133234" lon="35.78028">
        <ele>1017.2579484420686</ele>
      </trkpt>
      <trkpt lat="33.133143" lon="35.780552">
        <ele>1026.1422622104549</ele>
      </trkpt>
      <trkpt lat="33.133018" lon="35.780489">
        <ele>1029.2365133170783</ele>
      </trkpt>
      <trkpt lat="33.132897" lon="35.78055">
        <ele>1033.842907835954</ele>
      </trkpt>
      <trkpt lat="33.133104" lon="35.780914">
        <ele>1034.955973991819</ele>
      </trkpt>
      <trkpt lat="33.133149" lon="35.781037">
        <ele>1034.7066188855415</ele>
      </trkpt>
      <trkpt lat="33.133198" lon="35.78209">
        <ele>1043.792702338987</ele>
      </trkpt>
      <trkpt lat="33.133086" lon="35.78305">
        <ele>1047.1519500160912</ele>
      </trkpt>
      <trkpt lat="33.132906" lon="35.783989">
        <ele>1048.4539856503247</ele>
      </trkpt>
      <trkpt lat="33.132745" lon="35.784562">
        <ele>1050.4499116275315</ele>
      </trkpt>
      <extensions>
        <RoutingType xmlns="">Hike</RoutingType>
      </extensions>
    </trkseg>
    <trkseg>
      <trkpt lat="33.132745" lon="35.784562">
        <ele>1050.4499116275315</ele>
      </trkpt>
      <trkpt lat="33.132745" lon="35.784562">
        <ele>1050.4499116275315</ele>
      </trkpt>
      <trkpt lat="33.132578" lon="35.785153">
        <ele>1048.7607759204502</ele>
      </trkpt>
      <trkpt lat="33.132165" lon="35.785952">
        <ele>1049.7167270419782</ele>
      </trkpt>
      <trkpt lat="33.131541" lon="35.786869">
        <ele>1050.3932736627999</ele>
      </trkpt>
      <trkpt lat="33.130755" lon="35.787652">
        <ele>1053.5857768423616</ele>
      </trkpt>
      <trkpt lat="33.12991" lon="35.788339">
        <ele>1051.6847869987082</ele>
      </trkpt>
      <trkpt lat="33.129605" lon="35.788322">
        <ele>1056.4660121061565</ele>
      </trkpt>
      <trkpt lat="33.128953" lon="35.788366">
        <ele>1057.5929547192547</ele>
      </trkpt>
      <trkpt lat="33.128589" lon="35.788437">
        <ele>1054.1438520137774</ele>
      </trkpt>
      <trkpt lat="33.128235" lon="35.788534">
        <ele>1053.658300769508</ele>
      </trkpt>
      <trkpt lat="33.127709" lon="35.788479">
        <ele>1056.9767155183047</ele>
      </trkpt>
      <trkpt lat="33.127183" lon="35.788371">
        <ele>1055.220534775793</ele>
      </trkpt>
      <trkpt lat="33.126869" lon="35.788194">
        <ele>1056.152763090331</ele>
      </trkpt>
      <trkpt lat="33.126743" lon="35.787996">
        <ele>1057.31485026478</ele>
      </trkpt>
      <trkpt lat="33.126622" lon="35.78725">
        <ele>1060.3979341430108</ele>
      </trkpt>
      <trkpt lat="33.126483" lon="35.787067">
        <ele>1060.0648819077915</ele>
      </trkpt>
      <trkpt lat="33.125948" lon="35.787078">
        <ele>1053.1714545035973</ele>
      </trkpt>
      <trkpt lat="33.125386" lon="35.786816">
        <ele>1046.5916098678383</ele>
      </trkpt>
      <trkpt lat="33.124964" lon="35.786724">
        <ele>1038.3522056489742</ele>
      </trkpt>
      <trkpt lat="33.124223" lon="35.786687">
        <ele>1029.2762528385708</ele>
      </trkpt>
      <trkpt lat="33.124029" lon="35.786735">
        <ele>1029.124121054915</ele>
      </trkpt>
      <extensions>
        <RoutingType xmlns="">Hike</RoutingType>
      </extensions>
    </trkseg>
    <trkseg>
      <trkpt lat="33.124029" lon="35.786735">
        <ele>1029.124121054915</ele>
      </trkpt>
      <trkpt lat="33.124043" lon="35.786969">
        <ele>1029.3975683461836</ele>
      </trkpt>
      <trkpt lat="33.124526" lon="35.787243">
        <ele>1029.7627162479694</ele>
      </trkpt>
      <trkpt lat="33.124805" lon="35.788055">
        <ele>1025.3034156775714</ele>
      </trkpt>
      <trkpt lat="33.125213" lon="35.788809">
        <ele>1015.6967210602146</ele>
      </trkpt>
      <trkpt lat="33.125034" lon="35.789874">
        <ele>1004.8515529856177</ele>
      </trkpt>
      <trkpt lat="33.125164" lon="35.790605">
        <ele>997</ele>
      </trkpt>
      <trkpt lat="33.124774" lon="35.790849">
        <ele>997.0564000000054</ele>
      </trkpt>
      <trkpt lat="33.124223" lon="35.791307">
        <ele>996.9082528385809</ele>
      </trkpt>
      <trkpt lat="33.123814" lon="35.791204">
        <ele>997.2695145483251</ele>
      </trkpt>
      <trkpt lat="33.123542" lon="35.791595">
        <ele>998.2445576679405</ele>
      </trkpt>
      <trkpt lat="33.123552" lon="35.791759">
        <ele>999.048359468673</ele>
      </trkpt>
      <trkpt lat="33.123544" lon="35.791926">
        <ele>999.9015256861679</ele>
      </trkpt>
      <trkpt lat="33.122844" lon="35.79263">
        <ele>1008.7033495387133</ele>
      </trkpt>
      <trkpt lat="33.122844" lon="35.79263">
        <ele>1008.7033495387133</ele>
      </trkpt>
      <trkpt lat="33.122381" lon="35.79297">
        <ele>1014.9324535412145</ele>
      </trkpt>
      <trkpt lat="33.12185" lon="35.793419">
        <ele>1024.0718607311946</ele>
      </trkpt>
      <trkpt lat="33.121599" lon="35.793771">
        <ele>1030.4645953815088</ele>
      </trkpt>
      <trkpt lat="33.121464" lon="35.794261">
        <ele>1039.2519894750599</ele>
      </trkpt>
      <trkpt lat="33.121155" lon="35.794872">
        <ele>1042.1109242507923</ele>
      </trkpt>
      <trkpt lat="33.120764" lon="35.795592">
        <ele>1043.4257532846282</ele>
      </trkpt>
      <trkpt lat="33.120175" lon="35.79644">
        <ele>1039.2331239393948</ele>
      </trkpt>
      <extensions>
        <RoutingType xmlns="">Hike</RoutingType>
      </extensions>
    </trkseg>
    <trkseg>
      <trkpt lat="33.120175" lon="35.79644">
        <ele>1039.2331239393948</ele>
      </trkpt>
      <trkpt lat="33.119784" lon="35.796843">
        <ele>1037.361863022716</ele>
      </trkpt>
      <trkpt lat="33.119344" lon="35.797137">
        <ele>1039.0659337274583</ele>
      </trkpt>
      <trkpt lat="33.118586" lon="35.797391">
        <ele>1041.6459673276968</ele>
      </trkpt>
      <trkpt lat="33.117959" lon="35.797852">
        <ele>1041.4770905541868</ele>
      </trkpt>
      <trkpt lat="33.117441" lon="35.797943">
        <ele>1039.9626957669327</ele>
      </trkpt>
      <trkpt lat="33.117441" lon="35.797943">
        <ele>1039.9626957669327</ele>
      </trkpt>
      <trkpt lat="33.11596" lon="35.798128">
        <ele>1049.207885741028</ele>
      </trkpt>
      <trkpt lat="33.115246" lon="35.798399">
        <ele>1053.5662563715382</ele>
      </trkpt>
      <trkpt lat="33.11414" lon="35.798584">
        <ele>1064.8690333372356</ele>
      </trkpt>
      <trkpt lat="33.113773" lon="35.798215">
        <ele>1075.2392592391504</ele>
      </trkpt>
      <trkpt lat="33.113469" lon="35.797961">
        <ele>1083.9366397242684</ele>
      </trkpt>
      <trkpt lat="33.112287" lon="35.798226">
        <ele>1090.6995588881157</ele>
      </trkpt>
      <trkpt lat="33.111606" lon="35.798082">
        <ele>1097.6184830907373</ele>
      </trkpt>
      <trkpt lat="33.111075" lon="35.797915">
        <ele>1102.8778406746474</ele>
      </trkpt>
      <trkpt lat="33.110297" lon="35.797535">
        <ele>1114.4967558157748</ele>
      </trkpt>
      <trkpt lat="33.109631" lon="35.797569">
        <ele>1112.4425024328038</ele>
      </trkpt>
      <trkpt lat="33.109105" lon="35.79731">
        <ele>1116.3904069400123</ele>
      </trkpt>
      <trkpt lat="33.108159" lon="35.796716">
        <ele>1126.1815818123623</ele>
      </trkpt>
      <trkpt lat="33.107208" lon="35.796324">
        <ele>1119.1481708030221</ele>
      </trkpt>
      <trkpt lat="33.106657" lon="35.795846">
        <ele>1118.1281161971292</ele>
      </trkpt>
      <trkpt lat="33.106251" lon="35.795218">
        <ele>1119.586504746564</ele>
      </trkpt>
      <extensions>
        <RoutingType xmlns="">Hike</RoutingType>
      </extensions>
    </trkseg>
    <trkseg>
      <trkpt lat="33.106251" lon="35.795218">
        <ele>1119.586504746564</ele>
      </trkpt>
      <trkpt lat="33.105846" lon="35.794676">
        <ele>1114.6944845196847</ele>
      </trkpt>
      <trkpt lat="33.105523" lon="35.793909">
        <ele>1112.304436634513</ele>
      </trkpt>
      <trkpt lat="33.105405" lon="35.791445">
        <ele>1108.4401423407517</ele>
      </trkpt>
      <trkpt lat="33.10566" lon="35.790327">
        <ele>1111.3517068322824</ele>
      </trkpt>
      <trkpt lat="33.106209" lon="35.789708">
        <ele>1119.0851517883277</ele>
      </trkpt>
      <trkpt lat="33.106908" lon="35.78963">
        <ele>1123.2929797811134</ele>
      </trkpt>
      <trkpt lat="33.106868" lon="35.78935">
        <ele>1120.214039999969</ele>
      </trkpt>
      <trkpt lat="33.106924" lon="35.788561">
        <ele>1111.3755021671661</ele>
      </trkpt>
      <trkpt lat="33.10718" lon="35.78796">
        <ele>1106.5283309486233</ele>
      </trkpt>
      <trkpt lat="33.107081" lon="35.787992">
        <ele>1104.8407069363252</ele>
      </trkpt>
      <trkpt lat="33.106697" lon="35.788221">
        <ele>1097.6031654051208</ele>
      </trkpt>
      <trkpt lat="33.106628" lon="35.788252">
        <ele>1096.1706912515424</ele>
      </trkpt>
      <trkpt lat="33.106553" lon="35.788246">
        <ele>1093.9696300825526</ele>
      </trkpt>
      <trkpt lat="33.106511" lon="35.788186">
        <ele>1091.6329373610672</ele>
      </trkpt>
      <trkpt lat="33.106505" lon="35.788105">
        <ele>1089.891702599931</ele>
      </trkpt>
      <trkpt lat="33.106512" lon="35.78801">
        <ele>1088.192324748825</ele>
      </trkpt>
      <trkpt lat="33.106601" lon="35.787647">
        <ele>1083.0363129237298</ele>
      </trkpt>
      <trkpt lat="33.106589" lon="35.787549">
        <ele>1080.4591092625983</ele>
      </trkpt>
      <trkpt lat="33.106549" lon="35.787488">
        <ele>1078.1501777161911</ele>
      </trkpt>
      <trkpt lat="33.106358" lon="35.787332">
        <ele>1071.037703666859</ele>
      </trkpt>
      <trkpt lat="33.105847" lon="35.786602">
        <ele>1050.934990742483</ele>
      </trkpt>
      <extensions>
        <RoutingType xmlns="">Hike</RoutingType>
      </extensions>
    </trkseg>
    <trkseg>
      <trkpt lat="33.105847" lon="35.786602">
        <ele>1050.934990742483</ele>
      </trkpt>
      <trkpt lat="33.105628" lon="35.786335">
        <ele>1044.889419394815</ele>
      </trkpt>
      <trkpt lat="33.105421" lon="35.785953">
        <ele>1039.8081503880696</ele>
      </trkpt>
      <trkpt lat="33.105293" lon="35.785777">
        <ele>1037.6494934492728</ele>
      </trkpt>
      <trkpt lat="33.105071" lon="35.785404">
        <ele>1033.0144434868475</ele>
      </trkpt>
      <trkpt lat="33.104875" lon="35.785261">
        <ele>1029.5296188643983</ele>
      </trkpt>
      <trkpt lat="33.104801" lon="35.785186">
        <ele>1028.1906668321872</ele>
      </trkpt>
      <trkpt lat="33.104667" lon="35.784986">
        <ele>1025.2525849876224</ele>
      </trkpt>
      <trkpt lat="33.104166" lon="35.78407">
        <ele>1014.9943665468011</ele>
      </trkpt>
      <trkpt lat="33.10378" lon="35.783664">
        <ele>1010.0147644251732</ele>
      </trkpt>
      <trkpt lat="33.103614" lon="35.783249">
        <ele>1004.8209705303237</ele>
      </trkpt>
      <trkpt lat="33.102534" lon="35.783124">
        <ele>990.3233885692316</ele>
      </trkpt>
      <trkpt lat="33.102447" lon="35.782926">
        <ele>986.8546974484551</ele>
      </trkpt>
      <trkpt lat="33.10173" lon="35.783169">
        <ele>979.5946322820866</ele>
      </trkpt>
      <trkpt lat="33.101411" lon="35.783491">
        <ele>974.2965336553883</ele>
      </trkpt>
      <trkpt lat="33.101291" lon="35.783673">
        <ele>972.7567622992201</ele>
      </trkpt>
      <trkpt lat="33.101218" lon="35.783887">
        <ele>971.6881307788142</ele>
      </trkpt>
      <trkpt lat="33.101078" lon="35.784031">
        <ele>967.8925841211241</ele>
      </trkpt>
      <trkpt lat="33.10106" lon="35.784071">
        <ele>967.4246842137304</ele>
      </trkpt>
      <trkpt lat="33.10106" lon="35.78415">
        <ele>967.1402842137318</ele>
      </trkpt>
      <trkpt lat="33.101092" lon="35.784257">
        <ele>967.3309062712735</ele>
      </trkpt>
      <trkpt lat="33.101092" lon="35.784257">
        <ele>967.3309062712735</ele>
      </trkpt>
      <extensions>
        <RoutingType xmlns="">Hike</RoutingType>
      </extensions>
    </trkseg>
    <trkseg>
      <trkpt lat="33.101092" lon="35.784257">
        <ele>967.3309062712735</ele>
      </trkpt>
      <trkpt lat="33.1011" lon="35.784403">
        <ele>966.9492617856562</ele>
      </trkpt>
      <trkpt lat="33.101067" lon="35.784477">
        <ele>966.0890452888468</ele>
      </trkpt>
      <trkpt lat="33.100947" lon="35.784621">
        <ele>963.411312573327</ele>
      </trkpt>
      <trkpt lat="33.100524" lon="35.784987">
        <ele>956</ele>
      </trkpt>
      <trkpt lat="33.100421" lon="35.785051">
        <ele>956.1836000000103</ele>
      </trkpt>
      <trkpt lat="33.100193" lon="35.785139">
        <ele>956.042619253963</ele>
      </trkpt>
      <trkpt lat="33.10014" lon="35.785175">
        <ele>955.8217695308877</ele>
      </trkpt>
      <trkpt lat="33.100064" lon="35.785279">
        <ele>955.4578898668802</ele>
      </trkpt>
      <trkpt lat="33.099944" lon="35.785492">
        <ele>953.8257244060599</ele>
      </trkpt>
      <trkpt lat="33.099791" lon="35.785841">
        <ele>953.4956643011656</ele>
      </trkpt>
      <trkpt lat="33.099616" lon="35.786137">
        <ele>952.1998072168642</ele>
      </trkpt>
      <trkpt lat="33.099538" lon="35.786315">
        <ele>951.1873704809582</ele>
      </trkpt>
      <trkpt lat="33.099484" lon="35.786386">
        <ele>950.4369098730799</ele>
      </trkpt>
      <trkpt lat="33.099377" lon="35.786482">
        <ele>949.5145497378751</ele>
      </trkpt>
      <trkpt lat="33.099047" lon="35.786696">
        <ele>946.8135983970238</ele>
      </trkpt>
      <trkpt lat="33.098979" lon="35.786765">
        <ele>946.327824784225</ele>
      </trkpt>
      <trkpt lat="33.098878" lon="35.786912">
        <ele>945.839434931082</ele>
      </trkpt>
      <trkpt lat="33.098759" lon="35.7873">
        <ele>946.681656446234</ele>
      </trkpt>
      <trkpt lat="33.098594" lon="35.787591">
        <ele>946.204437954391</ele>
      </trkpt>
      <trkpt lat="33.098427" lon="35.788002">
        <ele>947.2892083795425</ele>
      </trkpt>
      <trkpt lat="33.098292" lon="35.78828">
        <ele>948.3470524550729</ele>
      </trkpt>
      <extensions>
        <RoutingType xmlns="">Hike</RoutingType>
      </extensions>
    </trkseg>
    <trkseg>
      <trkpt lat="33.098292" lon="35.78828">
        <ele>948.3470524550729</ele>
      </trkpt>
      <trkpt lat="33.098229" lon="35.788368">
        <ele>948.4206917956666</ele>
      </trkpt>
      <trkpt lat="33.097596" lon="35.787859">
        <ele>943.3935123339766</ele>
      </trkpt>
      <trkpt lat="33.097713" lon="35.787796">
        <ele>943.1159067885022</ele>
      </trkpt>
      <trkpt lat="33.097749" lon="35.787754">
        <ele>942.9055345695031</ele>
      </trkpt>
      <trkpt lat="33.097749" lon="35.787754">
        <ele>942.9055345695031</ele>
      </trkpt>
      <trkpt lat="33.097713" lon="35.787796">
        <ele>943.1159067885022</ele>
      </trkpt>
      <trkpt lat="33.097596" lon="35.787859">
        <ele>943.3935123339766</ele>
      </trkpt>
      <trkpt lat="33.096656" lon="35.78677">
        <ele>936.9375040177235</ele>
      </trkpt>
      <trkpt lat="33.096042" lon="35.786644">
        <ele>932.7512764362416</ele>
      </trkpt>
      <trkpt lat="33.095619" lon="35.786843">
        <ele>931.8634369778754</ele>
      </trkpt>
      <trkpt lat="33.095237" lon="35.787252">
        <ele>930.7064901166168</ele>
      </trkpt>
      <trkpt lat="33.095237" lon="35.787252">
        <ele>930.7064901166168</ele>
      </trkpt>
      <trkpt lat="33.094697" lon="35.787829">
        <ele>928.2780278527629</ele>
      </trkpt>
      <trkpt lat="33.093441" lon="35.787829">
        <ele>924.7565876225583</ele>
      </trkpt>
      <trkpt lat="33.093066" lon="35.787495">
        <ele>922.0198947626345</ele>
      </trkpt>
      <trkpt lat="33.092437" lon="35.787576">
        <ele>916.8201388004711</ele>
      </trkpt>
      <trkpt lat="33.091707" lon="35.789369">
        <ele>918.8738614067281</ele>
      </trkpt>
      <trkpt lat="33.091127" lon="35.789858">
        <ele>916.0925762836373</ele>
      </trkpt>
      <trkpt lat="33.090767" lon="35.790232">
        <ele>915.3577458766121</ele>
      </trkpt>
      <trkpt lat="33.090767" lon="35.790232">
        <ele>915.3577458766121</ele>
      </trkpt>
      <trkpt lat="33.090754" lon="35.790246">
        <ele>915.3145744654753</ele>
      </trkpt>
      <extensions>
        <RoutingType xmlns="">Hike</RoutingType>
      </extensions>
    </trkseg>
    <trkseg>
      <trkpt lat="33.090754" lon="35.790246">
        <ele>915.3145744654753</ele>
      </trkpt>
      <trkpt lat="33.091096" lon="35.790509">
        <ele>918.8821185873286</ele>
      </trkpt>
      <trkpt lat="33.092299" lon="35.792499">
        <ele>933.2730214198156</ele>
      </trkpt>
      <trkpt lat="33.09227" lon="35.792542">
        <ele>933.5737639480759</ele>
      </trkpt>
      <trkpt lat="33.092791" lon="35.793554">
        <ele>939.8042465151254</ele>
      </trkpt>
      <trkpt lat="33.092887" lon="35.793862">
        <ele>940.9031999999897</ele>
      </trkpt>
      <trkpt lat="33.092907" lon="35.794003">
        <ele>941.1911714275459</ele>
      </trkpt>
      <trkpt lat="33.092919" lon="35.7943">
        <ele>941.5085505205213</ele>
      </trkpt>
      <trkpt lat="33.092984" lon="35.794665">
        <ele>942.3320070986052</ele>
      </trkpt>
      <trkpt lat="33.09299" lon="35.794748">
        <ele>942.6209445192862</ele>
      </trkpt>
      <trkpt lat="33.092977" lon="35.794819">
        <ele>942.782973178171</ele>
      </trkpt>
      <trkpt lat="33.09292" lon="35.794973">
        <ele>942.9270988364888</ele>
      </trkpt>
      <trkpt lat="33.092913" lon="35.795051">
        <ele>943.2517089384194</ele>
      </trkpt>
      <trkpt lat="33.093047" lon="35.795422">
        <ele>945.5043958941877</ele>
      </trkpt>
      <trkpt lat="33.093183" lon="35.795949">
        <ele>947.4589657580519</ele>
      </trkpt>
      <trkpt lat="33.093213" lon="35.796273">
        <ele>948.1497326799312</ele>
      </trkpt>
      <trkpt lat="33.093247" lon="35.796391">
        <ele>948.6892951914173</ele>
      </trkpt>
      <trkpt lat="33.093293" lon="35.796455">
        <ele>948.8548444716791</ele>
      </trkpt>
      <trkpt lat="33.09349" lon="35.796618">
        <ele>949.5641335784412</ele>
      </trkpt>
      <trkpt lat="33.093552" lon="35.796691">
        <ele>949.805900764912</ele>
      </trkpt>
      <trkpt lat="33.093608" lon="35.796821">
        <ele>949.9950242449072</ele>
      </trkpt>
      <trkpt lat="33.093652" lon="35.797212">
        <ele>952.0792879324375</ele>
      </trkpt>
      <extensions>
        <RoutingType xmlns="">Hike</RoutingType>
      </extensions>
    </trkseg>
    <trkseg>
      <trkpt lat="33.093652" lon="35.797212">
        <ele>952.0792879324375</ele>
      </trkpt>
      <trkpt lat="33.093731" lon="35.797445">
        <ele>953.6894912907316</ele>
      </trkpt>
      <extensions>
        <RoutingType xmlns="">Hike</RoutingType>
      </extensions>
    </trkseg>
  </trk>
</gpx>
