<?xml version="1.0" encoding="UTF-8"?>
<gpx xmlns="Amud Anan http://amudanan.co.il/" version="1.0" xmlns:xsi="http://www.w3.org/2001/XMLSchema-instance" xsi:schemaLocation="http://www.topografix.com/GPX/1/0 http://www.topografix.com/GPX/1/0/gpx.xsd"><trk><name>Amud Anan</name><trkseg><trkpt lon="35.280552369074" lat="33.012307654225"/><trkpt lon="35.28050945373" lat="33.011120081351"/><trkpt lon="35.279951554255" lat="33.011048106724"/><trkpt lon="35.27716205688" lat="33.014502822586"/><trkpt lon="35.273814660029" lat="33.016194144542"/><trkpt lon="35.268707734065" lat="33.017921418587"/><trkpt lon="35.269523125605" lat="33.020692183355"/><trkpt lon="35.269737702326" lat="33.021843644397"/><trkpt lon="35.27008102508" lat="33.022167490105"/><trkpt lon="35.269351464228" lat="33.022851160471"/><trkpt lon="35.269051056818" lat="33.025046066334"/><trkpt lon="35.268793564753" lat="33.027348859633"/><trkpt lon="35.267978173213" lat="33.029255814792"/><trkpt lon="35.268278580622" lat="33.030730978212"/><trkpt lon="35.269136887507" lat="33.030263246143"/><trkpt lon="35.269995194392" lat="33.03015530762"/><trkpt lon="35.269351464228" lat="33.030802936772"/><trkpt lon="35.269780617671" lat="33.031162728688"/><trkpt lon="35.2706818399" lat="33.03217013824"/><trkpt lon="35.272226792292" lat="33.032206116939"/><trkpt lon="35.273085099177" lat="33.033825143215"/><trkpt lon="35.274200898127" lat="33.034688611732"/><trkpt lon="35.274501305537" lat="33.035408162365"/><trkpt lon="35.27321384521" lat="33.036739315546"/><trkpt lon="35.272355538325" lat="33.037746661341"/><trkpt lon="35.271110993342" lat="33.03799849599"/></trkseg></trk></gpx>
