<?xml version="1.0" encoding="UTF-8" standalone="no" ?>
<gpx xmlns="http://www.topografix.com/GPX/1/1" creator="CompeGPS" version="1.1" xmlns:xsi="http://www.w3.org/2001/XMLSchema-instance" xsi:schemaLocation="http://www.topografix.com/GPX/1/1 http://www.topografix.com/GPX/1/1/gpx.xsd http://www.garmin.com/xmlschemas/GpxExtensions/v3 http://www.garmin.com/xmlschemas/GpxExtensionsv3.xsd http://www.garmin.com/xmlschemas/TrackPointExtension/v1 http://www.garmin.com/xmlschemas/TrackPointExtensionv1.xsd" xmlns:gpxtpx="http://www.garmin.com/xmlschemas/TrackPointExtension/v1">
  <metadata>
    <link href="http://www.compegps.com">
      <text>CompeGPS TEAM, SL</text>
    </link>
    <time>2015-08-10T20:34:49Z</time>
    <bounds maxlat="30.624906" maxlon="35.168126" minlat="30.348905" minlon="34.804159"/>
  </metadata>
  <trk>
    <name>מצפה-רמון-פארן</name>
    <trkseg>
      <trkpt lat="30.612558" lon="34.804159">
        <ele>824.8</ele>
        <time>2015-08-09T21:50:27Z</time>
      </trkpt>
      <trkpt lat="30.611115" lon="34.804926">
        <ele>825.9</ele>
      </trkpt>
      <trkpt lat="30.610003" lon="34.806354">
        <ele>829.7</ele>
      </trkpt>
      <trkpt lat="30.609621" lon="34.807762">
        <ele>828.1</ele>
      </trkpt>
      <trkpt lat="30.612114" lon="34.808844">
        <ele>763.9</ele>
      </trkpt>
      <trkpt lat="30.616353" lon="34.809357">
        <ele>753.1</ele>
      </trkpt>
      <trkpt lat="30.618236" lon="34.811815">
        <ele>738.7</ele>
      </trkpt>
      <trkpt lat="30.619591" lon="34.815053">
        <ele>718.3</ele>
      </trkpt>
      <trkpt lat="30.621499" lon="34.816270">
        <ele>717.8</ele>
      </trkpt>
      <trkpt lat="30.621945" lon="34.817113">
        <ele>711.1</ele>
      </trkpt>
      <trkpt lat="30.623350" lon="34.817703">
        <ele>698.9</ele>
      </trkpt>
      <trkpt lat="30.623379" lon="34.817984">
        <ele>688.0</ele>
      </trkpt>
      <trkpt lat="30.622061" lon="34.817741">
        <ele>693.4</ele>
      </trkpt>
      <trkpt lat="30.621145" lon="34.817431">
        <ele>674.9</ele>
      </trkpt>
      <trkpt lat="30.621289" lon="34.817943">
        <ele>667.6</ele>
      </trkpt>
      <trkpt lat="30.622378" lon="34.818303">
        <ele>674.6</ele>
      </trkpt>
      <trkpt lat="30.622980" lon="34.818515">
        <ele>664.9</ele>
      </trkpt>
      <trkpt lat="30.623010" lon="34.818929">
        <ele>651.0</ele>
      </trkpt>
      <trkpt lat="30.621750" lon="34.818669">
        <ele>655.5</ele>
      </trkpt>
      <trkpt lat="30.621105" lon="34.818506">
        <ele>647.1</ele>
      </trkpt>
      <trkpt lat="30.620474" lon="34.818343">
        <ele>630.7</ele>
      </trkpt>
      <trkpt lat="30.620175" lon="34.818725">
        <ele>622.7</ele>
      </trkpt>
      <trkpt lat="30.620348" lon="34.819056">
        <ele>625.1</ele>
      </trkpt>
      <trkpt lat="30.620907" lon="34.819318">
        <ele>629.0</ele>
      </trkpt>
      <trkpt lat="30.621968" lon="34.819827">
        <ele>623.3</ele>
      </trkpt>
      <trkpt lat="30.622341" lon="34.820206">
        <ele>618.0</ele>
      </trkpt>
      <trkpt lat="30.624685" lon="34.823888">
        <ele>581.9</ele>
      </trkpt>
      <trkpt lat="30.624906" lon="34.825890">
        <ele>566.2</ele>
      </trkpt>
      <trkpt lat="30.624335" lon="34.836270">
        <ele>521.0</ele>
      </trkpt>
      <trkpt lat="30.624060" lon="34.840177">
        <ele>511.9</ele>
      </trkpt>
      <trkpt lat="30.623305" lon="34.841521">
        <ele>498.9</ele>
      </trkpt>
      <trkpt lat="30.620150" lon="34.844280">
        <ele>494.0</ele>
      </trkpt>
      <trkpt lat="30.619465" lon="34.845193">
        <ele>494.0</ele>
      </trkpt>
      <trkpt lat="30.616740" lon="34.848447">
        <ele>492.0</ele>
      </trkpt>
      <trkpt lat="30.614758" lon="34.851169">
        <ele>487.9</ele>
      </trkpt>
      <trkpt lat="30.614036" lon="34.854035">
        <ele>481.0</ele>
      </trkpt>
      <trkpt lat="30.612813" lon="34.856903">
        <ele>473.0</ele>
      </trkpt>
      <trkpt lat="30.612644" lon="34.858177">
        <ele>474.0</ele>
      </trkpt>
      <trkpt lat="30.612320" lon="34.859850">
        <ele>474.1</ele>
      </trkpt>
      <trkpt lat="30.608508" lon="34.863505">
        <ele>481.3</ele>
      </trkpt>
      <trkpt lat="30.606364" lon="34.864687">
        <ele>475.8</ele>
      </trkpt>
      <trkpt lat="30.604494" lon="34.866796">
        <ele>481.3</ele>
      </trkpt>
      <trkpt lat="30.602728" lon="34.870194">
        <ele>497.6</ele>
      </trkpt>
      <trkpt lat="30.601914" lon="34.871058">
        <ele>497.6</ele>
      </trkpt>
      <trkpt lat="30.599585" lon="34.872655">
        <ele>496.1</ele>
      </trkpt>
      <trkpt lat="30.597493" lon="34.877229">
        <ele>491.2</ele>
      </trkpt>
      <trkpt lat="30.596382" lon="34.879251">
        <ele>481.9</ele>
      </trkpt>
      <trkpt lat="30.595242" lon="34.881291">
        <ele>480.4</ele>
      </trkpt>
      <trkpt lat="30.594574" lon="34.883246">
        <ele>480.0</ele>
      </trkpt>
      <trkpt lat="30.594337" lon="34.885944">
        <ele>480.9</ele>
      </trkpt>
      <trkpt lat="30.594348" lon="34.886411">
        <ele>480.0</ele>
      </trkpt>
      <trkpt lat="30.594682" lon="34.886472">
        <ele>477.3</ele>
      </trkpt>
      <trkpt lat="30.594727" lon="34.887431">
        <ele>473.7</ele>
      </trkpt>
      <trkpt lat="30.594588" lon="34.888919">
        <ele>474.0</ele>
      </trkpt>
      <trkpt lat="30.595545" lon="34.890938">
        <ele>471.6</ele>
      </trkpt>
      <trkpt lat="30.597272" lon="34.892294">
        <ele>473.2</ele>
      </trkpt>
      <trkpt lat="30.598729" lon="34.892890">
        <ele>473.0</ele>
      </trkpt>
      <trkpt lat="30.599022" lon="34.893424">
        <ele>472.2</ele>
      </trkpt>
      <trkpt lat="30.600242" lon="34.894380">
        <ele>471.1</ele>
      </trkpt>
      <trkpt lat="30.601733" lon="34.895934">
        <ele>457.9</ele>
      </trkpt>
      <trkpt lat="30.603901" lon="34.897128">
        <ele>463.3</ele>
      </trkpt>
      <trkpt lat="30.605167" lon="34.897605">
        <ele>470.1</ele>
      </trkpt>
      <trkpt lat="30.608035" lon="34.899468">
        <ele>456.0</ele>
      </trkpt>
      <trkpt lat="30.609409" lon="34.900565">
        <ele>457.8</ele>
      </trkpt>
      <trkpt lat="30.610463" lon="34.901595">
        <ele>457.0</ele>
      </trkpt>
      <trkpt lat="30.613123" lon="34.903417">
        <ele>451.6</ele>
      </trkpt>
      <trkpt lat="30.613953" lon="34.904217">
        <ele>444.4</ele>
      </trkpt>
      <trkpt lat="30.614565" lon="34.905305">
        <ele>440.4</ele>
      </trkpt>
      <trkpt lat="30.614808" lon="34.905938">
        <ele>436.1</ele>
      </trkpt>
      <trkpt lat="30.614491" lon="34.906887">
        <ele>429.7</ele>
      </trkpt>
      <trkpt lat="30.613906" lon="34.907579">
        <ele>430.0</ele>
      </trkpt>
      <trkpt lat="30.613289" lon="34.909326">
        <ele>428.9</ele>
      </trkpt>
      <trkpt lat="30.612761" lon="34.910289">
        <ele>428.6</ele>
      </trkpt>
      <trkpt lat="30.612690" lon="34.910708">
        <ele>429.0</ele>
      </trkpt>
      <trkpt lat="30.613787" lon="34.911364">
        <ele>433.4</ele>
      </trkpt>
      <trkpt lat="30.614742" lon="34.912704">
        <ele>438.7</ele>
      </trkpt>
      <trkpt lat="30.615787" lon="34.914033">
        <ele>435.0</ele>
      </trkpt>
      <trkpt lat="30.616575" lon="34.914676">
        <ele>435.0</ele>
      </trkpt>
      <trkpt lat="30.618168" lon="34.916279">
        <ele>421.9</ele>
      </trkpt>
      <trkpt lat="30.618218" lon="34.917451">
        <ele>417.1</ele>
      </trkpt>
      <trkpt lat="30.617947" lon="34.919081">
        <ele>419.1</ele>
      </trkpt>
      <trkpt lat="30.618425" lon="34.920155">
        <ele>421.3</ele>
      </trkpt>
      <trkpt lat="30.620191" lon="34.920575">
        <ele>430.4</ele>
      </trkpt>
      <trkpt lat="30.621705" lon="34.921172">
        <ele>416.6</ele>
      </trkpt>
      <trkpt lat="30.624381" lon="34.921081">
        <ele>422.1</ele>
      </trkpt>
      <trkpt lat="30.624411" lon="34.921213">
        <ele>422.7</ele>
      </trkpt>
      <trkpt lat="30.624600" lon="34.922081">
        <ele>424.0</ele>
      </trkpt>
      <trkpt lat="30.624203" lon="34.924802">
        <ele>421.1</ele>
      </trkpt>
      <trkpt lat="30.623678" lon="34.926137">
        <ele>413.7</ele>
      </trkpt>
      <trkpt lat="30.623635" lon="34.927406">
        <ele>412.2</ele>
      </trkpt>
      <trkpt lat="30.623499" lon="34.927787">
        <ele>411.7</ele>
      </trkpt>
      <trkpt lat="30.623096" lon="34.928219">
        <ele>409.7</ele>
      </trkpt>
      <trkpt lat="30.622030" lon="34.929187">
        <ele>416.2</ele>
      </trkpt>
      <trkpt lat="30.620890" lon="34.930618">
        <ele>419.4</ele>
      </trkpt>
      <trkpt lat="30.619888" lon="34.931512">
        <ele>422.9</ele>
      </trkpt>
      <trkpt lat="30.619422" lon="34.932800">
        <ele>428.0</ele>
      </trkpt>
      <trkpt lat="30.619471" lon="34.934249">
        <ele>426.0</ele>
      </trkpt>
      <trkpt lat="30.619209" lon="34.935582">
        <ele>427.0</ele>
      </trkpt>
      <trkpt lat="30.619038" lon="34.935930">
        <ele>427.8</ele>
      </trkpt>
      <trkpt lat="30.618685" lon="34.938388">
        <ele>427.5</ele>
      </trkpt>
      <trkpt lat="30.618075" lon="34.939857">
        <ele>424.6</ele>
      </trkpt>
      <trkpt lat="30.617687" lon="34.940445">
        <ele>424.3</ele>
      </trkpt>
      <trkpt lat="30.617483" lon="34.941222">
        <ele>426.0</ele>
      </trkpt>
      <trkpt lat="30.617703" lon="34.941549">
        <ele>425.2</ele>
      </trkpt>
      <trkpt lat="30.617642" lon="34.941880">
        <ele>423.7</ele>
      </trkpt>
      <trkpt lat="30.617394" lon="34.942354">
        <ele>421.2</ele>
      </trkpt>
      <trkpt lat="30.617826" lon="34.943336">
        <ele>414.3</ele>
      </trkpt>
      <trkpt lat="30.617909" lon="34.943674">
        <ele>410.9</ele>
      </trkpt>
      <trkpt lat="30.618248" lon="34.943916">
        <ele>407.8</ele>
      </trkpt>
      <trkpt lat="30.618285" lon="34.944329">
        <ele>404.8</ele>
      </trkpt>
      <trkpt lat="30.618633" lon="34.944687">
        <ele>401.2</ele>
      </trkpt>
      <trkpt lat="30.618867" lon="34.945630">
        <ele>384.6</ele>
      </trkpt>
      <trkpt lat="30.618737" lon="34.945966">
        <ele>379.1</ele>
      </trkpt>
      <trkpt lat="30.618134" lon="34.946190">
        <ele>381.9</ele>
      </trkpt>
      <trkpt lat="30.617859" lon="34.945873">
        <ele>387.6</ele>
      </trkpt>
      <trkpt lat="30.617512" lon="34.946361">
        <ele>384.1</ele>
      </trkpt>
      <trkpt lat="30.616857" lon="34.946806">
        <ele>384.8</ele>
      </trkpt>
      <trkpt lat="30.616590" lon="34.947241">
        <ele>384.2</ele>
      </trkpt>
      <trkpt lat="30.616236" lon="34.948204">
        <ele>385.1</ele>
      </trkpt>
      <trkpt lat="30.615351" lon="34.949944">
        <ele>383.0</ele>
      </trkpt>
      <trkpt lat="30.615280" lon="34.950490">
        <ele>378.4</ele>
      </trkpt>
      <trkpt lat="30.615355" lon="34.951103">
        <ele>375.0</ele>
      </trkpt>
      <trkpt lat="30.615126" lon="34.952178">
        <ele>369.9</ele>
      </trkpt>
      <trkpt lat="30.614526" lon="34.952787">
        <ele>367.5</ele>
      </trkpt>
      <trkpt lat="30.614261" lon="34.953084">
        <ele>367.1</ele>
      </trkpt>
      <trkpt lat="30.614308" lon="34.953718">
        <ele>367.9</ele>
      </trkpt>
      <trkpt lat="30.613797" lon="34.954427">
        <ele>368.5</ele>
      </trkpt>
      <trkpt lat="30.613165" lon="34.954761">
        <ele>369.5</ele>
      </trkpt>
      <trkpt lat="30.612948" lon="34.955128">
        <ele>367.1</ele>
      </trkpt>
      <trkpt lat="30.613234" lon="34.956036">
        <ele>357.7</ele>
      </trkpt>
      <trkpt lat="30.613079" lon="34.956713">
        <ele>358.9</ele>
      </trkpt>
      <trkpt lat="30.612912" lon="34.956914">
        <ele>362.3</ele>
      </trkpt>
      <trkpt lat="30.612322" lon="34.957392">
        <ele>367.1</ele>
      </trkpt>
      <trkpt lat="30.610950" lon="34.957607">
        <ele>351.8</ele>
      </trkpt>
      <trkpt lat="30.610752" lon="34.957935">
        <ele>352.3</ele>
      </trkpt>
      <trkpt lat="30.610504" lon="34.958317">
        <ele>354.2</ele>
      </trkpt>
      <trkpt lat="30.609095" lon="34.958151">
        <ele>359.9</ele>
      </trkpt>
      <trkpt lat="30.608592" lon="34.958184">
        <ele>353.7</ele>
      </trkpt>
      <trkpt lat="30.607761" lon="34.958599">
        <ele>347.5</ele>
      </trkpt>
      <trkpt lat="30.607005" lon="34.958813">
        <ele>344.2</ele>
      </trkpt>
      <trkpt lat="30.606426" lon="34.958835">
        <ele>346.7</ele>
      </trkpt>
      <trkpt lat="30.605694" lon="34.957749">
        <ele>355.2</ele>
      </trkpt>
      <trkpt lat="30.605381" lon="34.957082">
        <ele>362.3</ele>
      </trkpt>
      <trkpt lat="30.605370" lon="34.954762">
        <ele>344.9</ele>
      </trkpt>
      <trkpt lat="30.605394" lon="34.954587">
        <ele>344.9</ele>
      </trkpt>
      <trkpt lat="30.605027" lon="34.954049">
        <ele>341.2</ele>
      </trkpt>
      <trkpt lat="30.604647" lon="34.953215">
        <ele>338.9</ele>
      </trkpt>
      <trkpt lat="30.603899" lon="34.952572">
        <ele>332.5</ele>
      </trkpt>
      <trkpt lat="30.603681" lon="34.953366">
        <ele>335.9</ele>
      </trkpt>
      <trkpt lat="30.603134" lon="34.954139">
        <ele>335.8</ele>
      </trkpt>
      <trkpt lat="30.602596" lon="34.954434">
        <ele>332.1</ele>
      </trkpt>
      <trkpt lat="30.601571" lon="34.954344">
        <ele>325.5</ele>
      </trkpt>
      <trkpt lat="30.601251" lon="34.954081">
        <ele>323.4</ele>
      </trkpt>
      <trkpt lat="30.600317" lon="34.953649">
        <ele>317.2</ele>
      </trkpt>
      <trkpt lat="30.599691" lon="34.953797">
        <ele>314.8</ele>
      </trkpt>
      <trkpt lat="30.599138" lon="34.954287">
        <ele>317.8</ele>
      </trkpt>
      <trkpt lat="30.598846" lon="34.954499">
        <ele>322.1</ele>
      </trkpt>
      <trkpt lat="30.598500" lon="34.955272">
        <ele>326.8</ele>
      </trkpt>
      <trkpt lat="30.598418" lon="34.956266">
        <ele>320.9</ele>
      </trkpt>
      <trkpt lat="30.598202" lon="34.957091">
        <ele>318.2</ele>
      </trkpt>
      <trkpt lat="30.597718" lon="34.957409">
        <ele>317.5</ele>
      </trkpt>
      <trkpt lat="30.597398" lon="34.957505">
        <ele>318.6</ele>
      </trkpt>
      <trkpt lat="30.595981" lon="34.957435">
        <ele>323.4</ele>
      </trkpt>
      <trkpt lat="30.595561" lon="34.957943">
        <ele>318.3</ele>
      </trkpt>
      <trkpt lat="30.595290" lon="34.957916">
        <ele>312.2</ele>
      </trkpt>
      <trkpt lat="30.594684" lon="34.958316">
        <ele>310.5</ele>
      </trkpt>
      <trkpt lat="30.594410" lon="34.958612">
        <ele>311.6</ele>
      </trkpt>
      <trkpt lat="30.594155" lon="34.958928">
        <ele>311.6</ele>
      </trkpt>
      <trkpt lat="30.593855" lon="34.960104">
        <ele>315.0</ele>
      </trkpt>
      <trkpt lat="30.593299" lon="34.961173">
        <ele>316.1</ele>
      </trkpt>
      <trkpt lat="30.593094" lon="34.962380">
        <ele>308.9</ele>
      </trkpt>
      <trkpt lat="30.592544" lon="34.963014">
        <ele>307.6</ele>
      </trkpt>
      <trkpt lat="30.591903" lon="34.963274">
        <ele>311.8</ele>
      </trkpt>
      <trkpt lat="30.590780" lon="34.963347">
        <ele>323.7</ele>
      </trkpt>
      <trkpt lat="30.590378" lon="34.963707">
        <ele>334.8</ele>
      </trkpt>
      <trkpt lat="30.589918" lon="34.963964">
        <ele>345.2</ele>
      </trkpt>
      <trkpt lat="30.588741" lon="34.963696">
        <ele>312.9</ele>
      </trkpt>
      <trkpt lat="30.587964" lon="34.963639">
        <ele>299.4</ele>
      </trkpt>
      <trkpt lat="30.587544" lon="34.964200">
        <ele>305.5</ele>
      </trkpt>
      <trkpt lat="30.588103" lon="34.964738">
        <ele>307.8</ele>
      </trkpt>
      <trkpt lat="30.588626" lon="34.965057">
        <ele>312.5</ele>
      </trkpt>
      <trkpt lat="30.588636" lon="34.966470">
        <ele>306.8</ele>
      </trkpt>
      <trkpt lat="30.589013" lon="34.967496">
        <ele>296.7</ele>
      </trkpt>
      <trkpt lat="30.588789" lon="34.968965">
        <ele>296.2</ele>
      </trkpt>
      <trkpt lat="30.589421" lon="34.970369">
        <ele>293.9</ele>
      </trkpt>
      <trkpt lat="30.589561" lon="34.971795">
        <ele>295.3</ele>
      </trkpt>
      <trkpt lat="30.590089" lon="34.973290">
        <ele>295.5</ele>
      </trkpt>
      <trkpt lat="30.590151" lon="34.974627">
        <ele>290.6</ele>
      </trkpt>
      <trkpt lat="30.589519" lon="34.975880">
        <ele>281.4</ele>
      </trkpt>
      <trkpt lat="30.588481" lon="34.976502">
        <ele>291.5</ele>
      </trkpt>
      <trkpt lat="30.588208" lon="34.976840">
        <ele>295.3</ele>
      </trkpt>
      <trkpt lat="30.588294" lon="34.977113">
        <ele>290.4</ele>
      </trkpt>
      <trkpt lat="30.588227" lon="34.977549">
        <ele>292.0</ele>
      </trkpt>
      <trkpt lat="30.588621" lon="34.977706">
        <ele>279.9</ele>
      </trkpt>
      <trkpt lat="30.588759" lon="34.978562">
        <ele>279.6</ele>
      </trkpt>
      <trkpt lat="30.588794" lon="34.979666">
        <ele>284.0</ele>
      </trkpt>
      <trkpt lat="30.588580" lon="34.980254">
        <ele>283.2</ele>
      </trkpt>
      <trkpt lat="30.588123" lon="34.980508">
        <ele>281.7</ele>
      </trkpt>
      <trkpt lat="30.587849" lon="34.981143">
        <ele>279.0</ele>
      </trkpt>
      <trkpt lat="30.586850" lon="34.981154">
        <ele>284.4</ele>
      </trkpt>
      <trkpt lat="30.586341" lon="34.981242">
        <ele>281.6</ele>
      </trkpt>
      <trkpt lat="30.586077" lon="34.981919">
        <ele>283.5</ele>
      </trkpt>
      <trkpt lat="30.585081" lon="34.982313">
        <ele>283.3</ele>
      </trkpt>
      <trkpt lat="30.584569" lon="34.982589">
        <ele>280.0</ele>
      </trkpt>
      <trkpt lat="30.584237" lon="34.983085">
        <ele>278.3</ele>
      </trkpt>
      <trkpt lat="30.584059" lon="34.983805">
        <ele>279.6</ele>
      </trkpt>
      <trkpt lat="30.584161" lon="34.984544">
        <ele>280.2</ele>
      </trkpt>
      <trkpt lat="30.584584" lon="34.986129">
        <ele>269.3</ele>
      </trkpt>
      <trkpt lat="30.584202" lon="34.986817">
        <ele>273.1</ele>
      </trkpt>
      <trkpt lat="30.584342" lon="34.988434">
        <ele>266.1</ele>
      </trkpt>
      <trkpt lat="30.584239" lon="34.989478">
        <ele>274.5</ele>
      </trkpt>
      <trkpt lat="30.584565" lon="34.990896">
        <ele>261.9</ele>
      </trkpt>
      <trkpt lat="30.584428" lon="34.992193">
        <ele>261.5</ele>
      </trkpt>
      <trkpt lat="30.584724" lon="34.993042">
        <ele>256.8</ele>
      </trkpt>
      <trkpt lat="30.584772" lon="34.994257">
        <ele>256.2</ele>
      </trkpt>
      <trkpt lat="30.585239" lon="34.994668">
        <ele>269.3</ele>
      </trkpt>
      <trkpt lat="30.584950" lon="34.995180">
        <ele>262.3</ele>
      </trkpt>
      <trkpt lat="30.584996" lon="34.996822">
        <ele>267.9</ele>
      </trkpt>
      <trkpt lat="30.584505" lon="34.998559">
        <ele>256.2</ele>
      </trkpt>
      <trkpt lat="30.584059" lon="34.999914">
        <ele>254.8</ele>
      </trkpt>
      <trkpt lat="30.583613" lon="35.000992">
        <ele>262.3</ele>
      </trkpt>
      <trkpt lat="30.582973" lon="35.001533">
        <ele>247.3</ele>
      </trkpt>
      <trkpt lat="30.582408" lon="35.002633">
        <ele>250.1</ele>
      </trkpt>
      <trkpt lat="30.581763" lon="35.003090">
        <ele>241.3</ele>
      </trkpt>
      <trkpt lat="30.579934" lon="35.004248">
        <ele>250.3</ele>
      </trkpt>
      <trkpt lat="30.579002" lon="35.005589">
        <ele>246.2</ele>
      </trkpt>
      <trkpt lat="30.577679" lon="35.006725">
        <ele>239.1</ele>
      </trkpt>
      <trkpt lat="30.576063" lon="35.007422">
        <ele>237.3</ele>
      </trkpt>
      <trkpt lat="30.575457" lon="35.007616">
        <ele>234.5</ele>
      </trkpt>
      <trkpt lat="30.574648" lon="35.007490">
        <ele>236.9</ele>
      </trkpt>
      <trkpt lat="30.574104" lon="35.007957">
        <ele>234.2</ele>
      </trkpt>
      <trkpt lat="30.574041" lon="35.008612">
        <ele>232.3</ele>
      </trkpt>
      <trkpt lat="30.574262" lon="35.009298">
        <ele>231.4</ele>
      </trkpt>
      <trkpt lat="30.574126" lon="35.009989">
        <ele>236.0</ele>
      </trkpt>
      <trkpt lat="30.574218" lon="35.010789">
        <ele>236.3</ele>
      </trkpt>
      <trkpt lat="30.574091" lon="35.011307">
        <ele>234.0</ele>
      </trkpt>
      <trkpt lat="30.574257" lon="35.011951">
        <ele>234.4</ele>
      </trkpt>
      <trkpt lat="30.574101" lon="35.013157">
        <ele>240.3</ele>
      </trkpt>
      <trkpt lat="30.574242" lon="35.014213">
        <ele>240.4</ele>
      </trkpt>
      <trkpt lat="30.574902" lon="35.015511">
        <ele>236.6</ele>
      </trkpt>
      <trkpt lat="30.575546" lon="35.018004">
        <ele>232.5</ele>
      </trkpt>
      <trkpt lat="30.576273" lon="35.021036">
        <ele>228.9</ele>
      </trkpt>
      <trkpt lat="30.576597" lon="35.023625">
        <ele>228.9</ele>
      </trkpt>
      <trkpt lat="30.576677" lon="35.024834">
        <ele>227.9</ele>
      </trkpt>
      <trkpt lat="30.576429" lon="35.025897">
        <ele>227.7</ele>
      </trkpt>
      <trkpt lat="30.575561" lon="35.027981">
        <ele>219.1</ele>
      </trkpt>
      <trkpt lat="30.573802" lon="35.030638">
        <ele>227.7</ele>
      </trkpt>
      <trkpt lat="30.573481" lon="35.031800">
        <ele>236.7</ele>
      </trkpt>
      <trkpt lat="30.573500" lon="35.032276">
        <ele>234.2</ele>
      </trkpt>
      <trkpt lat="30.573290" lon="35.032720">
        <ele>244.7</ele>
      </trkpt>
      <trkpt lat="30.573446" lon="35.033142">
        <ele>233.6</ele>
      </trkpt>
      <trkpt lat="30.573315" lon="35.033710">
        <ele>240.4</ele>
      </trkpt>
      <trkpt lat="30.573632" lon="35.035605">
        <ele>246.1</ele>
      </trkpt>
      <trkpt lat="30.573935" lon="35.035815">
        <ele>233.7</ele>
      </trkpt>
      <trkpt lat="30.574231" lon="35.036734">
        <ele>230.2</ele>
      </trkpt>
      <trkpt lat="30.574313" lon="35.038224">
        <ele>228.8</ele>
      </trkpt>
      <trkpt lat="30.574296" lon="35.039070">
        <ele>230.2</ele>
      </trkpt>
      <trkpt lat="30.574242" lon="35.039561">
        <ele>231.1</ele>
      </trkpt>
      <trkpt lat="30.574645" lon="35.040803">
        <ele>225.6</ele>
      </trkpt>
      <trkpt lat="30.574976" lon="35.041521">
        <ele>219.4</ele>
      </trkpt>
      <trkpt lat="30.575040" lon="35.042378">
        <ele>214.0</ele>
      </trkpt>
      <trkpt lat="30.574850" lon="35.043603">
        <ele>212.6</ele>
      </trkpt>
      <trkpt lat="30.574338" lon="35.043667">
        <ele>216.7</ele>
      </trkpt>
      <trkpt lat="30.573825" lon="35.043150">
        <ele>218.6</ele>
      </trkpt>
      <trkpt lat="30.573112" lon="35.042961">
        <ele>210.2</ele>
      </trkpt>
      <trkpt lat="30.572452" lon="35.043236">
        <ele>203.2</ele>
      </trkpt>
      <trkpt lat="30.571303" lon="35.044286">
        <ele>213.9</ele>
      </trkpt>
      <trkpt lat="30.571140" lon="35.045163">
        <ele>218.1</ele>
      </trkpt>
      <trkpt lat="30.570528" lon="35.046189">
        <ele>221.3</ele>
      </trkpt>
      <trkpt lat="30.569543" lon="35.047239">
        <ele>222.9</ele>
      </trkpt>
      <trkpt lat="30.568579" lon="35.049329">
        <ele>224.8</ele>
      </trkpt>
      <trkpt lat="30.567991" lon="35.050135">
        <ele>223.3</ele>
      </trkpt>
      <trkpt lat="30.567194" lon="35.050756">
        <ele>223.9</ele>
      </trkpt>
      <trkpt lat="30.566832" lon="35.052039">
        <ele>232.8</ele>
      </trkpt>
      <trkpt lat="30.566430" lon="35.052769">
        <ele>234.8</ele>
      </trkpt>
      <trkpt lat="30.566422" lon="35.053361">
        <ele>235.6</ele>
      </trkpt>
      <trkpt lat="30.565792" lon="35.054546">
        <ele>231.9</ele>
      </trkpt>
      <trkpt lat="30.565765" lon="35.055114">
        <ele>234.6</ele>
      </trkpt>
      <trkpt lat="30.565165" lon="35.057252">
        <ele>241.7</ele>
      </trkpt>
      <trkpt lat="30.565102" lon="35.058266">
        <ele>243.2</ele>
      </trkpt>
      <trkpt lat="30.564528" lon="35.060159">
        <ele>246.2</ele>
      </trkpt>
      <trkpt lat="30.564456" lon="35.060807">
        <ele>250.9</ele>
      </trkpt>
      <trkpt lat="30.563890" lon="35.062019">
        <ele>251.4</ele>
      </trkpt>
      <trkpt lat="30.563877" lon="35.064860">
        <ele>255.0</ele>
      </trkpt>
      <trkpt lat="30.564509" lon="35.066589">
        <ele>258.0</ele>
      </trkpt>
      <trkpt lat="30.564591" lon="35.067662">
        <ele>263.1</ele>
      </trkpt>
      <trkpt lat="30.565049" lon="35.069794">
        <ele>273.1</ele>
      </trkpt>
      <trkpt lat="30.565444" lon="35.069626">
        <ele>270.3</ele>
      </trkpt>
      <trkpt lat="30.565819" lon="35.069763">
        <ele>270.8</ele>
      </trkpt>
      <trkpt lat="30.566396" lon="35.070903">
        <ele>277.4</ele>
      </trkpt>
      <trkpt lat="30.566736" lon="35.071505">
        <ele>282.1</ele>
      </trkpt>
      <trkpt lat="30.567166" lon="35.071991">
        <ele>283.8</ele>
      </trkpt>
      <trkpt lat="30.568804" lon="35.073314">
        <ele>279.5</ele>
      </trkpt>
      <trkpt lat="30.569079" lon="35.073668">
        <ele>280.6</ele>
      </trkpt>
      <trkpt lat="30.569866" lon="35.073868">
        <ele>280.2</ele>
      </trkpt>
      <trkpt lat="30.570899" lon="35.074384">
        <ele>280.4</ele>
      </trkpt>
      <trkpt lat="30.571875" lon="35.075134">
        <ele>287.7</ele>
      </trkpt>
      <trkpt lat="30.571842" lon="35.075609">
        <ele>289.0</ele>
      </trkpt>
      <trkpt lat="30.571450" lon="35.076032">
        <ele>287.9</ele>
      </trkpt>
      <trkpt lat="30.571468" lon="35.076561">
        <ele>290.0</ele>
      </trkpt>
      <trkpt lat="30.571334" lon="35.076876">
        <ele>292.8</ele>
      </trkpt>
      <trkpt lat="30.570591" lon="35.077111">
        <ele>294.4</ele>
      </trkpt>
      <trkpt lat="30.569440" lon="35.077504">
        <ele>304.6</ele>
      </trkpt>
      <trkpt lat="30.569051" lon="35.077464">
        <ele>309.4</ele>
      </trkpt>
      <trkpt lat="30.568736" lon="35.077949">
        <ele>316.4</ele>
      </trkpt>
      <trkpt lat="30.568956" lon="35.078371">
        <ele>318.3</ele>
      </trkpt>
      <trkpt lat="30.568730" lon="35.078995">
        <ele>321.9</ele>
      </trkpt>
      <trkpt lat="30.568417" lon="35.079154">
        <ele>322.4</ele>
      </trkpt>
      <trkpt lat="30.568179" lon="35.079493">
        <ele>322.6</ele>
      </trkpt>
      <trkpt lat="30.567950" lon="35.078933">
        <ele>322.3</ele>
      </trkpt>
      <trkpt lat="30.567521" lon="35.079124">
        <ele>323.5</ele>
      </trkpt>
      <trkpt lat="30.566333" lon="35.078879">
        <ele>329.7</ele>
      </trkpt>
      <trkpt lat="30.564443" lon="35.079412">
        <ele>329.2</ele>
      </trkpt>
      <trkpt lat="30.563672" lon="35.079985">
        <ele>323.9</ele>
      </trkpt>
      <trkpt lat="30.563445" lon="35.081464">
        <ele>322.6</ele>
      </trkpt>
      <trkpt lat="30.563069" lon="35.082457">
        <ele>323.5</ele>
      </trkpt>
      <trkpt lat="30.561984" lon="35.083981">
        <ele>316.5</ele>
      </trkpt>
      <trkpt lat="30.561171" lon="35.085536">
        <ele>310.0</ele>
      </trkpt>
      <trkpt lat="30.561236" lon="35.086117">
        <ele>308.9</ele>
      </trkpt>
      <trkpt lat="30.560990" lon="35.086868">
        <ele>305.8</ele>
      </trkpt>
      <trkpt lat="30.560359" lon="35.087259">
        <ele>302.0</ele>
      </trkpt>
      <trkpt lat="30.559994" lon="35.087602">
        <ele>295.1</ele>
      </trkpt>
      <trkpt lat="30.560021" lon="35.087122">
        <ele>299.6</ele>
      </trkpt>
      <trkpt lat="30.559838" lon="35.087049">
        <ele>297.4</ele>
      </trkpt>
      <trkpt lat="30.559573" lon="35.087419">
        <ele>293.6</ele>
      </trkpt>
      <trkpt lat="30.559391" lon="35.087641">
        <ele>290.9</ele>
      </trkpt>
      <trkpt lat="30.559189" lon="35.087673">
        <ele>288.2</ele>
      </trkpt>
      <trkpt lat="30.559080" lon="35.087980">
        <ele>285.6</ele>
      </trkpt>
      <trkpt lat="30.558504" lon="35.088255">
        <ele>279.2</ele>
      </trkpt>
      <trkpt lat="30.558349" lon="35.088699">
        <ele>273.7</ele>
      </trkpt>
      <trkpt lat="30.557965" lon="35.088847">
        <ele>270.2</ele>
      </trkpt>
      <trkpt lat="30.557783" lon="35.089273">
        <ele>263.5</ele>
      </trkpt>
      <trkpt lat="30.557508" lon="35.089472">
        <ele>259.0</ele>
      </trkpt>
      <trkpt lat="30.557207" lon="35.089451">
        <ele>257.8</ele>
      </trkpt>
      <trkpt lat="30.556530" lon="35.089589">
        <ele>253.9</ele>
      </trkpt>
      <trkpt lat="30.556365" lon="35.089726">
        <ele>251.1</ele>
      </trkpt>
      <trkpt lat="30.555872" lon="35.089695">
        <ele>250.2</ele>
      </trkpt>
      <trkpt lat="30.555419" lon="35.089287">
        <ele>251.0</ele>
      </trkpt>
      <trkpt lat="30.554783" lon="35.089887">
        <ele>242.9</ele>
      </trkpt>
      <trkpt lat="30.554492" lon="35.090564">
        <ele>236.1</ele>
      </trkpt>
      <trkpt lat="30.554392" lon="35.091060">
        <ele>232.3</ele>
      </trkpt>
      <trkpt lat="30.553962" lon="35.091409">
        <ele>229.2</ele>
      </trkpt>
      <trkpt lat="30.553633" lon="35.092002">
        <ele>225.9</ele>
      </trkpt>
      <trkpt lat="30.553313" lon="35.092097">
        <ele>223.8</ele>
      </trkpt>
      <trkpt lat="30.553451" lon="35.092562">
        <ele>222.2</ele>
      </trkpt>
      <trkpt lat="30.553507" lon="35.093354">
        <ele>219.4</ele>
      </trkpt>
      <trkpt lat="30.553726" lon="35.093502">
        <ele>218.0</ele>
      </trkpt>
      <trkpt lat="30.554164" lon="35.092572">
        <ele>221.5</ele>
      </trkpt>
      <trkpt lat="30.554466" lon="35.092244">
        <ele>221.7</ele>
      </trkpt>
      <trkpt lat="30.554749" lon="35.092021">
        <ele>221.9</ele>
      </trkpt>
      <trkpt lat="30.554731" lon="35.092317">
        <ele>219.8</ele>
      </trkpt>
      <trkpt lat="30.554393" lon="35.092656">
        <ele>219.3</ele>
      </trkpt>
      <trkpt lat="30.554302" lon="35.092952">
        <ele>218.8</ele>
      </trkpt>
      <trkpt lat="30.554256" lon="35.093364">
        <ele>216.1</ele>
      </trkpt>
      <trkpt lat="30.554394" lon="35.093543">
        <ele>213.6</ele>
      </trkpt>
      <trkpt lat="30.554588" lon="35.094094">
        <ele>207.5</ele>
      </trkpt>
      <trkpt lat="30.554596" lon="35.094336">
        <ele>205.8</ele>
      </trkpt>
      <trkpt lat="30.554423" lon="35.095245">
        <ele>201.0</ele>
      </trkpt>
      <trkpt lat="30.554387" lon="35.095910">
        <ele>197.7</ele>
      </trkpt>
      <trkpt lat="30.553701" lon="35.096503">
        <ele>200.0</ele>
      </trkpt>
      <trkpt lat="30.553610" lon="35.096877">
        <ele>202.8</ele>
      </trkpt>
      <trkpt lat="30.554160" lon="35.097517">
        <ele>198.8</ele>
      </trkpt>
      <trkpt lat="30.554343" lon="35.097992">
        <ele>197.8</ele>
      </trkpt>
      <trkpt lat="30.554599" lon="35.098509">
        <ele>199.4</ele>
      </trkpt>
      <trkpt lat="30.554403" lon="35.098933">
        <ele>198.5</ele>
      </trkpt>
      <trkpt lat="30.553576" lon="35.099810">
        <ele>195.2</ele>
      </trkpt>
      <trkpt lat="30.553028" lon="35.100614">
        <ele>192.4</ele>
      </trkpt>
      <trkpt lat="30.552791" lon="35.101554">
        <ele>186.5</ele>
      </trkpt>
      <trkpt lat="30.551688" lon="35.102860">
        <ele>185.9</ele>
      </trkpt>
      <trkpt lat="30.549488" lon="35.104534">
        <ele>179.7</ele>
      </trkpt>
      <trkpt lat="30.549310" lon="35.105140">
        <ele>176.0</ele>
      </trkpt>
      <trkpt lat="30.549705" lon="35.106799">
        <ele>174.9</ele>
      </trkpt>
      <trkpt lat="30.549678" lon="35.107876">
        <ele>172.2</ele>
      </trkpt>
      <trkpt lat="30.549469" lon="35.108684">
        <ele>170.5</ele>
      </trkpt>
      <trkpt lat="30.549103" lon="35.109578">
        <ele>168.5</ele>
      </trkpt>
      <trkpt lat="30.548181" lon="35.110541">
        <ele>162.5</ele>
      </trkpt>
      <trkpt lat="30.547861" lon="35.111418">
        <ele>159.8</ele>
      </trkpt>
      <trkpt lat="30.547367" lon="35.111640">
        <ele>158.6</ele>
      </trkpt>
      <trkpt lat="30.546990" lon="35.112290">
        <ele>158.3</ele>
      </trkpt>
      <trkpt lat="30.546912" lon="35.113733">
        <ele>157.0</ele>
      </trkpt>
      <trkpt lat="30.547059" lon="35.114588">
        <ele>156.0</ele>
      </trkpt>
      <trkpt lat="30.547060" lon="35.116205">
        <ele>152.9</ele>
      </trkpt>
      <trkpt lat="30.547238" lon="35.116878">
        <ele>151.6</ele>
      </trkpt>
      <trkpt lat="30.547153" lon="35.118297">
        <ele>150.2</ele>
      </trkpt>
      <trkpt lat="30.546740" lon="35.120924">
        <ele>147.2</ele>
      </trkpt>
      <trkpt lat="30.546890" lon="35.121625">
        <ele>146.0</ele>
      </trkpt>
      <trkpt lat="30.547705" lon="35.122586">
        <ele>135.7</ele>
      </trkpt>
      <trkpt lat="30.548362" lon="35.123052">
        <ele>136.1</ele>
      </trkpt>
      <trkpt lat="30.548519" lon="35.123663">
        <ele>140.4</ele>
      </trkpt>
      <trkpt lat="30.548378" lon="35.124125">
        <ele>138.6</ele>
      </trkpt>
      <trkpt lat="30.547633" lon="35.125058">
        <ele>132.0</ele>
      </trkpt>
      <trkpt lat="30.546587" lon="35.126061">
        <ele>128.9</ele>
      </trkpt>
      <trkpt lat="30.546428" lon="35.127067">
        <ele>127.0</ele>
      </trkpt>
      <trkpt lat="30.546528" lon="35.127880">
        <ele>123.1</ele>
      </trkpt>
      <trkpt lat="30.546421" lon="35.128491">
        <ele>122.6</ele>
      </trkpt>
      <trkpt lat="30.545597" lon="35.129931">
        <ele>119.4</ele>
      </trkpt>
      <trkpt lat="30.544400" lon="35.131226">
        <ele>116.3</ele>
      </trkpt>
      <trkpt lat="30.544126" lon="35.131644">
        <ele>118.6</ele>
      </trkpt>
      <trkpt lat="30.544419" lon="35.131939">
        <ele>123.5</ele>
      </trkpt>
      <trkpt lat="30.544931" lon="35.132013">
        <ele>125.5</ele>
      </trkpt>
      <trkpt lat="30.545616" lon="35.131674">
        <ele>120.9</ele>
      </trkpt>
      <trkpt lat="30.546367" lon="35.131906">
        <ele>124.7</ele>
      </trkpt>
      <trkpt lat="30.547896" lon="35.132989">
        <ele>128.3</ele>
      </trkpt>
      <trkpt lat="30.550744" lon="35.134427">
        <ele>109.4</ele>
      </trkpt>
      <trkpt lat="30.551924" lon="35.135963">
        <ele>104.7</ele>
      </trkpt>
      <trkpt lat="30.553203" lon="35.139457">
        <ele>99.8</ele>
      </trkpt>
      <trkpt lat="30.553147" lon="35.140185">
        <ele>100.0</ele>
      </trkpt>
      <trkpt lat="30.552724" lon="35.140657">
        <ele>105.7</ele>
      </trkpt>
      <trkpt lat="30.552371" lon="35.141221">
        <ele>108.0</ele>
      </trkpt>
      <trkpt lat="30.552005" lon="35.141559">
        <ele>112.4</ele>
      </trkpt>
      <trkpt lat="30.552307" lon="35.142298">
        <ele>111.0</ele>
      </trkpt>
      <trkpt lat="30.552363" lon="35.142827">
        <ele>112.0</ele>
      </trkpt>
      <trkpt lat="30.551996" lon="35.144014">
        <ele>106.1</ele>
      </trkpt>
      <trkpt lat="30.551047" lon="35.146219">
        <ele>94.1</ele>
      </trkpt>
      <trkpt lat="30.550499" lon="35.146325">
        <ele>94.5</ele>
      </trkpt>
      <trkpt lat="30.550292" lon="35.146552">
        <ele>94.4</ele>
      </trkpt>
      <trkpt lat="30.550142" lon="35.147033">
        <ele>93.2</ele>
      </trkpt>
      <trkpt lat="30.549914" lon="35.147498">
        <ele>92.3</ele>
      </trkpt>
      <trkpt lat="30.548832" lon="35.148463">
        <ele>86.8</ele>
      </trkpt>
      <trkpt lat="30.548415" lon="35.149190">
        <ele>83.5</ele>
      </trkpt>
      <trkpt lat="30.548214" lon="35.149623">
        <ele>82.5</ele>
      </trkpt>
      <trkpt lat="30.547839" lon="35.149729">
        <ele>85.8</ele>
      </trkpt>
      <trkpt lat="30.547995" lon="35.150173">
        <ele>81.7</ele>
      </trkpt>
      <trkpt lat="30.547273" lon="35.151309">
        <ele>82.8</ele>
      </trkpt>
      <trkpt lat="30.546478" lon="35.152224">
        <ele>79.3</ele>
      </trkpt>
      <trkpt lat="30.546273" lon="35.152785">
        <ele>77.5</ele>
      </trkpt>
      <trkpt lat="30.546104" lon="35.153650">
        <ele>74.1</ele>
      </trkpt>
      <trkpt lat="30.546278" lon="35.154411">
        <ele>69.0</ele>
      </trkpt>
      <trkpt lat="30.546141" lon="35.154929">
        <ele>65.5</ele>
      </trkpt>
      <trkpt lat="30.545757" lon="35.155155">
        <ele>63.9</ele>
      </trkpt>
      <trkpt lat="30.545419" lon="35.156197">
        <ele>59.2</ele>
      </trkpt>
      <trkpt lat="30.545885" lon="35.156334">
        <ele>57.9</ele>
      </trkpt>
      <trkpt lat="30.546259" lon="35.156786">
        <ele>54.1</ele>
      </trkpt>
      <trkpt lat="30.546453" lon="35.157707">
        <ele>43.8</ele>
      </trkpt>
      <trkpt lat="30.545539" lon="35.158510">
        <ele>39.9</ele>
      </trkpt>
      <trkpt lat="30.544753" lon="35.158764">
        <ele>41.0</ele>
      </trkpt>
      <trkpt lat="30.544643" lon="35.159229">
        <ele>40.2</ele>
      </trkpt>
      <trkpt lat="30.544825" lon="35.159716">
        <ele>38.7</ele>
      </trkpt>
      <trkpt lat="30.544689" lon="35.160307">
        <ele>36.6</ele>
      </trkpt>
      <trkpt lat="30.543967" lon="35.160730">
        <ele>34.9</ele>
      </trkpt>
      <trkpt lat="30.542979" lon="35.160771">
        <ele>34.6</ele>
      </trkpt>
      <trkpt lat="30.542056" lon="35.160752">
        <ele>37.1</ele>
      </trkpt>
      <trkpt lat="30.541525" lon="35.160594">
        <ele>38.0</ele>
      </trkpt>
      <trkpt lat="30.541132" lon="35.161165">
        <ele>37.2</ele>
      </trkpt>
      <trkpt lat="30.540657" lon="35.161577">
        <ele>35.8</ele>
      </trkpt>
      <trkpt lat="30.540748" lon="35.161915">
        <ele>34.6</ele>
      </trkpt>
      <trkpt lat="30.541233" lon="35.162168">
        <ele>34.7</ele>
      </trkpt>
      <trkpt lat="30.540557" lon="35.163711">
        <ele>32.4</ele>
      </trkpt>
      <trkpt lat="30.539960" lon="35.162975">
        <ele>33.6</ele>
        <sat>10</sat>
        <extensions>
          <gpxtpx:TrackPointExtension>
            <gpxtpx:atemp>286.15</gpxtpx:atemp>
          </gpxtpx:TrackPointExtension>
        </extensions>
      </trkpt>
      <trkpt lat="30.539221" lon="35.162339">
        <ele>37.1</ele>
      </trkpt>
      <trkpt lat="30.539173" lon="35.161843">
        <ele>38.4</ele>
        <sat>10</sat>
        <extensions>
          <gpxtpx:TrackPointExtension>
            <gpxtpx:atemp>286.15</gpxtpx:atemp>
          </gpxtpx:TrackPointExtension>
        </extensions>
      </trkpt>
      <trkpt lat="30.539056" lon="35.161208">
        <ele>40.1</ele>
      </trkpt>
      <trkpt lat="30.539102" lon="35.160500">
        <ele>41.5</ele>
      </trkpt>
      <trkpt lat="30.538353" lon="35.159660">
        <ele>42.7</ele>
        <sat>10</sat>
        <extensions>
          <gpxtpx:TrackPointExtension>
            <gpxtpx:atemp>286.15</gpxtpx:atemp>
          </gpxtpx:TrackPointExtension>
        </extensions>
      </trkpt>
      <trkpt lat="30.537903" lon="35.159645">
        <ele>42.8</ele>
      </trkpt>
      <trkpt lat="30.535625" lon="35.158940">
        <ele>40.0</ele>
        <sat>10</sat>
        <extensions>
          <gpxtpx:TrackPointExtension>
            <gpxtpx:atemp>286.15</gpxtpx:atemp>
          </gpxtpx:TrackPointExtension>
        </extensions>
      </trkpt>
      <trkpt lat="30.532382" lon="35.156368">
        <ele>56.0</ele>
        <sat>9</sat>
        <extensions>
          <gpxtpx:TrackPointExtension>
            <gpxtpx:atemp>285.65</gpxtpx:atemp>
          </gpxtpx:TrackPointExtension>
        </extensions>
      </trkpt>
      <trkpt lat="30.531629" lon="35.156057">
        <ele>59.4</ele>
      </trkpt>
      <trkpt lat="30.530590" lon="35.155882">
        <ele>60.3</ele>
        <sat>9</sat>
        <extensions>
          <gpxtpx:TrackPointExtension>
            <gpxtpx:atemp>285.65</gpxtpx:atemp>
          </gpxtpx:TrackPointExtension>
        </extensions>
      </trkpt>
      <trkpt lat="30.529168" lon="35.154791">
        <ele>55.0</ele>
      </trkpt>
      <trkpt lat="30.528024" lon="35.153249">
        <ele>60.5</ele>
      </trkpt>
      <trkpt lat="30.527418" lon="35.152188">
        <ele>65.6</ele>
        <sat>10</sat>
        <extensions>
          <gpxtpx:TrackPointExtension>
            <gpxtpx:atemp>285.65</gpxtpx:atemp>
          </gpxtpx:TrackPointExtension>
        </extensions>
      </trkpt>
      <trkpt lat="30.527015" lon="35.151110">
        <ele>64.1</ele>
        <sat>10</sat>
        <extensions>
          <gpxtpx:TrackPointExtension>
            <gpxtpx:atemp>285.65</gpxtpx:atemp>
          </gpxtpx:TrackPointExtension>
        </extensions>
      </trkpt>
      <trkpt lat="30.526024" lon="35.149687">
        <ele>67.1</ele>
      </trkpt>
      <trkpt lat="30.525345" lon="35.148332">
        <ele>69.4</ele>
      </trkpt>
      <trkpt lat="30.524933" lon="35.147920">
        <ele>71.3</ele>
        <sat>10</sat>
        <extensions>
          <gpxtpx:TrackPointExtension>
            <gpxtpx:atemp>285.65</gpxtpx:atemp>
          </gpxtpx:TrackPointExtension>
        </extensions>
      </trkpt>
      <trkpt lat="30.523661" lon="35.147173">
        <ele>73.6</ele>
      </trkpt>
      <trkpt lat="30.521002" lon="35.146555">
        <ele>81.4</ele>
        <sat>9</sat>
        <extensions>
          <gpxtpx:TrackPointExtension>
            <gpxtpx:atemp>285.65</gpxtpx:atemp>
          </gpxtpx:TrackPointExtension>
        </extensions>
      </trkpt>
      <trkpt lat="30.519397" lon="35.145562">
        <ele>77.2</ele>
        <sat>10</sat>
        <extensions>
          <gpxtpx:TrackPointExtension>
            <gpxtpx:atemp>285.65</gpxtpx:atemp>
          </gpxtpx:TrackPointExtension>
        </extensions>
      </trkpt>
      <trkpt lat="30.518683" lon="35.145184">
        <ele>75.7</ele>
      </trkpt>
      <trkpt lat="30.518287" lon="35.145103">
        <ele>76.3</ele>
      </trkpt>
      <trkpt lat="30.517155" lon="35.144254">
        <ele>73.2</ele>
      </trkpt>
      <trkpt lat="30.516187" lon="35.143803">
        <ele>68.6</ele>
        <sat>9</sat>
        <extensions>
          <gpxtpx:TrackPointExtension>
            <gpxtpx:atemp>285.65</gpxtpx:atemp>
          </gpxtpx:TrackPointExtension>
        </extensions>
      </trkpt>
      <trkpt lat="30.514949" lon="35.143439">
        <ele>71.1</ele>
      </trkpt>
      <trkpt lat="30.514694" lon="35.143276">
        <ele>70.8</ele>
      </trkpt>
      <trkpt lat="30.513860" lon="35.143391">
        <ele>72.1</ele>
      </trkpt>
      <trkpt lat="30.513400" lon="35.143372">
        <ele>73.0</ele>
        <sat>9</sat>
        <extensions>
          <gpxtpx:TrackPointExtension>
            <gpxtpx:atemp>285.15</gpxtpx:atemp>
          </gpxtpx:TrackPointExtension>
        </extensions>
      </trkpt>
      <trkpt lat="30.512016" lon="35.142297">
        <ele>67.2</ele>
        <sat>9</sat>
        <extensions>
          <gpxtpx:TrackPointExtension>
            <gpxtpx:atemp>285.15</gpxtpx:atemp>
          </gpxtpx:TrackPointExtension>
        </extensions>
      </trkpt>
      <trkpt lat="30.510069" lon="35.142267">
        <ele>58.2</ele>
      </trkpt>
      <trkpt lat="30.508981" lon="35.142513">
        <ele>55.3</ele>
      </trkpt>
      <trkpt lat="30.508274" lon="35.143183">
        <ele>61.1</ele>
      </trkpt>
      <trkpt lat="30.508699" lon="35.143868">
        <ele>57.3</ele>
      </trkpt>
      <trkpt lat="30.508501" lon="35.144652">
        <ele>55.2</ele>
      </trkpt>
      <trkpt lat="30.507922" lon="35.145371">
        <ele>56.8</ele>
      </trkpt>
      <trkpt lat="30.506438" lon="35.146875">
        <ele>59.6</ele>
      </trkpt>
      <trkpt lat="30.506141" lon="35.147594">
        <ele>59.0</ele>
      </trkpt>
      <trkpt lat="30.505491" lon="35.148378">
        <ele>53.7</ele>
      </trkpt>
      <trkpt lat="30.505193" lon="35.148924">
        <ele>57.5</ele>
        <sat>9</sat>
        <extensions>
          <gpxtpx:TrackPointExtension>
            <gpxtpx:atemp>284.65</gpxtpx:atemp>
          </gpxtpx:TrackPointExtension>
        </extensions>
      </trkpt>
      <trkpt lat="30.505294" lon="35.149668">
        <ele>53.2</ele>
      </trkpt>
      <trkpt lat="30.505323" lon="35.150811">
        <ele>47.9</ele>
      </trkpt>
      <trkpt lat="30.505164" lon="35.151474">
        <ele>47.2</ele>
        <sat>9</sat>
        <extensions>
          <gpxtpx:TrackPointExtension>
            <gpxtpx:atemp>284.65</gpxtpx:atemp>
          </gpxtpx:TrackPointExtension>
        </extensions>
      </trkpt>
      <trkpt lat="30.504843" lon="35.152624">
        <ele>49.9</ele>
      </trkpt>
      <trkpt lat="30.504305" lon="35.153359">
        <ele>51.2</ele>
      </trkpt>
      <trkpt lat="30.504094" lon="35.153833">
        <ele>53.4</ele>
      </trkpt>
      <trkpt lat="30.503717" lon="35.153928">
        <ele>52.1</ele>
        <sat>9</sat>
        <extensions>
          <gpxtpx:TrackPointExtension>
            <gpxtpx:atemp>285.15</gpxtpx:atemp>
          </gpxtpx:TrackPointExtension>
        </extensions>
      </trkpt>
      <trkpt lat="30.503288" lon="35.154340">
        <ele>50.8</ele>
      </trkpt>
      <trkpt lat="30.502100" lon="35.154994">
        <ele>42.6</ele>
      </trkpt>
      <trkpt lat="30.501517" lon="35.155485">
        <ele>39.8</ele>
        <sat>10</sat>
        <extensions>
          <gpxtpx:TrackPointExtension>
            <gpxtpx:atemp>285.15</gpxtpx:atemp>
          </gpxtpx:TrackPointExtension>
        </extensions>
      </trkpt>
      <trkpt lat="30.500998" lon="35.156252">
        <ele>38.0</ele>
      </trkpt>
      <trkpt lat="30.500673" lon="35.156824">
        <ele>38.2</ele>
      </trkpt>
      <trkpt lat="30.500513" lon="35.157441">
        <ele>37.8</ele>
        <sat>9</sat>
        <extensions>
          <gpxtpx:TrackPointExtension>
            <gpxtpx:atemp>285.15</gpxtpx:atemp>
          </gpxtpx:TrackPointExtension>
        </extensions>
      </trkpt>
      <trkpt lat="30.500476" lon="35.158620">
        <ele>34.4</ele>
      </trkpt>
      <trkpt lat="30.500886" lon="35.160302">
        <ele>31.0</ele>
      </trkpt>
      <trkpt lat="30.500731" lon="35.161984">
        <ele>30.9</ele>
      </trkpt>
      <trkpt lat="30.500972" lon="35.162294">
        <ele>29.2</ele>
      </trkpt>
      <trkpt lat="30.500955" lon="35.162723">
        <ele>28.8</ele>
        <sat>9</sat>
        <extensions>
          <gpxtpx:TrackPointExtension>
            <gpxtpx:atemp>285.15</gpxtpx:atemp>
          </gpxtpx:TrackPointExtension>
        </extensions>
      </trkpt>
      <trkpt lat="30.500591" lon="35.163437">
        <ele>28.4</ele>
      </trkpt>
      <trkpt lat="30.499694" lon="35.164189">
        <ele>29.0</ele>
        <sat>9</sat>
        <extensions>
          <gpxtpx:TrackPointExtension>
            <gpxtpx:atemp>285.15</gpxtpx:atemp>
          </gpxtpx:TrackPointExtension>
        </extensions>
      </trkpt>
      <trkpt lat="30.499403" lon="35.165103">
        <ele>26.8</ele>
      </trkpt>
      <trkpt lat="30.498909" lon="35.166296">
        <ele>25.0</ele>
      </trkpt>
      <trkpt lat="30.498107" lon="35.167190">
        <ele>24.6</ele>
        <sat>9</sat>
        <extensions>
          <gpxtpx:TrackPointExtension>
            <gpxtpx:atemp>285.15</gpxtpx:atemp>
          </gpxtpx:TrackPointExtension>
        </extensions>
      </trkpt>
      <trkpt lat="30.497524" lon="35.167799">
        <ele>23.6</ele>
      </trkpt>
      <trkpt lat="30.496760" lon="35.168126">
        <ele>23.2</ele>
      </trkpt>
      <trkpt lat="30.496403" lon="35.167944">
        <ele>23.0</ele>
        <sat>9</sat>
        <extensions>
          <gpxtpx:TrackPointExtension>
            <gpxtpx:atemp>285.15</gpxtpx:atemp>
          </gpxtpx:TrackPointExtension>
        </extensions>
      </trkpt>
      <trkpt lat="30.495699" lon="35.167587">
        <ele>24.0</ele>
      </trkpt>
      <trkpt lat="30.495148" lon="35.167424">
        <ele>25.0</ele>
      </trkpt>
      <trkpt lat="30.494718" lon="35.166338">
        <ele>28.4</ele>
        <sat>9</sat>
        <extensions>
          <gpxtpx:TrackPointExtension>
            <gpxtpx:atemp>285.15</gpxtpx:atemp>
          </gpxtpx:TrackPointExtension>
        </extensions>
      </trkpt>
      <trkpt lat="30.493719" lon="35.165008">
        <ele>30.7</ele>
      </trkpt>
      <trkpt lat="30.492785" lon="35.164062">
        <ele>33.5</ele>
      </trkpt>
      <trkpt lat="30.492460" lon="35.163229">
        <ele>34.4</ele>
      </trkpt>
      <trkpt lat="30.491780" lon="35.162545">
        <ele>35.8</ele>
        <sat>9</sat>
        <extensions>
          <gpxtpx:TrackPointExtension>
            <gpxtpx:atemp>285.15</gpxtpx:atemp>
          </gpxtpx:TrackPointExtension>
        </extensions>
      </trkpt>
      <trkpt lat="30.490418" lon="35.162357">
        <ele>39.0</ele>
        <sat>9</sat>
        <extensions>
          <gpxtpx:TrackPointExtension>
            <gpxtpx:atemp>285.15</gpxtpx:atemp>
          </gpxtpx:TrackPointExtension>
        </extensions>
      </trkpt>
      <trkpt lat="30.489900" lon="35.162757">
        <ele>38.6</ele>
      </trkpt>
      <trkpt lat="30.489561" lon="35.163329">
        <ele>38.4</ele>
      </trkpt>
      <trkpt lat="30.488915" lon="35.163716">
        <ele>36.6</ele>
        <sat>9</sat>
        <extensions>
          <gpxtpx:TrackPointExtension>
            <gpxtpx:atemp>285.15</gpxtpx:atemp>
          </gpxtpx:TrackPointExtension>
        </extensions>
      </trkpt>
      <trkpt lat="30.488048" lon="35.163476">
        <ele>36.5</ele>
      </trkpt>
      <trkpt lat="30.486916" lon="35.162468">
        <ele>38.0</ele>
        <sat>9</sat>
        <extensions>
          <gpxtpx:TrackPointExtension>
            <gpxtpx:atemp>285.15</gpxtpx:atemp>
          </gpxtpx:TrackPointExtension>
        </extensions>
      </trkpt>
      <trkpt lat="30.486393" lon="35.161877">
        <ele>39.9</ele>
      </trkpt>
      <trkpt lat="30.485883" lon="35.160163">
        <ele>41.3</ele>
      </trkpt>
      <trkpt lat="30.484679" lon="35.158340">
        <ele>44.7</ele>
        <sat>9</sat>
        <extensions>
          <gpxtpx:TrackPointExtension>
            <gpxtpx:atemp>285.15</gpxtpx:atemp>
          </gpxtpx:TrackPointExtension>
        </extensions>
      </trkpt>
      <trkpt lat="30.484496" lon="35.157551">
        <ele>45.0</ele>
      </trkpt>
      <trkpt lat="30.484750" lon="35.156310">
        <ele>47.0</ele>
      </trkpt>
      <trkpt lat="30.484829" lon="35.155285">
        <ele>47.6</ele>
        <sat>9</sat>
        <extensions>
          <gpxtpx:TrackPointExtension>
            <gpxtpx:atemp>285.15</gpxtpx:atemp>
          </gpxtpx:TrackPointExtension>
        </extensions>
      </trkpt>
      <trkpt lat="30.484339" lon="35.154204">
        <ele>53.2</ele>
      </trkpt>
      <trkpt lat="30.483293" lon="35.153649">
        <ele>58.6</ele>
      </trkpt>
      <trkpt lat="30.482313" lon="35.153725">
        <ele>54.7</ele>
        <sat>9</sat>
        <extensions>
          <gpxtpx:TrackPointExtension>
            <gpxtpx:atemp>285.15</gpxtpx:atemp>
          </gpxtpx:TrackPointExtension>
        </extensions>
      </trkpt>
      <trkpt lat="30.481652" lon="35.153259">
        <ele>52.0</ele>
      </trkpt>
      <trkpt lat="30.481128" lon="35.152149">
        <ele>53.3</ele>
      </trkpt>
      <trkpt lat="30.480427" lon="35.151450">
        <ele>55.3</ele>
        <sat>9</sat>
        <extensions>
          <gpxtpx:TrackPointExtension>
            <gpxtpx:atemp>285.15</gpxtpx:atemp>
          </gpxtpx:TrackPointExtension>
        </extensions>
      </trkpt>
      <trkpt lat="30.478150" lon="35.148347">
        <ele>70.1</ele>
        <sat>9</sat>
        <extensions>
          <gpxtpx:TrackPointExtension>
            <gpxtpx:atemp>284.65</gpxtpx:atemp>
          </gpxtpx:TrackPointExtension>
        </extensions>
      </trkpt>
      <trkpt lat="30.477138" lon="35.146274">
        <ele>80.5</ele>
      </trkpt>
      <trkpt lat="30.476572" lon="35.145621">
        <ele>92.5</ele>
      </trkpt>
      <trkpt lat="30.476177" lon="35.144093">
        <ele>105.2</ele>
        <sat>8</sat>
        <extensions>
          <gpxtpx:TrackPointExtension>
            <gpxtpx:atemp>285.65</gpxtpx:atemp>
          </gpxtpx:TrackPointExtension>
        </extensions>
      </trkpt>
      <trkpt lat="30.474967" lon="35.142826">
        <ele>108.2</ele>
        <sat>9</sat>
        <extensions>
          <gpxtpx:TrackPointExtension>
            <gpxtpx:atemp>285.65</gpxtpx:atemp>
          </gpxtpx:TrackPointExtension>
        </extensions>
      </trkpt>
      <trkpt lat="30.473516" lon="35.142260">
        <ele>108.4</ele>
      </trkpt>
      <trkpt lat="30.471258" lon="35.140868">
        <ele>111.4</ele>
        <sat>9</sat>
        <extensions>
          <gpxtpx:TrackPointExtension>
            <gpxtpx:atemp>285.65</gpxtpx:atemp>
          </gpxtpx:TrackPointExtension>
        </extensions>
      </trkpt>
      <trkpt lat="30.469380" lon="35.139398">
        <ele>119.3</ele>
        <sat>9</sat>
        <extensions>
          <gpxtpx:TrackPointExtension>
            <gpxtpx:atemp>285.65</gpxtpx:atemp>
          </gpxtpx:TrackPointExtension>
        </extensions>
      </trkpt>
      <trkpt lat="30.468904" lon="35.138933">
        <ele>122.7</ele>
      </trkpt>
      <trkpt lat="30.468609" lon="35.137775">
        <ele>122.8</ele>
        <sat>9</sat>
        <extensions>
          <gpxtpx:TrackPointExtension>
            <gpxtpx:atemp>285.65</gpxtpx:atemp>
          </gpxtpx:TrackPointExtension>
        </extensions>
      </trkpt>
      <trkpt lat="30.468767" lon="35.135115">
        <ele>124.0</ele>
        <sat>9</sat>
        <extensions>
          <gpxtpx:TrackPointExtension>
            <gpxtpx:atemp>285.65</gpxtpx:atemp>
          </gpxtpx:TrackPointExtension>
        </extensions>
      </trkpt>
      <trkpt lat="30.468552" lon="35.134103">
        <ele>125.7</ele>
        <sat>9</sat>
        <extensions>
          <gpxtpx:TrackPointExtension>
            <gpxtpx:atemp>285.65</gpxtpx:atemp>
          </gpxtpx:TrackPointExtension>
        </extensions>
      </trkpt>
      <trkpt lat="30.468720" lon="35.131522">
        <ele>132.0</ele>
        <sat>9</sat>
        <extensions>
          <gpxtpx:TrackPointExtension>
            <gpxtpx:atemp>285.65</gpxtpx:atemp>
          </gpxtpx:TrackPointExtension>
        </extensions>
      </trkpt>
      <trkpt lat="30.468560" lon="35.130282">
        <ele>135.4</ele>
      </trkpt>
      <trkpt lat="30.467460" lon="35.128646">
        <ele>133.8</ele>
        <sat>9</sat>
        <extensions>
          <gpxtpx:TrackPointExtension>
            <gpxtpx:atemp>285.65</gpxtpx:atemp>
          </gpxtpx:TrackPointExtension>
        </extensions>
      </trkpt>
      <trkpt lat="30.467087" lon="35.127932">
        <ele>131.1</ele>
      </trkpt>
      <trkpt lat="30.465714" lon="35.125713">
        <ele>127.9</ele>
      </trkpt>
      <trkpt lat="30.464503" lon="35.123857">
        <ele>124.1</ele>
        <sat>8</sat>
        <extensions>
          <gpxtpx:TrackPointExtension>
            <gpxtpx:atemp>285.65</gpxtpx:atemp>
          </gpxtpx:TrackPointExtension>
        </extensions>
      </trkpt>
      <trkpt lat="30.463210" lon="35.123201">
        <ele>124.9</ele>
      </trkpt>
      <trkpt lat="30.462518" lon="35.122579">
        <ele>123.5</ele>
        <sat>9</sat>
        <extensions>
          <gpxtpx:TrackPointExtension>
            <gpxtpx:atemp>285.65</gpxtpx:atemp>
          </gpxtpx:TrackPointExtension>
        </extensions>
      </trkpt>
      <trkpt lat="30.460295" lon="35.121865">
        <ele>121.7</ele>
      </trkpt>
      <trkpt lat="30.459170" lon="35.120972">
        <ele>119.5</ele>
        <sat>9</sat>
        <extensions>
          <gpxtpx:TrackPointExtension>
            <gpxtpx:atemp>285.65</gpxtpx:atemp>
          </gpxtpx:TrackPointExtension>
        </extensions>
      </trkpt>
      <trkpt lat="30.457144" lon="35.120508">
        <ele>116.1</ele>
        <sat>10</sat>
        <extensions>
          <gpxtpx:TrackPointExtension>
            <gpxtpx:atemp>285.65</gpxtpx:atemp>
          </gpxtpx:TrackPointExtension>
        </extensions>
      </trkpt>
      <trkpt lat="30.456723" lon="35.120318">
        <ele>117.1</ele>
      </trkpt>
      <trkpt lat="30.455535" lon="35.119063">
        <ele>112.6</ele>
        <sat>9</sat>
        <extensions>
          <gpxtpx:TrackPointExtension>
            <gpxtpx:atemp>285.65</gpxtpx:atemp>
          </gpxtpx:TrackPointExtension>
        </extensions>
      </trkpt>
      <trkpt lat="30.455290" lon="35.118198">
        <ele>108.5</ele>
      </trkpt>
      <trkpt lat="30.455168" lon="35.118037">
        <ele>108.1</ele>
      </trkpt>
      <trkpt lat="30.454930" lon="35.118238">
        <ele>108.0</ele>
      </trkpt>
      <trkpt lat="30.454640" lon="35.118192">
        <ele>108.0</ele>
      </trkpt>
      <trkpt lat="30.454362" lon="35.118366">
        <ele>108.6</ele>
      </trkpt>
      <trkpt lat="30.453424" lon="35.118380">
        <ele>106.0</ele>
        <sat>11</sat>
        <extensions>
          <gpxtpx:TrackPointExtension>
            <gpxtpx:atemp>287.65</gpxtpx:atemp>
          </gpxtpx:TrackPointExtension>
        </extensions>
      </trkpt>
      <trkpt lat="30.452461" lon="35.118903">
        <ele>103.8</ele>
      </trkpt>
      <trkpt lat="30.451353" lon="35.119480">
        <ele>95.4</ele>
      </trkpt>
      <trkpt lat="30.450849" lon="35.120056">
        <ele>94.9</ele>
      </trkpt>
      <trkpt lat="30.450281" lon="35.120257">
        <ele>92.7</ele>
      </trkpt>
      <trkpt lat="30.449890" lon="35.120185">
        <ele>91.1</ele>
        <sat>11</sat>
        <extensions>
          <gpxtpx:TrackPointExtension>
            <gpxtpx:atemp>287.15</gpxtpx:atemp>
          </gpxtpx:TrackPointExtension>
        </extensions>
      </trkpt>
      <trkpt lat="30.449429" lon="35.119930">
        <ele>90.8</ele>
      </trkpt>
      <trkpt lat="30.448747" lon="35.120298">
        <ele>89.4</ele>
        <sat>11</sat>
        <extensions>
          <gpxtpx:TrackPointExtension>
            <gpxtpx:atemp>287.15</gpxtpx:atemp>
          </gpxtpx:TrackPointExtension>
        </extensions>
      </trkpt>
      <trkpt lat="30.448044" lon="35.121377">
        <ele>89.8</ele>
      </trkpt>
      <trkpt lat="30.447517" lon="35.122046">
        <ele>87.5</ele>
      </trkpt>
      <trkpt lat="30.446705" lon="35.122060">
        <ele>90.7</ele>
      </trkpt>
      <trkpt lat="30.446171" lon="35.121867">
        <ele>91.7</ele>
      </trkpt>
      <trkpt lat="30.445389" lon="35.121674">
        <ele>92.6</ele>
      </trkpt>
      <trkpt lat="30.445003" lon="35.121500">
        <ele>94.6</ele>
        <sat>10</sat>
        <extensions>
          <gpxtpx:TrackPointExtension>
            <gpxtpx:atemp>286.65</gpxtpx:atemp>
          </gpxtpx:TrackPointExtension>
        </extensions>
      </trkpt>
      <trkpt lat="30.444467" lon="35.121454">
        <ele>98.0</ele>
      </trkpt>
      <trkpt lat="30.443875" lon="35.121601">
        <ele>98.2</ele>
      </trkpt>
      <trkpt lat="30.443203" lon="35.121428">
        <ele>98.3</ele>
      </trkpt>
      <trkpt lat="30.441935" lon="35.121337">
        <ele>101.8</ele>
        <sat>8</sat>
        <extensions>
          <gpxtpx:TrackPointExtension>
            <gpxtpx:atemp>286.65</gpxtpx:atemp>
          </gpxtpx:TrackPointExtension>
        </extensions>
      </trkpt>
      <trkpt lat="30.441463" lon="35.121109">
        <ele>101.1</ele>
      </trkpt>
      <trkpt lat="30.441045" lon="35.120687">
        <ele>100.0</ele>
      </trkpt>
      <trkpt lat="30.440784" lon="35.120058">
        <ele>100.4</ele>
      </trkpt>
      <trkpt lat="30.440673" lon="35.119369">
        <ele>101.0</ele>
      </trkpt>
      <trkpt lat="30.440802" lon="35.118857">
        <ele>101.8</ele>
        <sat>9</sat>
        <extensions>
          <gpxtpx:TrackPointExtension>
            <gpxtpx:atemp>288.15</gpxtpx:atemp>
          </gpxtpx:TrackPointExtension>
        </extensions>
      </trkpt>
      <trkpt lat="30.440858" lon="35.118533">
        <ele>102.2</ele>
      </trkpt>
      <trkpt lat="30.441455" lon="35.117709">
        <ele>103.9</ele>
      </trkpt>
      <trkpt lat="30.441837" lon="35.116959">
        <ele>104.0</ele>
      </trkpt>
      <trkpt lat="30.442045" lon="35.116451">
        <ele>104.6</ele>
      </trkpt>
      <trkpt lat="30.442149" lon="35.115780">
        <ele>104.0</ele>
        <sat>9</sat>
        <extensions>
          <gpxtpx:TrackPointExtension>
            <gpxtpx:atemp>288.15</gpxtpx:atemp>
          </gpxtpx:TrackPointExtension>
        </extensions>
      </trkpt>
      <trkpt lat="30.441818" lon="35.115219">
        <ele>105.9</ele>
      </trkpt>
      <trkpt lat="30.441244" lon="35.114591">
        <ele>109.1</ele>
      </trkpt>
      <trkpt lat="30.440919" lon="35.113935">
        <ele>110.1</ele>
      </trkpt>
      <trkpt lat="30.440570" lon="35.113347">
        <ele>110.4</ele>
      </trkpt>
      <trkpt lat="30.440170" lon="35.112638">
        <ele>111.9</ele>
      </trkpt>
      <trkpt lat="30.438806" lon="35.111328">
        <ele>116.8</ele>
      </trkpt>
      <trkpt lat="30.438232" lon="35.110840">
        <ele>119.3</ele>
      </trkpt>
      <trkpt lat="30.437779" lon="35.109676">
        <ele>116.8</ele>
      </trkpt>
      <trkpt lat="30.437615" lon="35.108693">
        <ele>117.3</ele>
      </trkpt>
      <trkpt lat="30.436746" lon="35.109149">
        <ele>122.2</ele>
      </trkpt>
      <trkpt lat="30.436473" lon="35.108734">
        <ele>123.5</ele>
      </trkpt>
      <trkpt lat="30.436002" lon="35.108628">
        <ele>127.2</ele>
        <sat>9</sat>
        <extensions>
          <gpxtpx:TrackPointExtension>
            <gpxtpx:atemp>287.65</gpxtpx:atemp>
          </gpxtpx:TrackPointExtension>
        </extensions>
      </trkpt>
      <trkpt lat="30.435533" lon="35.107966">
        <ele>136.1</ele>
      </trkpt>
      <trkpt lat="30.434613" lon="35.107450">
        <ele>145.5</ele>
        <sat>9</sat>
        <extensions>
          <gpxtpx:TrackPointExtension>
            <gpxtpx:atemp>287.65</gpxtpx:atemp>
          </gpxtpx:TrackPointExtension>
        </extensions>
      </trkpt>
      <trkpt lat="30.434066" lon="35.107586">
        <ele>145.2</ele>
      </trkpt>
      <trkpt lat="30.432912" lon="35.107326">
        <ele>146.0</ele>
      </trkpt>
      <trkpt lat="30.432065" lon="35.106765">
        <ele>142.2</ele>
      </trkpt>
      <trkpt lat="30.431748" lon="35.107043">
        <ele>138.9</ele>
        <sat>9</sat>
        <extensions>
          <gpxtpx:TrackPointExtension>
            <gpxtpx:atemp>288.15</gpxtpx:atemp>
          </gpxtpx:TrackPointExtension>
        </extensions>
      </trkpt>
      <trkpt lat="30.431277" lon="35.107502">
        <ele>135.2</ele>
      </trkpt>
      <trkpt lat="30.430737" lon="35.107034">
        <ele>131.5</ele>
      </trkpt>
      <trkpt lat="30.430173" lon="35.107440">
        <ele>126.5</ele>
        <sat>9</sat>
        <extensions>
          <gpxtpx:TrackPointExtension>
            <gpxtpx:atemp>289.15</gpxtpx:atemp>
          </gpxtpx:TrackPointExtension>
        </extensions>
      </trkpt>
      <trkpt lat="30.429005" lon="35.108180">
        <ele>123.7</ele>
      </trkpt>
      <trkpt lat="30.428483" lon="35.108247">
        <ele>120.5</ele>
      </trkpt>
      <trkpt lat="30.427656" lon="35.108680">
        <ele>119.9</ele>
        <sat>8</sat>
        <extensions>
          <gpxtpx:TrackPointExtension>
            <gpxtpx:atemp>289.15</gpxtpx:atemp>
          </gpxtpx:TrackPointExtension>
        </extensions>
      </trkpt>
      <trkpt lat="30.427312" lon="35.109052">
        <ele>122.0</ele>
      </trkpt>
      <trkpt lat="30.424402" lon="35.109530">
        <ele>110.7</ele>
      </trkpt>
      <trkpt lat="30.423214" lon="35.110280">
        <ele>107.0</ele>
      </trkpt>
      <trkpt lat="30.423029" lon="35.110842">
        <ele>106.6</ele>
      </trkpt>
      <trkpt lat="30.422171" lon="35.111519">
        <ele>105.3</ele>
      </trkpt>
      <trkpt lat="30.421700" lon="35.111778">
        <ele>105.4</ele>
        <sat>9</sat>
        <extensions>
          <gpxtpx:TrackPointExtension>
            <gpxtpx:atemp>289.15</gpxtpx:atemp>
          </gpxtpx:TrackPointExtension>
        </extensions>
      </trkpt>
      <trkpt lat="30.421197" lon="35.112975">
        <ele>102.6</ele>
        <sat>8</sat>
        <extensions>
          <gpxtpx:TrackPointExtension>
            <gpxtpx:atemp>289.15</gpxtpx:atemp>
          </gpxtpx:TrackPointExtension>
        </extensions>
      </trkpt>
      <trkpt lat="30.420816" lon="35.113534">
        <ele>101.0</ele>
      </trkpt>
      <trkpt lat="30.420213" lon="35.113508">
        <ele>100.9</ele>
      </trkpt>
      <trkpt lat="30.419709" lon="35.114030">
        <ele>99.4</ele>
      </trkpt>
      <trkpt lat="30.418200" lon="35.114602">
        <ele>97.9</ele>
        <sat>8</sat>
        <extensions>
          <gpxtpx:TrackPointExtension>
            <gpxtpx:atemp>288.65</gpxtpx:atemp>
          </gpxtpx:TrackPointExtension>
        </extensions>
      </trkpt>
      <trkpt lat="30.417605" lon="35.115132">
        <ele>98.1</ele>
        <sat>8</sat>
        <extensions>
          <gpxtpx:TrackPointExtension>
            <gpxtpx:atemp>288.65</gpxtpx:atemp>
          </gpxtpx:TrackPointExtension>
        </extensions>
      </trkpt>
      <trkpt lat="30.416188" lon="35.117490">
        <ele>95.6</ele>
        <sat>10</sat>
        <extensions>
          <gpxtpx:TrackPointExtension>
            <gpxtpx:atemp>288.65</gpxtpx:atemp>
          </gpxtpx:TrackPointExtension>
        </extensions>
      </trkpt>
      <trkpt lat="30.415416" lon="35.118303">
        <ele>95.2</ele>
      </trkpt>
      <trkpt lat="30.414123" lon="35.119147">
        <ele>94.2</ele>
      </trkpt>
      <trkpt lat="30.412842" lon="35.119837">
        <ele>92.8</ele>
      </trkpt>
      <trkpt lat="30.411867" lon="35.120200">
        <ele>89.0</ele>
        <sat>10</sat>
        <extensions>
          <gpxtpx:TrackPointExtension>
            <gpxtpx:atemp>288.65</gpxtpx:atemp>
          </gpxtpx:TrackPointExtension>
        </extensions>
      </trkpt>
      <trkpt lat="30.411295" lon="35.120340">
        <ele>87.3</ele>
      </trkpt>
      <trkpt lat="30.410251" lon="35.120127">
        <ele>86.0</ele>
      </trkpt>
      <trkpt lat="30.409788" lon="35.119904">
        <ele>85.0</ele>
        <sat>10</sat>
        <extensions>
          <gpxtpx:TrackPointExtension>
            <gpxtpx:atemp>289.15</gpxtpx:atemp>
          </gpxtpx:TrackPointExtension>
        </extensions>
      </trkpt>
      <trkpt lat="30.407717" lon="35.120424">
        <ele>87.7</ele>
      </trkpt>
      <trkpt lat="30.406848" lon="35.121161">
        <ele>86.4</ele>
      </trkpt>
      <trkpt lat="30.406204" lon="35.121021">
        <ele>87.2</ele>
      </trkpt>
      <trkpt lat="30.405932" lon="35.120737">
        <ele>88.9</ele>
        <sat>10</sat>
        <extensions>
          <gpxtpx:TrackPointExtension>
            <gpxtpx:atemp>289.15</gpxtpx:atemp>
          </gpxtpx:TrackPointExtension>
        </extensions>
      </trkpt>
      <trkpt lat="30.405085" lon="35.120212">
        <ele>89.1</ele>
      </trkpt>
      <trkpt lat="30.402472" lon="35.119130">
        <ele>91.0</ele>
        <sat>10</sat>
        <extensions>
          <gpxtpx:TrackPointExtension>
            <gpxtpx:atemp>289.15</gpxtpx:atemp>
          </gpxtpx:TrackPointExtension>
        </extensions>
      </trkpt>
      <trkpt lat="30.400950" lon="35.119126">
        <ele>91.9</ele>
      </trkpt>
      <trkpt lat="30.400197" lon="35.118964">
        <ele>92.0</ele>
        <sat>10</sat>
        <extensions>
          <gpxtpx:TrackPointExtension>
            <gpxtpx:atemp>289.15</gpxtpx:atemp>
          </gpxtpx:TrackPointExtension>
        </extensions>
      </trkpt>
      <trkpt lat="30.399761" lon="35.118940">
        <ele>94.7</ele>
      </trkpt>
      <trkpt lat="30.398126" lon="35.117931">
        <ele>101.5</ele>
      </trkpt>
      <trkpt lat="30.397537" lon="35.117447">
        <ele>102.6</ele>
        <sat>10</sat>
        <extensions>
          <gpxtpx:TrackPointExtension>
            <gpxtpx:atemp>288.65</gpxtpx:atemp>
          </gpxtpx:TrackPointExtension>
        </extensions>
      </trkpt>
      <trkpt lat="30.397365" lon="35.117129">
        <ele>100.3</ele>
      </trkpt>
      <trkpt lat="30.396246" lon="35.116408">
        <ele>99.0</ele>
      </trkpt>
      <trkpt lat="30.396002" lon="35.116034">
        <ele>98.1</ele>
      </trkpt>
      <trkpt lat="30.394007" lon="35.115802">
        <ele>102.0</ele>
      </trkpt>
      <trkpt lat="30.392502" lon="35.115494">
        <ele>100.5</ele>
        <sat>10</sat>
        <extensions>
          <gpxtpx:TrackPointExtension>
            <gpxtpx:atemp>289.15</gpxtpx:atemp>
          </gpxtpx:TrackPointExtension>
        </extensions>
      </trkpt>
      <trkpt lat="30.389960" lon="35.115247">
        <ele>104.0</ele>
        <sat>10</sat>
        <extensions>
          <gpxtpx:TrackPointExtension>
            <gpxtpx:atemp>289.15</gpxtpx:atemp>
          </gpxtpx:TrackPointExtension>
        </extensions>
      </trkpt>
      <trkpt lat="30.389368" lon="35.115245">
        <ele>105.0</ele>
      </trkpt>
      <trkpt lat="30.385755" lon="35.114487">
        <ele>108.8</ele>
        <sat>10</sat>
        <extensions>
          <gpxtpx:TrackPointExtension>
            <gpxtpx:atemp>289.15</gpxtpx:atemp>
          </gpxtpx:TrackPointExtension>
        </extensions>
      </trkpt>
      <trkpt lat="30.383730" lon="35.114667">
        <ele>110.9</ele>
        <sat>10</sat>
        <extensions>
          <gpxtpx:TrackPointExtension>
            <gpxtpx:atemp>289.15</gpxtpx:atemp>
          </gpxtpx:TrackPointExtension>
        </extensions>
      </trkpt>
      <trkpt lat="30.380748" lon="35.116627">
        <ele>107.0</ele>
        <sat>10</sat>
        <extensions>
          <gpxtpx:TrackPointExtension>
            <gpxtpx:atemp>288.65</gpxtpx:atemp>
          </gpxtpx:TrackPointExtension>
        </extensions>
      </trkpt>
      <trkpt lat="30.378883" lon="35.118030">
        <ele>103.0</ele>
        <sat>10</sat>
        <extensions>
          <gpxtpx:TrackPointExtension>
            <gpxtpx:atemp>288.65</gpxtpx:atemp>
          </gpxtpx:TrackPointExtension>
        </extensions>
      </trkpt>
      <trkpt lat="30.375067" lon="35.120971">
        <ele>102.0</ele>
        <sat>9</sat>
        <extensions>
          <gpxtpx:TrackPointExtension>
            <gpxtpx:atemp>288.15</gpxtpx:atemp>
          </gpxtpx:TrackPointExtension>
        </extensions>
      </trkpt>
      <trkpt lat="30.374043" lon="35.121555">
        <ele>102.9</ele>
        <sat>10</sat>
        <extensions>
          <gpxtpx:TrackPointExtension>
            <gpxtpx:atemp>288.15</gpxtpx:atemp>
          </gpxtpx:TrackPointExtension>
        </extensions>
      </trkpt>
      <trkpt lat="30.372772" lon="35.122674">
        <ele>103.4</ele>
      </trkpt>
      <trkpt lat="30.372519" lon="35.123064">
        <ele>103.2</ele>
      </trkpt>
      <trkpt lat="30.371672" lon="35.123467">
        <ele>104.0</ele>
        <sat>10</sat>
        <extensions>
          <gpxtpx:TrackPointExtension>
            <gpxtpx:atemp>288.15</gpxtpx:atemp>
          </gpxtpx:TrackPointExtension>
        </extensions>
      </trkpt>
      <trkpt lat="30.369692" lon="35.125458">
        <ele>103.9</ele>
        <sat>10</sat>
        <extensions>
          <gpxtpx:TrackPointExtension>
            <gpxtpx:atemp>288.15</gpxtpx:atemp>
          </gpxtpx:TrackPointExtension>
        </extensions>
      </trkpt>
      <trkpt lat="30.369250" lon="35.125766">
        <ele>103.9</ele>
      </trkpt>
      <trkpt lat="30.368883" lon="35.125685">
        <ele>102.5</ele>
      </trkpt>
      <trkpt lat="30.367085" lon="35.127320">
        <ele>104.0</ele>
        <sat>9</sat>
        <extensions>
          <gpxtpx:TrackPointExtension>
            <gpxtpx:atemp>288.15</gpxtpx:atemp>
          </gpxtpx:TrackPointExtension>
        </extensions>
      </trkpt>
      <trkpt lat="30.366545" lon="35.127801">
        <ele>103.0</ele>
      </trkpt>
      <trkpt lat="30.365347" lon="35.128127">
        <ele>103.0</ele>
      </trkpt>
      <trkpt lat="30.363323" lon="35.129963">
        <ele>100.0</ele>
        <sat>10</sat>
        <extensions>
          <gpxtpx:TrackPointExtension>
            <gpxtpx:atemp>288.15</gpxtpx:atemp>
          </gpxtpx:TrackPointExtension>
        </extensions>
      </trkpt>
      <trkpt lat="30.362332" lon="35.130812">
        <ele>100.1</ele>
      </trkpt>
      <trkpt lat="30.360486" lon="35.132536">
        <ele>101.0</ele>
      </trkpt>
      <trkpt lat="30.360107" lon="35.134503">
        <ele>100.3</ele>
      </trkpt>
      <trkpt lat="30.356851" lon="35.134831">
        <ele>99.1</ele>
      </trkpt>
      <trkpt lat="30.355648" lon="35.135340">
        <ele>103.3</ele>
      </trkpt>
      <trkpt lat="30.354835" lon="35.135531">
        <ele>107.5</ele>
      </trkpt>
      <trkpt lat="30.353806" lon="35.136004">
        <ele>108.1</ele>
      </trkpt>
      <trkpt lat="30.353356" lon="35.136979">
        <ele>109.8</ele>
      </trkpt>
      <trkpt lat="30.351595" lon="35.139143">
        <ele>119.5</ele>
      </trkpt>
      <trkpt lat="30.351060" lon="35.139222">
        <ele>124.6</ele>
      </trkpt>
      <trkpt lat="30.350073" lon="35.140005">
        <ele>124.1</ele>
      </trkpt>
      <trkpt lat="30.349862" lon="35.140558">
        <ele>123.5</ele>
      </trkpt>
      <trkpt lat="30.349087" lon="35.141371">
        <ele>119.9</ele>
      </trkpt>
      <trkpt lat="30.348904" lon="35.143062">
        <ele>126.7</ele>
      </trkpt>
      <trkpt lat="30.349047" lon="35.145142">
        <ele>129.9</ele>
      </trkpt>
      <trkpt lat="30.349612" lon="35.147287">
        <ele>144.2</ele>
      </trkpt>
      <trkpt lat="30.350905" lon="35.150426">
        <ele>137.5</ele>
      </trkpt>
      <trkpt lat="30.351672" lon="35.152715">
        <ele>131.9</ele>
      </trkpt>
      <trkpt lat="30.353646" lon="35.153705">
        <ele>116.9</ele>
      </trkpt>
      <trkpt lat="30.354774" lon="35.154241">
        <ele>121.0</ele>
      </trkpt>
      <trkpt lat="30.355564" lon="35.154143">
        <ele>118.4</ele>
      </trkpt>
      <trkpt lat="30.356438" lon="35.154858">
        <ele>115.3</ele>
      </trkpt>
      <trkpt lat="30.356988" lon="35.155963">
        <ele>112.7</ele>
      </trkpt>
      <trkpt lat="30.356800" lon="35.156559">
        <ele>120.5</ele>
      </trkpt>
      <trkpt lat="30.359745" lon="35.159092">
        <ele>99.4</ele>
      </trkpt>
      <trkpt lat="30.360176" lon="35.160074">
        <ele>97.9</ele>
      </trkpt>
      <trkpt lat="30.360796" lon="35.159992">
        <ele>96.0</ele>
      </trkpt>
      <trkpt lat="30.361682" lon="35.160742">
        <ele>94.4</ele>
        <time>2015-08-10T06:10:58Z</time>
        <sat>10</sat>
        <extensions>
          <gpxtpx:TrackPointExtension>
            <gpxtpx:atemp>289.65</gpxtpx:atemp>
          </gpxtpx:TrackPointExtension>
        </extensions>
      </trkpt>
    </trkseg>
  </trk>
</gpx>
