<?xml version="1.0" encoding="UTF-8"?>
<gpx xmlns="Amud Anan http://amudanan.co.il/" version="1.0" xmlns:xsi="http://www.w3.org/2001/XMLSchema-instance" xsi:schemaLocation="http://www.topografix.com/GPX/1/0 http://www.topografix.com/GPX/1/0/gpx.xsd"><trk><name>Amud Anan</name><trkseg><trkpt lon="35.250577417927" lat="33.06334149426"/><trkpt lon="35.250362841205" lat="33.064168707785"/><trkpt lon="35.249332872944" lat="33.064168707785"/><trkpt lon="35.247659174518" lat="33.063665187435"/><trkpt lon="35.246543375568" lat="33.063880982223"/><trkpt lon="35.245813814716" lat="33.064995913535"/><trkpt lon="35.244912592487" lat="33.066650301711"/><trkpt lon="35.242852655964" lat="33.06794501859"/><trkpt lon="35.243968454914" lat="33.068628333707"/><trkpt lon="35.243796793537" lat="33.06923971642"/><trkpt lon="35.24362513216" lat="33.069707241511"/><trkpt lon="35.242852655964" lat="33.070750173146"/><trkpt lon="35.242166010456" lat="33.07164924222"/><trkpt lon="35.241050211506" lat="33.072404453143"/><trkpt lon="35.240621058063" lat="33.07337542909"/><trkpt lon="35.239934412555" lat="33.074202548297"/><trkpt lon="35.239247767048" lat="33.074274471339"/><trkpt lon="35.238217798786" lat="33.074238509825"/><trkpt lon="35.236415354328" lat="33.074166586754"/><trkpt lon="35.234999147968" lat="33.075497154053"/><trkpt lon="35.234827486591" lat="33.07650405647"/><trkpt lon="35.233454195576" lat="33.077043463738"/><trkpt lon="35.230578867512" lat="33.078338027688"/><trkpt lon="35.22954889925" lat="33.077618827846"/><trkpt lon="35.229119745807" lat="33.077690748094"/><trkpt lon="35.228261438923" lat="33.076899622123"/><trkpt lon="35.227360216694" lat="33.075533115052"/><trkpt lon="35.226845232563" lat="33.0751735044"/><trkpt lon="35.22590109499" lat="33.075425232011"/><trkpt lon="35.224742380695" lat="33.075748880738"/><trkpt lon="35.224012819843" lat="33.076288292636"/><trkpt lon="35.22306868227" lat="33.076540017057"/><trkpt lon="35.222210375385" lat="33.075820802515"/><trkpt lon="35.222167460041" lat="33.074921776069"/><trkpt lon="35.221480814533" lat="33.073986778819"/><trkpt lon="35.221266237812" lat="33.073339467209"/><trkpt lon="35.221738306598" lat="33.07280003723"/><trkpt lon="35.221051661091" lat="33.072440415406"/><trkpt lon="35.222682444172" lat="33.071505391786"/><trkpt lon="35.22306868227" lat="33.071073839071"/><trkpt lon="35.222854105549" lat="33.069707241511"/><trkpt lon="35.222854105549" lat="33.069023934771"/><trkpt lon="35.221995798664" lat="33.068808152593"/><trkpt lon="35.220837084369" lat="33.067333626882"/></trkseg></trk></gpx>
