<?xml version="1.0" encoding="UTF-8"?>
<gpx xmlns="Amud Anan http://amudanan.co.il/" version="1.0" xmlns:xsi="http://www.w3.org/2001/XMLSchema-instance" xsi:schemaLocation="http://www.topografix.com/GPX/1/0 http://www.topografix.com/GPX/1/0/gpx.xsd"><trk><name>Amud Anan</name><trkseg><trkpt lon="35.475915069513" lat="32.994117775592"/><trkpt lon="35.476000900201" lat="32.993289904291"/><trkpt lon="35.475829238824" lat="32.992426030306"/><trkpt lon="35.475443000726" lat="32.991706128859"/><trkpt lon="35.475614662103" lat="32.991058212535"/><trkpt lon="35.474155540399" lat="32.988934453462"/><trkpt lon="35.473468894891" lat="32.987890553152"/><trkpt lon="35.473400737589" lat="32.987365236531"/><trkpt lon="35.473164703196" lat="32.986141330403"/><trkpt lon="35.47279992277" lat="32.985475374352"/><trkpt lon="35.472413684672" lat="32.984953405286"/><trkpt lon="35.472048904246" lat="32.984593424822"/><trkpt lon="35.471877242869" lat="32.983891458695"/><trkpt lon="35.471898700541" lat="32.983315482319"/><trkpt lon="35.472156192606" lat="32.982919496381"/><trkpt lon="35.471662666147" lat="32.981623529983"/><trkpt lon="35.471469547098" lat="32.981173537201"/><trkpt lon="35.471448089426" lat="32.980615542966"/><trkpt lon="35.471254970377" lat="32.97980554506"/><trkpt lon="35.471297885721" lat="32.979355543013"/><trkpt lon="35.471406438822" lat="32.978815537528"/><trkpt lon="35.47138498115" lat="32.977861519769"/><trkpt lon="35.471470811838" lat="32.977339505688"/><trkpt lon="35.47168538856" lat="32.976313469019"/><trkpt lon="35.47179267692" lat="32.975827447488"/><trkpt lon="35.471814134592" lat="32.975431427967"/><trkpt lon="35.471728303904" lat="32.974981403628"/><trkpt lon="35.471878507609" lat="32.974333364552"/><trkpt lon="35.472007253641" lat="32.973973340787"/><trkpt lon="35.472135999674" lat="32.973469305052"/><trkpt lon="35.472436407084" lat="32.972983267869"/><trkpt lon="35.472715356821" lat="32.972551232571"/><trkpt lon="35.472650983805" lat="32.971993183851"/><trkpt lon="35.472929933542" lat="32.971597147136"/><trkpt lon="35.473552206034" lat="32.97109309784"/><trkpt lon="35.474195936197" lat="32.970697057089"/><trkpt lon="35.47462508964" lat="32.970247008626"/><trkpt lon="35.475118616099" lat="32.970102992634"/><trkpt lon="35.474153020853" lat="32.970517037979"/><trkpt lon="35.473638036722" lat="32.970949083227"/><trkpt lon="35.473015764231" lat="32.971399128113"/><trkpt lon="35.472479322428" lat="32.971903175663"/><trkpt lon="35.472479322428" lat="32.972623238601"/><trkpt lon="35.471985795969" lat="32.973343295669"/><trkpt lon="35.471814134592" lat="32.973883334617"/><trkpt lon="35.470591047281" lat="32.974297362241"/><trkpt lon="35.469775655741" lat="32.974927400553"/><trkpt lon="35.469003179545" lat="32.975449428893"/><trkpt lon="35.468230703348" lat="32.975593436168"/><trkpt lon="35.467973211283" lat="32.975413427038"/><trkpt lon="35.467372396464" lat="32.975539433467"/><trkpt lon="35.466685750956" lat="32.975683440595"/><trkpt lon="35.466192224497" lat="32.975773444931"/><trkpt lon="35.465763071055" lat="32.975683440595"/><trkpt lon="35.465398290629" lat="32.975683440595"/><trkpt lon="35.465097883219" lat="32.975917451677"/><trkpt lon="35.464797475809" lat="32.976313469019"/><trkpt lon="35.464153745646" lat="32.976637481886"/><trkpt lon="35.463746049875" lat="32.976853489804"/><trkpt lon="35.462909200663" lat="32.976781487224"/><trkpt lon="35.462007978434" lat="32.976673483243"/><trkpt lon="35.4609565525" lat="32.976547478431"/><trkpt lon="35.460033872599" lat="32.976385471981"/><trkpt lon="35.459626176829" lat="32.976277467516"/><trkpt lon="35.459347227091" lat="32.976205464465"/><trkpt lon="35.458287662045" lat="32.976388989365"/><trkpt lon="35.457879966275" lat="32.976785004592"/><trkpt lon="35.45742935516" lat="32.977325022494"/><trkpt lon="35.45691437103" lat="32.977829036223"/><trkpt lon="35.456356471555" lat="32.978099042394"/><trkpt lon="35.455927318112" lat="32.978315046737"/><trkpt lon="35.455433791653" lat="32.978261045701"/><trkpt lon="35.45489734985" lat="32.978585051422"/><trkpt lon="35.454253619687" lat="32.978747053837"/><trkpt lon="35.453524058835" lat="32.978999057003"/><trkpt lon="35.452880328671" lat="32.979035057397"/><trkpt lon="35.452343886868" lat="32.978999057003"/><trkpt lon="35.451678699033" lat="32.978549050845"/><trkpt lon="35.451271003262" lat="32.978315046737"/><trkpt lon="35.450927680508" lat="32.978117042776"/><trkpt lon="35.450198119656" lat="32.977865037093"/><trkpt lon="35.449747508542" lat="32.977667032124"/><trkpt lon="35.449168151395" lat="32.977559029226"/><trkpt lon="35.44871754028" lat="32.97754102873"/><trkpt lon="35.44841713287" lat="32.977505027727"/><trkpt lon="35.44730133392" lat="32.978387048067"/><trkpt lon="35.446571773068" lat="32.97925105945"/><trkpt lon="35.446121161954" lat="32.979755062185"/><trkpt lon="35.445584720151" lat="32.980115062378"/><trkpt lon="35.445048278348" lat="32.980205062196"/><trkpt lon="35.444426005856" lat="32.980133062349"/><trkpt lon="35.443889564053" lat="32.979917062453"/><trkpt lon="35.443524783627" lat="32.979647061841"/><trkpt lon="35.443224376218" lat="32.979413060643"/></trkseg></trk></gpx>
