<?xml version="1.0" encoding="UTF-8"?>
<gpx xmlns="Amud Anan http://amudanan.co.il/" version="1.0" xmlns:xsi="http://www.w3.org/2001/XMLSchema-instance" xsi:schemaLocation="http://www.topografix.com/GPX/1/0 http://www.topografix.com/GPX/1/0/gpx.xsd"><trk><name>Amud Anan</name><trkseg><trkpt lon="35.475907172756" lat="32.993847504108"/><trkpt lon="35.475928630428" lat="32.993217600809"/><trkpt lon="35.4759500881" lat="32.992569695582"/><trkpt lon="35.475563850002" lat="32.992137756122"/><trkpt lon="35.475392188625" lat="32.991903788031"/><trkpt lon="35.475499476985" lat="32.991273870859"/><trkpt lon="35.475413646297" lat="32.990967909467"/><trkpt lon="35.474619712429" lat="32.989744053293"/><trkpt lon="35.474319305019" lat="32.989258105694"/><trkpt lon="35.473911609249" lat="32.988664166105"/><trkpt lon="35.473739947872" lat="32.988394192244"/><trkpt lon="35.473439540462" lat="32.988034225811"/><trkpt lon="35.473396625118" lat="32.987368284041"/><trkpt lon="35.473375167446" lat="32.986936319124"/><trkpt lon="35.473267879085" lat="32.986540349428"/><trkpt lon="35.473139133052" lat="32.986198374169"/><trkpt lon="35.472838725643" lat="32.985694408216"/><trkpt lon="35.472688521938" lat="32.985370428584"/><trkpt lon="35.4724095722" lat="32.985064446728"/><trkpt lon="35.472237910823" lat="32.984740464784"/><trkpt lon="35.471937503414" lat="32.984344485237"/><trkpt lon="35.471873130397" lat="32.983894506324"/><trkpt lon="35.471851672725" lat="32.983516522264"/><trkpt lon="35.471937503414" lat="32.983174535292"/><trkpt lon="35.47200187643" lat="32.983012541"/><trkpt lon="35.472087707119" lat="32.982670552076"/><trkpt lon="35.471916045742" lat="32.982184565536"/><trkpt lon="35.471787299709" lat="32.981806574155"/><trkpt lon="35.471529807643" lat="32.981086586096"/><trkpt lon="35.471422519283" lat="32.980366592165"/><trkpt lon="35.471250857906" lat="32.97986259292"/><trkpt lon="35.471250857906" lat="32.979556591975"/><trkpt lon="35.471443976955" lat="32.979214589664"/><trkpt lon="35.471443976955" lat="32.978872586028"/><trkpt lon="35.471336688594" lat="32.978386578583"/><trkpt lon="35.471272315578" lat="32.977774565402"/><trkpt lon="35.471214087476" lat="32.977365033439"/><trkpt lon="35.471428664197" lat="32.977221029053"/><trkpt lon="35.471729071607" lat="32.976302995573"/><trkpt lon="35.471814902296" lat="32.975888977352"/><trkpt lon="35.471922190656" lat="32.975582962637"/><trkpt lon="35.471771986951" lat="32.975366951611"/><trkpt lon="35.471771986951" lat="32.974808920682"/><trkpt lon="35.471965106" lat="32.974448898857"/><trkpt lon="35.472050936689" lat="32.973998869511"/><trkpt lon="35.472113640627" lat="32.973615040561"/><trkpt lon="35.472285302004" lat="32.973038997149"/><trkpt lon="35.472692997775" lat="32.972498953038"/><trkpt lon="35.472671540102" lat="32.971958905624"/><trkpt lon="35.472864659151" lat="32.971670878987"/><trkpt lon="35.473615677676" lat="32.97113082651"/><trkpt lon="35.474130661807" lat="32.970698782152"/><trkpt lon="35.474667103609" lat="32.970230731711"/><trkpt lon="35.474967511019" lat="32.970140721727"/><trkpt lon="35.474645645937" lat="32.97048275918"/><trkpt lon="35.474044831118" lat="32.970878800891"/><trkpt lon="35.473444016299" lat="32.97138285141"/><trkpt lon="35.473122151217" lat="32.971652877291"/><trkpt lon="35.472414048037" lat="32.972102918591"/><trkpt lon="35.472456963381" lat="32.97257095911"/><trkpt lon="35.47254279407" lat="32.973074999972"/><trkpt lon="35.471899063906" lat="32.973489031386"/><trkpt lon="35.471899063906" lat="32.973849057124"/><trkpt lon="35.471469910464" lat="32.973903060858"/><trkpt lon="35.470933468661" lat="32.974047070655"/><trkpt lon="35.470461399874" lat="32.97438909298"/><trkpt lon="35.470268280825" lat="32.974335089543"/><trkpt lon="35.469903500399" lat="32.974929125533"/><trkpt lon="35.469324143252" lat="32.975217141545"/><trkpt lon="35.469109566531" lat="32.975361149198"/><trkpt lon="35.468787701449" lat="32.975487155703"/><trkpt lon="35.468465836367" lat="32.975649163801"/><trkpt lon="35.468143971285" lat="32.975649163801"/><trkpt lon="35.46799376758" lat="32.975379150138"/><trkpt lon="35.467564614138" lat="32.975469154784"/><trkpt lon="35.466749222598" lat="32.975595161134"/><trkpt lon="35.466255696139" lat="32.975721167305"/><trkpt lon="35.465998204073" lat="32.97568516556"/><trkpt lon="35.465526135287" lat="32.97568516556"/><trkpt lon="35.465247185549" lat="32.975523157528"/><trkpt lon="35.465848000369" lat="32.975109135651"/><trkpt lon="35.464882405123" lat="32.975073133656"/><trkpt lon="35.465418846926" lat="32.974551103093"/><trkpt lon="35.465998204073" lat="32.974263084909"/><trkpt lon="35.466405899844" lat="32.974263084909"/><trkpt lon="35.466835053286" lat="32.974101074268"/><trkpt lon="35.46606257709" lat="32.973759050827"/><trkpt lon="35.465333016238" lat="32.973831055872"/><trkpt lon="35.464882405123" lat="32.973939063329"/><trkpt lon="35.464453251681" lat="32.974083073067"/><trkpt lon="35.463916809878" lat="32.974191080216"/><trkpt lon="35.463401825747" lat="32.974191080216"/><trkpt lon="35.462736637911" lat="32.973939063329"/><trkpt lon="35.462307484469" lat="32.973849057124"/><trkpt lon="35.46222165378" lat="32.973669044438"/><trkpt lon="35.461878331026" lat="32.973687045724"/></trkseg></trk></gpx>
