<?xml version="1.0" encoding="utf-8"?>
<gpx version="1.1" creator="IsraelHikingMap_route" xmlns="http://www.topografix.com/GPX/1/1">
	<metadata>
		<bounds minlat="31.28283426" minlon="35.35743491" maxlat="31.28684154" maxlon="35.37055898" />
	</metadata>
	<rte>
		<name>מסלול 1</name>
		<desc />
		<rtept lat="31.28283426385805" lon="35.37055897755937">
			<ele>-335.3071429899508</ele>
		</rtept>
		<rtept lat="31.28283426" lon="35.37055898">
			<ele>-335.3071429899508</ele>
		</rtept>
		<rtept lat="31.28306457" lon="35.37034788">
			<ele>-333.7721751259147</ele>
		</rtept>
		<rtept lat="31.28329488" lon="35.37013678">
			<ele>-331.59990701278474</ele>
		</rtept>
		<rtept lat="31.28352518" lon="35.36992568">
			<ele>-329.2957457364397</ele>
		</rtept>
		<rtept lat="31.28375549" lon="35.36971458">
			<ele>-326.39975184182197</ele>
		</rtept>
		<rtept lat="31.2839858" lon="35.36950348">
			<ele>-322.47934833207796</ele>
		</rtept>
		<rtept lat="31.2842161" lon="35.36929238">
			<ele>-318.71931703534267</ele>
		</rtept>
		<rtept lat="31.28442337" lon="35.36906332">
			<ele>-315.3982609235847</ele>
		</rtept>
		<rtept lat="31.28463065" lon="35.36883425">
			<ele>-309.7404037267014</ele>
		</rtept>
		<rtept lat="31.28483792" lon="35.36860519">
			<ele>-305.5372980194269</ele>
		</rtept>
		<rtept lat="31.2850452" lon="35.36837613">
			<ele>-300.4384459984701</ele>
		</rtept>
		<rtept lat="31.28529277" lon="35.36819422">
			<ele>-292.31714139140763</ele>
		</rtept>
		<rtept lat="31.28554035" lon="35.36801232">
			<ele>-287.1197979013094</ele>
		</rtept>
		<rtept lat="31.28578792" lon="35.36783041">
			<ele>-281.5694096423376</ele>
		</rtept>
		<rtept lat="31.28603549" lon="35.36764851">
			<ele>-273.29499805523955</ele>
		</rtept>
		<rtept lat="31.28620438" lon="35.36730716">
			<ele>-265.25985805446567</ele>
		</rtept>
		<rtept lat="31.28637327" lon="35.36696581">
			<ele>-259.51925262744874</ele>
		</rtept>
		<rtept lat="31.28654215" lon="35.36662445">
			<ele>-249.8718785519212</ele>
		</rtept>
		<rtept lat="31.28664195" lon="35.36626513">
			<ele>-242.2897831063355</ele>
		</rtept>
		<rtept lat="31.28674175" lon="35.36590582">
			<ele>-239.96399252333734</ele>
		</rtept>
		<rtept lat="31.28684154" lon="35.3655465">
			<ele>-243.852576323961</ele>
		</rtept>
		<rtept lat="31.28671488" lon="35.36526354">
			<ele>-235.97968473518026</ele>
		</rtept>
		<rtept lat="31.28658821" lon="35.36498058">
			<ele>-238.20186843121525</ele>
		</rtept>
		<rtept lat="31.28646155" lon="35.36469761">
			<ele>-239.29969949401</ele>
		</rtept>
		<rtept lat="31.28633488" lon="35.36441465">
			<ele>-238.56273929954534</ele>
		</rtept>
		<rtept lat="31.28624276" lon="35.36409127">
			<ele>-240.17836700395185</ele>
		</rtept>
		<rtept lat="31.28615064" lon="35.36376788">
			<ele>-242.4073699611068</ele>
		</rtept>
		<rtept lat="31.28617367" lon="35.36343102">
			<ele>-231.43610832682683</ele>
		</rtept>
		<rtept lat="31.2861967" lon="35.36309416">
			<ele>-222.7004258366875</ele>
		</rtept>
		<rtept lat="31.28593186" lon="35.36316153">
			<ele>-212.31423103854968</ele>
		</rtept>
		<rtept lat="31.28566701" lon="35.36322891">
			<ele>-200.2946637634791</ele>
		</rtept>
		<rtept lat="31.28580519" lon="35.36279773">
			<ele>-190.51650824243646</ele>
		</rtept>
		<rtept lat="31.28594337" lon="35.36236654">
			<ele>-178.92110462878347</ele>
		</rtept>
		<rtept lat="31.28617367" lon="35.36204316">
			<ele>-188.8236202336555</ele>
		</rtept>
		<rtept lat="31.28640397" lon="35.36171977">
			<ele>-199.41605543014677</ele>
		</rtept>
		<rtept lat="31.28635791" lon="35.36127512">
			<ele>-185.02686617366768</ele>
		</rtept>
		<rtept lat="31.28631185" lon="35.36083046">
			<ele>-179.98958194580908</ele>
		</rtept>
		<rtept lat="31.28612761" lon="35.36041276">
			<ele>-172.5641478027965</ele>
		</rtept>
		<rtept lat="31.28594337" lon="35.35999505">
			<ele>-169.97596266082897</ele>
		</rtept>
		<rtept lat="31.28575913" lon="35.35959082">
			<ele>-209.3442886466736</ele>
		</rtept>
		<rtept lat="31.28557489" lon="35.35918659">
			<ele>-215.58348491432338</ele>
		</rtept>
		<rtept lat="31.28552883" lon="35.35880931">
			<ele>-202.66705324518196</ele>
		</rtept>
		<rtept lat="31.28548277" lon="35.35843202">
			<ele>-185.5124073067849</ele>
		</rtept>
		<rtept lat="31.28522944" lon="35.35809516">
			<ele>-176.93293737369186</ele>
		</rtept>
		<rtept lat="31.28497611" lon="35.3577583">
			<ele>-178.317622377812</ele>
		</rtept>
		<rtept lat="31.28473429" lon="35.35759661">
			<ele>-164.58909937891596</ele>
		</rtept>
		<rtept lat="31.28449247" lon="35.35743491">
			<ele>-160.0932919253575</ele>
		</rtept>
	</rte>
</gpx>