<?xml version="1.0" encoding="UTF-8" standalone="yes"?>
<gpx version="1.1" creator="outdooractive - http://www.outdooractive.com" xmlns="http://www.topografix.com/GPX/1/1" xmlns:xsi="http://www.w3.org/2001/XMLSchema-instance" xsi:schemaLocation="http://www.topografix.com/GPX/1/1 http://www.topografix.com/GPX/1/1/gpx.xsd" xmlns:oa="http://www.outdooractive.com/GPX/Extensions/1">
  <metadata>
    <name>Sovev Carcom</name>
    <author>
      <name>Zecharia Nacson - Community</name>
    </author>
    <link href="https://www.outdooractive.com/r/231119606"/>
    <time>2021-12-03T10:46:27.360Z</time>
    <extensions>
      <oa:oaCategory>mountainbiking</oa:oaCategory>
    </extensions>
  </metadata>
  <trk>
    <name>Sovev Carcom</name>
    <desc>Sovev Carcom</desc>
    <type>mountainbiking</type>
    <trkseg>
      <trkpt lat="32.925065" lon="35.607848">
        <ele>50.39172</ele>
      </trkpt>
      <trkpt lat="32.925001" lon="35.608281">
        <ele>50.06145</ele>
      </trkpt>
      <trkpt lat="32.925038" lon="35.607737">
        <ele>49.95769</ele>
      </trkpt>
      <trkpt lat="32.925582" lon="35.607498">
        <ele>54.36446</ele>
      </trkpt>
      <trkpt lat="32.926148" lon="35.610091">
        <ele>58.66267</ele>
      </trkpt>
      <trkpt lat="32.934128" lon="35.612965">
        <ele>79.79354</ele>
      </trkpt>
      <trkpt lat="32.936315" lon="35.612596">
        <ele>92.0079</ele>
      </trkpt>
      <trkpt lat="32.938179" lon="35.612993">
        <ele>86.0201</ele>
      </trkpt>
      <trkpt lat="32.941479" lon="35.612374">
        <ele>95.42912</ele>
      </trkpt>
      <trkpt lat="32.942283" lon="35.612985">
        <ele>92.84584</ele>
      </trkpt>
      <trkpt lat="32.942714" lon="35.615868">
        <ele>75.63595</ele>
      </trkpt>
      <trkpt lat="32.943641" lon="35.616612">
        <ele>71.81538</ele>
      </trkpt>
      <trkpt lat="32.947481" lon="35.615755">
        <ele>78.95411</ele>
      </trkpt>
      <trkpt lat="32.952942" lon="35.617414">
        <ele>73.88391</ele>
      </trkpt>
      <trkpt lat="32.955686" lon="35.617366">
        <ele>83.32309</ele>
      </trkpt>
      <trkpt lat="32.957691" lon="35.618588">
        <ele>72.43468</ele>
      </trkpt>
      <trkpt lat="32.959198" lon="35.617529">
        <ele>85.55434</ele>
      </trkpt>
      <trkpt lat="32.959908" lon="35.619517">
        <ele>76.45077</ele>
      </trkpt>
      <trkpt lat="32.960778" lon="35.619953">
        <ele>81.11033</ele>
      </trkpt>
      <trkpt lat="32.962161" lon="35.619969">
        <ele>80.38313</ele>
      </trkpt>
      <trkpt lat="32.965418" lon="35.618904">
        <ele>84.19222</ele>
      </trkpt>
      <trkpt lat="32.966333" lon="35.619923">
        <ele>75.66946</ele>
      </trkpt>
      <trkpt lat="32.96804" lon="35.620708">
        <ele>67.34348</ele>
      </trkpt>
      <trkpt lat="32.969319" lon="35.620489">
        <ele>75.22221</ele>
      </trkpt>
      <trkpt lat="32.96999" lon="35.621422">
        <ele>69.68485</ele>
      </trkpt>
      <trkpt lat="32.973073" lon="35.622806">
        <ele>61.55069</ele>
      </trkpt>
      <trkpt lat="32.974403" lon="35.621675">
        <ele>77.18348</ele>
      </trkpt>
      <trkpt lat="32.975366" lon="35.621946">
        <ele>68.70635</ele>
      </trkpt>
      <trkpt lat="32.977854" lon="35.624327">
        <ele>56.34131</ele>
      </trkpt>
      <trkpt lat="32.978121" lon="35.622818">
        <ele>60.56162</ele>
      </trkpt>
      <trkpt lat="32.979207" lon="35.624455">
        <ele>38.98879</ele>
      </trkpt>
      <trkpt lat="32.978747" lon="35.623951">
        <ele>56.79701</ele>
      </trkpt>
      <trkpt lat="32.977813" lon="35.624867">
        <ele>45.13954</ele>
      </trkpt>
      <trkpt lat="32.975001" lon="35.624833">
        <ele>24.56084</ele>
      </trkpt>
      <trkpt lat="32.975973" lon="35.624988">
        <ele>38.0485</ele>
      </trkpt>
      <trkpt lat="32.977876" lon="35.624834">
        <ele>44.78236</ele>
        <extensions>
          <oa:locType>calcWayPoint</oa:locType>
        </extensions>
      </trkpt>
      <trkpt lat="32.978641" lon="35.623874">
        <ele>58.12722</ele>
      </trkpt>
      <trkpt lat="32.978494" lon="35.6233">
        <ele>60.48611</ele>
      </trkpt>
      <trkpt lat="32.978067" lon="35.62284">
        <ele>60.97686</ele>
      </trkpt>
      <trkpt lat="32.978103" lon="35.62395">
        <ele>59.43241</ele>
      </trkpt>
      <trkpt lat="32.977619" lon="35.6242">
        <ele>58.91731</ele>
      </trkpt>
      <trkpt lat="32.974761" lon="35.621473">
        <ele>77.60397</ele>
      </trkpt>
      <trkpt lat="32.973274" lon="35.621198">
        <ele>86.55372</ele>
      </trkpt>
      <trkpt lat="32.971746" lon="35.619885">
        <ele>99.45264</ele>
      </trkpt>
      <trkpt lat="32.970574" lon="35.620187">
        <ele>100.36851</ele>
      </trkpt>
      <trkpt lat="32.970187" lon="35.619909">
        <ele>103.27194</ele>
      </trkpt>
      <trkpt lat="32.970368" lon="35.619511">
        <ele>108.32075</ele>
      </trkpt>
      <trkpt lat="32.971929" lon="35.618534">
        <ele>128.40046</ele>
      </trkpt>
      <trkpt lat="32.973851" lon="35.618124">
        <ele>136.28782</ele>
      </trkpt>
      <trkpt lat="32.973963" lon="35.617766">
        <ele>142.70673</ele>
      </trkpt>
      <trkpt lat="32.973029" lon="35.61715">
        <ele>153.41255</ele>
      </trkpt>
      <trkpt lat="32.975876" lon="35.614942">
        <ele>190.54214</ele>
      </trkpt>
      <trkpt lat="32.978543" lon="35.614643">
        <ele>191.3033</ele>
      </trkpt>
      <trkpt lat="32.980672" lon="35.613197">
        <ele>193.94379</ele>
      </trkpt>
      <trkpt lat="32.985616" lon="35.612104">
        <ele>211.77146</ele>
      </trkpt>
      <trkpt lat="32.989216" lon="35.610047">
        <ele>220.24237</ele>
      </trkpt>
      <trkpt lat="32.990456" lon="35.608758">
        <ele>220.16906</ele>
      </trkpt>
      <trkpt lat="32.991747" lon="35.606352">
        <ele>220.99243</ele>
      </trkpt>
      <trkpt lat="32.990908" lon="35.603418">
        <ele>224.79177</ele>
        <extensions>
          <oa:locType>calcWayPoint</oa:locType>
        </extensions>
      </trkpt>
      <trkpt lat="32.990729" lon="35.601017">
        <ele>233.84037</ele>
      </trkpt>
      <trkpt lat="32.988961" lon="35.598595">
        <ele>242.74779</ele>
      </trkpt>
      <trkpt lat="32.987636" lon="35.59744">
        <ele>243.19824</ele>
      </trkpt>
      <trkpt lat="32.985924" lon="35.596814">
        <ele>247.79783</ele>
      </trkpt>
      <trkpt lat="32.9851" lon="35.59527">
        <ele>248.56297</ele>
      </trkpt>
      <trkpt lat="32.982821" lon="35.593022">
        <ele>257.44683</ele>
      </trkpt>
      <trkpt lat="32.978562" lon="35.590298">
        <ele>261.87981</ele>
      </trkpt>
      <trkpt lat="32.976932" lon="35.588684">
        <ele>262.96298</ele>
      </trkpt>
      <trkpt lat="32.976472" lon="35.590242">
        <ele>268.87473</ele>
      </trkpt>
      <trkpt lat="32.974716" lon="35.592">
        <ele>271.57942</ele>
      </trkpt>
      <trkpt lat="32.968909" lon="35.594866">
        <ele>288.05284</ele>
      </trkpt>
      <trkpt lat="32.967451" lon="35.592183">
        <ele>282.17076</ele>
      </trkpt>
      <trkpt lat="32.967325" lon="35.590154">
        <ele>284.17903</ele>
      </trkpt>
      <trkpt lat="32.963945" lon="35.588881">
        <ele>295.47376</ele>
      </trkpt>
      <trkpt lat="32.963176" lon="35.588075">
        <ele>300.94137</ele>
      </trkpt>
      <trkpt lat="32.96228" lon="35.584569">
        <ele>310.20568</ele>
      </trkpt>
      <trkpt lat="32.962475" lon="35.583638">
        <ele>312.05443</ele>
      </trkpt>
      <trkpt lat="32.960241" lon="35.582704">
        <ele>313.50949</ele>
      </trkpt>
      <trkpt lat="32.960576" lon="35.580564">
        <ele>321.61085</ele>
      </trkpt>
      <trkpt lat="32.960323" lon="35.578405">
        <ele>337.23844</ele>
      </trkpt>
      <trkpt lat="32.962132" lon="35.574284">
        <ele>316.58952</ele>
      </trkpt>
      <trkpt lat="32.962187" lon="35.57026">
        <ele>318.01518</ele>
      </trkpt>
      <trkpt lat="32.961744" lon="35.5687">
        <ele>318.5057</ele>
      </trkpt>
      <trkpt lat="32.961292" lon="35.561698">
        <ele>315.67548</ele>
      </trkpt>
      <trkpt lat="32.961768" lon="35.561348">
        <ele>314.22386</ele>
      </trkpt>
      <trkpt lat="32.961831" lon="35.560455">
        <ele>316.02143</ele>
      </trkpt>
      <trkpt lat="32.961375" lon="35.559712">
        <ele>321.27591</ele>
      </trkpt>
      <trkpt lat="32.96146" lon="35.558186">
        <ele>322.51865</ele>
      </trkpt>
      <trkpt lat="32.962469" lon="35.557568">
        <ele>322.45608</ele>
      </trkpt>
      <trkpt lat="32.960692" lon="35.556548">
        <ele>344.95039</ele>
        <extensions>
          <oa:locType>calcWayPoint</oa:locType>
        </extensions>
      </trkpt>
      <trkpt lat="32.95895" lon="35.557645">
        <ele>348.76809</ele>
      </trkpt>
      <trkpt lat="32.958129" lon="35.55732">
        <ele>351.78068</ele>
      </trkpt>
      <trkpt lat="32.953397" lon="35.557678">
        <ele>345.0262</ele>
      </trkpt>
      <trkpt lat="32.949147" lon="35.559896">
        <ele>326.01085</ele>
      </trkpt>
      <trkpt lat="32.946149" lon="35.564322">
        <ele>296.81584</ele>
      </trkpt>
      <trkpt lat="32.943836" lon="35.565071">
        <ele>279.09794</ele>
      </trkpt>
      <trkpt lat="32.943553" lon="35.569264">
        <ele>270.51376</ele>
      </trkpt>
      <trkpt lat="32.941613" lon="35.575109">
        <ele>273.2458</ele>
      </trkpt>
      <trkpt lat="32.93674" lon="35.576889">
        <ele>261.81391</ele>
      </trkpt>
      <trkpt lat="32.936476" lon="35.576333">
        <ele>262.85059</ele>
      </trkpt>
      <trkpt lat="32.935348" lon="35.576549">
        <ele>256.24469</ele>
      </trkpt>
      <trkpt lat="32.934948" lon="35.57546">
        <ele>246.25647</ele>
      </trkpt>
      <trkpt lat="32.930706" lon="35.57572">
        <ele>224.6023</ele>
      </trkpt>
      <trkpt lat="32.931746" lon="35.578811">
        <ele>216.08857</ele>
      </trkpt>
      <trkpt lat="32.931059" lon="35.581949">
        <ele>200.3757</ele>
      </trkpt>
      <trkpt lat="32.928281" lon="35.583809">
        <ele>164.94172</ele>
      </trkpt>
      <trkpt lat="32.92786" lon="35.5869">
        <ele>148.86663</ele>
      </trkpt>
      <trkpt lat="32.923628" lon="35.591877">
        <ele>106.97657</ele>
      </trkpt>
      <trkpt lat="32.92076" lon="35.59481">
        <ele>76.90416</ele>
      </trkpt>
      <trkpt lat="32.9199" lon="35.594335">
        <ele>71.25649</ele>
        <extensions>
          <oa:locType>calcWayPoint</oa:locType>
        </extensions>
      </trkpt>
      <trkpt lat="32.92069" lon="35.594725">
        <ele>76.63683</ele>
      </trkpt>
      <trkpt lat="32.920876" lon="35.596075">
        <ele>74.55235</ele>
      </trkpt>
      <trkpt lat="32.92678" lon="35.605105">
        <ele>67.29831</ele>
      </trkpt>
      <trkpt lat="32.926831" lon="35.60596">
        <ele>64.25514</ele>
      </trkpt>
      <trkpt lat="32.924771" lon="35.607766">
        <ele>47.76108</ele>
      </trkpt>
      <trkpt lat="32.925058" lon="35.608102">
        <ele>50.57233</ele>
      </trkpt>
    </trkseg>
  </trk>
</gpx>