<?xml version="1.0" encoding="UTF-8"?>
<gpx version="1.1" creator="yairron.com route editor" xmlns="http://www.topografix.com/GPX/1/1">
  <trk>
    <name>מסלול חדש</name>
    <trkseg>
      <trkpt lat="33.008952" lon="35.393415"><ele>886.5</ele></trkpt>
      <trkpt lat="33.008920" lon="35.393450"><ele>886.5</ele></trkpt>
      <trkpt lat="33.008874" lon="35.393507"><ele>886.5</ele></trkpt>
      <trkpt lat="33.008877" lon="35.393522"><ele>886.5</ele></trkpt>
      <trkpt lat="33.008910" lon="35.393626"><ele>886.0</ele></trkpt>
      <trkpt lat="33.008872" lon="35.393662"><ele>886.0</ele></trkpt>
      <trkpt lat="33.008804" lon="35.393728"><ele>886.0</ele></trkpt>
      <trkpt lat="33.008773" lon="35.393841"><ele>884.1</ele></trkpt>
      <trkpt lat="33.008734" lon="35.393990"><ele>882.1</ele></trkpt>
      <trkpt lat="33.008722" lon="35.394129"><ele>881.2</ele></trkpt>
      <trkpt lat="33.008722" lon="35.394272"><ele>878.8</ele></trkpt>
      <trkpt lat="33.008742" lon="35.394452"><ele>875.9</ele></trkpt>
      <trkpt lat="33.008746" lon="35.394493"><ele>874.9</ele></trkpt>
      <trkpt lat="33.008745" lon="35.394517"><ele>874.0</ele></trkpt>
      <trkpt lat="33.008758" lon="35.394551"><ele>873.5</ele></trkpt>
      <trkpt lat="33.008809" lon="35.394592"><ele>872.5</ele></trkpt>
      <trkpt lat="33.008886" lon="35.394589"><ele>871.6</ele></trkpt>
      <trkpt lat="33.008961" lon="35.394564"><ele>870.6</ele></trkpt>
      <trkpt lat="33.009017" lon="35.394558"><ele>868.7</ele></trkpt>
      <trkpt lat="33.009120" lon="35.394481"><ele>865.8</ele></trkpt>
      <trkpt lat="33.009196" lon="35.394413"><ele>863.9</ele></trkpt>
      <trkpt lat="33.009254" lon="35.394396"><ele>862.0</ele></trkpt>
      <trkpt lat="33.009278" lon="35.394403"><ele>862.0</ele></trkpt>
      <trkpt lat="33.009291" lon="35.394417"><ele>870.6</ele></trkpt>
      <trkpt lat="33.009302" lon="35.394418"><ele>872.5</ele></trkpt>
      <trkpt lat="33.009317" lon="35.394423"><ele>874.5</ele></trkpt>
      <trkpt lat="33.009326" lon="35.394470"><ele>875.4</ele></trkpt>
      <trkpt lat="33.009327" lon="35.394519"><ele>875.4</ele></trkpt>
      <trkpt lat="33.009310" lon="35.394544"><ele>877.3</ele></trkpt>
      <trkpt lat="33.009347" lon="35.394546"><ele>875.9</ele></trkpt>
      <trkpt lat="33.009301" lon="35.394555"><ele>875.4</ele></trkpt>
      <trkpt lat="33.009284" lon="35.394567"><ele>872.1</ele></trkpt>
      <trkpt lat="33.009279" lon="35.394540"><ele>866.3</ele></trkpt>
      <trkpt lat="33.009315" lon="35.394498"><ele>864.8</ele></trkpt>
      <trkpt lat="33.009325" lon="35.394433"><ele>864.4</ele></trkpt>
      <trkpt lat="33.009288" lon="35.394383"><ele>865.8</ele></trkpt>
      <trkpt lat="33.009294" lon="35.394376"><ele>865.8</ele></trkpt>
      <trkpt lat="33.009310" lon="35.394390"><ele>866.8</ele></trkpt>
      <trkpt lat="33.009311" lon="35.394386"><ele>867.7</ele></trkpt>
      <trkpt lat="33.009307" lon="35.394391"><ele>869.2</ele></trkpt>
      <trkpt lat="33.009355" lon="35.394530"><ele>868.7</ele></trkpt>
      <trkpt lat="33.009478" lon="35.394696"><ele>869.2</ele></trkpt>
      <trkpt lat="33.009536" lon="35.394807"><ele>871.1</ele></trkpt>
      <trkpt lat="33.009558" lon="35.394971"><ele>872.1</ele></trkpt>
      <trkpt lat="33.009613" lon="35.395110"><ele>874.5</ele></trkpt>
      <trkpt lat="33.009701" lon="35.395233"><ele>874.9</ele></trkpt>
      <trkpt lat="33.009846" lon="35.395331"><ele>875.9</ele></trkpt>
      <trkpt lat="33.009980" lon="35.395434"><ele>876.4</ele></trkpt>
      <trkpt lat="33.010062" lon="35.395526"><ele>875.4</ele></trkpt>
      <trkpt lat="33.010147" lon="35.395635"><ele>875.9</ele></trkpt>
      <trkpt lat="33.010173" lon="35.395751"><ele>876.4</ele></trkpt>
      <trkpt lat="33.010120" lon="35.395989"><ele>877.8</ele></trkpt>
      <trkpt lat="33.010089" lon="35.396149"><ele>879.7</ele></trkpt>
      <trkpt lat="33.010095" lon="35.396244"><ele>878.3</ele></trkpt>
      <trkpt lat="33.010091" lon="35.396396"><ele>878.8</ele></trkpt>
      <trkpt lat="33.010088" lon="35.396546"><ele>877.8</ele></trkpt>
      <trkpt lat="33.010084" lon="35.396713"><ele>876.9</ele></trkpt>
      <trkpt lat="33.010085" lon="35.396862"><ele>875.9</ele></trkpt>
      <trkpt lat="33.010083" lon="35.396950"><ele>875.4</ele></trkpt>
      <trkpt lat="33.010084" lon="35.396970"><ele>874.9</ele></trkpt>
      <trkpt lat="33.010078" lon="35.396975"><ele>874.9</ele></trkpt>
      <trkpt lat="33.010077" lon="35.397003"><ele>874.9</ele></trkpt>
      <trkpt lat="33.010075" lon="35.397045"><ele>874.9</ele></trkpt>
      <trkpt lat="33.010075" lon="35.397119"><ele>874.0</ele></trkpt>
      <trkpt lat="33.010072" lon="35.397186"><ele>873.0</ele></trkpt>
      <trkpt lat="33.010059" lon="35.397251"><ele>872.1</ele></trkpt>
      <trkpt lat="33.010067" lon="35.397303"><ele>870.1</ele></trkpt>
      <trkpt lat="33.010072" lon="35.397368"><ele>868.7</ele></trkpt>
      <trkpt lat="33.010079" lon="35.397428"><ele>866.8</ele></trkpt>
      <trkpt lat="33.010072" lon="35.397474"><ele>865.3</ele></trkpt>
      <trkpt lat="33.010060" lon="35.397553"><ele>863.4</ele></trkpt>
      <trkpt lat="33.010052" lon="35.397616"><ele>862.0</ele></trkpt>
      <trkpt lat="33.010050" lon="35.397693"><ele>861.0</ele></trkpt>
      <trkpt lat="33.010027" lon="35.397777"><ele>860.0</ele></trkpt>
      <trkpt lat="33.010010" lon="35.397873"><ele>858.6</ele></trkpt>
      <trkpt lat="33.010009" lon="35.397914"><ele>858.6</ele></trkpt>
      <trkpt lat="33.009997" lon="35.398028"><ele>858.1</ele></trkpt>
      <trkpt lat="33.009970" lon="35.398156"><ele>857.6</ele></trkpt>
      <trkpt lat="33.009965" lon="35.398282"><ele>856.7</ele></trkpt>
      <trkpt lat="33.009952" lon="35.398404"><ele>855.2</ele></trkpt>
      <trkpt lat="33.009930" lon="35.398544"><ele>853.8</ele></trkpt>
      <trkpt lat="33.009849" lon="35.398780"><ele>853.3</ele></trkpt>
      <trkpt lat="33.009814" lon="35.398866"><ele>853.3</ele></trkpt>
      <trkpt lat="33.009811" lon="35.398894"><ele>852.8</ele></trkpt>
      <trkpt lat="33.009787" lon="35.398952"><ele>852.3</ele></trkpt>
      <trkpt lat="33.009780" lon="35.399038"><ele>850.9</ele></trkpt>
      <trkpt lat="33.009778" lon="35.399121"><ele>849.9</ele></trkpt>
      <trkpt lat="33.009783" lon="35.399198"><ele>849.0</ele></trkpt>
      <trkpt lat="33.009795" lon="35.399274"><ele>848.0</ele></trkpt>
      <trkpt lat="33.009802" lon="35.399346"><ele>847.1</ele></trkpt>
      <trkpt lat="33.009804" lon="35.399418"><ele>846.6</ele></trkpt>
      <trkpt lat="33.009814" lon="35.399483"><ele>846.1</ele></trkpt>
      <trkpt lat="33.009820" lon="35.399567"><ele>844.7</ele></trkpt>
      <trkpt lat="33.009825" lon="35.399635"><ele>843.7</ele></trkpt>
      <trkpt lat="33.009832" lon="35.399710"><ele>842.7</ele></trkpt>
      <trkpt lat="33.009833" lon="35.399770"><ele>841.3</ele></trkpt>
      <trkpt lat="33.009831" lon="35.399863"><ele>839.8</ele></trkpt>
      <trkpt lat="33.009829" lon="35.399938"><ele>838.4</ele></trkpt>
      <trkpt lat="33.009802" lon="35.400039"><ele>837.4</ele></trkpt>
      <trkpt lat="33.009760" lon="35.400119"><ele>836.5</ele></trkpt>
      <trkpt lat="33.009739" lon="35.400172"><ele>835.0</ele></trkpt>
      <trkpt lat="33.009731" lon="35.400217"><ele>834.6</ele></trkpt>
      <trkpt lat="33.009718" lon="35.400276"><ele>834.1</ele></trkpt>
      <trkpt lat="33.009714" lon="35.400328"><ele>833.6</ele></trkpt>
      <trkpt lat="33.009712" lon="35.400369"><ele>832.6</ele></trkpt>
      <trkpt lat="33.009714" lon="35.400414"><ele>832.2</ele></trkpt>
      <trkpt lat="33.009714" lon="35.400449"><ele>831.7</ele></trkpt>
      <trkpt lat="33.009723" lon="35.400484"><ele>830.2</ele></trkpt>
      <trkpt lat="33.009728" lon="35.400529"><ele>828.3</ele></trkpt>
      <trkpt lat="33.009735" lon="35.400556"><ele>827.4</ele></trkpt>
      <trkpt lat="33.009724" lon="35.400595"><ele>826.4</ele></trkpt>
      <trkpt lat="33.009722" lon="35.400642"><ele>825.4</ele></trkpt>
      <trkpt lat="33.009715" lon="35.400670"><ele>824.5</ele></trkpt>
      <trkpt lat="33.009712" lon="35.400702"><ele>823.5</ele></trkpt>
      <trkpt lat="33.009714" lon="35.400744"><ele>822.5</ele></trkpt>
      <trkpt lat="33.009698" lon="35.400804"><ele>821.1</ele></trkpt>
      <trkpt lat="33.009668" lon="35.400863"><ele>820.1</ele></trkpt>
      <trkpt lat="33.009654" lon="35.400891"><ele>819.2</ele></trkpt>
      <trkpt lat="33.009643" lon="35.400903"><ele>818.7</ele></trkpt>
      <trkpt lat="33.009531" lon="35.401011"><ele>818.2</ele></trkpt>
      <trkpt lat="33.009354" lon="35.401150"><ele>819.7</ele></trkpt>
      <trkpt lat="33.009236" lon="35.401330"><ele>818.7</ele></trkpt>
      <trkpt lat="33.009091" lon="35.401490"><ele>819.7</ele></trkpt>
      <trkpt lat="33.008920" lon="35.401611"><ele>823.0</ele></trkpt>
      <trkpt lat="33.008828" lon="35.401793"><ele>824.9</ele></trkpt>
      <trkpt lat="33.008778" lon="35.402004"><ele>827.4</ele></trkpt>
      <trkpt lat="33.008804" lon="35.402130"><ele>827.8</ele></trkpt>
      <trkpt lat="33.008900" lon="35.402290"><ele>827.4</ele></trkpt>
      <trkpt lat="33.008963" lon="35.402481"><ele>826.4</ele></trkpt>
      <trkpt lat="33.008996" lon="35.402700"><ele>825.9</ele></trkpt>
      <trkpt lat="33.008961" lon="35.403039"><ele>826.4</ele></trkpt>
      <trkpt lat="33.008920" lon="35.403273"><ele>826.9</ele></trkpt>
      <trkpt lat="33.008930" lon="35.403534"><ele>825.9</ele></trkpt>
      <trkpt lat="33.008930" lon="35.403791"><ele>825.4</ele></trkpt>
      <trkpt lat="33.008843" lon="35.404161"><ele>826.4</ele></trkpt>
      <trkpt lat="33.008723" lon="35.404470"><ele>827.8</ele></trkpt>
      <trkpt lat="33.008619" lon="35.404708"><ele>829.3</ele></trkpt>
      <trkpt lat="33.008553" lon="35.404857"><ele>830.2</ele></trkpt>
      <trkpt lat="33.008491" lon="35.405029"><ele>829.8</ele></trkpt>
      <trkpt lat="33.008447" lon="35.405195"><ele>829.3</ele></trkpt>
      <trkpt lat="33.008408" lon="35.405330"><ele>828.3</ele></trkpt>
      <trkpt lat="33.008382" lon="35.405448"><ele>827.8</ele></trkpt>
      <trkpt lat="33.008357" lon="35.405585"><ele>825.9</ele></trkpt>
      <trkpt lat="33.008329" lon="35.405715"><ele>824.0</ele></trkpt>
      <trkpt lat="33.008293" lon="35.405813"><ele>824.0</ele></trkpt>
      <trkpt lat="33.008256" lon="35.405954"><ele>822.1</ele></trkpt>
      <trkpt lat="33.008229" lon="35.406071"><ele>820.1</ele></trkpt>
      <trkpt lat="33.008171" lon="35.406241"><ele>817.7</ele></trkpt>
      <trkpt lat="33.008107" lon="35.406396"><ele>816.8</ele></trkpt>
      <trkpt lat="33.008017" lon="35.406521"><ele>816.3</ele></trkpt>
      <trkpt lat="33.007824" lon="35.406651"><ele>817.3</ele></trkpt>
      <trkpt lat="33.007680" lon="35.406759"><ele>816.8</ele></trkpt>
      <trkpt lat="33.007575" lon="35.406858"><ele>815.8</ele></trkpt>
      <trkpt lat="33.007447" lon="35.407031"><ele>812.0</ele></trkpt>
      <trkpt lat="33.007310" lon="35.407196"><ele>809.6</ele></trkpt>
      <trkpt lat="33.007300" lon="35.407207"><ele>809.1</ele></trkpt>
      <trkpt lat="33.007288" lon="35.407233"><ele>808.1</ele></trkpt>
      <trkpt lat="33.007256" lon="35.407278"><ele>806.2</ele></trkpt>
      <trkpt lat="33.007261" lon="35.407321"><ele>806.2</ele></trkpt>
      <trkpt lat="33.007285" lon="35.407380"><ele>805.2</ele></trkpt>
      <trkpt lat="33.007320" lon="35.407433"><ele>804.3</ele></trkpt>
      <trkpt lat="33.007352" lon="35.407479"><ele>802.8</ele></trkpt>
      <trkpt lat="33.007388" lon="35.407525"><ele>802.4</ele></trkpt>
      <trkpt lat="33.007415" lon="35.407551"><ele>802.4</ele></trkpt>
      <trkpt lat="33.007418" lon="35.407563"><ele>802.4</ele></trkpt>
      <trkpt lat="33.007526" lon="35.407662"><ele>802.8</ele></trkpt>
      <trkpt lat="33.007679" lon="35.407838"><ele>804.8</ele></trkpt>
      <trkpt lat="33.007799" lon="35.408065"><ele>805.7</ele></trkpt>
      <trkpt lat="33.007829" lon="35.408178"><ele>806.7</ele></trkpt>
      <trkpt lat="33.007848" lon="35.408382"><ele>808.6</ele></trkpt>
      <trkpt lat="33.007802" lon="35.408703"><ele>810.0</ele></trkpt>
      <trkpt lat="33.007762" lon="35.409036"><ele>810.5</ele></trkpt>
      <trkpt lat="33.007739" lon="35.409312"><ele>810.5</ele></trkpt>
      <trkpt lat="33.007705" lon="35.409560"><ele>811.5</ele></trkpt>
      <trkpt lat="33.007681" lon="35.409833"><ele>811.5</ele></trkpt>
      <trkpt lat="33.007642" lon="35.410049"><ele>811.5</ele></trkpt>
      <trkpt lat="33.007589" lon="35.410291"><ele>810.5</ele></trkpt>
      <trkpt lat="33.007583" lon="35.410530"><ele>809.6</ele></trkpt>
      <trkpt lat="33.007592" lon="35.410713"><ele>808.1</ele></trkpt>
      <trkpt lat="33.007580" lon="35.410933"><ele>807.2</ele></trkpt>
      <trkpt lat="33.007518" lon="35.411229"><ele>806.2</ele></trkpt>
      <trkpt lat="33.007446" lon="35.411434"><ele>807.2</ele></trkpt>
      <trkpt lat="33.007394" lon="35.411570"><ele>807.6</ele></trkpt>
      <trkpt lat="33.007387" lon="35.411734"><ele>806.7</ele></trkpt>
      <trkpt lat="33.007360" lon="35.411912"><ele>804.8</ele></trkpt>
      <trkpt lat="33.007252" lon="35.412170"><ele>804.3</ele></trkpt>
      <trkpt lat="33.007116" lon="35.412449"><ele>804.8</ele></trkpt>
      <trkpt lat="33.006996" lon="35.412582"><ele>806.7</ele></trkpt>
      <trkpt lat="33.006834" lon="35.412849"><ele>808.6</ele></trkpt>
      <trkpt lat="33.006691" lon="35.413047"><ele>812.0</ele></trkpt>
      <trkpt lat="33.006554" lon="35.413190"><ele>815.8</ele></trkpt>
      <trkpt lat="33.006409" lon="35.413363"><ele>818.2</ele></trkpt>
      <trkpt lat="33.006350" lon="35.413466"><ele>818.2</ele></trkpt>
      <trkpt lat="33.006234" lon="35.413684"><ele>818.7</ele></trkpt>
      <trkpt lat="33.006094" lon="35.413903"><ele>822.5</ele></trkpt>
      <trkpt lat="33.005982" lon="35.414116"><ele>827.4</ele></trkpt>
      <trkpt lat="33.005907" lon="35.414285"><ele>829.8</ele></trkpt>
      <trkpt lat="33.005756" lon="35.414539"><ele>835.0</ele></trkpt>
      <trkpt lat="33.005679" lon="35.414717"><ele>836.5</ele></trkpt>
      <trkpt lat="33.005664" lon="35.414760"><ele>836.5</ele></trkpt>
      <trkpt lat="33.005665" lon="35.414762"><ele>836.5</ele></trkpt>
      <trkpt lat="33.005643" lon="35.414788"><ele>836.5</ele></trkpt>
      <trkpt lat="33.005643" lon="35.414792"><ele>837.0</ele></trkpt>
      <trkpt lat="33.005625" lon="35.414813"><ele>837.0</ele></trkpt>
      <trkpt lat="33.005583" lon="35.414909"><ele>837.0</ele></trkpt>
      <trkpt lat="33.005547" lon="35.415004"><ele>837.0</ele></trkpt>
      <trkpt lat="33.005523" lon="35.415076"><ele>836.0</ele></trkpt>
      <trkpt lat="33.005513" lon="35.415164"><ele>834.6</ele></trkpt>
      <trkpt lat="33.005493" lon="35.415280"><ele>833.1</ele></trkpt>
      <trkpt lat="33.005481" lon="35.415378"><ele>831.7</ele></trkpt>
      <trkpt lat="33.005446" lon="35.415517"><ele>829.8</ele></trkpt>
      <trkpt lat="33.005436" lon="35.415553"><ele>829.8</ele></trkpt>
      <trkpt lat="33.005404" lon="35.415662"><ele>829.3</ele></trkpt>
      <trkpt lat="33.005398" lon="35.415755"><ele>826.9</ele></trkpt>
      <trkpt lat="33.005403" lon="35.415842"><ele>826.4</ele></trkpt>
      <trkpt lat="33.005404" lon="35.415923"><ele>826.4</ele></trkpt>
      <trkpt lat="33.005394" lon="35.416006"><ele>824.9</ele></trkpt>
      <trkpt lat="33.005391" lon="35.416103"><ele>824.5</ele></trkpt>
      <trkpt lat="33.005392" lon="35.416116"><ele>824.5</ele></trkpt>
      <trkpt lat="33.005385" lon="35.416159"><ele>823.0</ele></trkpt>
      <trkpt lat="33.005387" lon="35.416210"><ele>821.6</ele></trkpt>
      <trkpt lat="33.005384" lon="35.416281"><ele>820.1</ele></trkpt>
      <trkpt lat="33.005371" lon="35.416349"><ele>818.7</ele></trkpt>
      <trkpt lat="33.005359" lon="35.416365"><ele>818.7</ele></trkpt>
      <trkpt lat="33.005323" lon="35.416471"><ele>817.7</ele></trkpt>
      <trkpt lat="33.005282" lon="35.416572"><ele>816.3</ele></trkpt>
      <trkpt lat="33.005231" lon="35.416692"><ele>815.3</ele></trkpt>
      <trkpt lat="33.005184" lon="35.416799"><ele>813.9</ele></trkpt>
      <trkpt lat="33.005115" lon="35.416908"><ele>812.0</ele></trkpt>
      <trkpt lat="33.005057" lon="35.417039"><ele>811.0</ele></trkpt>
      <trkpt lat="33.004983" lon="35.417174"><ele>810.0</ele></trkpt>
      <trkpt lat="33.004889" lon="35.417323"><ele>809.1</ele></trkpt>
      <trkpt lat="33.004801" lon="35.417445"><ele>808.1</ele></trkpt>
      <trkpt lat="33.004598" lon="35.417703"><ele>808.6</ele></trkpt>
      <trkpt lat="33.004472" lon="35.417973"><ele>809.1</ele></trkpt>
      <trkpt lat="33.004381" lon="35.418211"><ele>810.0</ele></trkpt>
      <trkpt lat="33.004286" lon="35.418438"><ele>812.9</ele></trkpt>
      <trkpt lat="33.004202" lon="35.418580"><ele>815.8</ele></trkpt>
      <trkpt lat="33.004124" lon="35.418718"><ele>817.3</ele></trkpt>
      <trkpt lat="33.003959" lon="35.418867"><ele>819.7</ele></trkpt>
      <trkpt lat="33.003848" lon="35.418994"><ele>821.1</ele></trkpt>
      <trkpt lat="33.003773" lon="35.419103"><ele>821.6</ele></trkpt>
      <trkpt lat="33.003646" lon="35.419284"><ele>823.5</ele></trkpt>
      <trkpt lat="33.003502" lon="35.419545"><ele>824.9</ele></trkpt>
      <trkpt lat="33.003419" lon="35.419710"><ele>824.9</ele></trkpt>
      <trkpt lat="33.003250" lon="35.419899"><ele>825.9</ele></trkpt>
      <trkpt lat="33.003098" lon="35.420025"><ele>826.4</ele></trkpt>
      <trkpt lat="33.002988" lon="35.420152"><ele>826.4</ele></trkpt>
      <trkpt lat="33.002913" lon="35.420327"><ele>825.9</ele></trkpt>
      <trkpt lat="33.002789" lon="35.420425"><ele>826.9</ele></trkpt>
      <trkpt lat="33.002682" lon="35.420491"><ele>828.8</ele></trkpt>
      <trkpt lat="33.002556" lon="35.420611"><ele>830.7</ele></trkpt>
      <trkpt lat="33.002414" lon="35.420746"><ele>831.7</ele></trkpt>
      <trkpt lat="33.002226" lon="35.420842"><ele>834.1</ele></trkpt>
      <trkpt lat="33.001997" lon="35.420923"><ele>836.5</ele></trkpt>
      <trkpt lat="33.001826" lon="35.421002"><ele>838.4</ele></trkpt>
      <trkpt lat="33.001614" lon="35.421187"><ele>838.4</ele></trkpt>
      <trkpt lat="33.001430" lon="35.421348"><ele>839.4</ele></trkpt>
      <trkpt lat="33.001273" lon="35.421427"><ele>841.8</ele></trkpt>
      <trkpt lat="33.001042" lon="35.421506"><ele>844.7</ele></trkpt>
      <trkpt lat="33.000965" lon="35.421536"><ele>846.1</ele></trkpt>
      <trkpt lat="33.000715" lon="35.421654"><ele>849.0</ele></trkpt>
      <trkpt lat="33.000542" lon="35.421746"><ele>851.4</ele></trkpt>
      <trkpt lat="33.000383" lon="35.421849"><ele>852.8</ele></trkpt>
      <trkpt lat="33.000206" lon="35.421971"><ele>853.3</ele></trkpt>
      <trkpt lat="33.000100" lon="35.422069"><ele>852.8</ele></trkpt>
      <trkpt lat="32.999951" lon="35.422181"><ele>853.3</ele></trkpt>
      <trkpt lat="32.999832" lon="35.422254"><ele>853.3</ele></trkpt>
      <trkpt lat="32.999645" lon="35.422357"><ele>854.7</ele></trkpt>
      <trkpt lat="32.999368" lon="35.422475"><ele>858.1</ele></trkpt>
      <trkpt lat="32.999206" lon="35.422547"><ele>860.0</ele></trkpt>
      <trkpt lat="32.999179" lon="35.422565"><ele>859.6</ele></trkpt>
      <trkpt lat="32.999139" lon="35.422586"><ele>859.1</ele></trkpt>
      <trkpt lat="32.999088" lon="35.422638"><ele>858.6</ele></trkpt>
      <trkpt lat="32.999057" lon="35.422689"><ele>858.1</ele></trkpt>
      <trkpt lat="32.999035" lon="35.422732"><ele>857.2</ele></trkpt>
      <trkpt lat="32.999015" lon="35.422765"><ele>856.7</ele></trkpt>
      <trkpt lat="32.998978" lon="35.422814"><ele>856.2</ele></trkpt>
      <trkpt lat="32.998942" lon="35.422843"><ele>855.7</ele></trkpt>
      <trkpt lat="32.998894" lon="35.422864"><ele>854.3</ele></trkpt>
      <trkpt lat="32.998838" lon="35.422885"><ele>853.3</ele></trkpt>
      <trkpt lat="32.998819" lon="35.422896"><ele>852.3</ele></trkpt>
      <trkpt lat="32.998695" lon="35.423006"><ele>849.9</ele></trkpt>
      <trkpt lat="32.998576" lon="35.423071"><ele>848.5</ele></trkpt>
      <trkpt lat="32.998403" lon="35.423144"><ele>848.0</ele></trkpt>
      <trkpt lat="32.998268" lon="35.423245"><ele>847.5</ele></trkpt>
      <trkpt lat="32.998139" lon="35.423277"><ele>848.5</ele></trkpt>
      <trkpt lat="32.997968" lon="35.423306"><ele>850.9</ele></trkpt>
      <trkpt lat="32.997675" lon="35.423447"><ele>853.3</ele></trkpt>
      <trkpt lat="32.997614" lon="35.423462"><ele>853.8</ele></trkpt>
      <trkpt lat="32.997159" lon="35.423483"><ele>857.2</ele></trkpt>
      <trkpt lat="32.996861" lon="35.423490"><ele>859.6</ele></trkpt>
      <trkpt lat="32.996671" lon="35.423517"><ele>861.5</ele></trkpt>
      <trkpt lat="32.996433" lon="35.423406"><ele>864.4</ele></trkpt>
      <trkpt lat="32.996314" lon="35.423374"><ele>865.8</ele></trkpt>
      <trkpt lat="32.996295" lon="35.423380"><ele>865.8</ele></trkpt>
      <trkpt lat="32.996235" lon="35.423370"><ele>864.8</ele></trkpt>
      <trkpt lat="32.996153" lon="35.423373"><ele>863.4</ele></trkpt>
      <trkpt lat="32.996097" lon="35.423380"><ele>862.4</ele></trkpt>
      <trkpt lat="32.996053" lon="35.423396"><ele>861.0</ele></trkpt>
      <trkpt lat="32.996023" lon="35.423411"><ele>860.0</ele></trkpt>
      <trkpt lat="32.995982" lon="35.423432"><ele>859.1</ele></trkpt>
      <trkpt lat="32.995945" lon="35.423461"><ele>857.6</ele></trkpt>
      <trkpt lat="32.995908" lon="35.423485"><ele>856.2</ele></trkpt>
      <trkpt lat="32.995870" lon="35.423511"><ele>855.2</ele></trkpt>
      <trkpt lat="32.995828" lon="35.423528"><ele>854.7</ele></trkpt>
      <trkpt lat="32.995731" lon="35.423530"><ele>852.8</ele></trkpt>
      <trkpt lat="32.995712" lon="35.423523"><ele>852.8</ele></trkpt>
      <trkpt lat="32.995667" lon="35.423518"><ele>852.3</ele></trkpt>
      <trkpt lat="32.995567" lon="35.423524"><ele>850.9</ele></trkpt>
      <trkpt lat="32.995466" lon="35.423536"><ele>849.0</ele></trkpt>
      <trkpt lat="32.995362" lon="35.423576"><ele>847.1</ele></trkpt>
      <trkpt lat="32.995247" lon="35.423624"><ele>845.1</ele></trkpt>
      <trkpt lat="32.995175" lon="35.423650"><ele>843.2</ele></trkpt>
      <trkpt lat="32.995092" lon="35.423692"><ele>841.8</ele></trkpt>
      <trkpt lat="32.994995" lon="35.423743"><ele>839.8</ele></trkpt>
      <trkpt lat="32.994893" lon="35.423777"><ele>837.9</ele></trkpt>
      <trkpt lat="32.994807" lon="35.423794"><ele>836.5</ele></trkpt>
      <trkpt lat="32.994686" lon="35.423809"><ele>835.5</ele></trkpt>
      <trkpt lat="32.994651" lon="35.423815"><ele>835.0</ele></trkpt>
      <trkpt lat="32.994638" lon="35.423823"><ele>834.6</ele></trkpt>
      <trkpt lat="32.994636" lon="35.423819"><ele>834.6</ele></trkpt>
      <trkpt lat="32.994625" lon="35.423820"><ele>834.1</ele></trkpt>
      <trkpt lat="32.994586" lon="35.423828"><ele>834.1</ele></trkpt>
      <trkpt lat="32.994528" lon="35.423845"><ele>832.6</ele></trkpt>
      <trkpt lat="32.994465" lon="35.423872"><ele>831.2</ele></trkpt>
      <trkpt lat="32.994406" lon="35.423889"><ele>830.2</ele></trkpt>
      <trkpt lat="32.994372" lon="35.423910"><ele>829.8</ele></trkpt>
      <trkpt lat="32.994339" lon="35.423938"><ele>828.8</ele></trkpt>
      <trkpt lat="32.994295" lon="35.423963"><ele>827.4</ele></trkpt>
      <trkpt lat="32.994242" lon="35.423994"><ele>826.4</ele></trkpt>
      <trkpt lat="32.994168" lon="35.424032"><ele>824.9</ele></trkpt>
      <trkpt lat="32.994126" lon="35.424057"><ele>824.0</ele></trkpt>
      <trkpt lat="32.994082" lon="35.424079"><ele>823.0</ele></trkpt>
      <trkpt lat="32.994035" lon="35.424105"><ele>822.5</ele></trkpt>
      <trkpt lat="32.994004" lon="35.424130"><ele>821.6</ele></trkpt>
      <trkpt lat="32.993959" lon="35.424155"><ele>821.1</ele></trkpt>
      <trkpt lat="32.993912" lon="35.424177"><ele>820.1</ele></trkpt>
      <trkpt lat="32.993873" lon="35.424204"><ele>819.2</ele></trkpt>
      <trkpt lat="32.993836" lon="35.424246"><ele>818.2</ele></trkpt>
      <trkpt lat="32.993813" lon="35.424264"><ele>817.3</ele></trkpt>
      <trkpt lat="32.993781" lon="35.424294"><ele>816.3</ele></trkpt>
      <trkpt lat="32.993748" lon="35.424326"><ele>815.8</ele></trkpt>
      <trkpt lat="32.993710" lon="35.424363"><ele>815.8</ele></trkpt>
      <trkpt lat="32.993676" lon="35.424399"><ele>814.9</ele></trkpt>
      <trkpt lat="32.993659" lon="35.424431"><ele>814.9</ele></trkpt>
      <trkpt lat="32.993651" lon="35.424463"><ele>813.9</ele></trkpt>
      <trkpt lat="32.993655" lon="35.424503"><ele>813.4</ele></trkpt>
      <trkpt lat="32.993657" lon="35.424527"><ele>812.9</ele></trkpt>
      <trkpt lat="32.993657" lon="35.424565"><ele>812.0</ele></trkpt>
      <trkpt lat="32.993655" lon="35.424593"><ele>811.0</ele></trkpt>
      <trkpt lat="32.993654" lon="35.424617"><ele>810.0</ele></trkpt>
      <trkpt lat="32.993650" lon="35.424658"><ele>809.1</ele></trkpt>
      <trkpt lat="32.993654" lon="35.424689"><ele>808.1</ele></trkpt>
      <trkpt lat="32.993670" lon="35.424752"><ele>807.2</ele></trkpt>
      <trkpt lat="32.993692" lon="35.424823"><ele>805.7</ele></trkpt>
      <trkpt lat="32.993714" lon="35.424873"><ele>804.8</ele></trkpt>
      <trkpt lat="32.993716" lon="35.424903"><ele>804.3</ele></trkpt>
      <trkpt lat="32.993678" lon="35.424888"><ele>803.8</ele></trkpt>
      <trkpt lat="32.993675" lon="35.424874"><ele>803.8</ele></trkpt>
      <trkpt lat="32.993665" lon="35.424879"><ele>803.3</ele></trkpt>
      <trkpt lat="32.993657" lon="35.424897"><ele>802.8</ele></trkpt>
      <trkpt lat="32.993653" lon="35.424908"><ele>802.8</ele></trkpt>
      <trkpt lat="32.993655" lon="35.424905"><ele>802.4</ele></trkpt>
      <trkpt lat="32.993660" lon="35.424897"><ele>802.4</ele></trkpt>
      <trkpt lat="32.993644" lon="35.424898"><ele>802.8</ele></trkpt>
      <trkpt lat="32.993627" lon="35.424902"><ele>801.9</ele></trkpt>
      <trkpt lat="32.993614" lon="35.424905"><ele>800.4</ele></trkpt>
      <trkpt lat="32.993604" lon="35.424889"><ele>800.0</ele></trkpt>
      <trkpt lat="32.993586" lon="35.424880"><ele>799.0</ele></trkpt>
      <trkpt lat="32.993577" lon="35.424881"><ele>799.0</ele></trkpt>
      <trkpt lat="32.993572" lon="35.424874"><ele>799.5</ele></trkpt>
      <trkpt lat="32.993433" lon="35.424879"><ele>803.3</ele></trkpt>
      <trkpt lat="32.993277" lon="35.424846"><ele>806.7</ele></trkpt>
      <trkpt lat="32.993128" lon="35.424773"><ele>814.4</ele></trkpt>
      <trkpt lat="32.992977" lon="35.424776"><ele>816.8</ele></trkpt>
      <trkpt lat="32.992818" lon="35.424854"><ele>817.7</ele></trkpt>
      <trkpt lat="32.992692" lon="35.425007"><ele>817.3</ele></trkpt>
      <trkpt lat="32.992584" lon="35.425151"><ele>816.8</ele></trkpt>
      <trkpt lat="32.992485" lon="35.425423"><ele>817.3</ele></trkpt>
      <trkpt lat="32.992419" lon="35.425747"><ele>819.7</ele></trkpt>
      <trkpt lat="32.992306" lon="35.426048"><ele>823.5</ele></trkpt>
      <trkpt lat="32.992236" lon="35.426213"><ele>824.9</ele></trkpt>
      <trkpt lat="32.992220" lon="35.426350"><ele>824.0</ele></trkpt>
      <trkpt lat="32.992200" lon="35.426541"><ele>821.1</ele></trkpt>
      <trkpt lat="32.992188" lon="35.426716"><ele>819.7</ele></trkpt>
      <trkpt lat="32.992153" lon="35.426878"><ele>819.7</ele></trkpt>
      <trkpt lat="32.991990" lon="35.427116"><ele>822.1</ele></trkpt>
      <trkpt lat="32.992059" lon="35.426567"></trkpt>
      <trkpt lat="32.992070" lon="35.426324"><ele>832.6</ele></trkpt>
      <trkpt lat="32.992076" lon="35.426130"><ele>835.0</ele></trkpt>
      <trkpt lat="32.992098" lon="35.426025"><ele>837.0</ele></trkpt>
      <trkpt lat="32.992096" lon="35.426001"><ele>837.4</ele></trkpt>
      <trkpt lat="32.992083" lon="35.425859"><ele>839.4</ele></trkpt>
      <trkpt lat="32.992045" lon="35.425664"><ele>840.8</ele></trkpt>
      <trkpt lat="32.992003" lon="35.425475"><ele>842.3</ele></trkpt>
      <trkpt lat="32.991965" lon="35.425332"><ele>843.7</ele></trkpt>
      <trkpt lat="32.991896" lon="35.425151"><ele>845.1</ele></trkpt>
      <trkpt lat="32.991842" lon="35.424976"><ele>846.6</ele></trkpt>
      <trkpt lat="32.991839" lon="35.424892"><ele>848.0</ele></trkpt>
      <trkpt lat="32.991850" lon="35.424725"><ele>849.9</ele></trkpt>
      <trkpt lat="32.991926" lon="35.424548"><ele>851.4</ele></trkpt>
      <trkpt lat="32.992038" lon="35.424428"><ele>852.3</ele></trkpt>
      <trkpt lat="32.992125" lon="35.424320"><ele>853.3</ele></trkpt>
      <trkpt lat="32.992225" lon="35.424166"><ele>853.8</ele></trkpt>
      <trkpt lat="32.992329" lon="35.424003"><ele>853.8</ele></trkpt>
      <trkpt lat="32.992362" lon="35.423910"><ele>854.7</ele></trkpt>
      <trkpt lat="32.992429" lon="35.423696"><ele>857.6</ele></trkpt>
      <trkpt lat="32.992466" lon="35.423611"><ele>859.1</ele></trkpt>
      <trkpt lat="32.992507" lon="35.423552"><ele>859.6</ele></trkpt>
      <trkpt lat="32.992549" lon="35.423479"><ele>860.5</ele></trkpt>
      <trkpt lat="32.992559" lon="35.423457"><ele>860.5</ele></trkpt>
      <trkpt lat="32.992622" lon="35.423301"><ele>859.6</ele></trkpt>
      <trkpt lat="32.992717" lon="35.423129"><ele>862.4</ele></trkpt>
      <trkpt lat="32.992764" lon="35.422971"><ele>866.3</ele></trkpt>
      <trkpt lat="32.992794" lon="35.422865"><ele>867.7</ele></trkpt>
      <trkpt lat="32.992841" lon="35.422645"><ele>870.6</ele></trkpt>
      <trkpt lat="32.992860" lon="35.422574"><ele>873.0</ele></trkpt>
      <trkpt lat="32.992943" lon="35.422467"><ele>873.0</ele></trkpt>
      <trkpt lat="32.993035" lon="35.422489"><ele>872.1</ele></trkpt>
      <trkpt lat="32.993051" lon="35.422496"><ele>871.1</ele></trkpt>
      <trkpt lat="32.993099" lon="35.422539"><ele>870.6</ele></trkpt>
      <trkpt lat="32.993146" lon="35.422615"><ele>873.5</ele></trkpt>
      <trkpt lat="32.993166" lon="35.422654"><ele>875.4</ele></trkpt>
      <trkpt lat="32.993180" lon="35.422666"><ele>875.9</ele></trkpt>
      <trkpt lat="32.993398" lon="35.422789"><ele>879.3</ele></trkpt>
      <trkpt lat="32.993470" lon="35.422829"><ele>879.7</ele></trkpt>
      <trkpt lat="32.993635" lon="35.422860"><ele>880.2</ele></trkpt>
      <trkpt lat="32.993676" lon="35.422855"><ele>880.2</ele></trkpt>
      <trkpt lat="32.993970" lon="35.422814"><ele>882.1</ele></trkpt>
      <trkpt lat="32.994212" lon="35.422723"><ele>885.0</ele></trkpt>
      <trkpt lat="32.994383" lon="35.422652"><ele>887.0</ele></trkpt>
      <trkpt lat="32.994510" lon="35.422618"><ele>888.9</ele></trkpt>
      <trkpt lat="32.994575" lon="35.422569"><ele>890.3</ele></trkpt>
      <trkpt lat="32.994580" lon="35.422562"><ele>890.3</ele></trkpt>
      <trkpt lat="32.994612" lon="35.422560"><ele>890.3</ele></trkpt>
      <trkpt lat="32.994645" lon="35.422560"><ele>889.8</ele></trkpt>
      <trkpt lat="32.994697" lon="35.422550"><ele>889.8</ele></trkpt>
      <trkpt lat="32.994798" lon="35.422538"><ele>890.3</ele></trkpt>
      <trkpt lat="32.995070" lon="35.422530"><ele>890.8</ele></trkpt>
      <trkpt lat="32.995256" lon="35.422508"><ele>890.8</ele></trkpt>
      <trkpt lat="32.995466" lon="35.422473"><ele>890.3</ele></trkpt>
      <trkpt lat="32.995726" lon="35.422427"><ele>889.8</ele></trkpt>
      <trkpt lat="32.995928" lon="35.422380"><ele>889.8</ele></trkpt>
      <trkpt lat="32.996099" lon="35.422328"><ele>888.4</ele></trkpt>
      <trkpt lat="32.996122" lon="35.422320"><ele>887.9</ele></trkpt>
      <trkpt lat="32.996133" lon="35.422326"><ele>887.9</ele></trkpt>
      <trkpt lat="32.996150" lon="35.422312"><ele>888.9</ele></trkpt>
      <trkpt lat="32.996140" lon="35.422284"><ele>889.4</ele></trkpt>
      <trkpt lat="32.995914" lon="35.422304"><ele>892.2</ele></trkpt>
      <trkpt lat="32.995773" lon="35.422315"><ele>893.7</ele></trkpt>
      <trkpt lat="32.995734" lon="35.422312"><ele>894.2</ele></trkpt>
      <trkpt lat="32.995694" lon="35.422314"><ele>895.1</ele></trkpt>
      <trkpt lat="32.995647" lon="35.422331"><ele>895.1</ele></trkpt>
      <trkpt lat="32.995585" lon="35.422329"><ele>895.6</ele></trkpt>
      <trkpt lat="32.995546" lon="35.422329"><ele>896.1</ele></trkpt>
      <trkpt lat="32.995484" lon="35.422335"><ele>896.1</ele></trkpt>
      <trkpt lat="32.995453" lon="35.422339"><ele>896.6</ele></trkpt>
      <trkpt lat="32.995424" lon="35.422333"><ele>897.5</ele></trkpt>
      <trkpt lat="32.995384" lon="35.422326"><ele>898.0</ele></trkpt>
      <trkpt lat="32.995315" lon="35.422342"><ele>898.5</ele></trkpt>
      <trkpt lat="32.995189" lon="35.422321"><ele>900.4</ele></trkpt>
      <trkpt lat="32.995024" lon="35.422294"><ele>900.9</ele></trkpt>
      <trkpt lat="32.994939" lon="35.422280"><ele>901.4</ele></trkpt>
      <trkpt lat="32.994926" lon="35.422277"><ele>901.4</ele></trkpt>
      <trkpt lat="32.994889" lon="35.422261"><ele>901.9</ele></trkpt>
      <trkpt lat="32.994871" lon="35.422258"><ele>902.3</ele></trkpt>
      <trkpt lat="32.994737" lon="35.422243"><ele>903.8</ele></trkpt>
      <trkpt lat="32.994707" lon="35.422235"><ele>904.3</ele></trkpt>
      <trkpt lat="32.994665" lon="35.422230"><ele>904.3</ele></trkpt>
      <trkpt lat="32.994627" lon="35.422239"><ele>903.8</ele></trkpt>
      <trkpt lat="32.994586" lon="35.422225"><ele>904.7</ele></trkpt>
      <trkpt lat="32.994535" lon="35.422207"><ele>905.7</ele></trkpt>
      <trkpt lat="32.994487" lon="35.422194"><ele>906.2</ele></trkpt>
      <trkpt lat="32.994427" lon="35.422201"><ele>906.2</ele></trkpt>
      <trkpt lat="32.994396" lon="35.422202"><ele>906.2</ele></trkpt>
      <trkpt lat="32.994377" lon="35.422202"><ele>906.7</ele></trkpt>
      <trkpt lat="32.994358" lon="35.422199"><ele>907.1</ele></trkpt>
      <trkpt lat="32.994208" lon="35.422213"><ele>909.1</ele></trkpt>
      <trkpt lat="32.994090" lon="35.422230"><ele>910.0</ele></trkpt>
      <trkpt lat="32.993967" lon="35.422233"><ele>911.0</ele></trkpt>
      <trkpt lat="32.993905" lon="35.422239"><ele>911.9</ele></trkpt>
      <trkpt lat="32.993865" lon="35.422239"><ele>912.4</ele></trkpt>
      <trkpt lat="32.993782" lon="35.422240"><ele>912.9</ele></trkpt>
      <trkpt lat="32.993774" lon="35.422238"><ele>912.9</ele></trkpt>
      <trkpt lat="32.993755" lon="35.422223"><ele>913.4</ele></trkpt>
      <trkpt lat="32.993733" lon="35.422219"><ele>913.4</ele></trkpt>
      <trkpt lat="32.993710" lon="35.422222"><ele>913.4</ele></trkpt>
      <trkpt lat="32.993679" lon="35.422208"><ele>913.9</ele></trkpt>
      <trkpt lat="32.993649" lon="35.422188"><ele>914.4</ele></trkpt>
      <trkpt lat="32.993609" lon="35.422147"><ele>914.4</ele></trkpt>
      <trkpt lat="32.993563" lon="35.422108"><ele>914.4</ele></trkpt>
      <trkpt lat="32.993520" lon="35.422069"><ele>914.4</ele></trkpt>
      <trkpt lat="32.993488" lon="35.422052"><ele>914.8</ele></trkpt>
      <trkpt lat="32.993419" lon="35.421980"><ele>915.8</ele></trkpt>
      <trkpt lat="32.993390" lon="35.421957"><ele>916.3</ele></trkpt>
      <trkpt lat="32.993377" lon="35.421938"><ele>916.8</ele></trkpt>
      <trkpt lat="32.993331" lon="35.421889"><ele>916.8</ele></trkpt>
      <trkpt lat="32.993287" lon="35.421841"><ele>916.8</ele></trkpt>
      <trkpt lat="32.993265" lon="35.421820"><ele>917.7</ele></trkpt>
      <trkpt lat="32.993185" lon="35.421779"><ele>919.6</ele></trkpt>
      <trkpt lat="32.993122" lon="35.421688"><ele>920.1</ele></trkpt>
      <trkpt lat="32.993113" lon="35.421677"><ele>920.6</ele></trkpt>
      <trkpt lat="32.993104" lon="35.421662"><ele>921.1</ele></trkpt>
      <trkpt lat="32.993100" lon="35.421653"><ele>921.6</ele></trkpt>
      <trkpt lat="32.993075" lon="35.421620"><ele>922.0</ele></trkpt>
      <trkpt lat="32.993058" lon="35.421599"><ele>922.0</ele></trkpt>
      <trkpt lat="32.993051" lon="35.421578"><ele>922.5</ele></trkpt>
      <trkpt lat="32.993036" lon="35.421559"><ele>922.5</ele></trkpt>
      <trkpt lat="32.993013" lon="35.421520"><ele>923.5</ele></trkpt>
      <trkpt lat="32.992982" lon="35.421472"><ele>924.4</ele></trkpt>
      <trkpt lat="32.992951" lon="35.421429"><ele>925.4</ele></trkpt>
      <trkpt lat="32.992934" lon="35.421394"><ele>925.9</ele></trkpt>
      <trkpt lat="32.992916" lon="35.421362"><ele>926.8</ele></trkpt>
      <trkpt lat="32.992893" lon="35.421340"><ele>928.3</ele></trkpt>
      <trkpt lat="32.992863" lon="35.421296"><ele>930.2</ele></trkpt>
      <trkpt lat="32.992827" lon="35.421214"><ele>932.1</ele></trkpt>
      <trkpt lat="32.992795" lon="35.421165"><ele>932.6</ele></trkpt>
      <trkpt lat="32.992778" lon="35.421115"><ele>932.1</ele></trkpt>
      <trkpt lat="32.992777" lon="35.421095"><ele>932.1</ele></trkpt>
      <trkpt lat="32.992752" lon="35.421037"><ele>932.6</ele></trkpt>
      <trkpt lat="32.992709" lon="35.420953"><ele>933.1</ele></trkpt>
      <trkpt lat="32.992650" lon="35.420913"><ele>934.5</ele></trkpt>
      <trkpt lat="32.992628" lon="35.420905"><ele>933.1</ele></trkpt>
      <trkpt lat="32.992625" lon="35.420901"><ele>932.6</ele></trkpt>
      <trkpt lat="32.992621" lon="35.420893"><ele>932.6</ele></trkpt>
      <trkpt lat="32.992571" lon="35.420895"><ele>931.2</ele></trkpt>
      <trkpt lat="32.992536" lon="35.420894"><ele>930.2</ele></trkpt>
      <trkpt lat="32.992483" lon="35.420929"><ele>929.7</ele></trkpt>
      <trkpt lat="32.992412" lon="35.420929"><ele>930.7</ele></trkpt>
      <trkpt lat="32.992325" lon="35.420996"><ele>932.1</ele></trkpt>
      <trkpt lat="32.992247" lon="35.421077"><ele>932.6</ele></trkpt>
      <trkpt lat="32.992153" lon="35.421161"><ele>933.1</ele></trkpt>
      <trkpt lat="32.992071" lon="35.421284"><ele>934.5</ele></trkpt>
      <trkpt lat="32.992058" lon="35.421307"><ele>935.0</ele></trkpt>
      <trkpt lat="32.992059" lon="35.421328"><ele>935.5</ele></trkpt>
      <trkpt lat="32.992063" lon="35.421393"><ele>935.5</ele></trkpt>
      <trkpt lat="32.992032" lon="35.421458"><ele>936.0</ele></trkpt>
      <trkpt lat="32.992032" lon="35.421501"><ele>936.5</ele></trkpt>
      <trkpt lat="32.992014" lon="35.421571"><ele>937.4</ele></trkpt>
      <trkpt lat="32.991982" lon="35.421686"><ele>938.4</ele></trkpt>
      <trkpt lat="32.991927" lon="35.421817"><ele>939.3</ele></trkpt>
      <trkpt lat="32.991880" lon="35.421957"><ele>940.3</ele></trkpt>
      <trkpt lat="32.991829" lon="35.422078"><ele>941.7</ele></trkpt>
      <trkpt lat="32.991818" lon="35.422096"><ele>941.7</ele></trkpt>
      <trkpt lat="32.991799" lon="35.422147"><ele>941.7</ele></trkpt>
      <trkpt lat="32.991788" lon="35.422168"><ele>941.3</ele></trkpt>
      <trkpt lat="32.991764" lon="35.422189"><ele>941.3</ele></trkpt>
      <trkpt lat="32.991744" lon="35.422200"><ele>941.3</ele></trkpt>
      <trkpt lat="32.991645" lon="35.422248"><ele>940.8</ele></trkpt>
      <trkpt lat="32.991543" lon="35.422293"><ele>940.3</ele></trkpt>
      <trkpt lat="32.991458" lon="35.422352"><ele>939.8</ele></trkpt>
      <trkpt lat="32.991356" lon="35.422418"><ele>940.8</ele></trkpt>
      <trkpt lat="32.991334" lon="35.422451"><ele>940.8</ele></trkpt>
      <trkpt lat="32.991306" lon="35.422481"><ele>941.3</ele></trkpt>
      <trkpt lat="32.991301" lon="35.422497"><ele>941.7</ele></trkpt>
      <trkpt lat="32.991297" lon="35.422500"><ele>942.2</ele></trkpt>
      <trkpt lat="32.991248" lon="35.422627"><ele>942.7</ele></trkpt>
      <trkpt lat="32.991215" lon="35.422766"><ele>943.7</ele></trkpt>
      <trkpt lat="32.991108" lon="35.422973"><ele>944.6</ele></trkpt>
      <trkpt lat="32.991011" lon="35.423102"><ele>945.6</ele></trkpt>
      <trkpt lat="32.990977" lon="35.423140"><ele>946.1</ele></trkpt>
      <trkpt lat="32.990907" lon="35.423216"><ele>946.1</ele></trkpt>
      <trkpt lat="32.990878" lon="35.423235"><ele>946.1</ele></trkpt>
      <trkpt lat="32.990857" lon="35.423256"><ele>945.6</ele></trkpt>
      <trkpt lat="32.990765" lon="35.423342"><ele>946.1</ele></trkpt>
      <trkpt lat="32.990702" lon="35.423387"><ele>946.6</ele></trkpt>
      <trkpt lat="32.990498" lon="35.423394"><ele>949.0</ele></trkpt>
      <trkpt lat="32.990348" lon="35.423415"><ele>950.4</ele></trkpt>
      <trkpt lat="32.990151" lon="35.423502"><ele>954.7</ele></trkpt>
      <trkpt lat="32.989993" lon="35.423591"><ele>955.7</ele></trkpt>
      <trkpt lat="32.989933" lon="35.423661"><ele>955.7</ele></trkpt>
      <trkpt lat="32.989924" lon="35.423667"><ele>955.7</ele></trkpt>
      <trkpt lat="32.989896" lon="35.423682"><ele>956.2</ele></trkpt>
      <trkpt lat="32.989880" lon="35.423695"><ele>957.1</ele></trkpt>
      <trkpt lat="32.989842" lon="35.423780"><ele>958.1</ele></trkpt>
      <trkpt lat="32.989795" lon="35.423906"><ele>958.6</ele></trkpt>
      <trkpt lat="32.989730" lon="35.424066"><ele>960.5</ele></trkpt>
      <trkpt lat="32.989669" lon="35.424265"><ele>962.4</ele></trkpt>
      <trkpt lat="32.989619" lon="35.424440"><ele>963.9</ele></trkpt>
      <trkpt lat="32.989589" lon="35.424616"><ele>965.8</ele></trkpt>
      <trkpt lat="32.989566" lon="35.424681"><ele>966.7</ele></trkpt>
      <trkpt lat="32.989558" lon="35.424745"><ele>967.2</ele></trkpt>
      <trkpt lat="32.989546" lon="35.424786"><ele>967.7</ele></trkpt>
      <trkpt lat="32.989535" lon="35.424815"><ele>968.2</ele></trkpt>
      <trkpt lat="32.989531" lon="35.424839"><ele>968.2</ele></trkpt>
      <trkpt lat="32.989517" lon="35.424879"><ele>968.2</ele></trkpt>
      <trkpt lat="32.989505" lon="35.424919"><ele>968.7</ele></trkpt>
      <trkpt lat="32.989496" lon="35.424947"><ele>969.1</ele></trkpt>
      <trkpt lat="32.989492" lon="35.424964"><ele>969.1</ele></trkpt>
      <trkpt lat="32.989428" lon="35.425101"><ele>969.6</ele></trkpt>
      <trkpt lat="32.989339" lon="35.425163"><ele>970.6</ele></trkpt>
      <trkpt lat="32.989271" lon="35.425149"><ele>971.1</ele></trkpt>
      <trkpt lat="32.989083" lon="35.425034"><ele>973.0</ele></trkpt>
      <trkpt lat="32.988942" lon="35.424987"><ele>974.4</ele></trkpt>
      <trkpt lat="32.988788" lon="35.424955"><ele>976.4</ele></trkpt>
      <trkpt lat="32.988603" lon="35.424924"><ele>978.3</ele></trkpt>
      <trkpt lat="32.988501" lon="35.424934"><ele>979.2</ele></trkpt>
      <trkpt lat="32.988379" lon="35.424870"><ele>980.2</ele></trkpt>
      <trkpt lat="32.988235" lon="35.424790"><ele>981.6</ele></trkpt>
      <trkpt lat="32.988157" lon="35.424779"><ele>982.6</ele></trkpt>
      <trkpt lat="32.987924" lon="35.424806"><ele>985.0</ele></trkpt>
      <trkpt lat="32.987800" lon="35.424835"><ele>986.9</ele></trkpt>
      <trkpt lat="32.987691" lon="35.424833"><ele>988.4</ele></trkpt>
      <trkpt lat="32.987565" lon="35.424849"><ele>989.8</ele></trkpt>
      <trkpt lat="32.987412" lon="35.424867"><ele>991.7</ele></trkpt>
      <trkpt lat="32.987300" lon="35.424874"><ele>992.7</ele></trkpt>
      <trkpt lat="32.987228" lon="35.424876"><ele>993.7</ele></trkpt>
      <trkpt lat="32.987213" lon="35.424882"><ele>993.7</ele></trkpt>
      <trkpt lat="32.987195" lon="35.424879"><ele>994.1</ele></trkpt>
      <trkpt lat="32.987140" lon="35.424868"><ele>994.6</ele></trkpt>
      <trkpt lat="32.987087" lon="35.424841"><ele>995.1</ele></trkpt>
      <trkpt lat="32.987041" lon="35.424820"><ele>995.6</ele></trkpt>
      <trkpt lat="32.986996" lon="35.424798"><ele>996.5</ele></trkpt>
      <trkpt lat="32.986948" lon="35.424777"><ele>997.5</ele></trkpt>
      <trkpt lat="32.986926" lon="35.424743"><ele>998.0</ele></trkpt>
      <trkpt lat="32.986900" lon="35.424716"><ele>998.5</ele></trkpt>
      <trkpt lat="32.986874" lon="35.424661"><ele>999.9</ele></trkpt>
      <trkpt lat="32.986866" lon="35.424653"><ele>1000.9</ele></trkpt>
      <trkpt lat="32.986809" lon="35.424608"><ele>1001.4</ele></trkpt>
      <trkpt lat="32.986762" lon="35.424541"><ele>1002.3</ele></trkpt>
      <trkpt lat="32.986741" lon="35.424528"><ele>1002.8</ele></trkpt>
      <trkpt lat="32.986722" lon="35.424509"><ele>1003.3</ele></trkpt>
      <trkpt lat="32.986687" lon="35.424472"><ele>1003.8</ele></trkpt>
      <trkpt lat="32.986665" lon="35.424442"><ele>1004.2</ele></trkpt>
      <trkpt lat="32.986632" lon="35.424409"><ele>1004.7</ele></trkpt>
      <trkpt lat="32.986618" lon="35.424391"><ele>1005.2</ele></trkpt>
      <trkpt lat="32.986594" lon="35.424376"><ele>1005.7</ele></trkpt>
      <trkpt lat="32.986573" lon="35.424243"><ele>1008.6</ele></trkpt>
      <trkpt lat="32.986635" lon="35.424097"><ele>1011.0</ele></trkpt>
      <trkpt lat="32.986710" lon="35.424029"><ele>1012.4</ele></trkpt>
      <trkpt lat="32.986794" lon="35.423990"><ele>1012.9</ele></trkpt>
      <trkpt lat="32.986861" lon="35.423966"><ele>1013.8</ele></trkpt>
      <trkpt lat="32.987020" lon="35.423949"><ele>1015.8</ele></trkpt>
      <trkpt lat="32.987157" lon="35.423946"><ele>1016.3</ele></trkpt>
      <trkpt lat="32.987291" lon="35.423926"><ele>1017.7</ele></trkpt>
      <trkpt lat="32.987306" lon="35.423928"><ele>1017.7</ele></trkpt>
      <trkpt lat="32.987374" lon="35.423930"><ele>1018.2</ele></trkpt>
      <trkpt lat="32.987460" lon="35.423941"><ele>1019.1</ele></trkpt>
      <trkpt lat="32.987556" lon="35.423862"><ele>1019.1</ele></trkpt>
      <trkpt lat="32.987578" lon="35.423850"><ele>1019.1</ele></trkpt>
      <trkpt lat="32.987868" lon="35.423682"><ele>1019.6</ele></trkpt>
      <trkpt lat="32.988109" lon="35.423562"><ele>1021.1</ele></trkpt>
      <trkpt lat="32.988296" lon="35.423489"><ele>1023.5</ele></trkpt>
      <trkpt lat="32.988526" lon="35.423441"><ele>1026.3</ele></trkpt>
      <trkpt lat="32.988574" lon="35.423431"><ele>1027.3</ele></trkpt>
      <trkpt lat="32.988661" lon="35.423377"><ele>1028.3</ele></trkpt>
      <trkpt lat="32.988668" lon="35.423366"><ele>1028.3</ele></trkpt>
      <trkpt lat="32.988675" lon="35.423335"><ele>1028.7</ele></trkpt>
      <trkpt lat="32.988708" lon="35.423267"><ele>1028.7</ele></trkpt>
      <trkpt lat="32.988716" lon="35.423254"><ele>1029.2</ele></trkpt>
      <trkpt lat="32.988737" lon="35.423182"><ele>1029.7</ele></trkpt>
      <trkpt lat="32.988782" lon="35.422953"><ele>1030.7</ele></trkpt>
      <trkpt lat="32.988799" lon="35.422839"><ele>1032.1</ele></trkpt>
      <trkpt lat="32.988817" lon="35.422753"><ele>1034.0</ele></trkpt>
      <trkpt lat="32.988864" lon="35.422594"><ele>1036.0</ele></trkpt>
      <trkpt lat="32.988873" lon="35.422581"><ele>1036.4</ele></trkpt>
      <trkpt lat="32.988932" lon="35.422486"><ele>1036.9</ele></trkpt>
      <trkpt lat="32.989039" lon="35.422363"><ele>1037.9</ele></trkpt>
      <trkpt lat="32.989047" lon="35.422353"><ele>1037.9</ele></trkpt>
      <trkpt lat="32.989079" lon="35.422324"><ele>1038.4</ele></trkpt>
      <trkpt lat="32.989101" lon="35.422311"><ele>1038.4</ele></trkpt>
      <trkpt lat="32.989178" lon="35.422255"><ele>1038.8</ele></trkpt>
      <trkpt lat="32.989269" lon="35.422145"><ele>1040.3</ele></trkpt>
      <trkpt lat="32.989384" lon="35.421953"><ele>1041.2</ele></trkpt>
      <trkpt lat="32.989426" lon="35.421861"><ele>1041.2</ele></trkpt>
      <trkpt lat="32.989452" lon="35.421794"><ele>1042.2</ele></trkpt>
      <trkpt lat="32.989460" lon="35.421674"><ele>1043.6</ele></trkpt>
      <trkpt lat="32.989491" lon="35.421538"><ele>1045.1</ele></trkpt>
      <trkpt lat="32.989520" lon="35.421410"><ele>1046.5</ele></trkpt>
      <trkpt lat="32.989550" lon="35.421249"><ele>1048.5</ele></trkpt>
      <trkpt lat="32.989590" lon="35.421118"><ele>1049.4</ele></trkpt>
      <trkpt lat="32.989654" lon="35.421018"><ele>1051.3</ele></trkpt>
      <trkpt lat="32.989666" lon="35.421002"><ele>1051.3</ele></trkpt>
      <trkpt lat="32.989672" lon="35.420996"><ele>1052.3</ele></trkpt>
      <trkpt lat="32.989695" lon="35.420975"><ele>1053.3</ele></trkpt>
      <trkpt lat="32.989768" lon="35.420912"><ele>1055.2</ele></trkpt>
      <trkpt lat="32.989797" lon="35.420888"><ele>1056.1</ele></trkpt>
      <trkpt lat="32.989882" lon="35.420773"><ele>1058.5</ele></trkpt>
      <trkpt lat="32.989931" lon="35.420650"><ele>1060.0</ele></trkpt>
      <trkpt lat="32.990023" lon="35.420417"><ele>1061.9</ele></trkpt>
      <trkpt lat="32.990093" lon="35.420215"><ele>1063.8</ele></trkpt>
      <trkpt lat="32.990163" lon="35.420019"><ele>1066.7</ele></trkpt>
      <trkpt lat="32.990255" lon="35.419862"><ele>1068.6</ele></trkpt>
      <trkpt lat="32.990373" lon="35.419591"><ele>1071.5</ele></trkpt>
      <trkpt lat="32.990435" lon="35.419396"><ele>1072.0</ele></trkpt>
      <trkpt lat="32.990488" lon="35.419235"><ele>1073.0</ele></trkpt>
      <trkpt lat="32.990647" lon="35.419088"><ele>1074.4</ele></trkpt>
      <trkpt lat="32.990762" lon="35.418988"><ele>1074.4</ele></trkpt>
      <trkpt lat="32.990877" lon="35.418916"><ele>1075.4</ele></trkpt>
      <trkpt lat="32.990996" lon="35.418788"><ele>1077.8</ele></trkpt>
      <trkpt lat="32.991098" lon="35.418622"><ele>1081.6</ele></trkpt>
      <trkpt lat="32.991190" lon="35.418387"><ele>1085.5</ele></trkpt>
      <trkpt lat="32.991284" lon="35.418176"><ele>1087.4</ele></trkpt>
      <trkpt lat="32.991393" lon="35.418003"><ele>1087.4</ele></trkpt>
      <trkpt lat="32.991501" lon="35.417893"><ele>1087.4</ele></trkpt>
      <trkpt lat="32.991599" lon="35.417772"><ele>1087.9</ele></trkpt>
      <trkpt lat="32.991649" lon="35.417747"><ele>1087.9</ele></trkpt>
      <trkpt lat="32.991687" lon="35.417699"><ele>1088.3</ele></trkpt>
      <trkpt lat="32.991700" lon="35.417690"><ele>1088.3</ele></trkpt>
      <trkpt lat="32.991733" lon="35.417654"><ele>1088.3</ele></trkpt>
      <trkpt lat="32.991812" lon="35.417534"><ele>1088.3</ele></trkpt>
      <trkpt lat="32.991902" lon="35.417491"><ele>1092.2</ele></trkpt>
      <trkpt lat="32.992001" lon="35.417403"><ele>1093.6</ele></trkpt>
      <trkpt lat="32.992127" lon="35.417292"><ele>1095.6</ele></trkpt>
      <trkpt lat="32.992254" lon="35.417180"><ele>1096.5</ele></trkpt>
      <trkpt lat="32.992368" lon="35.417087"><ele>1098.0</ele></trkpt>
      <trkpt lat="32.992517" lon="35.416992"><ele>1100.8</ele></trkpt>
      <trkpt lat="32.992572" lon="35.416936"><ele>1101.8</ele></trkpt>
      <trkpt lat="32.992697" lon="35.416791"><ele>1102.3</ele></trkpt>
      <trkpt lat="32.992759" lon="35.416612"><ele>1103.3</ele></trkpt>
      <trkpt lat="32.992763" lon="35.416454"><ele>1104.7</ele></trkpt>
      <trkpt lat="32.992691" lon="35.416224"><ele>1108.1</ele></trkpt>
      <trkpt lat="32.992746" lon="35.416043"><ele>1109.5</ele></trkpt>
      <trkpt lat="32.992836" lon="35.415922"><ele>1110.9</ele></trkpt>
      <trkpt lat="32.992844" lon="35.415872"><ele>1110.9</ele></trkpt>
      <trkpt lat="32.992845" lon="35.415869"><ele>1110.9</ele></trkpt>
      <trkpt lat="32.992851" lon="35.415855"><ele>1111.4</ele></trkpt>
      <trkpt lat="32.992885" lon="35.415806"><ele>1112.4</ele></trkpt>
      <trkpt lat="32.992895" lon="35.415777"><ele>1112.4</ele></trkpt>
      <trkpt lat="32.992953" lon="35.415653"><ele>1114.8</ele></trkpt>
      <trkpt lat="32.992974" lon="35.415616"><ele>1115.3</ele></trkpt>
      <trkpt lat="32.993032" lon="35.415499"><ele>1115.7</ele></trkpt>
      <trkpt lat="32.993138" lon="35.415362"><ele>1118.2</ele></trkpt>
      <trkpt lat="32.993259" lon="35.415261"><ele>1120.1</ele></trkpt>
      <trkpt lat="32.993386" lon="35.415168"><ele>1121.5</ele></trkpt>
      <trkpt lat="32.993454" lon="35.415113"><ele>1123.0</ele></trkpt>
      <trkpt lat="32.993527" lon="35.415065"><ele>1123.9</ele></trkpt>
      <trkpt lat="32.993632" lon="35.414873"><ele>1124.9</ele></trkpt>
      <trkpt lat="32.993674" lon="35.414752"><ele>1124.4</ele></trkpt>
      <trkpt lat="32.993617" lon="35.414650"><ele>1123.4</ele></trkpt>
      <trkpt lat="32.993547" lon="35.414582"><ele>1123.4</ele></trkpt>
      <trkpt lat="32.993521" lon="35.414576"><ele>1123.0</ele></trkpt>
      <trkpt lat="32.993518" lon="35.414571"><ele>1123.0</ele></trkpt>
      <trkpt lat="32.993517" lon="35.414567"><ele>1123.0</ele></trkpt>
      <trkpt lat="32.993520" lon="35.414562"><ele>1123.4</ele></trkpt>
      <trkpt lat="32.993512" lon="35.414562"><ele>1123.0</ele></trkpt>
      <trkpt lat="32.993501" lon="35.414551"><ele>1123.4</ele></trkpt>
      <trkpt lat="32.993484" lon="35.414539"><ele>1123.4</ele></trkpt>
      <trkpt lat="32.993460" lon="35.414536"><ele>1123.9</ele></trkpt>
      <trkpt lat="32.993425" lon="35.414534"><ele>1124.4</ele></trkpt>
      <trkpt lat="32.993427" lon="35.414522"><ele>1123.4</ele></trkpt>
      <trkpt lat="32.993424" lon="35.414515"><ele>1123.4</ele></trkpt>
      <trkpt lat="32.993415" lon="35.414541"><ele>1122.0</ele></trkpt>
      <trkpt lat="32.993390" lon="35.414562"><ele>1116.2</ele></trkpt>
      <trkpt lat="32.993387" lon="35.414571"><ele>1117.2</ele></trkpt>
      <trkpt lat="32.993405" lon="35.414582"><ele>1119.6</ele></trkpt>
      <trkpt lat="32.993418" lon="35.414553"><ele>1121.0</ele></trkpt>
      <trkpt lat="32.993423" lon="35.414543"><ele>1121.5</ele></trkpt>
      <trkpt lat="32.993402" lon="35.414544"><ele>1120.6</ele></trkpt>
      <trkpt lat="32.993380" lon="35.414548"><ele>1120.6</ele></trkpt>
      <trkpt lat="32.993384" lon="35.414545"><ele>1123.9</ele></trkpt>
      <trkpt lat="32.993386" lon="35.414544"><ele>1125.8</ele></trkpt>
      <trkpt lat="32.993388" lon="35.414551"><ele>1122.0</ele></trkpt>
      <trkpt lat="32.993390" lon="35.414561"><ele>1118.2</ele></trkpt>
      <trkpt lat="32.993377" lon="35.414573"><ele>1121.0</ele></trkpt>
      <trkpt lat="32.993384" lon="35.414574"><ele>1122.0</ele></trkpt>
      <trkpt lat="32.993380" lon="35.414576"><ele>1122.5</ele></trkpt>
      <trkpt lat="32.993373" lon="35.414585"><ele>1123.9</ele></trkpt>
      <trkpt lat="32.993362" lon="35.414601"><ele>1124.9</ele></trkpt>
      <trkpt lat="32.993356" lon="35.414601"><ele>1124.9</ele></trkpt>
      <trkpt lat="32.993350" lon="35.414602"><ele>1126.3</ele></trkpt>
      <trkpt lat="32.993353" lon="35.414596"><ele>1126.8</ele></trkpt>
      <trkpt lat="32.993377" lon="35.414578"><ele>1126.8</ele></trkpt>
      <trkpt lat="32.993389" lon="35.414558"><ele>1124.9</ele></trkpt>
      <trkpt lat="32.993399" lon="35.414532"><ele>1122.0</ele></trkpt>
      <trkpt lat="32.993408" lon="35.414521"><ele>1121.5</ele></trkpt>
      <trkpt lat="32.993438" lon="35.414518"><ele>1123.0</ele></trkpt>
      <trkpt lat="32.993433" lon="35.414539"><ele>1121.5</ele></trkpt>
      <trkpt lat="32.993406" lon="35.414521"><ele>1117.2</ele></trkpt>
      <trkpt lat="32.993402" lon="35.414513"><ele>1116.2</ele></trkpt>
      <trkpt lat="32.993446" lon="35.414512"><ele>1119.6</ele></trkpt>
      <trkpt lat="32.993452" lon="35.414503"><ele>1120.1</ele></trkpt>
      <trkpt lat="32.993427" lon="35.414503"><ele>1120.1</ele></trkpt>
      <trkpt lat="32.993413" lon="35.414509"><ele>1117.7</ele></trkpt>
      <trkpt lat="32.993422" lon="35.414508"><ele>1117.7</ele></trkpt>
      <trkpt lat="32.993415" lon="35.414505"><ele>1117.2</ele></trkpt>
      <trkpt lat="32.993417" lon="35.414506"><ele>1117.7</ele></trkpt>
      <trkpt lat="32.993438" lon="35.414526"><ele>1121.0</ele></trkpt>
      <trkpt lat="32.993432" lon="35.414529"><ele>1125.4</ele></trkpt>
      <trkpt lat="32.993374" lon="35.414527"><ele>1130.2</ele></trkpt>
      <trkpt lat="32.993423" lon="35.414507"><ele>1125.8</ele></trkpt>
      <trkpt lat="32.993453" lon="35.414507"><ele>1127.3</ele></trkpt>
      <trkpt lat="32.993457" lon="35.414505"><ele>1124.9</ele></trkpt>
      <trkpt lat="32.993423" lon="35.414527"><ele>1124.4</ele></trkpt>
      <trkpt lat="32.993397" lon="35.414570"><ele>1120.6</ele></trkpt>
      <trkpt lat="32.993440" lon="35.414502"><ele>1117.2</ele></trkpt>
      <trkpt lat="32.993359" lon="35.414544"><ele>1117.7</ele></trkpt>
      <trkpt lat="32.993377" lon="35.414547"><ele>1118.2</ele></trkpt>
      <trkpt lat="32.993374" lon="35.414551"><ele>1119.6</ele></trkpt>
      <trkpt lat="32.993376" lon="35.414556"><ele>1119.1</ele></trkpt>
      <trkpt lat="32.993383" lon="35.414557"><ele>1117.7</ele></trkpt>
      <trkpt lat="32.993424" lon="35.414540"><ele>1117.7</ele></trkpt>
      <trkpt lat="32.993442" lon="35.414537"><ele>1117.7</ele></trkpt>
      <trkpt lat="32.993436" lon="35.414547"><ele>1119.1</ele></trkpt>
      <trkpt lat="32.993438" lon="35.414531"><ele>1119.6</ele></trkpt>
      <trkpt lat="32.993437" lon="35.414523"><ele>1119.6</ele></trkpt>
      <trkpt lat="32.993422" lon="35.414535"><ele>1122.5</ele></trkpt>
      <trkpt lat="32.993423" lon="35.414536"><ele>1123.0</ele></trkpt>
      <trkpt lat="32.993555" lon="35.414664"><ele>1124.4</ele></trkpt>
      <trkpt lat="32.993668" lon="35.414786"><ele>1126.3</ele></trkpt>
      <trkpt lat="32.993845" lon="35.414830"><ele>1128.2</ele></trkpt>
      <trkpt lat="32.994058" lon="35.414743"><ele>1128.7</ele></trkpt>
      <trkpt lat="32.994483" lon="35.414453"><ele>1130.2</ele></trkpt>
      <trkpt lat="32.994881" lon="35.414122"><ele>1131.1</ele></trkpt>
      <trkpt lat="32.995208" lon="35.413719"><ele>1132.1</ele></trkpt>
      <trkpt lat="32.995313" lon="35.413496"><ele>1132.6</ele></trkpt>
      <trkpt lat="32.995441" lon="35.413156"><ele>1132.6</ele></trkpt>
      <trkpt lat="32.995566" lon="35.412859"><ele>1132.6</ele></trkpt>
      <trkpt lat="32.995700" lon="35.412595"><ele>1132.6</ele></trkpt>
      <trkpt lat="32.995771" lon="35.412349"><ele>1133.1</ele></trkpt>
      <trkpt lat="32.995780" lon="35.412080"><ele>1133.5</ele></trkpt>
      <trkpt lat="32.995778" lon="35.411845"><ele>1133.1</ele></trkpt>
      <trkpt lat="32.995836" lon="35.411659"><ele>1132.6</ele></trkpt>
      <trkpt lat="32.995947" lon="35.411546"><ele>1131.6</ele></trkpt>
      <trkpt lat="32.996096" lon="35.411466"><ele>1131.1</ele></trkpt>
      <trkpt lat="32.996195" lon="35.411389"><ele>1130.6</ele></trkpt>
      <trkpt lat="32.996234" lon="35.411238"><ele>1129.7</ele></trkpt>
      <trkpt lat="32.996262" lon="35.411062"><ele>1128.7</ele></trkpt>
      <trkpt lat="32.996306" lon="35.410880"><ele>1127.3</ele></trkpt>
      <trkpt lat="32.996340" lon="35.410698"><ele>1125.8</ele></trkpt>
      <trkpt lat="32.996366" lon="35.410499"><ele>1124.4</ele></trkpt>
      <trkpt lat="32.996368" lon="35.410307"><ele>1123.4</ele></trkpt>
      <trkpt lat="32.996384" lon="35.410114"><ele>1122.5</ele></trkpt>
      <trkpt lat="32.996377" lon="35.410010"><ele>1121.5</ele></trkpt>
      <trkpt lat="32.996384" lon="35.409843"><ele>1120.6</ele></trkpt>
      <trkpt lat="32.996379" lon="35.409677"><ele>1119.6</ele></trkpt>
      <trkpt lat="32.996402" lon="35.409491"><ele>1118.6</ele></trkpt>
      <trkpt lat="32.996404" lon="35.409311"><ele>1117.7</ele></trkpt>
      <trkpt lat="32.996435" lon="35.409183"><ele>1117.2</ele></trkpt>
      <trkpt lat="32.996484" lon="35.409021"><ele>1117.7</ele></trkpt>
      <trkpt lat="32.996584" lon="35.408845"><ele>1116.2</ele></trkpt>
      <trkpt lat="32.996657" lon="35.408747"><ele>1115.7</ele></trkpt>
      <trkpt lat="32.996788" lon="35.408543"><ele>1114.3</ele></trkpt>
      <trkpt lat="32.996938" lon="35.408318"><ele>1110.5</ele></trkpt>
      <trkpt lat="32.997037" lon="35.408125"><ele>1110.0</ele></trkpt>
      <trkpt lat="32.997092" lon="35.407925"><ele>1108.5</ele></trkpt>
      <trkpt lat="32.997119" lon="35.407676"><ele>1106.6</ele></trkpt>
      <trkpt lat="32.997117" lon="35.407517"><ele>1105.7</ele></trkpt>
      <trkpt lat="32.997109" lon="35.407307"><ele>1104.2</ele></trkpt>
      <trkpt lat="32.997096" lon="35.407077"><ele>1103.3</ele></trkpt>
      <trkpt lat="32.997096" lon="35.406938"><ele>1102.3</ele></trkpt>
      <trkpt lat="32.997084" lon="35.406704"><ele>1099.9</ele></trkpt>
      <trkpt lat="32.997075" lon="35.406509"><ele>1098.4</ele></trkpt>
      <trkpt lat="32.997071" lon="35.406303"><ele>1096.5</ele></trkpt>
      <trkpt lat="32.997057" lon="35.406137"><ele>1095.1</ele></trkpt>
      <trkpt lat="32.997048" lon="35.405943"><ele>1093.6</ele></trkpt>
      <trkpt lat="32.997031" lon="35.405699"><ele>1091.7</ele></trkpt>
      <trkpt lat="32.997014" lon="35.405422"><ele>1090.8</ele></trkpt>
      <trkpt lat="32.997004" lon="35.405225"><ele>1089.8</ele></trkpt>
      <trkpt lat="32.997001" lon="35.405003"><ele>1090.3</ele></trkpt>
      <trkpt lat="32.997016" lon="35.404803"><ele>1090.8</ele></trkpt>
      <trkpt lat="32.997095" lon="35.404515"><ele>1089.8</ele></trkpt>
      <trkpt lat="32.997194" lon="35.404333"><ele>1088.3</ele></trkpt>
      <trkpt lat="32.997312" lon="35.404171"><ele>1086.9</ele></trkpt>
      <trkpt lat="32.997477" lon="35.404003"><ele>1085.5</ele></trkpt>
      <trkpt lat="32.997563" lon="35.403909"><ele>1084.5</ele></trkpt>
      <trkpt lat="32.997726" lon="35.403720"><ele>1083.1</ele></trkpt>
      <trkpt lat="32.997821" lon="35.403561"><ele>1081.6</ele></trkpt>
      <trkpt lat="32.997864" lon="35.403421"><ele>1082.1</ele></trkpt>
      <trkpt lat="32.997911" lon="35.403363"><ele>1081.6</ele></trkpt>
      <trkpt lat="32.997943" lon="35.403253"><ele>1080.7</ele></trkpt>
      <trkpt lat="32.997977" lon="35.403060"><ele>1079.7</ele></trkpt>
      <trkpt lat="32.998013" lon="35.402842"><ele>1079.2</ele></trkpt>
      <trkpt lat="32.998065" lon="35.402593"><ele>1075.4</ele></trkpt>
      <trkpt lat="32.998101" lon="35.402405"><ele>1073.4</ele></trkpt>
      <trkpt lat="32.998145" lon="35.402219"><ele>1071.5</ele></trkpt>
      <trkpt lat="32.998177" lon="35.402120"><ele>1070.6</ele></trkpt>
      <trkpt lat="32.998240" lon="35.401919"><ele>1068.6</ele></trkpt>
      <trkpt lat="32.998289" lon="35.401770"><ele>1066.7</ele></trkpt>
      <trkpt lat="32.998372" lon="35.401578"><ele>1064.3</ele></trkpt>
      <trkpt lat="32.998457" lon="35.401417"><ele>1062.4</ele></trkpt>
      <trkpt lat="32.998581" lon="35.401234"><ele>1060.0</ele></trkpt>
      <trkpt lat="32.998690" lon="35.401083"><ele>1057.6</ele></trkpt>
      <trkpt lat="32.998806" lon="35.400929"><ele>1055.7</ele></trkpt>
      <trkpt lat="32.998887" lon="35.400816"><ele>1053.7</ele></trkpt>
      <trkpt lat="32.998975" lon="35.400668"><ele>1051.8</ele></trkpt>
      <trkpt lat="32.999008" lon="35.400540"><ele>1050.9</ele></trkpt>
      <trkpt lat="32.999061" lon="35.400371"><ele>1048.5</ele></trkpt>
      <trkpt lat="32.999132" lon="35.400145"><ele>1046.1</ele></trkpt>
      <trkpt lat="32.999186" lon="35.399919"><ele>1044.6</ele></trkpt>
      <trkpt lat="32.999208" lon="35.399722"><ele>1044.1</ele></trkpt>
      <trkpt lat="32.999217" lon="35.399518"><ele>1043.2</ele></trkpt>
      <trkpt lat="32.999209" lon="35.399257"><ele>1041.7</ele></trkpt>
      <trkpt lat="32.999196" lon="35.398921"><ele>1040.3</ele></trkpt>
      <trkpt lat="32.999186" lon="35.398630"><ele>1038.4</ele></trkpt>
      <trkpt lat="32.999170" lon="35.398316"><ele>1036.4</ele></trkpt>
      <trkpt lat="32.999163" lon="35.398159"><ele>1035.0</ele></trkpt>
      <trkpt lat="32.999159" lon="35.398009"><ele>1034.0</ele></trkpt>
      <trkpt lat="32.999151" lon="35.397850"><ele>1033.1</ele></trkpt>
      <trkpt lat="32.999139" lon="35.397663"><ele>1031.2</ele></trkpt>
      <trkpt lat="32.999140" lon="35.397467"><ele>1029.7</ele></trkpt>
      <trkpt lat="32.999142" lon="35.397213"><ele>1028.3</ele></trkpt>
      <trkpt lat="32.999142" lon="35.396978"><ele>1027.3</ele></trkpt>
      <trkpt lat="32.999149" lon="35.396777"><ele>1025.9</ele></trkpt>
      <trkpt lat="32.999148" lon="35.396532"><ele>1024.4</ele></trkpt>
      <trkpt lat="32.999150" lon="35.396270"><ele>1022.5</ele></trkpt>
      <trkpt lat="32.999155" lon="35.395989"><ele>1020.1</ele></trkpt>
      <trkpt lat="32.999159" lon="35.395755"><ele>1017.7</ele></trkpt>
      <trkpt lat="32.999159" lon="35.395520"><ele>1016.3</ele></trkpt>
      <trkpt lat="32.999153" lon="35.395263"><ele>1014.8</ele></trkpt>
      <trkpt lat="32.999108" lon="35.394976"><ele>1014.3</ele></trkpt>
      <trkpt lat="32.999025" lon="35.394590"><ele>1013.8</ele></trkpt>
      <trkpt lat="32.998958" lon="35.394308"><ele>1014.3</ele></trkpt>
      <trkpt lat="32.998905" lon="35.394043"><ele>1013.4</ele></trkpt>
      <trkpt lat="32.998882" lon="35.393888"><ele>1012.4</ele></trkpt>
      <trkpt lat="32.998861" lon="35.393751"><ele>1011.9</ele></trkpt>
      <trkpt lat="32.998843" lon="35.393589"><ele>1011.0</ele></trkpt>
      <trkpt lat="32.998839" lon="35.393430"><ele>1008.6</ele></trkpt>
      <trkpt lat="32.998846" lon="35.393332"><ele>1008.1</ele></trkpt>
      <trkpt lat="32.998877" lon="35.393166"><ele>1007.6</ele></trkpt>
      <trkpt lat="32.998948" lon="35.393008"><ele>1007.1</ele></trkpt>
      <trkpt lat="32.999049" lon="35.392909"><ele>1005.7</ele></trkpt>
      <trkpt lat="32.999190" lon="35.392810"><ele>1003.8</ele></trkpt>
      <trkpt lat="32.999323" lon="35.392767"><ele>1002.3</ele></trkpt>
      <trkpt lat="32.999485" lon="35.392760"><ele>1001.4</ele></trkpt>
      <trkpt lat="32.999691" lon="35.392764"><ele>999.9</ele></trkpt>
      <trkpt lat="32.999778" lon="35.392806"><ele>998.9</ele></trkpt>
      <trkpt lat="32.999880" lon="35.392807"><ele>998.0</ele></trkpt>
      <trkpt lat="32.999988" lon="35.392774"><ele>998.0</ele></trkpt>
      <trkpt lat="33.000138" lon="35.392784"><ele>998.5</ele></trkpt>
      <trkpt lat="33.000301" lon="35.392799"><ele>998.5</ele></trkpt>
      <trkpt lat="33.000409" lon="35.392845"><ele>998.5</ele></trkpt>
      <trkpt lat="33.000501" lon="35.392888"><ele>998.9</ele></trkpt>
      <trkpt lat="33.000620" lon="35.393029"><ele>998.0</ele></trkpt>
      <trkpt lat="33.000687" lon="35.393178"><ele>997.0</ele></trkpt>
      <trkpt lat="33.000716" lon="35.393361"><ele>995.6</ele></trkpt>
      <trkpt lat="33.000688" lon="35.393547"><ele>994.1</ele></trkpt>
      <trkpt lat="33.000649" lon="35.393703"><ele>993.2</ele></trkpt>
      <trkpt lat="33.000589" lon="35.393879"><ele>991.7</ele></trkpt>
      <trkpt lat="33.000546" lon="35.394044"><ele>990.3</ele></trkpt>
      <trkpt lat="33.000520" lon="35.394213"><ele>988.9</ele></trkpt>
      <trkpt lat="33.000507" lon="35.394362"><ele>988.4</ele></trkpt>
      <trkpt lat="33.000507" lon="35.394565"><ele>987.4</ele></trkpt>
      <trkpt lat="33.000517" lon="35.394767"><ele>986.0</ele></trkpt>
      <trkpt lat="33.000515" lon="35.395000"><ele>985.0</ele></trkpt>
      <trkpt lat="33.000495" lon="35.395178"><ele>983.6</ele></trkpt>
      <trkpt lat="33.000459" lon="35.395405"><ele>982.1</ele></trkpt>
      <trkpt lat="33.000427" lon="35.395573"><ele>980.2</ele></trkpt>
      <trkpt lat="33.000403" lon="35.395761"><ele>978.8</ele></trkpt>
      <trkpt lat="33.000432" lon="35.395935"><ele>975.9</ele></trkpt>
      <trkpt lat="33.000509" lon="35.396071"><ele>974.9</ele></trkpt>
      <trkpt lat="33.000582" lon="35.396170"><ele>974.4</ele></trkpt>
      <trkpt lat="33.000647" lon="35.396258"><ele>974.4</ele></trkpt>
      <trkpt lat="33.000782" lon="35.396352"><ele>974.0</ele></trkpt>
      <trkpt lat="33.000902" lon="35.396408"><ele>974.4</ele></trkpt>
      <trkpt lat="33.001025" lon="35.396498"><ele>974.9</ele></trkpt>
      <trkpt lat="33.001127" lon="35.396651"><ele>974.4</ele></trkpt>
      <trkpt lat="33.001184" lon="35.396858"><ele>973.0</ele></trkpt>
      <trkpt lat="33.001219" lon="35.397077"><ele>971.5</ele></trkpt>
      <trkpt lat="33.001239" lon="35.397246"><ele>970.1</ele></trkpt>
      <trkpt lat="33.001257" lon="35.397394"><ele>969.1</ele></trkpt>
      <trkpt lat="33.001281" lon="35.397580"><ele>967.2</ele></trkpt>
      <trkpt lat="33.001315" lon="35.397765"><ele>964.8</ele></trkpt>
      <trkpt lat="33.001406" lon="35.397903"><ele>964.8</ele></trkpt>
      <trkpt lat="33.001533" lon="35.397972"><ele>966.7</ele></trkpt>
      <trkpt lat="33.001685" lon="35.397942"><ele>967.7</ele></trkpt>
      <trkpt lat="33.001791" lon="35.397848"><ele>965.3</ele></trkpt>
      <trkpt lat="33.001904" lon="35.397635"><ele>961.5</ele></trkpt>
      <trkpt lat="33.001958" lon="35.397508"><ele>959.5</ele></trkpt>
      <trkpt lat="33.002033" lon="35.397331"><ele>957.6</ele></trkpt>
      <trkpt lat="33.002107" lon="35.397161"><ele>955.2</ele></trkpt>
      <trkpt lat="33.002180" lon="35.396971"><ele>954.7</ele></trkpt>
      <trkpt lat="33.002257" lon="35.396863"><ele>954.2</ele></trkpt>
      <trkpt lat="33.002323" lon="35.396693"><ele>953.3</ele></trkpt>
      <trkpt lat="33.002397" lon="35.396501"><ele>950.4</ele></trkpt>
      <trkpt lat="33.002470" lon="35.396316"><ele>948.0</ele></trkpt>
      <trkpt lat="33.002545" lon="35.396121"><ele>945.6</ele></trkpt>
      <trkpt lat="33.002631" lon="35.395886"><ele>943.7</ele></trkpt>
      <trkpt lat="33.002710" lon="35.395678"><ele>941.7</ele></trkpt>
      <trkpt lat="33.002766" lon="35.395514"><ele>939.3</ele></trkpt>
      <trkpt lat="33.002838" lon="35.395320"><ele>937.9</ele></trkpt>
      <trkpt lat="33.002996" lon="35.395133"><ele>936.0</ele></trkpt>
      <trkpt lat="33.003168" lon="35.394979"><ele>934.5</ele></trkpt>
      <trkpt lat="33.003346" lon="35.394866"><ele>933.1</ele></trkpt>
      <trkpt lat="33.003521" lon="35.394738"><ele>933.6</ele></trkpt>
      <trkpt lat="33.003678" lon="35.394634"><ele>932.1</ele></trkpt>
      <trkpt lat="33.003818" lon="35.394539"><ele>930.2</ele></trkpt>
      <trkpt lat="33.003981" lon="35.394447"><ele>927.3</ele></trkpt>
      <trkpt lat="33.004136" lon="35.394356"><ele>924.4</ele></trkpt>
      <trkpt lat="33.004333" lon="35.394247"><ele>921.6</ele></trkpt>
      <trkpt lat="33.004483" lon="35.394188"><ele>919.6</ele></trkpt>
      <trkpt lat="33.004623" lon="35.394130"><ele>918.2</ele></trkpt>
      <trkpt lat="33.004777" lon="35.394060"><ele>915.8</ele></trkpt>
      <trkpt lat="33.004931" lon="35.393997"><ele>913.9</ele></trkpt>
      <trkpt lat="33.005087" lon="35.393955"><ele>911.9</ele></trkpt>
      <trkpt lat="33.005219" lon="35.393929"><ele>911.5</ele></trkpt>
      <trkpt lat="33.005381" lon="35.393913"><ele>910.0</ele></trkpt>
      <trkpt lat="33.005579" lon="35.393880"><ele>908.6</ele></trkpt>
      <trkpt lat="33.005784" lon="35.393835"><ele>907.1</ele></trkpt>
      <trkpt lat="33.005917" lon="35.393801"><ele>905.7</ele></trkpt>
      <trkpt lat="33.006063" lon="35.393767"><ele>904.7</ele></trkpt>
      <trkpt lat="33.006246" lon="35.393730"><ele>902.8</ele></trkpt>
      <trkpt lat="33.006405" lon="35.393704"><ele>901.9</ele></trkpt>
      <trkpt lat="33.006565" lon="35.393690"><ele>900.4</ele></trkpt>
      <trkpt lat="33.006727" lon="35.393666"><ele>899.0</ele></trkpt>
      <trkpt lat="33.006903" lon="35.393667"><ele>898.0</ele></trkpt>
      <trkpt lat="33.007065" lon="35.393649"><ele>896.6</ele></trkpt>
      <trkpt lat="33.007241" lon="35.393626"><ele>895.6</ele></trkpt>
      <trkpt lat="33.007474" lon="35.393596"><ele>894.2</ele></trkpt>
      <trkpt lat="33.007655" lon="35.393568"><ele>892.7</ele></trkpt>
      <trkpt lat="33.007814" lon="35.393543"><ele>890.8</ele></trkpt>
      <trkpt lat="33.008027" lon="35.393500"><ele>889.4</ele></trkpt>
      <trkpt lat="33.008199" lon="35.393467"><ele>887.4</ele></trkpt>
      <trkpt lat="33.008368" lon="35.393445"><ele>886.5</ele></trkpt>
      <trkpt lat="33.008537" lon="35.393399"><ele>885.5</ele></trkpt>
      <trkpt lat="33.008709" lon="35.393359"><ele>885.0</ele></trkpt>
    </trkseg>
  </trk>
</gpx>
