<?xml version="1.0" encoding="UTF-8" standalone="yes"?>
<gpx version="1.1" creator="IsraelHikingMap" xmlns:xsi="http://www.w3.org/2001/XMLSchema-instance" xsi:schemaLocation="http://www.topografix.com/GPX/1/1 http://www.topografix.com/GPX/1/1/gpx.xsd">
  <metadata>
    <bounds maxlat="31.102436" maxlon="35.069082" minlat="31.074262" minlon="35.017678"></bounds>
  </metadata>
  <trk>
    <name>מסלול 1</name>
    <desc></desc>
    <extensions>
      <Color xmlns="">#0000FF</Color>
      <Opacity xmlns="">0.4</Opacity>
      <Weight xmlns="">9</Weight>
    </extensions>
    <trkseg>
      <trkpt lat="31.080753526436638" lon="35.02582675132268">
        <ele>578.7974790852754</ele>
      </trkpt>
      <trkpt lat="31.080753526436638" lon="35.02582675132268">
        <ele>578.7974790852754</ele>
      </trkpt>
      <extensions>
        <RoutingType xmlns="">Bike</RoutingType>
      </extensions>
    </trkseg>
    <trkseg>
      <trkpt lat="31.080754" lon="35.025842">
        <ele>579</ele>
      </trkpt>
      <trkpt lat="31.080565" lon="35.025821">
        <ele>579</ele>
      </trkpt>
      <trkpt lat="31.080335" lon="35.025717">
        <ele>580</ele>
      </trkpt>
      <trkpt lat="31.080091" lon="35.025536">
        <ele>582</ele>
      </trkpt>
      <trkpt lat="31.079805" lon="35.025409">
        <ele>582</ele>
      </trkpt>
      <trkpt lat="31.079505" lon="35.02524">
        <ele>581</ele>
      </trkpt>
      <trkpt lat="31.079355" lon="35.02506">
        <ele>582</ele>
      </trkpt>
      <trkpt lat="31.079305" lon="35.024752">
        <ele>581</ele>
      </trkpt>
      <trkpt lat="31.079451" lon="35.024199">
        <ele>589</ele>
      </trkpt>
      <trkpt lat="31.079575" lon="35.023849">
        <ele>591</ele>
      </trkpt>
      <trkpt lat="31.079818" lon="35.023355">
        <ele>596</ele>
      </trkpt>
      <trkpt lat="31.080139" lon="35.022975">
        <ele>601</ele>
      </trkpt>
      <trkpt lat="31.080443" lon="35.022672">
        <ele>603</ele>
      </trkpt>
      <trkpt lat="31.080806" lon="35.022389">
        <ele>611</ele>
      </trkpt>
      <trkpt lat="31.080864" lon="35.022284">
        <ele>614</ele>
      </trkpt>
      <trkpt lat="31.08084" lon="35.021979">
        <ele>615</ele>
      </trkpt>
      <trkpt lat="31.080625" lon="35.021886">
        <ele>615</ele>
      </trkpt>
      <trkpt lat="31.080306" lon="35.021805">
        <ele>616</ele>
      </trkpt>
      <trkpt lat="31.080071" lon="35.021898">
        <ele>610</ele>
      </trkpt>
      <trkpt lat="31.079983" lon="35.021796">
        <ele>609</ele>
      </trkpt>
      <trkpt lat="31.080007" lon="35.021475">
        <ele>608</ele>
      </trkpt>
      <extensions>
        <RoutingType xmlns="">Bike</RoutingType>
      </extensions>
    </trkseg>
    <trkseg>
      <trkpt lat="31.080007" lon="35.021475">
        <ele>608</ele>
      </trkpt>
      <trkpt lat="31.080013" lon="35.021402">
        <ele>607</ele>
      </trkpt>
      <trkpt lat="31.080179" lon="35.021263">
        <ele>610</ele>
      </trkpt>
      <trkpt lat="31.080286" lon="35.021083">
        <ele>610</ele>
      </trkpt>
      <trkpt lat="31.080259" lon="35.020919">
        <ele>609</ele>
      </trkpt>
      <trkpt lat="31.080165" lon="35.020598">
        <ele>607</ele>
      </trkpt>
      <trkpt lat="31.080165" lon="35.020407">
        <ele>608</ele>
      </trkpt>
      <trkpt lat="31.080049" lon="35.020117">
        <ele>612</ele>
      </trkpt>
      <trkpt lat="31.079911" lon="35.019962">
        <ele>609</ele>
      </trkpt>
      <trkpt lat="31.079865" lon="35.019789">
        <ele>613</ele>
      </trkpt>
      <trkpt lat="31.079557" lon="35.019748">
        <ele>612</ele>
      </trkpt>
      <trkpt lat="31.079337" lon="35.019756">
        <ele>611</ele>
      </trkpt>
      <trkpt lat="31.079281" lon="35.019657">
        <ele>612</ele>
      </trkpt>
      <trkpt lat="31.079203" lon="35.019456">
        <ele>613</ele>
      </trkpt>
      <trkpt lat="31.079202" lon="35.019141">
        <ele>616</ele>
      </trkpt>
      <trkpt lat="31.079239" lon="35.018973">
        <ele>619</ele>
      </trkpt>
      <trkpt lat="31.079569" lon="35.018701">
        <ele>622</ele>
      </trkpt>
      <trkpt lat="31.079638" lon="35.0186">
        <ele>623</ele>
      </trkpt>
      <trkpt lat="31.07969" lon="35.018424">
        <ele>625</ele>
      </trkpt>
      <trkpt lat="31.079767" lon="35.018276">
        <ele>626</ele>
      </trkpt>
      <trkpt lat="31.079985" lon="35.018215">
        <ele>626</ele>
      </trkpt>
      <trkpt lat="31.080109" lon="35.018215">
        <ele>625</ele>
      </trkpt>
      <trkpt lat="31.080227" lon="35.018366">
        <ele>629</ele>
      </trkpt>
      <trkpt lat="31.08039" lon="35.018446">
        <ele>632</ele>
      </trkpt>
      <trkpt lat="31.08051" lon="35.018312">
        <ele>627</ele>
      </trkpt>
      <trkpt lat="31.080603" lon="35.01824">
        <ele>630</ele>
      </trkpt>
      <trkpt lat="31.080722" lon="35.018179">
        <ele>629</ele>
      </trkpt>
      <trkpt lat="31.081054" lon="35.018114">
        <ele>630</ele>
      </trkpt>
      <trkpt lat="31.081155" lon="35.018072">
        <ele>632</ele>
      </trkpt>
      <trkpt lat="31.08134" lon="35.018142">
        <ele>634</ele>
      </trkpt>
      <trkpt lat="31.081578" lon="35.018125">
        <ele>635</ele>
      </trkpt>
      <trkpt lat="31.081728" lon="35.018167">
        <ele>639</ele>
      </trkpt>
      <trkpt lat="31.082043" lon="35.018138">
        <ele>641</ele>
      </trkpt>
      <extensions>
        <RoutingType xmlns="">Bike</RoutingType>
      </extensions>
    </trkseg>
    <trkseg>
      <trkpt lat="31.082043" lon="35.018138">
        <ele>641</ele>
      </trkpt>
      <trkpt lat="31.082191" lon="35.018114">
        <ele>641</ele>
      </trkpt>
      <trkpt lat="31.082283" lon="35.01812">
        <ele>642</ele>
      </trkpt>
      <trkpt lat="31.082566" lon="35.017712">
        <ele>642</ele>
      </trkpt>
      <trkpt lat="31.082643" lon="35.017678">
        <ele>641</ele>
      </trkpt>
      <trkpt lat="31.083176" lon="35.018329">
        <ele>645</ele>
      </trkpt>
      <trkpt lat="31.083388" lon="35.018523">
        <ele>644</ele>
      </trkpt>
      <trkpt lat="31.08416" lon="35.019583">
        <ele>648</ele>
      </trkpt>
      <trkpt lat="31.084369" lon="35.019794">
        <ele>647</ele>
      </trkpt>
      <trkpt lat="31.084697" lon="35.020388">
        <ele>649</ele>
      </trkpt>
      <trkpt lat="31.084848" lon="35.020598">
        <ele>651</ele>
      </trkpt>
      <trkpt lat="31.085039" lon="35.020735">
        <ele>651</ele>
      </trkpt>
      <trkpt lat="31.085304" lon="35.021117">
        <ele>654</ele>
      </trkpt>
      <trkpt lat="31.085428" lon="35.021378">
        <ele>653</ele>
      </trkpt>
      <trkpt lat="31.085346" lon="35.021949">
        <ele>655</ele>
      </trkpt>
      <trkpt lat="31.085452" lon="35.022383">
        <ele>657</ele>
      </trkpt>
      <trkpt lat="31.08563" lon="35.022666">
        <ele>655.5</ele>
      </trkpt>
      <extensions>
        <RoutingType xmlns="">Bike</RoutingType>
      </extensions>
    </trkseg>
    <trkseg>
      <trkpt lat="31.08563" lon="35.022666">
        <ele>655.5</ele>
      </trkpt>
      <trkpt lat="31.085704" lon="35.022784">
        <ele>654</ele>
      </trkpt>
      <trkpt lat="31.086221" lon="35.023364">
        <ele>652</ele>
      </trkpt>
      <trkpt lat="31.086654" lon="35.02352">
        <ele>651</ele>
      </trkpt>
      <trkpt lat="31.087121" lon="35.0236">
        <ele>651</ele>
      </trkpt>
      <trkpt lat="31.087476" lon="35.023692">
        <ele>650</ele>
      </trkpt>
      <trkpt lat="31.087763" lon="35.023574">
        <ele>652</ele>
      </trkpt>
      <trkpt lat="31.087947" lon="35.023478">
        <ele>654</ele>
      </trkpt>
      <trkpt lat="31.088097" lon="35.023206">
        <ele>653</ele>
      </trkpt>
      <trkpt lat="31.088139" lon="35.023357">
        <ele>654</ele>
      </trkpt>
      <trkpt lat="31.088236" lon="35.023876">
        <ele>651</ele>
      </trkpt>
      <trkpt lat="31.088377" lon="35.024254">
        <ele>651</ele>
      </trkpt>
      <trkpt lat="31.088541" lon="35.024594">
        <ele>651</ele>
      </trkpt>
      <trkpt lat="31.088723" lon="35.024799">
        <ele>655</ele>
      </trkpt>
      <trkpt lat="31.089194" lon="35.02503">
        <ele>658</ele>
      </trkpt>
      <trkpt lat="31.089365" lon="35.025179">
        <ele>659</ele>
      </trkpt>
      <trkpt lat="31.089693" lon="35.025327">
        <ele>657</ele>
      </trkpt>
      <trkpt lat="31.089955" lon="35.025476">
        <ele>657</ele>
      </trkpt>
      <trkpt lat="31.090588" lon="35.026366">
        <ele>659</ele>
      </trkpt>
      <trkpt lat="31.090781" lon="35.026596">
        <ele>660</ele>
      </trkpt>
      <trkpt lat="31.091304" lon="35.026534">
        <ele>659</ele>
      </trkpt>
      <trkpt lat="31.091464" lon="35.026671">
        <ele>658</ele>
      </trkpt>
      <trkpt lat="31.091453" lon="35.027374">
        <ele>654</ele>
      </trkpt>
      <trkpt lat="31.091656" lon="35.028103">
        <ele>653</ele>
      </trkpt>
      <trkpt lat="31.091672" lon="35.028669">
        <ele>652</ele>
      </trkpt>
      <trkpt lat="31.091533" lon="35.029217">
        <ele>654</ele>
      </trkpt>
      <trkpt lat="31.091677" lon="35.029554">
        <ele>653</ele>
      </trkpt>
      <trkpt lat="31.091944" lon="35.029989">
        <ele>653</ele>
      </trkpt>
      <trkpt lat="31.092141" lon="35.030204">
        <ele>653</ele>
      </trkpt>
      <extensions>
        <RoutingType xmlns="">Bike</RoutingType>
      </extensions>
    </trkseg>
    <trkseg>
      <trkpt lat="31.092141" lon="35.030204">
        <ele>653</ele>
      </trkpt>
      <trkpt lat="31.092173" lon="35.030239">
        <ele>653</ele>
      </trkpt>
      <trkpt lat="31.092328" lon="35.031202">
        <ele>653</ele>
      </trkpt>
      <trkpt lat="31.092445" lon="35.032144">
        <ele>652</ele>
      </trkpt>
      <trkpt lat="31.092232" lon="35.032356">
        <ele>652</ele>
      </trkpt>
      <trkpt lat="31.092114" lon="35.03309">
        <ele>652</ele>
      </trkpt>
      <trkpt lat="31.092338" lon="35.033476">
        <ele>652</ele>
      </trkpt>
      <trkpt lat="31.09294" lon="35.03349">
        <ele>648</ele>
      </trkpt>
      <trkpt lat="31.093202" lon="35.033725">
        <ele>644</ele>
      </trkpt>
      <trkpt lat="31.093666" lon="35.033682">
        <ele>642</ele>
      </trkpt>
      <trkpt lat="31.094188" lon="35.034734">
        <ele>639</ele>
      </trkpt>
      <trkpt lat="31.094217" lon="35.034895">
        <ele>636</ele>
      </trkpt>
      <extensions>
        <RoutingType xmlns="">Bike</RoutingType>
      </extensions>
    </trkseg>
    <trkseg>
      <trkpt lat="31.094217" lon="35.034895">
        <ele>636</ele>
      </trkpt>
      <trkpt lat="31.094386" lon="35.035843">
        <ele>633</ele>
      </trkpt>
      <trkpt lat="31.094572" lon="35.036266">
        <ele>631</ele>
      </trkpt>
      <trkpt lat="31.094889" lon="35.037078">
        <ele>625</ele>
      </trkpt>
      <trkpt lat="31.095226" lon="35.037335">
        <ele>626</ele>
      </trkpt>
      <trkpt lat="31.095268" lon="35.037027">
        <ele>626</ele>
      </trkpt>
      <trkpt lat="31.095403" lon="35.036641">
        <ele>624</ele>
      </trkpt>
      <trkpt lat="31.095569" lon="35.036527">
        <ele>623</ele>
      </trkpt>
      <trkpt lat="31.095703" lon="35.036355">
        <ele>623</ele>
      </trkpt>
      <trkpt lat="31.096365" lon="35.036677">
        <ele>619</ele>
      </trkpt>
      <trkpt lat="31.0968" lon="35.03712">
        <ele>616</ele>
      </trkpt>
      <trkpt lat="31.097066" lon="35.037835">
        <ele>612</ele>
      </trkpt>
      <extensions>
        <RoutingType xmlns="">Bike</RoutingType>
      </extensions>
    </trkseg>
    <trkseg>
      <trkpt lat="31.097066" lon="35.037835">
        <ele>612</ele>
      </trkpt>
      <trkpt lat="31.097369" lon="35.037127">
        <ele>611</ele>
      </trkpt>
      <trkpt lat="31.097602" lon="35.036062">
        <ele>605</ele>
      </trkpt>
      <trkpt lat="31.097522" lon="35.03554">
        <ele>604</ele>
      </trkpt>
      <trkpt lat="31.097026" lon="35.035168">
        <ele>604</ele>
      </trkpt>
      <trkpt lat="31.097804" lon="35.034574">
        <ele>595</ele>
      </trkpt>
      <trkpt lat="31.098251" lon="35.034317">
        <ele>590</ele>
      </trkpt>
      <trkpt lat="31.098129" lon="35.034009">
        <ele>591</ele>
      </trkpt>
      <trkpt lat="31.097871" lon="35.033945">
        <ele>590</ele>
      </trkpt>
      <trkpt lat="31.097369" lon="35.033616">
        <ele>592</ele>
      </trkpt>
      <trkpt lat="31.098123" lon="35.033587">
        <ele>582</ele>
      </trkpt>
      <trkpt lat="31.098711" lon="35.033752">
        <ele>577</ele>
      </trkpt>
      <trkpt lat="31.098894" lon="35.033902">
        <ele>577</ele>
      </trkpt>
      <trkpt lat="31.098834" lon="35.034749">
        <ele>573</ele>
      </trkpt>
      <trkpt lat="31.098619" lon="35.035231">
        <ele>570</ele>
      </trkpt>
      <trkpt lat="31.098381" lon="35.035284">
        <ele>573</ele>
      </trkpt>
      <trkpt lat="31.098461" lon="35.035409">
        <ele>572</ele>
      </trkpt>
      <trkpt lat="31.098685" lon="35.035312">
        <ele>569</ele>
      </trkpt>
      <trkpt lat="31.098922" lon="35.034901">
        <ele>567</ele>
      </trkpt>
      <trkpt lat="31.099522" lon="35.034161">
        <ele>564</ele>
      </trkpt>
      <extensions>
        <RoutingType xmlns="">Bike</RoutingType>
      </extensions>
    </trkseg>
    <trkseg>
      <trkpt lat="31.099522" lon="35.034161">
        <ele>564</ele>
      </trkpt>
      <trkpt lat="31.099578" lon="35.034092">
        <ele>564</ele>
      </trkpt>
      <trkpt lat="31.100178" lon="35.033886">
        <ele>558</ele>
      </trkpt>
      <trkpt lat="31.100386" lon="35.033783">
        <ele>557</ele>
      </trkpt>
      <trkpt lat="31.100752" lon="35.033708">
        <ele>554</ele>
      </trkpt>
      <trkpt lat="31.101111" lon="35.032943">
        <ele>552</ele>
      </trkpt>
      <trkpt lat="31.101346" lon="35.033151">
        <ele>556</ele>
      </trkpt>
      <trkpt lat="31.101575" lon="35.03303">
        <ele>554</ele>
      </trkpt>
      <trkpt lat="31.102068" lon="35.032809">
        <ele>559</ele>
      </trkpt>
      <trkpt lat="31.102415" lon="35.032217">
        <ele>559</ele>
      </trkpt>
      <trkpt lat="31.102436" lon="35.032323">
        <ele>561</ele>
      </trkpt>
      <trkpt lat="31.102191" lon="35.033021">
        <ele>564</ele>
      </trkpt>
      <trkpt lat="31.101908" lon="35.033522">
        <ele>570</ele>
      </trkpt>
      <trkpt lat="31.101599" lon="35.033799">
        <ele>572</ele>
      </trkpt>
      <trkpt lat="31.101332" lon="35.034247">
        <ele>575</ele>
      </trkpt>
      <trkpt lat="31.101215" lon="35.034543">
        <ele>573</ele>
      </trkpt>
      <trkpt lat="31.101199" lon="35.034842">
        <ele>575</ele>
      </trkpt>
      <trkpt lat="31.101159" lon="35.03496">
        <ele>578</ele>
      </trkpt>
      <trkpt lat="31.101031" lon="35.035128">
        <ele>580</ele>
      </trkpt>
      <trkpt lat="31.100852" lon="35.035175">
        <ele>581</ele>
      </trkpt>
      <trkpt lat="31.100519" lon="35.0352">
        <ele>580</ele>
      </trkpt>
      <trkpt lat="31.10033" lon="35.035574">
        <ele>587</ele>
      </trkpt>
      <trkpt lat="31.099986" lon="35.035745">
        <ele>586</ele>
      </trkpt>
      <trkpt lat="31.099845" lon="35.036131">
        <ele>584</ele>
      </trkpt>
      <trkpt lat="31.099891" lon="35.036377">
        <ele>587</ele>
      </trkpt>
      <trkpt lat="31.099773" lon="35.036691">
        <ele>588</ele>
      </trkpt>
      <trkpt lat="31.099618" lon="35.036962">
        <ele>588</ele>
      </trkpt>
      <trkpt lat="31.09957" lon="35.037308">
        <ele>589</ele>
      </trkpt>
      <trkpt lat="31.099674" lon="35.037062">
        <ele>590</ele>
      </trkpt>
      <trkpt lat="31.099853" lon="35.036763">
        <ele>592</ele>
      </trkpt>
      <trkpt lat="31.100045" lon="35.036557">
        <ele>593</ele>
      </trkpt>
      <trkpt lat="31.100162" lon="35.036184">
        <ele>597</ele>
      </trkpt>
      <trkpt lat="31.100245" lon="35.036006">
        <ele>597</ele>
      </trkpt>
      <trkpt lat="31.100687" lon="35.035925">
        <ele>599</ele>
      </trkpt>
      <trkpt lat="31.100812" lon="35.035676">
        <ele>597</ele>
      </trkpt>
      <trkpt lat="31.100767" lon="35.035938">
        <ele>603</ele>
      </trkpt>
      <trkpt lat="31.100477" lon="35.036265">
        <ele>604.5</ele>
      </trkpt>
      <extensions>
        <RoutingType xmlns="">Bike</RoutingType>
      </extensions>
    </trkseg>
    <trkseg>
      <trkpt lat="31.100477" lon="35.036265">
        <ele>604.5</ele>
      </trkpt>
      <trkpt lat="31.100386" lon="35.036368">
        <ele>606</ele>
      </trkpt>
      <trkpt lat="31.100349" lon="35.036713">
        <ele>611</ele>
      </trkpt>
      <trkpt lat="31.100093" lon="35.037358">
        <ele>611</ele>
      </trkpt>
      <trkpt lat="31.100381" lon="35.037784">
        <ele>612</ele>
      </trkpt>
      <trkpt lat="31.100687" lon="35.03831">
        <ele>614</ele>
      </trkpt>
      <trkpt lat="31.100709" lon="35.038631">
        <ele>625</ele>
      </trkpt>
      <trkpt lat="31.100495" lon="35.038796">
        <ele>624</ele>
      </trkpt>
      <trkpt lat="31.100229" lon="35.038821">
        <ele>627</ele>
      </trkpt>
      <trkpt lat="31.099666" lon="35.039107">
        <ele>625</ele>
      </trkpt>
      <trkpt lat="31.099362" lon="35.039668">
        <ele>630</ele>
      </trkpt>
      <trkpt lat="31.099128" lon="35.039882">
        <ele>627</ele>
      </trkpt>
      <trkpt lat="31.09913" lon="35.040032">
        <ele>627</ele>
      </trkpt>
      <trkpt lat="31.099554" lon="35.04016">
        <ele>629</ele>
      </trkpt>
      <trkpt lat="31.100069" lon="35.04034">
        <ele>634</ele>
      </trkpt>
      <trkpt lat="31.100679" lon="35.040732">
        <ele>637</ele>
      </trkpt>
      <trkpt lat="31.100903" lon="35.040941">
        <ele>639</ele>
      </trkpt>
      <trkpt lat="31.101764" lon="35.041237">
        <ele>644</ele>
      </trkpt>
      <trkpt lat="31.101762" lon="35.041548">
        <ele>647</ele>
      </trkpt>
      <trkpt lat="31.101404" lon="35.041679">
        <ele>645</ele>
      </trkpt>
      <trkpt lat="31.10122" lon="35.041925">
        <ele>648</ele>
      </trkpt>
      <trkpt lat="31.101143" lon="35.042236">
        <ele>651</ele>
      </trkpt>
      <trkpt lat="31.101223" lon="35.042361">
        <ele>650</ele>
      </trkpt>
      <trkpt lat="31.101615" lon="35.04237">
        <ele>652</ele>
      </trkpt>
      <trkpt lat="31.101879" lon="35.042479">
        <ele>653</ele>
      </trkpt>
      <trkpt lat="31.10214" lon="35.04265">
        <ele>655</ele>
      </trkpt>
      <trkpt lat="31.102156" lon="35.042772">
        <ele>654</ele>
      </trkpt>
      <trkpt lat="31.101881" lon="35.043173">
        <ele>654</ele>
      </trkpt>
      <trkpt lat="31.101628" lon="35.043481">
        <ele>653</ele>
      </trkpt>
      <trkpt lat="31.101434" lon="35.043784">
        <ele>650</ele>
      </trkpt>
      <trkpt lat="31.101315" lon="35.043853">
        <ele>649</ele>
      </trkpt>
      <trkpt lat="31.100991" lon="35.043892">
        <ele>648</ele>
      </trkpt>
      <trkpt lat="31.100511" lon="35.044026">
        <ele>647</ele>
      </trkpt>
      <trkpt lat="31.100229" lon="35.044188">
        <ele>644</ele>
      </trkpt>
      <trkpt lat="31.099738" lon="35.044353">
        <ele>644</ele>
      </trkpt>
      <trkpt lat="31.099261" lon="35.044387">
        <ele>643</ele>
      </trkpt>
      <trkpt lat="31.098773" lon="35.044478">
        <ele>639</ele>
      </trkpt>
      <trkpt lat="31.099008" lon="35.044742">
        <ele>638</ele>
      </trkpt>
      <trkpt lat="31.098912" lon="35.045035">
        <ele>636</ele>
      </trkpt>
      <trkpt lat="31.09856" lon="35.045331">
        <ele>633</ele>
      </trkpt>
      <trkpt lat="31.098245" lon="35.045474">
        <ele>631</ele>
      </trkpt>
      <trkpt lat="31.097893" lon="35.045826">
        <ele>627</ele>
      </trkpt>
      <trkpt lat="31.09723" lon="35.046803">
        <ele>620</ele>
      </trkpt>
      <trkpt lat="31.09698" lon="35.047072">
        <ele>616.5</ele>
      </trkpt>
      <extensions>
        <RoutingType xmlns="">Bike</RoutingType>
      </extensions>
    </trkseg>
    <trkseg>
      <trkpt lat="31.09698" lon="35.047072">
        <ele>616.5</ele>
      </trkpt>
      <trkpt lat="31.096702" lon="35.04737">
        <ele>613</ele>
      </trkpt>
      <trkpt lat="31.096635" lon="35.047725">
        <ele>611</ele>
      </trkpt>
      <trkpt lat="31.096592" lon="35.048046">
        <ele>610</ele>
      </trkpt>
      <trkpt lat="31.096603" lon="35.048379">
        <ele>610</ele>
      </trkpt>
      <trkpt lat="31.096568" lon="35.04874">
        <ele>609</ele>
      </trkpt>
      <trkpt lat="31.096606" lon="35.049082">
        <ele>607</ele>
      </trkpt>
      <trkpt lat="31.096246" lon="35.04958">
        <ele>605</ele>
      </trkpt>
      <trkpt lat="31.09687" lon="35.049148">
        <ele>604</ele>
      </trkpt>
      <trkpt lat="31.096387" lon="35.049842">
        <ele>598</ele>
      </trkpt>
      <trkpt lat="31.096041" lon="35.05124">
        <ele>588</ele>
      </trkpt>
      <trkpt lat="31.096326" lon="35.050673">
        <ele>591</ele>
      </trkpt>
      <trkpt lat="31.09655" lon="35.050088">
        <ele>591</ele>
      </trkpt>
      <trkpt lat="31.096971" lon="35.049725">
        <ele>586</ele>
      </trkpt>
      <trkpt lat="31.096755" lon="35.050043">
        <ele>581</ele>
      </trkpt>
      <trkpt lat="31.096567" lon="35.050634">
        <ele>580</ele>
      </trkpt>
      <trkpt lat="31.09658" lon="35.05095">
        <ele>576</ele>
      </trkpt>
      <trkpt lat="31.096318" lon="35.051456">
        <ele>574</ele>
      </trkpt>
      <trkpt lat="31.096206" lon="35.05186">
        <ele>574.5</ele>
      </trkpt>
      <extensions>
        <RoutingType xmlns="">Bike</RoutingType>
      </extensions>
    </trkseg>
    <trkseg>
      <trkpt lat="31.096206" lon="35.05186">
        <ele>574.5</ele>
      </trkpt>
      <trkpt lat="31.096149" lon="35.052066">
        <ele>575</ele>
      </trkpt>
      <trkpt lat="31.096253" lon="35.052558">
        <ele>569</ele>
      </trkpt>
      <trkpt lat="31.096215" lon="35.053204">
        <ele>565</ele>
      </trkpt>
      <trkpt lat="31.096158" lon="35.053833">
        <ele>562</ele>
      </trkpt>
      <trkpt lat="31.096025" lon="35.054485">
        <ele>557</ele>
      </trkpt>
      <trkpt lat="31.095974" lon="35.054639">
        <ele>555.5</ele>
      </trkpt>
      <extensions>
        <RoutingType xmlns="">Bike</RoutingType>
      </extensions>
    </trkseg>
    <trkseg>
      <trkpt lat="31.095974" lon="35.054639">
        <ele>555.5</ele>
      </trkpt>
      <trkpt lat="31.095855" lon="35.054994">
        <ele>554</ele>
      </trkpt>
      <trkpt lat="31.095589" lon="35.055156">
        <ele>553</ele>
      </trkpt>
      <trkpt lat="31.095353" lon="35.0552">
        <ele>552</ele>
      </trkpt>
      <trkpt lat="31.095096" lon="35.055376">
        <ele>551</ele>
      </trkpt>
      <trkpt lat="31.094956" lon="35.055752">
        <ele>550</ele>
      </trkpt>
      <trkpt lat="31.095061" lon="35.056347">
        <ele>553</ele>
      </trkpt>
      <trkpt lat="31.095401" lon="35.056741">
        <ele>551</ele>
      </trkpt>
      <trkpt lat="31.095621" lon="35.056904">
        <ele>552</ele>
      </trkpt>
      <trkpt lat="31.095643" lon="35.057601">
        <ele>553</ele>
      </trkpt>
      <extensions>
        <RoutingType xmlns="">Bike</RoutingType>
      </extensions>
    </trkseg>
    <trkseg>
      <trkpt lat="31.095643" lon="35.057601">
        <ele>553</ele>
      </trkpt>
      <trkpt lat="31.095654" lon="35.057928">
        <ele>554</ele>
      </trkpt>
      <trkpt lat="31.095739" lon="35.058234">
        <ele>552</ele>
      </trkpt>
      <trkpt lat="31.095916" lon="35.05848">
        <ele>549</ele>
      </trkpt>
      <trkpt lat="31.096053" lon="35.058743">
        <ele>546</ele>
      </trkpt>
      <trkpt lat="31.096321" lon="35.059113">
        <ele>541</ele>
      </trkpt>
      <trkpt lat="31.096129" lon="35.059207">
        <ele>541</ele>
      </trkpt>
      <trkpt lat="31.095675" lon="35.059247">
        <ele>539</ele>
      </trkpt>
      <trkpt lat="31.095357" lon="35.059166">
        <ele>546</ele>
      </trkpt>
      <trkpt lat="31.094876" lon="35.059299">
        <ele>545</ele>
      </trkpt>
      <trkpt lat="31.094683" lon="35.05931">
        <ele>550</ele>
      </trkpt>
      <trkpt lat="31.094723" lon="35.05951">
        <ele>551</ele>
      </trkpt>
      <trkpt lat="31.094523" lon="35.060529">
        <ele>549</ele>
      </trkpt>
      <trkpt lat="31.09434" lon="35.060513">
        <ele>549</ele>
      </trkpt>
      <trkpt lat="31.09414" lon="35.060383">
        <ele>552</ele>
      </trkpt>
      <trkpt lat="31.09388" lon="35.06034">
        <ele>556</ele>
      </trkpt>
      <extensions>
        <RoutingType xmlns="">Bike</RoutingType>
      </extensions>
    </trkseg>
    <trkseg>
      <trkpt lat="31.09388" lon="35.06034">
        <ele>556</ele>
      </trkpt>
      <trkpt lat="31.093853" lon="35.060608">
        <ele>557</ele>
      </trkpt>
      <trkpt lat="31.093658" lon="35.060944">
        <ele>554</ele>
      </trkpt>
      <trkpt lat="31.093453" lon="35.060939">
        <ele>553</ele>
      </trkpt>
      <trkpt lat="31.093117" lon="35.060855">
        <ele>560</ele>
      </trkpt>
      <trkpt lat="31.092924" lon="35.061053">
        <ele>561</ele>
      </trkpt>
      <trkpt lat="31.092766" lon="35.061459">
        <ele>555</ele>
      </trkpt>
      <trkpt lat="31.092365" lon="35.061567">
        <ele>559</ele>
      </trkpt>
      <trkpt lat="31.092135" lon="35.061944">
        <ele>562</ele>
      </trkpt>
      <trkpt lat="31.091942" lon="35.062595">
        <ele>558</ele>
      </trkpt>
      <trkpt lat="31.091617" lon="35.062724">
        <ele>557</ele>
      </trkpt>
      <trkpt lat="31.091374" lon="35.062757">
        <ele>559</ele>
      </trkpt>
      <trkpt lat="31.09106" lon="35.062974">
        <ele>553.5</ele>
      </trkpt>
      <extensions>
        <RoutingType xmlns="">Bike</RoutingType>
      </extensions>
    </trkseg>
    <trkseg>
      <trkpt lat="31.09106" lon="35.062974">
        <ele>553.5</ele>
      </trkpt>
      <trkpt lat="31.090469" lon="35.063519">
        <ele>549</ele>
      </trkpt>
      <trkpt lat="31.090326" lon="35.063738">
        <ele>549</ele>
      </trkpt>
      <trkpt lat="31.090189" lon="35.064087">
        <ele>547</ele>
      </trkpt>
      <trkpt lat="31.090049" lon="35.064226">
        <ele>547</ele>
      </trkpt>
      <trkpt lat="31.089918" lon="35.064252">
        <ele>546</ele>
      </trkpt>
      <trkpt lat="31.089817" lon="35.064191">
        <ele>543</ele>
      </trkpt>
      <trkpt lat="31.089724" lon="35.064106">
        <ele>543</ele>
      </trkpt>
      <trkpt lat="31.089712" lon="35.06386">
        <ele>547</ele>
      </trkpt>
      <trkpt lat="31.089597" lon="35.063879">
        <ele>546</ele>
      </trkpt>
      <trkpt lat="31.089467" lon="35.06412">
        <ele>543</ele>
      </trkpt>
      <trkpt lat="31.089314" lon="35.064207">
        <ele>542</ele>
      </trkpt>
      <trkpt lat="31.089104" lon="35.064231">
        <ele>538</ele>
      </trkpt>
      <trkpt lat="31.088924" lon="35.064193">
        <ele>537</ele>
      </trkpt>
      <trkpt lat="31.088817" lon="35.064115">
        <ele>538</ele>
      </trkpt>
      <trkpt lat="31.08872" lon="35.064191">
        <ele>536</ele>
      </trkpt>
      <trkpt lat="31.08858" lon="35.064389">
        <ele>535</ele>
      </trkpt>
      <trkpt lat="31.088467" lon="35.064615">
        <ele>532</ele>
      </trkpt>
      <trkpt lat="31.088368" lon="35.064722">
        <ele>531</ele>
      </trkpt>
      <trkpt lat="31.08833" lon="35.064821">
        <ele>529</ele>
      </trkpt>
      <trkpt lat="31.088439" lon="35.064823">
        <ele>528</ele>
      </trkpt>
      <trkpt lat="31.08853" lon="35.064681">
        <ele>529</ele>
      </trkpt>
      <trkpt lat="31.088667" lon="35.064613">
        <ele>530</ele>
      </trkpt>
      <trkpt lat="31.088726" lon="35.064766">
        <ele>527</ele>
      </trkpt>
      <trkpt lat="31.088621" lon="35.065116">
        <ele>523</ele>
      </trkpt>
      <trkpt lat="31.088723" lon="35.065151">
        <ele>523</ele>
      </trkpt>
      <trkpt lat="31.088843" lon="35.065075">
        <ele>523</ele>
      </trkpt>
      <trkpt lat="31.088932" lon="35.064948">
        <ele>524</ele>
      </trkpt>
      <trkpt lat="31.089065" lon="35.064927">
        <ele>526</ele>
      </trkpt>
      <trkpt lat="31.089134" lon="35.065012">
        <ele>526</ele>
      </trkpt>
      <trkpt lat="31.089172" lon="35.065156">
        <ele>524</ele>
      </trkpt>
      <trkpt lat="31.089554" lon="35.065385">
        <ele>527</ele>
      </trkpt>
      <trkpt lat="31.089586" lon="35.065776">
        <ele>525</ele>
      </trkpt>
      <trkpt lat="31.089318" lon="35.066424">
        <ele>525</ele>
      </trkpt>
      <trkpt lat="31.08931" lon="35.066652">
        <ele>526</ele>
      </trkpt>
      <trkpt lat="31.089263" lon="35.066772">
        <ele>526</ele>
      </trkpt>
      <trkpt lat="31.089182" lon="35.066904">
        <ele>525</ele>
      </trkpt>
      <trkpt lat="31.089119" lon="35.067099">
        <ele>526</ele>
      </trkpt>
      <trkpt lat="31.089051" lon="35.06723">
        <ele>527</ele>
      </trkpt>
      <trkpt lat="31.088938" lon="35.067225">
        <ele>527</ele>
      </trkpt>
      <trkpt lat="31.088796" lon="35.067135">
        <ele>522</ele>
      </trkpt>
      <trkpt lat="31.088661" lon="35.067147">
        <ele>521</ele>
      </trkpt>
      <trkpt lat="31.088588" lon="35.067376">
        <ele>520</ele>
      </trkpt>
      <trkpt lat="31.088587" lon="35.067419">
        <ele>521</ele>
      </trkpt>
      <extensions>
        <RoutingType xmlns="">Bike</RoutingType>
      </extensions>
    </trkseg>
    <trkseg>
      <trkpt lat="31.088587" lon="35.067419">
        <ele>521</ele>
      </trkpt>
      <trkpt lat="31.088576" lon="35.067685">
        <ele>522</ele>
      </trkpt>
      <trkpt lat="31.088542" lon="35.067827">
        <ele>522</ele>
      </trkpt>
      <trkpt lat="31.088443" lon="35.067869">
        <ele>520</ele>
      </trkpt>
      <trkpt lat="31.088237" lon="35.067881">
        <ele>519</ele>
      </trkpt>
      <trkpt lat="31.087996" lon="35.068046">
        <ele>517</ele>
      </trkpt>
      <trkpt lat="31.087956" lon="35.068218">
        <ele>516</ele>
      </trkpt>
      <trkpt lat="31.088069" lon="35.068667">
        <ele>511</ele>
      </trkpt>
      <trkpt lat="31.088253" lon="35.068952">
        <ele>503</ele>
      </trkpt>
      <trkpt lat="31.088311" lon="35.069082">
        <ele>497</ele>
      </trkpt>
      <trkpt lat="31.088101" lon="35.068983">
        <ele>502</ele>
      </trkpt>
      <trkpt lat="31.087893" lon="35.068792">
        <ele>506</ele>
      </trkpt>
      <trkpt lat="31.087543" lon="35.068309">
        <ele>504</ele>
      </trkpt>
      <trkpt lat="31.087402" lon="35.068238">
        <ele>503</ele>
      </trkpt>
      <trkpt lat="31.087278" lon="35.068272">
        <ele>497</ele>
      </trkpt>
      <trkpt lat="31.087116" lon="35.06824">
        <ele>494</ele>
      </trkpt>
      <trkpt lat="31.087016" lon="35.068176">
        <ele>492</ele>
      </trkpt>
      <trkpt lat="31.086344" lon="35.068171">
        <ele>479</ele>
      </trkpt>
      <trkpt lat="31.086219" lon="35.068144">
        <ele>477</ele>
      </trkpt>
      <trkpt lat="31.086178" lon="35.067961">
        <ele>475</ele>
      </trkpt>
      <trkpt lat="31.086142" lon="35.067931">
        <ele>475</ele>
      </trkpt>
      <trkpt lat="31.086158" lon="35.067883">
        <ele>475</ele>
      </trkpt>
      <trkpt lat="31.086108" lon="35.067855">
        <ele>474</ele>
      </trkpt>
      <extensions>
        <RoutingType xmlns="">Bike</RoutingType>
      </extensions>
    </trkseg>
    <trkseg>
      <trkpt lat="31.086108" lon="35.067855">
        <ele>474</ele>
      </trkpt>
      <trkpt lat="31.086032" lon="35.06769">
        <ele>473</ele>
      </trkpt>
      <trkpt lat="31.085802" lon="35.067466">
        <ele>473</ele>
      </trkpt>
      <trkpt lat="31.085577" lon="35.067285">
        <ele>471</ele>
      </trkpt>
      <trkpt lat="31.085332" lon="35.066903">
        <ele>475</ele>
      </trkpt>
      <trkpt lat="31.08515" lon="35.06667">
        <ele>473</ele>
      </trkpt>
      <trkpt lat="31.084944" lon="35.066508">
        <ele>474</ele>
      </trkpt>
      <trkpt lat="31.084713" lon="35.066353">
        <ele>472</ele>
      </trkpt>
      <trkpt lat="31.084666" lon="35.066291">
        <ele>471</ele>
      </trkpt>
      <trkpt lat="31.084698" lon="35.066142">
        <ele>469</ele>
      </trkpt>
      <trkpt lat="31.08479" lon="35.066099">
        <ele>470.5</ele>
      </trkpt>
      <extensions>
        <RoutingType xmlns="">Bike</RoutingType>
      </extensions>
    </trkseg>
    <trkseg>
      <trkpt lat="31.08479" lon="35.066099">
        <ele>470.5</ele>
      </trkpt>
      <trkpt lat="31.085024" lon="35.065971">
        <ele>471</ele>
      </trkpt>
      <trkpt lat="31.085094" lon="35.065969">
        <ele>471</ele>
      </trkpt>
      <trkpt lat="31.085251" lon="35.066028">
        <ele>474</ele>
      </trkpt>
      <trkpt lat="31.085289" lon="35.066024">
        <ele>474</ele>
      </trkpt>
      <trkpt lat="31.085339" lon="35.065981">
        <ele>474</ele>
      </trkpt>
      <trkpt lat="31.085466" lon="35.065765">
        <ele>474</ele>
      </trkpt>
      <trkpt lat="31.085488" lon="35.065698">
        <ele>473</ele>
      </trkpt>
      <trkpt lat="31.085494" lon="35.065539">
        <ele>473</ele>
      </trkpt>
      <trkpt lat="31.085562" lon="35.065281">
        <ele>474</ele>
      </trkpt>
      <trkpt lat="31.085621" lon="35.065233">
        <ele>476</ele>
      </trkpt>
      <trkpt lat="31.085675" lon="35.065216">
        <ele>477</ele>
      </trkpt>
      <extensions>
        <RoutingType xmlns="">Bike</RoutingType>
      </extensions>
    </trkseg>
    <trkseg>
      <trkpt lat="31.085675" lon="35.065216">
        <ele>477</ele>
      </trkpt>
      <trkpt lat="31.085621" lon="35.065233">
        <ele>476</ele>
      </trkpt>
      <trkpt lat="31.085562" lon="35.065281">
        <ele>474</ele>
      </trkpt>
      <trkpt lat="31.085494" lon="35.065539">
        <ele>473</ele>
      </trkpt>
      <trkpt lat="31.085411" lon="35.065277">
        <ele>473</ele>
      </trkpt>
      <trkpt lat="31.085363" lon="35.065168">
        <ele>473</ele>
      </trkpt>
      <trkpt lat="31.085289" lon="35.065053">
        <ele>474</ele>
      </trkpt>
      <trkpt lat="31.085241" lon="35.064921">
        <ele>475</ele>
      </trkpt>
      <trkpt lat="31.085193" lon="35.064686">
        <ele>475</ele>
      </trkpt>
      <trkpt lat="31.085173" lon="35.064437">
        <ele>476</ele>
      </trkpt>
      <trkpt lat="31.085197" lon="35.064294">
        <ele>476</ele>
      </trkpt>
      <trkpt lat="31.085246" lon="35.064177">
        <ele>476</ele>
      </trkpt>
      <extensions>
        <RoutingType xmlns="">Bike</RoutingType>
      </extensions>
    </trkseg>
    <trkseg>
      <trkpt lat="31.085246" lon="35.064177">
        <ele>476</ele>
      </trkpt>
      <trkpt lat="31.085423" lon="35.063759">
        <ele>476</ele>
      </trkpt>
      <trkpt lat="31.085687" lon="35.063365">
        <ele>478</ele>
      </trkpt>
      <trkpt lat="31.085812" lon="35.0631">
        <ele>480</ele>
      </trkpt>
      <trkpt lat="31.085831" lon="35.063024">
        <ele>480</ele>
      </trkpt>
      <trkpt lat="31.08582" lon="35.062901">
        <ele>480</ele>
      </trkpt>
      <trkpt lat="31.08578" lon="35.06275">
        <ele>481</ele>
      </trkpt>
      <trkpt lat="31.085737" lon="35.06266">
        <ele>481</ele>
      </trkpt>
      <trkpt lat="31.085657" lon="35.062578">
        <ele>482</ele>
      </trkpt>
      <trkpt lat="31.085466" lon="35.062441">
        <ele>485</ele>
      </trkpt>
      <trkpt lat="31.085343" lon="35.062383">
        <ele>484</ele>
      </trkpt>
      <trkpt lat="31.08521" lon="35.062356">
        <ele>485</ele>
      </trkpt>
      <trkpt lat="31.085117" lon="35.062359">
        <ele>483</ele>
      </trkpt>
      <trkpt lat="31.085064" lon="35.062391">
        <ele>483</ele>
      </trkpt>
      <trkpt lat="31.084968" lon="35.062489">
        <ele>483</ele>
      </trkpt>
      <extensions>
        <RoutingType xmlns="">Bike</RoutingType>
      </extensions>
    </trkseg>
    <trkseg>
      <trkpt lat="31.084968" lon="35.062489">
        <ele>483</ele>
      </trkpt>
      <trkpt lat="31.08485" lon="35.062553">
        <ele>485</ele>
      </trkpt>
      <trkpt lat="31.084783" lon="35.062551">
        <ele>486</ele>
      </trkpt>
      <trkpt lat="31.084745" lon="35.062531">
        <ele>486</ele>
      </trkpt>
      <trkpt lat="31.084702" lon="35.062469">
        <ele>486</ele>
      </trkpt>
      <trkpt lat="31.08462" lon="35.062158">
        <ele>483</ele>
      </trkpt>
      <trkpt lat="31.084584" lon="35.061921">
        <ele>484</ele>
      </trkpt>
      <trkpt lat="31.084571" lon="35.061376">
        <ele>484</ele>
      </trkpt>
      <trkpt lat="31.084544" lon="35.061201">
        <ele>485</ele>
      </trkpt>
      <trkpt lat="31.084393" lon="35.060732">
        <ele>486</ele>
      </trkpt>
      <trkpt lat="31.084251" lon="35.060517">
        <ele>487</ele>
      </trkpt>
      <trkpt lat="31.084129" lon="35.060285">
        <ele>487</ele>
      </trkpt>
      <trkpt lat="31.084043" lon="35.060166">
        <ele>487</ele>
      </trkpt>
      <trkpt lat="31.083831" lon="35.059957">
        <ele>487</ele>
      </trkpt>
      <trkpt lat="31.083416" lon="35.059712">
        <ele>490</ele>
      </trkpt>
      <trkpt lat="31.083308" lon="35.059604">
        <ele>491</ele>
      </trkpt>
      <extensions>
        <RoutingType xmlns="">Bike</RoutingType>
      </extensions>
    </trkseg>
    <trkseg>
      <trkpt lat="31.083308" lon="35.059604">
        <ele>491</ele>
      </trkpt>
      <trkpt lat="31.083113" lon="35.059271">
        <ele>489</ele>
      </trkpt>
      <trkpt lat="31.08305" lon="35.059206">
        <ele>489</ele>
      </trkpt>
      <trkpt lat="31.082887" lon="35.059117">
        <ele>490</ele>
      </trkpt>
      <trkpt lat="31.082769" lon="35.059076">
        <ele>491</ele>
      </trkpt>
      <trkpt lat="31.082639" lon="35.059103">
        <ele>491</ele>
      </trkpt>
      <trkpt lat="31.082472" lon="35.059224">
        <ele>490</ele>
      </trkpt>
      <trkpt lat="31.082325" lon="35.059448">
        <ele>492</ele>
      </trkpt>
      <trkpt lat="31.082213" lon="35.059566">
        <ele>492</ele>
      </trkpt>
      <trkpt lat="31.082124" lon="35.059612">
        <ele>492</ele>
      </trkpt>
      <trkpt lat="31.081974" lon="35.059637">
        <ele>493</ele>
      </trkpt>
      <trkpt lat="31.081653" lon="35.059596">
        <ele>493</ele>
      </trkpt>
      <trkpt lat="31.081523" lon="35.059472">
        <ele>493</ele>
      </trkpt>
      <trkpt lat="31.081465" lon="35.059473">
        <ele>494</ele>
      </trkpt>
      <trkpt lat="31.081297" lon="35.0594">
        <ele>494</ele>
      </trkpt>
      <trkpt lat="31.081017" lon="35.059141">
        <ele>497</ele>
      </trkpt>
      <trkpt lat="31.08098" lon="35.059091">
        <ele>497</ele>
      </trkpt>
      <extensions>
        <RoutingType xmlns="">Bike</RoutingType>
      </extensions>
    </trkseg>
    <trkseg>
      <trkpt lat="31.08098" lon="35.059091">
        <ele>497</ele>
      </trkpt>
      <trkpt lat="31.080877" lon="35.058951">
        <ele>497</ele>
      </trkpt>
      <trkpt lat="31.0807" lon="35.058622">
        <ele>498</ele>
      </trkpt>
      <trkpt lat="31.080505" lon="35.058173">
        <ele>499</ele>
      </trkpt>
      <trkpt lat="31.080454" lon="35.058006">
        <ele>499</ele>
      </trkpt>
      <trkpt lat="31.08034" lon="35.057232">
        <ele>501</ele>
      </trkpt>
      <trkpt lat="31.080167" lon="35.056794">
        <ele>504</ele>
      </trkpt>
      <trkpt lat="31.080107" lon="35.056678">
        <ele>503</ele>
      </trkpt>
      <trkpt lat="31.079891" lon="35.056434">
        <ele>503.5</ele>
      </trkpt>
      <extensions>
        <RoutingType xmlns="">Bike</RoutingType>
      </extensions>
    </trkseg>
    <trkseg>
      <trkpt lat="31.079891" lon="35.056434">
        <ele>503.5</ele>
      </trkpt>
      <trkpt lat="31.079767" lon="35.056308">
        <ele>503</ele>
      </trkpt>
      <trkpt lat="31.079499" lon="35.056249">
        <ele>508</ele>
      </trkpt>
      <trkpt lat="31.079293" lon="35.05599">
        <ele>512</ele>
      </trkpt>
      <trkpt lat="31.079183" lon="35.055577">
        <ele>512</ele>
      </trkpt>
      <trkpt lat="31.07914" lon="35.055121">
        <ele>511</ele>
      </trkpt>
      <trkpt lat="31.079024" lon="35.054782">
        <ele>511</ele>
      </trkpt>
      <trkpt lat="31.078803" lon="35.054591">
        <ele>510</ele>
      </trkpt>
      <trkpt lat="31.078513" lon="35.054576">
        <ele>509</ele>
      </trkpt>
      <trkpt lat="31.078153" lon="35.054685">
        <ele>508</ele>
      </trkpt>
      <trkpt lat="31.078016" lon="35.054709">
        <ele>509</ele>
      </trkpt>
      <trkpt lat="31.077889" lon="35.054806">
        <ele>510</ele>
      </trkpt>
      <trkpt lat="31.077518" lon="35.055167">
        <ele>511</ele>
      </trkpt>
      <trkpt lat="31.077435" lon="35.055304">
        <ele>511</ele>
      </trkpt>
      <trkpt lat="31.077408" lon="35.055381">
        <ele>513</ele>
      </trkpt>
      <trkpt lat="31.07741" lon="35.055549">
        <ele>513</ele>
      </trkpt>
      <extensions>
        <RoutingType xmlns="">Bike</RoutingType>
      </extensions>
    </trkseg>
    <trkseg>
      <trkpt lat="31.07741" lon="35.055549">
        <ele>513</ele>
      </trkpt>
      <trkpt lat="31.077427" lon="35.055742">
        <ele>513</ele>
      </trkpt>
      <trkpt lat="31.077397" lon="35.055814">
        <ele>513</ele>
      </trkpt>
      <trkpt lat="31.077348" lon="35.055855">
        <ele>513</ele>
      </trkpt>
      <trkpt lat="31.077274" lon="35.055877">
        <ele>515</ele>
      </trkpt>
      <trkpt lat="31.077203" lon="35.055874">
        <ele>515</ele>
      </trkpt>
      <trkpt lat="31.076799" lon="35.05579">
        <ele>516</ele>
      </trkpt>
      <trkpt lat="31.076721" lon="35.055792">
        <ele>516</ele>
      </trkpt>
      <trkpt lat="31.076494" lon="35.055979">
        <ele>517</ele>
      </trkpt>
      <trkpt lat="31.075994" lon="35.056303">
        <ele>517</ele>
      </trkpt>
      <trkpt lat="31.075892" lon="35.056338">
        <ele>517</ele>
      </trkpt>
      <trkpt lat="31.075718" lon="35.056361">
        <ele>517</ele>
      </trkpt>
      <trkpt lat="31.075574" lon="35.056313">
        <ele>518</ele>
      </trkpt>
      <trkpt lat="31.075396" lon="35.056146">
        <ele>518</ele>
      </trkpt>
      <trkpt lat="31.075281" lon="35.055967">
        <ele>519</ele>
      </trkpt>
      <trkpt lat="31.075179" lon="35.056075">
        <ele>518</ele>
      </trkpt>
      <trkpt lat="31.075106" lon="35.056199">
        <ele>519.5</ele>
      </trkpt>
      <extensions>
        <RoutingType xmlns="">Bike</RoutingType>
      </extensions>
    </trkseg>
    <trkseg>
      <trkpt lat="31.075106" lon="35.056199">
        <ele>519.5</ele>
      </trkpt>
      <trkpt lat="31.075179" lon="35.056075">
        <ele>518</ele>
      </trkpt>
      <trkpt lat="31.075281" lon="35.055967">
        <ele>519</ele>
      </trkpt>
      <trkpt lat="31.075" lon="35.055439">
        <ele>522</ele>
      </trkpt>
      <trkpt lat="31.074833" lon="35.05469">
        <ele>522</ele>
      </trkpt>
      <trkpt lat="31.074682" lon="35.054348">
        <ele>524</ele>
      </trkpt>
      <trkpt lat="31.074575" lon="35.05385">
        <ele>525</ele>
      </trkpt>
      <trkpt lat="31.074507" lon="35.053704">
        <ele>526</ele>
      </trkpt>
      <trkpt lat="31.074379" lon="35.053503">
        <ele>526</ele>
      </trkpt>
      <trkpt lat="31.074338" lon="35.053355">
        <ele>527</ele>
      </trkpt>
      <trkpt lat="31.074338" lon="35.053183">
        <ele>526</ele>
      </trkpt>
      <extensions>
        <RoutingType xmlns="">Bike</RoutingType>
      </extensions>
    </trkseg>
    <trkseg>
      <trkpt lat="31.074338" lon="35.053183">
        <ele>526</ele>
      </trkpt>
      <trkpt lat="31.074338" lon="35.053023">
        <ele>525</ele>
      </trkpt>
      <trkpt lat="31.074262" lon="35.05284">
        <ele>524</ele>
      </trkpt>
      <trkpt lat="31.074266" lon="35.052765">
        <ele>523</ele>
      </trkpt>
      <trkpt lat="31.074418" lon="35.052219">
        <ele>527</ele>
      </trkpt>
      <trkpt lat="31.07448" lon="35.051542">
        <ele>532</ele>
      </trkpt>
      <trkpt lat="31.074563" lon="35.051048">
        <ele>533</ele>
      </trkpt>
      <trkpt lat="31.074643" lon="35.050901">
        <ele>534</ele>
      </trkpt>
      <trkpt lat="31.074966" lon="35.050585">
        <ele>534</ele>
      </trkpt>
      <trkpt lat="31.075047" lon="35.050461">
        <ele>534</ele>
      </trkpt>
      <trkpt lat="31.075215" lon="35.050078">
        <ele>536</ele>
      </trkpt>
      <trkpt lat="31.075653" lon="35.049176">
        <ele>541</ele>
      </trkpt>
      <trkpt lat="31.075782" lon="35.048686">
        <ele>543</ele>
      </trkpt>
      <trkpt lat="31.075809" lon="35.048636">
        <ele>545</ele>
      </trkpt>
      <extensions>
        <RoutingType xmlns="">Bike</RoutingType>
      </extensions>
    </trkseg>
    <trkseg>
      <trkpt lat="31.075809" lon="35.048636">
        <ele>545</ele>
      </trkpt>
      <trkpt lat="31.07607" lon="35.048155">
        <ele>547</ele>
      </trkpt>
      <trkpt lat="31.07614" lon="35.047928">
        <ele>548</ele>
      </trkpt>
      <trkpt lat="31.076197" lon="35.047798">
        <ele>548</ele>
      </trkpt>
      <trkpt lat="31.076325" lon="35.047583">
        <ele>549</ele>
      </trkpt>
      <trkpt lat="31.076495" lon="35.047238">
        <ele>553</ele>
      </trkpt>
      <trkpt lat="31.07667" lon="35.047003">
        <ele>555</ele>
      </trkpt>
      <trkpt lat="31.076773" lon="35.04677">
        <ele>557</ele>
      </trkpt>
      <trkpt lat="31.076818" lon="35.046602">
        <ele>557</ele>
      </trkpt>
      <trkpt lat="31.076816" lon="35.046491">
        <ele>558</ele>
      </trkpt>
      <trkpt lat="31.07679" lon="35.04635">
        <ele>559</ele>
      </trkpt>
      <trkpt lat="31.076761" lon="35.0463">
        <ele>559</ele>
      </trkpt>
      <trkpt lat="31.076697" lon="35.046254">
        <ele>561</ele>
      </trkpt>
      <trkpt lat="31.076542" lon="35.046206">
        <ele>562</ele>
      </trkpt>
      <trkpt lat="31.076494" lon="35.046162">
        <ele>564</ele>
      </trkpt>
      <trkpt lat="31.076463" lon="35.046075">
        <ele>564</ele>
      </trkpt>
      <trkpt lat="31.076479" lon="35.045965">
        <ele>564</ele>
      </trkpt>
      <trkpt lat="31.076558" lon="35.045769">
        <ele>563</ele>
      </trkpt>
      <trkpt lat="31.076833" lon="35.045478">
        <ele>562</ele>
      </trkpt>
      <trkpt lat="31.07676" lon="35.045324">
        <ele>563</ele>
      </trkpt>
      <trkpt lat="31.076753" lon="35.045188">
        <ele>563</ele>
      </trkpt>
      <trkpt lat="31.07678" lon="35.044835">
        <ele>562.5</ele>
      </trkpt>
      <extensions>
        <RoutingType xmlns="">Bike</RoutingType>
      </extensions>
    </trkseg>
    <trkseg>
      <trkpt lat="31.07678" lon="35.044835">
        <ele>562.5</ele>
      </trkpt>
      <trkpt lat="31.076802" lon="35.04454">
        <ele>562</ele>
      </trkpt>
      <trkpt lat="31.076831" lon="35.044741">
        <ele>563</ele>
      </trkpt>
      <trkpt lat="31.076875" lon="35.044835">
        <ele>562</ele>
      </trkpt>
      <trkpt lat="31.077011" lon="35.044957">
        <ele>560</ele>
      </trkpt>
      <trkpt lat="31.077192" lon="35.045012">
        <ele>557</ele>
      </trkpt>
      <trkpt lat="31.07759" lon="35.045012">
        <ele>558</ele>
      </trkpt>
      <trkpt lat="31.078466" lon="35.044878">
        <ele>558</ele>
      </trkpt>
      <trkpt lat="31.078538" lon="35.044857">
        <ele>558</ele>
      </trkpt>
      <trkpt lat="31.078659" lon="35.044779">
        <ele>556</ele>
      </trkpt>
      <trkpt lat="31.078852" lon="35.044801">
        <ele>556</ele>
      </trkpt>
      <trkpt lat="31.080603" lon="35.044424">
        <ele>553.5</ele>
      </trkpt>
      <extensions>
        <RoutingType xmlns="">Bike</RoutingType>
      </extensions>
    </trkseg>
    <trkseg>
      <trkpt lat="31.080603" lon="35.044424">
        <ele>553.5</ele>
      </trkpt>
      <trkpt lat="31.081284" lon="35.044147">
        <ele>548</ele>
      </trkpt>
      <trkpt lat="31.081482" lon="35.044023">
        <ele>544</ele>
      </trkpt>
      <trkpt lat="31.081722" lon="35.043815">
        <ele>544</ele>
      </trkpt>
      <trkpt lat="31.081891" lon="35.043775">
        <ele>545</ele>
      </trkpt>
      <trkpt lat="31.081996" lon="35.043707">
        <ele>546</ele>
      </trkpt>
      <trkpt lat="31.082299" lon="35.043407">
        <ele>549</ele>
      </trkpt>
      <trkpt lat="31.082449" lon="35.043213">
        <ele>549</ele>
      </trkpt>
      <trkpt lat="31.082709" lon="35.042824">
        <ele>550</ele>
      </trkpt>
      <trkpt lat="31.082965" lon="35.042316">
        <ele>553</ele>
      </trkpt>
      <trkpt lat="31.083214" lon="35.041737">
        <ele>562</ele>
      </trkpt>
      <trkpt lat="31.083256" lon="35.041827">
        <ele>562</ele>
      </trkpt>
      <trkpt lat="31.083651" lon="35.040963">
        <ele>563</ele>
      </trkpt>
      <extensions>
        <RoutingType xmlns="">Bike</RoutingType>
      </extensions>
    </trkseg>
    <trkseg>
      <trkpt lat="31.083651" lon="35.040963">
        <ele>563</ele>
      </trkpt>
      <trkpt lat="31.083747" lon="35.04076">
        <ele>563</ele>
      </trkpt>
      <trkpt lat="31.08379" lon="35.040717">
        <ele>563</ele>
      </trkpt>
      <trkpt lat="31.083859" lon="35.040691">
        <ele>564</ele>
      </trkpt>
      <trkpt lat="31.083842" lon="35.040608">
        <ele>564</ele>
      </trkpt>
      <trkpt lat="31.083905" lon="35.040598">
        <ele>566</ele>
      </trkpt>
      <trkpt lat="31.083923" lon="35.0405">
        <ele>566</ele>
      </trkpt>
      <trkpt lat="31.083974" lon="35.040414">
        <ele>567</ele>
      </trkpt>
      <trkpt lat="31.083957" lon="35.040356">
        <ele>567</ele>
      </trkpt>
      <trkpt lat="31.084041" lon="35.040321">
        <ele>569</ele>
      </trkpt>
      <trkpt lat="31.084032" lon="35.040145">
        <ele>571</ele>
      </trkpt>
      <trkpt lat="31.084048" lon="35.040055">
        <ele>571</ele>
      </trkpt>
      <trkpt lat="31.084353" lon="35.039068">
        <ele>574</ele>
      </trkpt>
      <trkpt lat="31.084654" lon="35.037765">
        <ele>582</ele>
      </trkpt>
      <trkpt lat="31.08468" lon="35.037723">
        <ele>581</ele>
      </trkpt>
      <trkpt lat="31.084722" lon="35.037694">
        <ele>582</ele>
      </trkpt>
      <trkpt lat="31.084745" lon="35.037523">
        <ele>581</ele>
      </trkpt>
      <trkpt lat="31.084706" lon="35.037378">
        <ele>580</ele>
      </trkpt>
      <trkpt lat="31.084793" lon="35.036525">
        <ele>582</ele>
      </trkpt>
      <trkpt lat="31.084825" lon="35.036032">
        <ele>583</ele>
      </trkpt>
      <trkpt lat="31.084838" lon="35.035137">
        <ele>587</ele>
      </trkpt>
      <extensions>
        <RoutingType xmlns="">Bike</RoutingType>
      </extensions>
    </trkseg>
    <trkseg>
      <trkpt lat="31.084838" lon="35.035137">
        <ele>587</ele>
      </trkpt>
      <trkpt lat="31.084831" lon="35.034619">
        <ele>587</ele>
      </trkpt>
      <trkpt lat="31.084856" lon="35.034488">
        <ele>587</ele>
      </trkpt>
      <trkpt lat="31.084854" lon="35.034369">
        <ele>586</ele>
      </trkpt>
      <trkpt lat="31.08481" lon="35.034289">
        <ele>586</ele>
      </trkpt>
      <trkpt lat="31.084772" lon="35.034082">
        <ele>585</ele>
      </trkpt>
      <trkpt lat="31.084707" lon="35.033457">
        <ele>586</ele>
      </trkpt>
      <trkpt lat="31.084706" lon="35.033398">
        <ele>587</ele>
      </trkpt>
      <trkpt lat="31.084736" lon="35.033333">
        <ele>587</ele>
      </trkpt>
      <trkpt lat="31.084715" lon="35.033155">
        <ele>587</ele>
      </trkpt>
      <trkpt lat="31.084655" lon="35.033081">
        <ele>586</ele>
      </trkpt>
      <trkpt lat="31.084622" lon="35.032976">
        <ele>586</ele>
      </trkpt>
      <trkpt lat="31.084429" lon="35.032109">
        <ele>588</ele>
      </trkpt>
      <trkpt lat="31.084339" lon="35.031784">
        <ele>587</ele>
      </trkpt>
      <trkpt lat="31.084152" lon="35.031202">
        <ele>586</ele>
      </trkpt>
      <trkpt lat="31.08415" lon="35.031104">
        <ele>586</ele>
      </trkpt>
      <trkpt lat="31.084174" lon="35.031053">
        <ele>587</ele>
      </trkpt>
      <trkpt lat="31.084136" lon="35.030952">
        <ele>586</ele>
      </trkpt>
      <trkpt lat="31.08406" lon="35.030874">
        <ele>586</ele>
      </trkpt>
      <trkpt lat="31.083981" lon="35.030714">
        <ele>586</ele>
      </trkpt>
      <trkpt lat="31.083729" lon="35.029979">
        <ele>584.5</ele>
      </trkpt>
      <extensions>
        <RoutingType xmlns="">Bike</RoutingType>
      </extensions>
    </trkseg>
    <trkseg>
      <trkpt lat="31.083729" lon="35.029979">
        <ele>584.5</ele>
      </trkpt>
      <trkpt lat="31.083603" lon="35.029611">
        <ele>583</ele>
      </trkpt>
      <trkpt lat="31.083562" lon="35.029391">
        <ele>584</ele>
      </trkpt>
      <trkpt lat="31.083254" lon="35.028629">
        <ele>582</ele>
      </trkpt>
      <trkpt lat="31.083168" lon="35.028561">
        <ele>582</ele>
      </trkpt>
      <trkpt lat="31.082933" lon="35.028179">
        <ele>583</ele>
      </trkpt>
      <trkpt lat="31.082529" lon="35.027625">
        <ele>581</ele>
      </trkpt>
      <trkpt lat="31.082117" lon="35.027175">
        <ele>579</ele>
      </trkpt>
      <trkpt lat="31.081828" lon="35.026918">
        <ele>577</ele>
      </trkpt>
      <trkpt lat="31.081786" lon="35.026857">
        <ele>578</ele>
      </trkpt>
      <trkpt lat="31.081775" lon="35.0268">
        <ele>578</ele>
      </trkpt>
      <trkpt lat="31.08168" lon="35.026716">
        <ele>578</ele>
      </trkpt>
      <trkpt lat="31.08163" lon="35.026723">
        <ele>577</ele>
      </trkpt>
      <trkpt lat="31.081561" lon="35.026703">
        <ele>577</ele>
      </trkpt>
      <trkpt lat="31.081265" lon="35.026493">
        <ele>575.5</ele>
      </trkpt>
      <extensions>
        <RoutingType xmlns="">Bike</RoutingType>
      </extensions>
    </trkseg>
  </trk>
</gpx>
