<?xml version="1.0" encoding="UTF-8"?>
<gpx xmlns="http://www.topografix.com/GPX/1/1" creator="MapMyTracks" version="1.1" 
    xmlns:xsi="http://www.w3.org/2001/XMLSchema-instance" 
    xsi:schemaLocation="http://www.topografix.com/GPX/1/1 http://www.topografix.com/GPX/1/1/gpx.xsd">
		
<trk>
<trkseg>
<trkpt lat="32.909257283" lon="35.422653683"><ele>323.89</ele><time>2026-07-31T04:20:01Z</time></trkpt><trkpt lat="32.909073817" lon="35.422641250"><ele>320.90</ele><time>2026-07-31T04:20:28Z</time></trkpt><trkpt lat="32.908930233" lon="35.422501433"><ele>320.94</ele><time>2026-07-31T04:21:15Z</time></trkpt><trkpt lat="32.908831917" lon="35.422309317"><ele>323.16</ele><time>2026-07-31T04:21:23Z</time></trkpt><trkpt lat="32.908784667" lon="35.422077033"><ele>322.61</ele><time>2026-07-31T04:21:30Z</time></trkpt><trkpt lat="32.908690933" lon="35.421889717"><ele>318.75</ele><time>2026-07-31T04:21:39Z</time></trkpt><trkpt lat="32.908615517" lon="35.422104150"><ele>315.81</ele><time>2026-07-31T04:21:47Z</time></trkpt><trkpt lat="32.908432183" lon="35.422129300"><ele>317.79</ele><time>2026-07-31T04:21:53Z</time></trkpt><trkpt lat="32.908379600" lon="35.421888883"><ele>319.06</ele><time>2026-07-31T04:22:00Z</time></trkpt><trkpt lat="32.908392050" lon="35.421644400"><ele>316.73</ele><time>2026-07-31T04:22:05Z</time></trkpt><trkpt lat="32.908440500" lon="35.421429267"><ele>317.06</ele><time>2026-07-31T04:22:10Z</time></trkpt><trkpt lat="32.908504483" lon="35.421201850"><ele>318.36</ele><time>2026-07-31T04:22:16Z</time></trkpt><trkpt lat="32.908603917" lon="35.420988817"><ele>317.71</ele><time>2026-07-31T04:22:22Z</time></trkpt><trkpt lat="32.908711950" lon="35.420805667"><ele>320.80</ele><time>2026-07-31T04:22:29Z</time></trkpt><trkpt lat="32.908810917" lon="35.420624267"><ele>320.80</ele><time>2026-07-31T04:22:36Z</time></trkpt><trkpt lat="32.908951833" lon="35.420470183"><ele>322.71</ele><time>2026-07-31T04:22:45Z</time></trkpt><trkpt lat="32.909110050" lon="35.420352533"><ele>325.64</ele><time>2026-07-31T04:22:53Z</time></trkpt><trkpt lat="32.909257517" lon="35.420198967"><ele>327.61</ele><time>2026-07-31T04:23:02Z</time></trkpt><trkpt lat="32.909364700" lon="35.420019983"><ele>328.84</ele><time>2026-07-31T04:23:11Z</time></trkpt><trkpt lat="32.909195550" lon="35.419916650"><ele>329.36</ele><time>2026-07-31T04:23:21Z</time></trkpt><trkpt lat="32.909010317" lon="35.419823300"><ele>330.03</ele><time>2026-07-31T04:23:29Z</time></trkpt><trkpt lat="32.908831167" lon="35.419845350"><ele>329.19</ele><time>2026-07-31T04:23:34Z</time></trkpt><trkpt lat="32.908620400" lon="35.419797050"><ele>327.35</ele><time>2026-07-31T04:23:39Z</time></trkpt><trkpt lat="32.908464250" lon="35.419647167"><ele>326.09</ele><time>2026-07-31T04:23:45Z</time></trkpt><trkpt lat="32.908268500" lon="35.419584683"><ele>322.65</ele><time>2026-07-31T04:23:50Z</time></trkpt><trkpt lat="32.908103317" lon="35.419429033"><ele>323.76</ele><time>2026-07-31T04:23:55Z</time></trkpt><trkpt lat="32.907955117" lon="35.419277217"><ele>322.99</ele><time>2026-07-31T04:24:01Z</time></trkpt><trkpt lat="32.907827167" lon="35.419102900"><ele>323.45</ele><time>2026-07-31T04:24:06Z</time></trkpt><trkpt lat="32.907690967" lon="35.418945933"><ele>323.52</ele><time>2026-07-31T04:24:11Z</time></trkpt><trkpt lat="32.907529350" lon="35.418787733"><ele>320.61</ele><time>2026-07-31T04:24:17Z</time></trkpt><trkpt lat="32.907423300" lon="35.418590300"><ele>321.08</ele><time>2026-07-31T04:24:23Z</time></trkpt><trkpt lat="32.907304667" lon="35.418400300"><ele>322.55</ele><time>2026-07-31T04:24:29Z</time></trkpt><trkpt lat="32.907191083" lon="35.418197500"><ele>321.40</ele><time>2026-07-31T04:24:36Z</time></trkpt><trkpt lat="32.907164533" lon="35.417959567"><ele>323.56</ele><time>2026-07-31T04:24:43Z</time></trkpt><trkpt lat="32.907063467" lon="35.417756717"><ele>324.26</ele><time>2026-07-31T04:24:50Z</time></trkpt><trkpt lat="32.906968467" lon="35.417570717"><ele>326.17</ele><time>2026-07-31T04:24:55Z</time></trkpt><trkpt lat="32.906899900" lon="35.417371150"><ele>324.18</ele><time>2026-07-31T04:25:01Z</time></trkpt><trkpt lat="32.906754717" lon="35.417190500"><ele>321.07</ele><time>2026-07-31T04:25:07Z</time></trkpt><trkpt lat="32.906626850" lon="35.417004067"><ele>320.05</ele><time>2026-07-31T04:25:12Z</time></trkpt><trkpt lat="32.906535100" lon="35.416798767"><ele>319.33</ele><time>2026-07-31T04:25:16Z</time></trkpt><trkpt lat="32.906419783" lon="35.416592917"><ele>318.62</ele><time>2026-07-31T04:25:21Z</time></trkpt><trkpt lat="32.906359100" lon="35.416359000"><ele>318.52</ele><time>2026-07-31T04:25:26Z</time></trkpt><trkpt lat="32.906351050" lon="35.416142733"><ele>321.17</ele><time>2026-07-31T04:25:32Z</time></trkpt><trkpt lat="32.906285800" lon="35.415912717"><ele>321.91</ele><time>2026-07-31T04:25:40Z</time></trkpt><trkpt lat="32.906230183" lon="35.415708700"><ele>322.11</ele><time>2026-07-31T04:25:46Z</time></trkpt><trkpt lat="32.906120267" lon="35.415513700"><ele>321.90</ele><time>2026-07-31T04:25:53Z</time></trkpt><trkpt lat="32.906051433" lon="35.415289467"><ele>321.10</ele><time>2026-07-31T04:26:01Z</time></trkpt><trkpt lat="32.905967367" lon="35.415082050"><ele>321.97</ele><time>2026-07-31T04:26:07Z</time></trkpt><trkpt lat="32.905792183" lon="35.414958967"><ele>318.69</ele><time>2026-07-31T04:26:15Z</time></trkpt><trkpt lat="32.905697517" lon="35.414762617"><ele>317.71</ele><time>2026-07-31T04:26:20Z</time></trkpt><trkpt lat="32.905612117" lon="35.414534417"><ele>316.03</ele><time>2026-07-31T04:26:26Z</time></trkpt><trkpt lat="32.905494983" lon="35.414350350"><ele>315.56</ele><time>2026-07-31T04:26:32Z</time></trkpt><trkpt lat="32.905464183" lon="35.414112733"><ele>314.95</ele><time>2026-07-31T04:26:38Z</time></trkpt><trkpt lat="32.905396483" lon="35.413904567"><ele>314.28</ele><time>2026-07-31T04:26:44Z</time></trkpt><trkpt lat="32.905343000" lon="35.413669150"><ele>315.01</ele><time>2026-07-31T04:26:50Z</time></trkpt><trkpt lat="32.905315317" lon="35.413445667"><ele>315.50</ele><time>2026-07-31T04:26:56Z</time></trkpt><trkpt lat="32.905248333" lon="35.413232767"><ele>313.83</ele><time>2026-07-31T04:27:01Z</time></trkpt><trkpt lat="32.905290950" lon="35.412998767"><ele>312.73</ele><time>2026-07-31T04:27:06Z</time></trkpt><trkpt lat="32.905357783" lon="35.412780417"><ele>311.07</ele><time>2026-07-31T04:27:11Z</time></trkpt><trkpt lat="32.905445967" lon="35.412585933"><ele>310.67</ele><time>2026-07-31T04:27:15Z</time></trkpt><trkpt lat="32.905586550" lon="35.412392383"><ele>307.63</ele><time>2026-07-31T04:27:20Z</time></trkpt><trkpt lat="32.905776817" lon="35.412246500"><ele>305.15</ele><time>2026-07-31T04:27:25Z</time></trkpt><trkpt lat="32.905995933" lon="35.412197117"><ele>303.57</ele><time>2026-07-31T04:27:30Z</time></trkpt><trkpt lat="32.906222983" lon="35.412158500"><ele>301.84</ele><time>2026-07-31T04:27:35Z</time></trkpt><trkpt lat="32.906404267" lon="35.412258900"><ele>302.32</ele><time>2026-07-31T04:27:40Z</time></trkpt><trkpt lat="32.906581833" lon="35.412343483"><ele>303.59</ele><time>2026-07-31T04:27:46Z</time></trkpt><trkpt lat="32.906768333" lon="35.412370350"><ele>301.39</ele><time>2026-07-31T04:27:52Z</time></trkpt><trkpt lat="32.906944883" lon="35.412452750"><ele>301.86</ele><time>2026-07-31T04:27:56Z</time></trkpt><trkpt lat="32.907120983" lon="35.412497533"><ele>302.09</ele><time>2026-07-31T04:28:01Z</time></trkpt><trkpt lat="32.907339967" lon="35.412497117"><ele>299.13</ele><time>2026-07-31T04:28:07Z</time></trkpt><trkpt lat="32.907541383" lon="35.412526933"><ele>296.71</ele><time>2026-07-31T04:28:11Z</time></trkpt><trkpt lat="32.907748867" lon="35.412539500"><ele>294.17</ele><time>2026-07-31T04:28:16Z</time></trkpt><trkpt lat="32.907937283" lon="35.412531750"><ele>292.73</ele><time>2026-07-31T04:28:20Z</time></trkpt><trkpt lat="32.908160617" lon="35.412551433"><ele>290.90</ele><time>2026-07-31T04:28:25Z</time></trkpt><trkpt lat="32.908359500" lon="35.412593950"><ele>291.26</ele><time>2026-07-31T04:28:30Z</time></trkpt><trkpt lat="32.908538717" lon="35.412698533"><ele>293.01</ele><time>2026-07-31T04:28:36Z</time></trkpt><trkpt lat="32.908733450" lon="35.412819000"><ele>291.72</ele><time>2026-07-31T04:28:42Z</time></trkpt><trkpt lat="32.908935417" lon="35.412892283"><ele>293.44</ele><time>2026-07-31T04:28:47Z</time></trkpt><trkpt lat="32.909136167" lon="35.412934967"><ele>292.01</ele><time>2026-07-31T04:28:53Z</time></trkpt><trkpt lat="32.909349983" lon="35.412986567"><ele>293.24</ele><time>2026-07-31T04:28:58Z</time></trkpt><trkpt lat="32.909467450" lon="35.413149267"><ele>294.66</ele><time>2026-07-31T04:29:03Z</time></trkpt><trkpt lat="32.909601567" lon="35.413301583"><ele>295.10</ele><time>2026-07-31T04:29:09Z</time></trkpt><trkpt lat="32.909779483" lon="35.413386500"><ele>294.98</ele><time>2026-07-31T04:29:17Z</time></trkpt><trkpt lat="32.909957517" lon="35.413452433"><ele>295.47</ele><time>2026-07-31T04:29:23Z</time></trkpt><trkpt lat="32.910146667" lon="35.413461383"><ele>295.02</ele><time>2026-07-31T04:29:29Z</time></trkpt><trkpt lat="32.910356267" lon="35.413422400"><ele>294.31</ele><time>2026-07-31T04:29:34Z</time></trkpt><trkpt lat="32.910557900" lon="35.413500017"><ele>294.81</ele><time>2026-07-31T04:29:38Z</time></trkpt><trkpt lat="32.910759200" lon="35.413577533"><ele>288.38</ele><time>2026-07-31T04:29:43Z</time></trkpt><trkpt lat="32.910955883" lon="35.413610300"><ele>287.50</ele><time>2026-07-31T04:29:47Z</time></trkpt><trkpt lat="32.911139350" lon="35.413693417"><ele>287.63</ele><time>2026-07-31T04:29:51Z</time></trkpt><trkpt lat="32.911300533" lon="35.413790700"><ele>285.69</ele><time>2026-07-31T04:29:56Z</time></trkpt><trkpt lat="32.911412300" lon="35.413973483"><ele>284.10</ele><time>2026-07-31T04:30:10Z</time></trkpt><trkpt lat="32.911550183" lon="35.414146267"><ele>287.34</ele><time>2026-07-31T04:30:16Z</time></trkpt><trkpt lat="32.911629750" lon="35.414348083"><ele>289.11</ele><time>2026-07-31T04:30:25Z</time></trkpt><trkpt lat="32.911697517" lon="35.414549417"><ele>290.21</ele><time>2026-07-31T04:30:32Z</time></trkpt><trkpt lat="32.911800400" lon="35.414753483"><ele>287.13</ele><time>2026-07-31T04:30:38Z</time></trkpt><trkpt lat="32.911893950" lon="35.414979350"><ele>286.10</ele><time>2026-07-31T04:30:43Z</time></trkpt><trkpt lat="32.911937200" lon="35.415197500"><ele>288.34</ele><time>2026-07-31T04:30:48Z</time></trkpt><trkpt lat="32.911924667" lon="35.415428267"><ele>290.63</ele><time>2026-07-31T04:30:54Z</time></trkpt><trkpt lat="32.911942900" lon="35.415665933"><ele>291.89</ele><time>2026-07-31T04:31:02Z</time></trkpt><trkpt lat="32.911950317" lon="35.415919567"><ele>291.80</ele><time>2026-07-31T04:31:09Z</time></trkpt><trkpt lat="32.911964867" lon="35.416133933"><ele>293.25</ele><time>2026-07-31T04:31:15Z</time></trkpt><trkpt lat="32.911982517" lon="35.416357117"><ele>293.44</ele><time>2026-07-31T04:31:21Z</time></trkpt><trkpt lat="32.911976667" lon="35.416574433"><ele>293.50</ele><time>2026-07-31T04:31:26Z</time></trkpt><trkpt lat="32.911875350" lon="35.416783667"><ele>292.16</ele><time>2026-07-31T04:31:32Z</time></trkpt><trkpt lat="32.911860750" lon="35.417029450"><ele>292.69</ele><time>2026-07-31T04:31:38Z</time></trkpt><trkpt lat="32.911838867" lon="35.417270267"><ele>296.00</ele><time>2026-07-31T04:31:44Z</time></trkpt><trkpt lat="32.911759250" lon="35.417486000"><ele>297.53</ele><time>2026-07-31T04:31:50Z</time></trkpt><trkpt lat="32.911728383" lon="35.417730183"><ele>295.18</ele><time>2026-07-31T04:31:56Z</time></trkpt><trkpt lat="32.911716633" lon="35.417953367"><ele>297.27</ele><time>2026-07-31T04:32:01Z</time></trkpt><trkpt lat="32.911597567" lon="35.418145517"><ele>296.67</ele><time>2026-07-31T04:32:09Z</time></trkpt><trkpt lat="32.911566917" lon="35.418371567"><ele>298.85</ele><time>2026-07-31T04:32:16Z</time></trkpt><trkpt lat="32.911517867" lon="35.418618517"><ele>297.98</ele><time>2026-07-31T04:32:22Z</time></trkpt><trkpt lat="32.911460250" lon="35.418843517"><ele>297.27</ele><time>2026-07-31T04:32:28Z</time></trkpt><trkpt lat="32.911435083" lon="35.419056883"><ele>297.06</ele><time>2026-07-31T04:32:34Z</time></trkpt><trkpt lat="32.911321967" lon="35.419252383"><ele>297.50</ele><time>2026-07-31T04:32:40Z</time></trkpt><trkpt lat="32.911242350" lon="35.419450033"><ele>296.90</ele><time>2026-07-31T04:32:47Z</time></trkpt><trkpt lat="32.911105867" lon="35.419628350"><ele>297.46</ele><time>2026-07-31T04:32:54Z</time></trkpt><trkpt lat="32.910976800" lon="35.419820317"><ele>300.10</ele><time>2026-07-31T04:33:02Z</time></trkpt><trkpt lat="32.910825900" lon="35.419982417"><ele>301.43</ele><time>2026-07-31T04:33:10Z</time></trkpt><trkpt lat="32.910682500" lon="35.420147733"><ele>302.82</ele><time>2026-07-31T04:33:18Z</time></trkpt><trkpt lat="32.910541167" lon="35.420302933"><ele>308.95</ele><time>2026-07-31T04:33:29Z</time></trkpt><trkpt lat="32.910427783" lon="35.420481950"><ele>310.24</ele><time>2026-07-31T04:33:39Z</time></trkpt><trkpt lat="32.910295250" lon="35.420640900"><ele>310.47</ele><time>2026-07-31T04:33:50Z</time></trkpt><trkpt lat="32.910215867" lon="35.420841117"><ele>312.74</ele><time>2026-07-31T04:33:59Z</time></trkpt><trkpt lat="32.910153950" lon="35.421054600"><ele>314.14</ele><time>2026-07-31T04:34:09Z</time></trkpt><trkpt lat="32.910208650" lon="35.421270367"><ele>313.99</ele><time>2026-07-31T04:34:17Z</time></trkpt><trkpt lat="32.910119900" lon="35.421458717"><ele>315.68</ele><time>2026-07-31T04:34:26Z</time></trkpt><trkpt lat="32.910234917" lon="35.421636417"><ele>315.08</ele><time>2026-07-31T04:34:39Z</time></trkpt><trkpt lat="32.910389233" lon="35.421785600"><ele>319.05</ele><time>2026-07-31T04:37:56Z</time></trkpt><trkpt lat="32.910544233" lon="35.421919333"><ele>316.74</ele><time>2026-07-31T04:38:06Z</time></trkpt><trkpt lat="32.910679400" lon="35.422082500"><ele>317.90</ele><time>2026-07-31T04:38:16Z</time></trkpt><trkpt lat="32.910842417" lon="35.422191350"><ele>319.41</ele><time>2026-07-31T04:38:26Z</time></trkpt><trkpt lat="32.911024900" lon="35.422280417"><ele>319.61</ele><time>2026-07-31T04:38:36Z</time></trkpt><trkpt lat="32.911189367" lon="35.422377117"><ele>320.51</ele><time>2026-07-31T04:38:45Z</time></trkpt><trkpt lat="32.911369383" lon="35.422410150"><ele>321.51</ele><time>2026-07-31T04:38:54Z</time></trkpt><trkpt lat="32.911219950" lon="35.422561800"><ele>324.36</ele><time>2026-07-31T04:39:05Z</time></trkpt><trkpt lat="32.911277133" lon="35.422768967"><ele>327.38</ele><time>2026-07-31T04:39:21Z</time></trkpt><trkpt lat="32.911455033" lon="35.422840550"><ele>329.83</ele><time>2026-07-31T04:39:33Z</time></trkpt><trkpt lat="32.911643900" lon="35.422833717"><ele>331.64</ele><time>2026-07-31T04:39:45Z</time></trkpt><trkpt lat="32.911836683" lon="35.422791467"><ele>332.32</ele><time>2026-07-31T04:39:54Z</time></trkpt><trkpt lat="32.911684767" lon="35.422926683"><ele>333.34</ele><time>2026-07-31T04:40:10Z</time></trkpt><trkpt lat="32.911521300" lon="35.423021733"><ele>333.57</ele><time>2026-07-31T04:40:20Z</time></trkpt><trkpt lat="32.911361617" lon="35.423121783"><ele>334.70</ele><time>2026-07-31T04:40:29Z</time></trkpt><trkpt lat="32.911165333" lon="35.423125250"><ele>335.21</ele><time>2026-07-31T04:40:37Z</time></trkpt><trkpt lat="32.910987900" lon="35.423170350"><ele>336.65</ele><time>2026-07-31T04:40:45Z</time></trkpt><trkpt lat="32.910840367" lon="35.423331733"><ele>338.65</ele><time>2026-07-31T04:40:56Z</time></trkpt><trkpt lat="32.910780233" lon="35.423538133"><ele>338.83</ele><time>2026-07-31T04:41:04Z</time></trkpt><trkpt lat="32.910785633" lon="35.423759933"><ele>339.09</ele><time>2026-07-31T04:41:12Z</time></trkpt><trkpt lat="32.910839733" lon="35.423997117"><ele>337.69</ele><time>2026-07-31T04:41:20Z</time></trkpt><trkpt lat="32.910894483" lon="35.424217950"><ele>336.44</ele><time>2026-07-31T04:41:25Z</time></trkpt><trkpt lat="32.911021067" lon="35.424417800"><ele>336.52</ele><time>2026-07-31T04:41:29Z</time></trkpt><trkpt lat="32.911168117" lon="35.424599933"><ele>334.97</ele><time>2026-07-31T04:41:34Z</time></trkpt><trkpt lat="32.911263183" lon="35.424785517"><ele>334.29</ele><time>2026-07-31T04:41:39Z</time></trkpt><trkpt lat="32.911343467" lon="35.424997483"><ele>334.54</ele><time>2026-07-31T04:41:45Z</time></trkpt><trkpt lat="32.911236783" lon="35.425199650"><ele>333.31</ele><time>2026-07-31T04:41:52Z</time></trkpt><trkpt lat="32.911207500" lon="35.425453933"><ele>330.29</ele><time>2026-07-31T04:41:58Z</time></trkpt><trkpt lat="32.911245600" lon="35.425679717"><ele>329.59</ele><time>2026-07-31T04:42:02Z</time></trkpt><trkpt lat="32.911291200" lon="35.425887850"><ele>327.83</ele><time>2026-07-31T04:42:06Z</time></trkpt><trkpt lat="32.911353567" lon="35.426100667"><ele>328.11</ele><time>2026-07-31T04:42:12Z</time></trkpt><trkpt lat="32.911261767" lon="35.426306733"><ele>327.84</ele><time>2026-07-31T04:42:18Z</time></trkpt><trkpt lat="32.911304167" lon="35.426517950"><ele>325.23</ele><time>2026-07-31T04:42:24Z</time></trkpt><trkpt lat="32.911360150" lon="35.426736350"><ele>325.55</ele><time>2026-07-31T04:42:29Z</time></trkpt><trkpt lat="32.911392133" lon="35.426994150"><ele>324.59</ele><time>2026-07-31T04:42:34Z</time></trkpt><trkpt lat="32.911329133" lon="35.427250633"><ele>323.52</ele><time>2026-07-31T04:42:39Z</time></trkpt><trkpt lat="32.911231850" lon="35.427461200"><ele>322.62</ele><time>2026-07-31T04:42:43Z</time></trkpt><trkpt lat="32.911182367" lon="35.427672217"><ele>319.76</ele><time>2026-07-31T04:42:47Z</time></trkpt><trkpt lat="32.911189200" lon="35.427931417"><ele>320.87</ele><time>2026-07-31T04:42:51Z</time></trkpt><trkpt lat="32.911161217" lon="35.428157950"><ele>320.81</ele><time>2026-07-31T04:42:55Z</time></trkpt><trkpt lat="32.911267800" lon="35.428385100"><ele>320.46</ele><time>2026-07-31T04:43:02Z</time></trkpt><trkpt lat="32.911459283" lon="35.428466817"><ele>323.41</ele><time>2026-07-31T04:43:11Z</time></trkpt><trkpt lat="32.911593350" lon="35.428611700"><ele>321.67</ele><time>2026-07-31T04:43:17Z</time></trkpt><trkpt lat="32.911775983" lon="35.428697467"><ele>319.43</ele><time>2026-07-31T04:43:24Z</time></trkpt><trkpt lat="32.911953017" lon="35.428777200"><ele>322.01</ele><time>2026-07-31T04:43:32Z</time></trkpt><trkpt lat="32.911860583" lon="35.428588633"><ele>327.01</ele><time>2026-07-31T04:43:47Z</time></trkpt><trkpt lat="32.911980533" lon="35.428428367"><ele>327.71</ele><time>2026-07-31T04:44:01Z</time></trkpt><trkpt lat="32.912171700" lon="35.428413717"><ele>329.09</ele><time>2026-07-31T04:44:13Z</time></trkpt><trkpt lat="32.912357500" lon="35.428370550"><ele>332.21</ele><time>2026-07-31T04:44:28Z</time></trkpt><trkpt lat="32.912541667" lon="35.428280450"><ele>332.06</ele><time>2026-07-31T04:44:38Z</time></trkpt><trkpt lat="32.912728717" lon="35.428248817"><ele>335.89</ele><time>2026-07-31T04:44:46Z</time></trkpt><trkpt lat="32.912929683" lon="35.428322317"><ele>340.97</ele><time>2026-07-31T04:44:51Z</time></trkpt><trkpt lat="32.913106667" lon="35.428457383"><ele>332.48</ele><time>2026-07-31T04:44:55Z</time></trkpt><trkpt lat="32.913300933" lon="35.428507150"><ele>328.83</ele><time>2026-07-31T04:44:59Z</time></trkpt><trkpt lat="32.913484583" lon="35.428510433"><ele>327.63</ele><time>2026-07-31T04:45:07Z</time></trkpt><trkpt lat="32.913674183" lon="35.428542500"><ele>328.40</ele><time>2026-07-31T04:45:15Z</time></trkpt><trkpt lat="32.913876000" lon="35.428544817"><ele>327.95</ele><time>2026-07-31T04:45:24Z</time></trkpt><trkpt lat="32.914066283" lon="35.428581883"><ele>331.26</ele><time>2026-07-31T04:45:32Z</time></trkpt><trkpt lat="32.914247450" lon="35.428547300"><ele>330.94</ele><time>2026-07-31T04:45:41Z</time></trkpt><trkpt lat="32.914431367" lon="35.428529350"><ele>332.77</ele><time>2026-07-31T04:45:48Z</time></trkpt><trkpt lat="32.914555350" lon="35.428690483"><ele>334.61</ele><time>2026-07-31T04:45:54Z</time></trkpt><trkpt lat="32.914735117" lon="35.428744500"><ele>333.77</ele><time>2026-07-31T04:45:59Z</time></trkpt><trkpt lat="32.914894217" lon="35.428856883"><ele>330.32</ele><time>2026-07-31T04:46:04Z</time></trkpt><trkpt lat="32.915047767" lon="35.429001117"><ele>327.87</ele><time>2026-07-31T04:46:10Z</time></trkpt><trkpt lat="32.915218833" lon="35.429096467"><ele>326.69</ele><time>2026-07-31T04:46:16Z</time></trkpt><trkpt lat="32.915393333" lon="35.428972983"><ele>328.69</ele><time>2026-07-31T04:46:23Z</time></trkpt><trkpt lat="32.915588883" lon="35.429010500"><ele>327.39</ele><time>2026-07-31T04:46:29Z</time></trkpt><trkpt lat="32.915788483" lon="35.429022133"><ele>329.98</ele><time>2026-07-31T04:46:36Z</time></trkpt><trkpt lat="32.915980950" lon="35.428990633"><ele>332.73</ele><time>2026-07-31T04:46:43Z</time></trkpt><trkpt lat="32.916164550" lon="35.428968467"><ele>333.47</ele><time>2026-07-31T04:46:51Z</time></trkpt><trkpt lat="32.916373017" lon="35.428973950"><ele>334.01</ele><time>2026-07-31T04:46:57Z</time></trkpt><trkpt lat="32.916573033" lon="35.428970967"><ele>333.55</ele><time>2026-07-31T04:47:02Z</time></trkpt><trkpt lat="32.916757083" lon="35.428878183"><ele>333.68</ele><time>2026-07-31T04:47:10Z</time></trkpt><trkpt lat="32.916941017" lon="35.428781800"><ele>335.44</ele><time>2026-07-31T04:47:17Z</time></trkpt><trkpt lat="32.916955817" lon="35.428566150"><ele>340.47</ele><time>2026-07-31T04:47:32Z</time></trkpt><trkpt lat="32.917132583" lon="35.428496150"><ele>331.20</ele><time>2026-07-31T04:47:42Z</time></trkpt><trkpt lat="32.917244050" lon="35.428313583"><ele>337.10</ele><time>2026-07-31T04:47:52Z</time></trkpt><trkpt lat="32.917386117" lon="35.428169817"><ele>342.78</ele><time>2026-07-31T04:48:00Z</time></trkpt><trkpt lat="32.917493100" lon="35.427988100"><ele>344.37</ele><time>2026-07-31T04:48:08Z</time></trkpt><trkpt lat="32.917602367" lon="35.427799150"><ele>343.17</ele><time>2026-07-31T04:48:18Z</time></trkpt><trkpt lat="32.917701317" lon="35.427614050"><ele>345.89</ele><time>2026-07-31T04:48:29Z</time></trkpt><trkpt lat="32.917756417" lon="35.427392000"><ele>344.65</ele><time>2026-07-31T04:48:39Z</time></trkpt><trkpt lat="32.917855933" lon="35.427195283"><ele>344.43</ele><time>2026-07-31T04:48:46Z</time></trkpt><trkpt lat="32.917900467" lon="35.426954617"><ele>342.71</ele><time>2026-07-31T04:48:54Z</time></trkpt><trkpt lat="32.917856917" lon="35.426724450"><ele>343.03</ele><time>2026-07-31T04:49:02Z</time></trkpt><trkpt lat="32.917883767" lon="35.426501417"><ele>342.10</ele><time>2026-07-31T04:49:11Z</time></trkpt><trkpt lat="32.917936167" lon="35.426283183"><ele>341.43</ele><time>2026-07-31T04:49:18Z</time></trkpt><trkpt lat="32.917923650" lon="35.426047600"><ele>345.44</ele><time>2026-07-31T04:49:26Z</time></trkpt><trkpt lat="32.917862800" lon="35.425836000"><ele>345.75</ele><time>2026-07-31T04:49:34Z</time></trkpt><trkpt lat="32.917781200" lon="35.425603833"><ele>345.11</ele><time>2026-07-31T04:49:43Z</time></trkpt><trkpt lat="32.917694833" lon="35.425396900"><ele>345.40</ele><time>2026-07-31T04:49:48Z</time></trkpt><trkpt lat="32.917585933" lon="35.425224583"><ele>345.90</ele><time>2026-07-31T04:49:56Z</time></trkpt><trkpt lat="32.917669100" lon="35.425020950"><ele>342.49</ele><time>2026-07-31T04:52:58Z</time></trkpt><trkpt lat="32.917817533" lon="35.424869267"><ele>342.37</ele><time>2026-07-31T04:53:07Z</time></trkpt><trkpt lat="32.917933017" lon="35.424665250"><ele>341.76</ele><time>2026-07-31T04:53:13Z</time></trkpt><trkpt lat="32.918108183" lon="35.424565850"><ele>336.91</ele><time>2026-07-31T04:53:20Z</time></trkpt><trkpt lat="32.918275900" lon="35.424463100"><ele>338.52</ele><time>2026-07-31T04:53:30Z</time></trkpt><trkpt lat="32.918444550" lon="35.424356900"><ele>344.78</ele><time>2026-07-31T04:53:37Z</time></trkpt><trkpt lat="32.918604383" lon="35.424209883"><ele>346.40</ele><time>2026-07-31T04:53:41Z</time></trkpt><trkpt lat="32.918737733" lon="35.424005450"><ele>346.25</ele><time>2026-07-31T04:53:45Z</time></trkpt><trkpt lat="32.918864800" lon="35.423851200"><ele>343.63</ele><time>2026-07-31T04:53:48Z</time></trkpt><trkpt lat="32.918983567" lon="35.423660700"><ele>342.57</ele><time>2026-07-31T04:53:53Z</time></trkpt><trkpt lat="32.919150217" lon="35.423543267"><ele>338.75</ele><time>2026-07-31T04:53:57Z</time></trkpt><trkpt lat="32.919306017" lon="35.423391600"><ele>332.80</ele><time>2026-07-31T04:54:01Z</time></trkpt><trkpt lat="32.919400350" lon="35.423125983"><ele>332.93</ele><time>2026-07-31T04:54:05Z</time></trkpt><trkpt lat="32.919455483" lon="35.422903067"><ele>330.40</ele><time>2026-07-31T04:54:09Z</time></trkpt><trkpt lat="32.919433017" lon="35.422669850"><ele>328.33</ele><time>2026-07-31T04:54:14Z</time></trkpt><trkpt lat="32.919368683" lon="35.422450567"><ele>332.28</ele><time>2026-07-31T04:54:20Z</time></trkpt><trkpt lat="32.919365467" lon="35.422214750"><ele>333.51</ele><time>2026-07-31T04:54:26Z</time></trkpt><trkpt lat="32.919295500" lon="35.421996117"><ele>332.85</ele><time>2026-07-31T04:54:33Z</time></trkpt><trkpt lat="32.919230633" lon="35.421754217"><ele>335.02</ele><time>2026-07-31T04:54:39Z</time></trkpt><trkpt lat="32.919173550" lon="35.421484817"><ele>335.80</ele><time>2026-07-31T04:54:44Z</time></trkpt><trkpt lat="32.919136300" lon="35.421257900"><ele>334.97</ele><time>2026-07-31T04:54:48Z</time></trkpt><trkpt lat="32.919088517" lon="35.421049200"><ele>333.80</ele><time>2026-07-31T04:54:52Z</time></trkpt><trkpt lat="32.919030250" lon="35.420798433"><ele>331.72</ele><time>2026-07-31T04:54:56Z</time></trkpt><trkpt lat="32.919025617" lon="35.420572200"><ele>332.57</ele><time>2026-07-31T04:54:59Z</time></trkpt><trkpt lat="32.918995467" lon="35.420323583"><ele>331.33</ele><time>2026-07-31T04:55:03Z</time></trkpt><trkpt lat="32.918934267" lon="35.420098533"><ele>330.85</ele><time>2026-07-31T04:55:08Z</time></trkpt><trkpt lat="32.918909867" lon="35.419871817"><ele>331.41</ele><time>2026-07-31T04:55:14Z</time></trkpt><trkpt lat="32.918829083" lon="35.419676183"><ele>329.77</ele><time>2026-07-31T04:55:18Z</time></trkpt><trkpt lat="32.918678217" lon="35.419515183"><ele>332.83</ele><time>2026-07-31T04:55:23Z</time></trkpt><trkpt lat="32.918483900" lon="35.419437367"><ele>331.27</ele><time>2026-07-31T04:55:30Z</time></trkpt><trkpt lat="32.918302817" lon="35.419375283"><ele>330.79</ele><time>2026-07-31T04:55:37Z</time></trkpt><trkpt lat="32.918136983" lon="35.419265933"><ele>333.18</ele><time>2026-07-31T04:55:44Z</time></trkpt><trkpt lat="32.917965450" lon="35.419176750"><ele>334.91</ele><time>2026-07-31T04:55:52Z</time></trkpt><trkpt lat="32.917817617" lon="35.418990317"><ele>332.46</ele><time>2026-07-31T04:55:58Z</time></trkpt><trkpt lat="32.917657817" lon="35.418857233"><ele>330.81</ele><time>2026-07-31T04:56:03Z</time></trkpt><trkpt lat="32.917503617" lon="35.418732100"><ele>333.19</ele><time>2026-07-31T04:56:07Z</time></trkpt><trkpt lat="32.917325300" lon="35.418630600"><ele>333.23</ele><time>2026-07-31T04:56:11Z</time></trkpt><trkpt lat="32.917142967" lon="35.418566333"><ele>334.01</ele><time>2026-07-31T04:56:16Z</time></trkpt><trkpt lat="32.916955217" lon="35.418459417"><ele>332.34</ele><time>2026-07-31T04:56:21Z</time></trkpt><trkpt lat="32.916769333" lon="35.418439100"><ele>331.13</ele><time>2026-07-31T04:56:26Z</time></trkpt><trkpt lat="32.916585500" lon="35.418417917"><ele>331.75</ele><time>2026-07-31T04:56:31Z</time></trkpt><trkpt lat="32.916401067" lon="35.418407483"><ele>331.91</ele><time>2026-07-31T04:56:36Z</time></trkpt><trkpt lat="32.916203183" lon="35.418352150"><ele>332.94</ele><time>2026-07-31T04:56:41Z</time></trkpt><trkpt lat="32.916285967" lon="35.418132967"><ele>326.66</ele><time>2026-07-31T04:56:49Z</time></trkpt><trkpt lat="32.916486350" lon="35.418088900"><ele>326.19</ele><time>2026-07-31T04:56:55Z</time></trkpt><trkpt lat="32.916674717" lon="35.418140633"><ele>327.21</ele><time>2026-07-31T04:57:03Z</time></trkpt><trkpt lat="32.916857800" lon="35.418182417"><ele>325.86</ele><time>2026-07-31T04:57:09Z</time></trkpt><trkpt lat="32.917043300" lon="35.418236117"><ele>325.97</ele><time>2026-07-31T04:57:14Z</time></trkpt><trkpt lat="32.917232417" lon="35.418290433"><ele>323.74</ele><time>2026-07-31T04:57:18Z</time></trkpt><trkpt lat="32.917421317" lon="35.418387700"><ele>323.53</ele><time>2026-07-31T04:57:23Z</time></trkpt><trkpt lat="32.917603233" lon="35.418502550"><ele>326.03</ele><time>2026-07-31T04:57:31Z</time></trkpt><trkpt lat="32.917799533" lon="35.418606800"><ele>329.17</ele><time>2026-07-31T04:57:37Z</time></trkpt><trkpt lat="32.917959933" lon="35.418741750"><ele>328.54</ele><time>2026-07-31T04:57:44Z</time></trkpt><trkpt lat="32.918119717" lon="35.418875767"><ele>329.96</ele><time>2026-07-31T04:57:50Z</time></trkpt><trkpt lat="32.918289783" lon="35.419005650"><ele>327.67</ele><time>2026-07-31T04:57:57Z</time></trkpt><trkpt lat="32.918471883" lon="35.419088233"><ele>327.22</ele><time>2026-07-31T04:58:03Z</time></trkpt><trkpt lat="32.918616450" lon="35.419251783"><ele>328.73</ele><time>2026-07-31T04:58:09Z</time></trkpt><trkpt lat="32.918755800" lon="35.419418133"><ele>331.91</ele><time>2026-07-31T04:58:16Z</time></trkpt><trkpt lat="32.918912167" lon="35.419563167"><ele>332.11</ele><time>2026-07-31T04:58:21Z</time></trkpt><trkpt lat="32.919027800" lon="35.419737617"><ele>328.79</ele><time>2026-07-31T04:58:26Z</time></trkpt><trkpt lat="32.919136733" lon="35.419914083"><ele>327.56</ele><time>2026-07-31T04:58:31Z</time></trkpt><trkpt lat="32.919194850" lon="35.420131733"><ele>327.27</ele><time>2026-07-31T04:58:35Z</time></trkpt><trkpt lat="32.919198250" lon="35.420353233"><ele>328.23</ele><time>2026-07-31T04:58:41Z</time></trkpt><trkpt lat="32.919246117" lon="35.420572933"><ele>326.60</ele><time>2026-07-31T04:58:47Z</time></trkpt><trkpt lat="32.919316800" lon="35.420772600"><ele>328.73</ele><time>2026-07-31T04:58:53Z</time></trkpt><trkpt lat="32.919380683" lon="35.420999750"><ele>327.91</ele><time>2026-07-31T04:58:59Z</time></trkpt><trkpt lat="32.919469167" lon="35.421206817"><ele>328.09</ele><time>2026-07-31T04:59:05Z</time></trkpt><trkpt lat="32.919557967" lon="35.421394000"><ele>327.28</ele><time>2026-07-31T04:59:10Z</time></trkpt><trkpt lat="32.919611550" lon="35.421632600"><ele>327.56</ele><time>2026-07-31T04:59:15Z</time></trkpt><trkpt lat="32.919642767" lon="35.421879567"><ele>325.46</ele><time>2026-07-31T04:59:21Z</time></trkpt><trkpt lat="32.919669717" lon="35.422105033"><ele>326.77</ele><time>2026-07-31T04:59:27Z</time></trkpt><trkpt lat="32.919727650" lon="35.422334617"><ele>327.66</ele><time>2026-07-31T04:59:33Z</time></trkpt><trkpt lat="32.919719033" lon="35.422561917"><ele>328.19</ele><time>2026-07-31T04:59:38Z</time></trkpt><trkpt lat="32.919674950" lon="35.422801233"><ele>327.76</ele><time>2026-07-31T04:59:45Z</time></trkpt><trkpt lat="32.919621783" lon="35.423052383"><ele>327.82</ele><time>2026-07-31T04:59:51Z</time></trkpt><trkpt lat="32.919574600" lon="35.423276833"><ele>326.76</ele><time>2026-07-31T04:59:57Z</time></trkpt><trkpt lat="32.919499533" lon="35.423506117"><ele>327.77</ele><time>2026-07-31T05:00:05Z</time></trkpt><trkpt lat="32.919443217" lon="35.423746067"><ele>325.74</ele><time>2026-07-31T05:00:10Z</time></trkpt><trkpt lat="32.919337717" lon="35.423961150"><ele>327.17</ele><time>2026-07-31T05:00:16Z</time></trkpt><trkpt lat="32.919239400" lon="35.424182883"><ele>327.84</ele><time>2026-07-31T05:00:22Z</time></trkpt><trkpt lat="32.919193583" lon="35.424435433"><ele>326.36</ele><time>2026-07-31T05:00:27Z</time></trkpt><trkpt lat="32.919134267" lon="35.424649883"><ele>327.20</ele><time>2026-07-31T05:00:35Z</time></trkpt><trkpt lat="32.919315850" lon="35.424739167"><ele>324.53</ele><time>2026-07-31T05:00:43Z</time></trkpt><trkpt lat="32.919504783" lon="35.424779967"><ele>323.14</ele><time>2026-07-31T05:00:51Z</time></trkpt><trkpt lat="32.919719333" lon="35.424849017"><ele>320.02</ele><time>2026-07-31T05:01:02Z</time></trkpt><trkpt lat="32.919925167" lon="35.424869550"><ele>318.24</ele><time>2026-07-31T05:01:08Z</time></trkpt><trkpt lat="32.920028483" lon="35.425049450"><ele>316.85</ele><time>2026-07-31T05:01:14Z</time></trkpt><trkpt lat="32.919968167" lon="35.425262967"><ele>316.44</ele><time>2026-07-31T05:01:22Z</time></trkpt><trkpt lat="32.919903117" lon="35.425492583"><ele>319.00</ele><time>2026-07-31T05:01:30Z</time></trkpt><trkpt lat="32.919812783" lon="35.425686800"><ele>318.72</ele><time>2026-07-31T05:01:37Z</time></trkpt><trkpt lat="32.919752867" lon="35.425917067"><ele>320.54</ele><time>2026-07-31T05:01:45Z</time></trkpt><trkpt lat="32.919706450" lon="35.426149717"><ele>320.59</ele><time>2026-07-31T05:01:53Z</time></trkpt><trkpt lat="32.919632817" lon="35.426350017"><ele>323.34</ele><time>2026-07-31T05:02:00Z</time></trkpt><trkpt lat="32.919537167" lon="35.426538050"><ele>323.09</ele><time>2026-07-31T05:02:07Z</time></trkpt><trkpt lat="32.919427133" lon="35.426740600"><ele>323.51</ele><time>2026-07-31T05:02:14Z</time></trkpt><trkpt lat="32.919312367" lon="35.426927133"><ele>324.19</ele><time>2026-07-31T05:02:21Z</time></trkpt><trkpt lat="32.919186450" lon="35.427113383"><ele>325.24</ele><time>2026-07-31T05:02:29Z</time></trkpt><trkpt lat="32.919071417" lon="35.427294233"><ele>323.46</ele><time>2026-07-31T05:02:36Z</time></trkpt><trkpt lat="32.918936467" lon="35.427467717"><ele>322.10</ele><time>2026-07-31T05:02:42Z</time></trkpt><trkpt lat="32.918904817" lon="35.427726217"><ele>323.32</ele><time>2026-07-31T05:02:50Z</time></trkpt><trkpt lat="32.918766567" lon="35.427867167"><ele>323.10</ele><time>2026-07-31T05:02:57Z</time></trkpt><trkpt lat="32.918655917" lon="35.428060900"><ele>323.15</ele><time>2026-07-31T05:03:03Z</time></trkpt><trkpt lat="32.918667317" lon="35.428283117"><ele>325.38</ele><time>2026-07-31T05:03:09Z</time></trkpt><trkpt lat="32.918551650" lon="35.428454867"><ele>326.59</ele><time>2026-07-31T05:03:14Z</time></trkpt><trkpt lat="32.918478617" lon="35.428671333"><ele>323.27</ele><time>2026-07-31T05:03:20Z</time></trkpt><trkpt lat="32.918370450" lon="35.428860233"><ele>323.80</ele><time>2026-07-31T05:03:24Z</time></trkpt><trkpt lat="32.918242500" lon="35.429017350"><ele>318.50</ele><time>2026-07-31T05:03:31Z</time></trkpt><trkpt lat="32.918192217" lon="35.429233300"><ele>317.07</ele><time>2026-07-31T05:03:37Z</time></trkpt><trkpt lat="32.918146850" lon="35.429466150"><ele>315.58</ele><time>2026-07-31T05:03:42Z</time></trkpt><trkpt lat="32.918033000" lon="35.429640550"><ele>315.15</ele><time>2026-07-31T05:03:46Z</time></trkpt><trkpt lat="32.917879717" lon="35.429778933"><ele>316.79</ele><time>2026-07-31T05:03:50Z</time></trkpt><trkpt lat="32.917757400" lon="35.429982267"><ele>317.46</ele><time>2026-07-31T05:03:55Z</time></trkpt><trkpt lat="32.917610317" lon="35.430142517"><ele>315.44</ele><time>2026-07-31T05:04:00Z</time></trkpt><trkpt lat="32.917438533" lon="35.430241917"><ele>310.52</ele><time>2026-07-31T05:04:06Z</time></trkpt><trkpt lat="32.917278717" lon="35.430380233"><ele>306.43</ele><time>2026-07-31T05:04:12Z</time></trkpt><trkpt lat="32.917223733" lon="35.430627350"><ele>307.61</ele><time>2026-07-31T05:04:18Z</time></trkpt><trkpt lat="32.917189083" lon="35.430856683"><ele>307.04</ele><time>2026-07-31T05:04:23Z</time></trkpt><trkpt lat="32.917121183" lon="35.431068783"><ele>304.79</ele><time>2026-07-31T05:04:27Z</time></trkpt><trkpt lat="32.916972433" lon="35.431247717"><ele>299.24</ele><time>2026-07-31T05:04:33Z</time></trkpt><trkpt lat="32.916910867" lon="35.431458517"><ele>300.59</ele><time>2026-07-31T05:04:38Z</time></trkpt><trkpt lat="32.916836433" lon="35.431684150"><ele>302.36</ele><time>2026-07-31T05:04:43Z</time></trkpt><trkpt lat="32.916682200" lon="35.431854983"><ele>307.44</ele><time>2026-07-31T05:04:48Z</time></trkpt><trkpt lat="32.916544517" lon="35.432057867"><ele>301.38</ele><time>2026-07-31T05:04:54Z</time></trkpt><trkpt lat="32.916444700" lon="35.432281183"><ele>295.49</ele><time>2026-07-31T05:05:00Z</time></trkpt><trkpt lat="32.916436683" lon="35.432504633"><ele>294.65</ele><time>2026-07-31T05:05:05Z</time></trkpt><trkpt lat="32.916519400" lon="35.432717267"><ele>292.81</ele><time>2026-07-31T05:05:11Z</time></trkpt><trkpt lat="32.916482817" lon="35.432949600"><ele>293.08</ele><time>2026-07-31T05:05:15Z</time></trkpt><trkpt lat="32.916373783" lon="35.433183817"><ele>293.78</ele><time>2026-07-31T05:05:19Z</time></trkpt><trkpt lat="32.916237000" lon="35.433390933"><ele>291.08</ele><time>2026-07-31T05:05:23Z</time></trkpt><trkpt lat="32.916063300" lon="35.433553567"><ele>289.87</ele><time>2026-07-31T05:05:29Z</time></trkpt><trkpt lat="32.915890917" lon="35.433713483"><ele>291.36</ele><time>2026-07-31T05:05:34Z</time></trkpt><trkpt lat="32.915706883" lon="35.433826933"><ele>288.58</ele><time>2026-07-31T05:05:39Z</time></trkpt><trkpt lat="32.915530167" lon="35.433892967"><ele>285.93</ele><time>2026-07-31T05:05:43Z</time></trkpt><trkpt lat="32.915350283" lon="35.434014867"><ele>284.78</ele><time>2026-07-31T05:05:49Z</time></trkpt><trkpt lat="32.915256067" lon="35.434223450"><ele>284.78</ele><time>2026-07-31T05:05:54Z</time></trkpt><trkpt lat="32.915139000" lon="35.434433983"><ele>282.68</ele><time>2026-07-31T05:05:59Z</time></trkpt><trkpt lat="32.914948333" lon="35.434560517"><ele>282.16</ele><time>2026-07-31T05:06:04Z</time></trkpt><trkpt lat="32.914793050" lon="35.434699217"><ele>280.99</ele><time>2026-07-31T05:06:08Z</time></trkpt><trkpt lat="32.914623967" lon="35.434827667"><ele>280.65</ele><time>2026-07-31T05:06:12Z</time></trkpt><trkpt lat="32.914468933" lon="35.434969367"><ele>278.93</ele><time>2026-07-31T05:06:16Z</time></trkpt><trkpt lat="32.914309400" lon="35.435136500"><ele>276.48</ele><time>2026-07-31T05:06:21Z</time></trkpt><trkpt lat="32.914164983" lon="35.435305250"><ele>275.83</ele><time>2026-07-31T05:06:27Z</time></trkpt><trkpt lat="32.913971767" lon="35.435310083"><ele>280.59</ele><time>2026-07-31T05:06:42Z</time></trkpt><trkpt lat="32.913788700" lon="35.435226767"><ele>282.99</ele><time>2026-07-31T05:06:49Z</time></trkpt><trkpt lat="32.913622650" lon="35.435121583"><ele>282.70</ele><time>2026-07-31T05:06:56Z</time></trkpt><trkpt lat="32.913460783" lon="35.434963150"><ele>283.65</ele><time>2026-07-31T05:07:06Z</time></trkpt><trkpt lat="32.913278417" lon="35.434913767"><ele>311.69</ele><time>2026-07-31T05:07:17Z</time></trkpt><trkpt lat="32.913105000" lon="35.434844950"><ele>314.74</ele><time>2026-07-31T05:07:23Z</time></trkpt><trkpt lat="32.912908450" lon="35.434855150"><ele>302.31</ele><time>2026-07-31T05:07:31Z</time></trkpt><trkpt lat="32.912718050" lon="35.434869467"><ele>307.77</ele><time>2026-07-31T05:07:42Z</time></trkpt><trkpt lat="32.912529283" lon="35.434879250"><ele>300.99</ele><time>2026-07-31T05:07:50Z</time></trkpt><trkpt lat="32.912342083" lon="35.434871683"><ele>309.95</ele><time>2026-07-31T05:07:58Z</time></trkpt><trkpt lat="32.912190967" lon="35.435010150"><ele>311.69</ele><time>2026-07-31T05:08:06Z</time></trkpt><trkpt lat="32.912289400" lon="35.435203200"><ele>304.43</ele><time>2026-07-31T05:08:13Z</time></trkpt><trkpt lat="32.912453433" lon="35.435309850"><ele>297.25</ele><time>2026-07-31T05:08:20Z</time></trkpt><trkpt lat="32.912541300" lon="35.435526250"><ele>296.44</ele><time>2026-07-31T05:08:28Z</time></trkpt><trkpt lat="32.912630317" lon="35.435719717"><ele>291.64</ele><time>2026-07-31T05:08:32Z</time></trkpt><trkpt lat="32.912636917" lon="35.435941783"><ele>292.81</ele><time>2026-07-31T05:08:38Z</time></trkpt><trkpt lat="32.912500283" lon="35.436102317"><ele>291.80</ele><time>2026-07-31T05:08:44Z</time></trkpt><trkpt lat="32.912385917" lon="35.436293150"><ele>288.44</ele><time>2026-07-31T05:08:48Z</time></trkpt><trkpt lat="32.912213533" lon="35.436370300"><ele>281.28</ele><time>2026-07-31T05:08:53Z</time></trkpt><trkpt lat="32.912024100" lon="35.436449367"><ele>289.18</ele><time>2026-07-31T05:09:01Z</time></trkpt><trkpt lat="32.911854050" lon="35.436321933"><ele>293.16</ele><time>2026-07-31T05:09:09Z</time></trkpt><trkpt lat="32.911674800" lon="35.436166550"><ele>281.46</ele><time>2026-07-31T05:09:13Z</time></trkpt><trkpt lat="32.911535217" lon="35.436025067"><ele>290.92</ele><time>2026-07-31T05:10:01Z</time></trkpt><trkpt lat="32.911429533" lon="35.435818800"><ele>295.05</ele><time>2026-07-31T05:20:42Z</time></trkpt><trkpt lat="32.911263650" lon="35.435704183"><ele>296.98</ele><time>2026-07-31T05:20:49Z</time></trkpt><trkpt lat="32.911097850" lon="35.435602667"><ele>298.16</ele><time>2026-07-31T05:20:56Z</time></trkpt><trkpt lat="32.910910817" lon="35.435499917"><ele>298.65</ele><time>2026-07-31T05:21:03Z</time></trkpt><trkpt lat="32.910740667" lon="35.435397150"><ele>299.12</ele><time>2026-07-31T05:21:10Z</time></trkpt><trkpt lat="32.910556833" lon="35.435279500"><ele>300.24</ele><time>2026-07-31T05:21:17Z</time></trkpt><trkpt lat="32.910387550" lon="35.435177200"><ele>300.58</ele><time>2026-07-31T05:21:24Z</time></trkpt><trkpt lat="32.910210700" lon="35.435062550"><ele>302.47</ele><time>2026-07-31T05:21:31Z</time></trkpt><trkpt lat="32.910037517" lon="35.434989200"><ele>302.73</ele><time>2026-07-31T05:21:38Z</time></trkpt><trkpt lat="32.909850617" lon="35.434979017"><ele>303.14</ele><time>2026-07-31T05:21:47Z</time></trkpt><trkpt lat="32.909748083" lon="35.435173933"><ele>304.08</ele><time>2026-07-31T05:21:55Z</time></trkpt><trkpt lat="32.909697600" lon="35.435403283"><ele>305.35</ele><time>2026-07-31T05:22:38Z</time></trkpt><trkpt lat="32.909508800" lon="35.435392067"><ele>308.13</ele><time>2026-07-31T05:22:47Z</time></trkpt><trkpt lat="32.909423217" lon="35.435185750"><ele>309.03</ele><time>2026-07-31T05:22:55Z</time></trkpt><trkpt lat="32.909295733" lon="35.435030883"><ele>308.61</ele><time>2026-07-31T05:23:04Z</time></trkpt><trkpt lat="32.909250117" lon="35.435243617"><ele>310.39</ele><time>2026-07-31T05:23:13Z</time></trkpt><trkpt lat="32.909232217" lon="35.435463450"><ele>312.31</ele><time>2026-07-31T05:23:22Z</time></trkpt><trkpt lat="32.909258433" lon="35.435698583"><ele>314.11</ele><time>2026-07-31T05:23:31Z</time></trkpt><trkpt lat="32.909242900" lon="35.435917167"><ele>313.64</ele><time>2026-07-31T05:23:39Z</time></trkpt><trkpt lat="32.909202017" lon="35.436143867"><ele>313.36</ele><time>2026-07-31T05:23:49Z</time></trkpt><trkpt lat="32.909128050" lon="35.436350183"><ele>314.30</ele><time>2026-07-31T05:23:58Z</time></trkpt><trkpt lat="32.909069300" lon="35.436559550"><ele>317.14</ele><time>2026-07-31T05:24:07Z</time></trkpt><trkpt lat="32.908954300" lon="35.436744533"><ele>319.00</ele><time>2026-07-31T05:24:18Z</time></trkpt><trkpt lat="32.908882917" lon="35.436959617"><ele>318.91</ele><time>2026-07-31T05:24:28Z</time></trkpt><trkpt lat="32.908826100" lon="35.437177967"><ele>317.87</ele><time>2026-07-31T05:24:35Z</time></trkpt><trkpt lat="32.908776467" lon="35.437419967"><ele>318.15</ele><time>2026-07-31T05:24:43Z</time></trkpt><trkpt lat="32.908702817" lon="35.437642133"><ele>318.85</ele><time>2026-07-31T05:24:51Z</time></trkpt><trkpt lat="32.908631383" lon="35.437856683"><ele>318.25</ele><time>2026-07-31T05:24:59Z</time></trkpt><trkpt lat="32.908549050" lon="35.438047567"><ele>317.77</ele><time>2026-07-31T05:25:07Z</time></trkpt><trkpt lat="32.908453433" lon="35.438234167"><ele>317.34</ele><time>2026-07-31T05:25:14Z</time></trkpt><trkpt lat="32.908328833" lon="35.438417167"><ele>316.42</ele><time>2026-07-31T05:25:21Z</time></trkpt><trkpt lat="32.908198583" lon="35.438569117"><ele>318.27</ele><time>2026-07-31T05:25:28Z</time></trkpt><trkpt lat="32.908038633" lon="35.438677450"><ele>319.20</ele><time>2026-07-31T05:25:36Z</time></trkpt><trkpt lat="32.907899817" lon="35.438821583"><ele>319.68</ele><time>2026-07-31T05:25:44Z</time></trkpt><trkpt lat="32.907807617" lon="35.439029633"><ele>317.78</ele><time>2026-07-31T05:25:51Z</time></trkpt><trkpt lat="32.907699183" lon="35.439226283"><ele>317.45</ele><time>2026-07-31T05:25:59Z</time></trkpt><trkpt lat="32.907539583" lon="35.439350700"><ele>318.93</ele><time>2026-07-31T05:26:32Z</time></trkpt><trkpt lat="32.907371567" lon="35.439475050"><ele>320.93</ele><time>2026-07-31T05:26:42Z</time></trkpt><trkpt lat="32.907221333" lon="35.439607567"><ele>322.25</ele><time>2026-07-31T05:26:51Z</time></trkpt><trkpt lat="32.907050333" lon="35.439706467"><ele>324.18</ele><time>2026-07-31T05:27:02Z</time></trkpt><trkpt lat="32.906903333" lon="35.439834167"><ele>322.83</ele><time>2026-07-31T05:27:12Z</time></trkpt><trkpt lat="32.906723400" lon="35.439849900"><ele>323.62</ele><time>2026-07-31T05:27:20Z</time></trkpt><trkpt lat="32.906799733" lon="35.439653283"><ele>324.02</ele><time>2026-07-31T05:27:30Z</time></trkpt><trkpt lat="32.906948517" lon="35.439517317"><ele>325.77</ele><time>2026-07-31T05:27:39Z</time></trkpt><trkpt lat="32.907139817" lon="35.439446000"><ele>325.68</ele><time>2026-07-31T05:27:49Z</time></trkpt><trkpt lat="32.907305550" lon="35.439318900"><ele>325.53</ele><time>2026-07-31T05:27:56Z</time></trkpt><trkpt lat="32.907393617" lon="35.439113233"><ele>326.42</ele><time>2026-07-31T05:28:04Z</time></trkpt><trkpt lat="32.907503500" lon="35.438917183"><ele>324.21</ele><time>2026-07-31T05:28:11Z</time></trkpt><trkpt lat="32.907611050" lon="35.438737933"><ele>324.03</ele><time>2026-07-31T05:28:19Z</time></trkpt><trkpt lat="32.907696667" lon="35.438547433"><ele>327.26</ele><time>2026-07-31T05:28:28Z</time></trkpt><trkpt lat="32.907827450" lon="35.438370467"><ele>327.35</ele><time>2026-07-31T05:28:37Z</time></trkpt><trkpt lat="32.907843817" lon="35.438138683"><ele>325.95</ele><time>2026-07-31T05:28:48Z</time></trkpt><trkpt lat="32.907947550" lon="35.437945033"><ele>329.27</ele><time>2026-07-31T05:28:59Z</time></trkpt><trkpt lat="32.908081183" lon="35.437790400"><ele>331.63</ele><time>2026-07-31T05:29:07Z</time></trkpt><trkpt lat="32.908233150" lon="35.437666000"><ele>332.66</ele><time>2026-07-31T05:29:16Z</time></trkpt><trkpt lat="32.908242933" lon="35.437437800"><ele>334.56</ele><time>2026-07-31T05:29:25Z</time></trkpt><trkpt lat="32.908223817" lon="35.437202750"><ele>334.75</ele><time>2026-07-31T05:29:34Z</time></trkpt><trkpt lat="32.908254783" lon="35.436980683"><ele>334.64</ele><time>2026-07-31T05:29:43Z</time></trkpt><trkpt lat="32.908271133" lon="35.436756683"><ele>335.95</ele><time>2026-07-31T05:29:52Z</time></trkpt><trkpt lat="32.908356417" lon="35.436547017"><ele>335.89</ele><time>2026-07-31T05:30:00Z</time></trkpt><trkpt lat="32.908410467" lon="35.436332967"><ele>333.92</ele><time>2026-07-31T05:30:05Z</time></trkpt><trkpt lat="32.908417417" lon="35.436094833"><ele>334.16</ele><time>2026-07-31T05:30:13Z</time></trkpt><trkpt lat="32.908356800" lon="35.435864367"><ele>334.22</ele><time>2026-07-31T05:30:21Z</time></trkpt><trkpt lat="32.908273167" lon="35.435630617"><ele>331.51</ele><time>2026-07-31T05:30:27Z</time></trkpt><trkpt lat="32.908110200" lon="35.435527717"><ele>332.03</ele><time>2026-07-31T05:30:32Z</time></trkpt><trkpt lat="32.908027233" lon="35.435299967"><ele>333.88</ele><time>2026-07-31T05:30:41Z</time></trkpt><trkpt lat="32.907961883" lon="35.435080367"><ele>334.61</ele><time>2026-07-31T05:30:49Z</time></trkpt><trkpt lat="32.907828233" lon="35.434934100"><ele>333.26</ele><time>2026-07-31T05:30:55Z</time></trkpt><trkpt lat="32.907641583" lon="35.434854233"><ele>331.07</ele><time>2026-07-31T05:31:01Z</time></trkpt><trkpt lat="32.907475200" lon="35.434750533"><ele>334.75</ele><time>2026-07-31T05:31:07Z</time></trkpt><trkpt lat="32.907430483" lon="35.434535600"><ele>337.83</ele><time>2026-07-31T05:31:15Z</time></trkpt><trkpt lat="32.907555200" lon="35.434346600"><ele>337.11</ele><time>2026-07-31T05:31:22Z</time></trkpt><trkpt lat="32.907649550" lon="35.434119450"><ele>332.49</ele><time>2026-07-31T05:31:28Z</time></trkpt><trkpt lat="32.907630533" lon="35.433888717"><ele>334.38</ele><time>2026-07-31T05:31:35Z</time></trkpt><trkpt lat="32.907641700" lon="35.433655233"><ele>334.33</ele><time>2026-07-31T05:31:43Z</time></trkpt><trkpt lat="32.907657467" lon="35.433428350"><ele>332.18</ele><time>2026-07-31T05:31:50Z</time></trkpt><trkpt lat="32.907676633" lon="35.433198367"><ele>330.84</ele><time>2026-07-31T05:31:57Z</time></trkpt><trkpt lat="32.907710550" lon="35.432981333"><ele>331.03</ele><time>2026-07-31T05:32:05Z</time></trkpt><trkpt lat="32.907757417" lon="35.432757133"><ele>332.94</ele><time>2026-07-31T05:32:13Z</time></trkpt><trkpt lat="32.907723800" lon="35.432517033"><ele>334.51</ele><time>2026-07-31T05:32:22Z</time></trkpt><trkpt lat="32.907567433" lon="35.432374433"><ele>333.63</ele><time>2026-07-31T05:32:30Z</time></trkpt><trkpt lat="32.907443133" lon="35.432195283"><ele>332.66</ele><time>2026-07-31T05:32:37Z</time></trkpt><trkpt lat="32.907246833" lon="35.432186333"><ele>331.58</ele><time>2026-07-31T05:32:46Z</time></trkpt><trkpt lat="32.907243783" lon="35.431959300"><ele>333.16</ele><time>2026-07-31T05:32:56Z</time></trkpt><trkpt lat="32.907433083" lon="35.431927217"><ele>331.99</ele><time>2026-07-31T05:33:02Z</time></trkpt><trkpt lat="32.907619100" lon="35.431951583"><ele>330.33</ele><time>2026-07-31T05:33:08Z</time></trkpt><trkpt lat="32.907742767" lon="35.432119167"><ele>329.41</ele><time>2026-07-31T05:33:14Z</time></trkpt><trkpt lat="32.907772983" lon="35.431886733"><ele>327.69</ele><time>2026-07-31T05:33:21Z</time></trkpt><trkpt lat="32.907688350" lon="35.431679133"><ele>327.86</ele><time>2026-07-31T05:33:27Z</time></trkpt><trkpt lat="32.907603867" lon="35.431449000"><ele>327.10</ele><time>2026-07-31T05:33:34Z</time></trkpt><trkpt lat="32.907446867" lon="35.431341033"><ele>326.33</ele><time>2026-07-31T05:33:41Z</time></trkpt><trkpt lat="32.907281083" lon="35.431256000"><ele>323.55</ele><time>2026-07-31T05:33:48Z</time></trkpt><trkpt lat="32.907108567" lon="35.431344383"><ele>320.76</ele><time>2026-07-31T05:33:54Z</time></trkpt><trkpt lat="32.906951183" lon="35.431473500"><ele>321.77</ele><time>2026-07-31T05:34:00Z</time></trkpt><trkpt lat="32.906903050" lon="35.431243267"><ele>317.71</ele><time>2026-07-31T05:34:13Z</time></trkpt><trkpt lat="32.907041383" lon="35.431057483"><ele>315.18</ele><time>2026-07-31T05:34:19Z</time></trkpt><trkpt lat="32.907175483" lon="35.430911017"><ele>314.53</ele><time>2026-07-31T05:34:25Z</time></trkpt><trkpt lat="32.906998183" lon="35.430864600"><ele>312.59</ele><time>2026-07-31T05:34:32Z</time></trkpt><trkpt lat="32.906799300" lon="35.430905250"><ele>311.57</ele><time>2026-07-31T05:34:39Z</time></trkpt><trkpt lat="32.906607033" lon="35.430952350"><ele>311.98</ele><time>2026-07-31T05:35:39Z</time></trkpt><trkpt lat="32.906459383" lon="35.431113567"><ele>311.26</ele><time>2026-07-31T05:35:47Z</time></trkpt><trkpt lat="32.906319083" lon="35.431274517"><ele>312.11</ele><time>2026-07-31T05:35:52Z</time></trkpt><trkpt lat="32.906132367" lon="35.431293033"><ele>309.55</ele><time>2026-07-31T05:36:00Z</time></trkpt><trkpt lat="32.906105067" lon="35.431069233"><ele>308.49</ele><time>2026-07-31T05:36:04Z</time></trkpt><trkpt lat="32.906116200" lon="35.430853133"><ele>306.42</ele><time>2026-07-31T05:36:08Z</time></trkpt><trkpt lat="32.906131850" lon="35.430601633"><ele>304.93</ele><time>2026-07-31T05:36:13Z</time></trkpt><trkpt lat="32.906206083" lon="35.430364483"><ele>304.16</ele><time>2026-07-31T05:36:19Z</time></trkpt><trkpt lat="32.906301300" lon="35.430168167"><ele>308.08</ele><time>2026-07-31T05:36:24Z</time></trkpt><trkpt lat="32.906397533" lon="35.429977633"><ele>309.82</ele><time>2026-07-31T05:36:29Z</time></trkpt><trkpt lat="32.906294983" lon="35.429770800"><ele>310.50</ele><time>2026-07-31T05:36:37Z</time></trkpt><trkpt lat="32.906099033" lon="35.429710867"><ele>310.12</ele><time>2026-07-31T05:36:43Z</time></trkpt><trkpt lat="32.905889017" lon="35.429680483"><ele>311.27</ele><time>2026-07-31T05:36:49Z</time></trkpt><trkpt lat="32.905700867" lon="35.429692583"><ele>311.17</ele><time>2026-07-31T05:36:57Z</time></trkpt><trkpt lat="32.905514400" lon="35.429722417"><ele>313.10</ele><time>2026-07-31T05:37:05Z</time></trkpt><trkpt lat="32.905313533" lon="35.429710267"><ele>314.08</ele><time>2026-07-31T05:37:13Z</time></trkpt><trkpt lat="32.905231517" lon="35.429500050"><ele>316.28</ele><time>2026-07-31T05:37:22Z</time></trkpt><trkpt lat="32.905353183" lon="35.429330600"><ele>317.48</ele><time>2026-07-31T05:37:31Z</time></trkpt><trkpt lat="32.905459433" lon="35.429136967"><ele>318.48</ele><time>2026-07-31T05:37:43Z</time></trkpt><trkpt lat="32.905577450" lon="35.428945550"><ele>319.90</ele><time>2026-07-31T05:37:52Z</time></trkpt><trkpt lat="32.905747283" lon="35.428793667"><ele>320.35</ele><time>2026-07-31T05:37:59Z</time></trkpt><trkpt lat="32.905874650" lon="35.428603717"><ele>321.17</ele><time>2026-07-31T05:38:05Z</time></trkpt><trkpt lat="32.905992117" lon="35.428431917"><ele>323.28</ele><time>2026-07-31T05:38:10Z</time></trkpt><trkpt lat="32.906114167" lon="35.428261817"><ele>320.73</ele><time>2026-07-31T05:38:16Z</time></trkpt><trkpt lat="32.906225317" lon="35.428056267"><ele>321.04</ele><time>2026-07-31T05:38:22Z</time></trkpt><trkpt lat="32.906339733" lon="35.427860800"><ele>322.67</ele><time>2026-07-31T05:38:28Z</time></trkpt><trkpt lat="32.906434383" lon="35.427650800"><ele>320.12</ele><time>2026-07-31T05:38:33Z</time></trkpt><trkpt lat="32.906528550" lon="35.427427300"><ele>319.94</ele><time>2026-07-31T05:38:38Z</time></trkpt><trkpt lat="32.906616033" lon="35.427232183"><ele>320.32</ele><time>2026-07-31T05:38:44Z</time></trkpt><trkpt lat="32.906723167" lon="35.427031583"><ele>321.33</ele><time>2026-07-31T05:38:54Z</time></trkpt><trkpt lat="32.906826083" lon="35.426855350"><ele>323.35</ele><time>2026-07-31T05:39:05Z</time></trkpt><trkpt lat="32.906878717" lon="35.426646283"><ele>324.06</ele><time>2026-07-31T05:39:16Z</time></trkpt><trkpt lat="32.907038350" lon="35.426465667"><ele>324.77</ele><time>2026-07-31T05:39:24Z</time></trkpt><trkpt lat="32.907017800" lon="35.426241017"><ele>326.96</ele><time>2026-07-31T05:39:34Z</time></trkpt><trkpt lat="32.906855750" lon="35.426123600"><ele>327.53</ele><time>2026-07-31T05:39:44Z</time></trkpt><trkpt lat="32.906701033" lon="35.425980400"><ele>331.23</ele><time>2026-07-31T05:39:55Z</time></trkpt><trkpt lat="32.906570400" lon="35.425826133"><ele>331.22</ele><time>2026-07-31T05:40:03Z</time></trkpt><trkpt lat="32.906393133" lon="35.425731350"><ele>330.61</ele><time>2026-07-31T05:40:11Z</time></trkpt><trkpt lat="32.906206950" lon="35.425681033"><ele>332.04</ele><time>2026-07-31T05:40:21Z</time></trkpt><trkpt lat="32.906042150" lon="35.425569817"><ele>333.78</ele><time>2026-07-31T05:40:29Z</time></trkpt><trkpt lat="32.905934233" lon="35.425390333"><ele>334.62</ele><time>2026-07-31T05:40:38Z</time></trkpt><trkpt lat="32.905885683" lon="35.425172483"><ele>333.80</ele><time>2026-07-31T05:40:46Z</time></trkpt><trkpt lat="32.905859900" lon="35.424960300"><ele>337.46</ele><time>2026-07-31T05:40:54Z</time></trkpt><trkpt lat="32.905953350" lon="35.424775650"><ele>333.90</ele><time>2026-07-31T05:41:00Z</time></trkpt><trkpt lat="32.905924483" lon="35.424552267"><ele>334.30</ele><time>2026-07-31T05:41:08Z</time></trkpt><trkpt lat="32.905916967" lon="35.424324467"><ele>334.41</ele><time>2026-07-31T05:41:16Z</time></trkpt><trkpt lat="32.905900217" lon="35.424092067"><ele>334.18</ele><time>2026-07-31T05:41:25Z</time></trkpt><trkpt lat="32.905845733" lon="35.423881583"><ele>334.42</ele><time>2026-07-31T05:41:32Z</time></trkpt><trkpt lat="32.905792650" lon="35.423671733"><ele>333.87</ele><time>2026-07-31T05:41:39Z</time></trkpt><trkpt lat="32.905782067" lon="35.423456500"><ele>330.82</ele><time>2026-07-31T05:41:44Z</time></trkpt><trkpt lat="32.905756900" lon="35.423229633"><ele>333.69</ele><time>2026-07-31T05:41:49Z</time></trkpt><trkpt lat="32.905727000" lon="35.423016367"><ele>330.70</ele><time>2026-07-31T05:41:54Z</time></trkpt><trkpt lat="32.905628567" lon="35.422810150"><ele>327.70</ele><time>2026-07-31T05:41:59Z</time></trkpt><trkpt lat="32.905477450" lon="35.422675300"><ele>326.11</ele><time>2026-07-31T05:42:05Z</time></trkpt><trkpt lat="32.905649233" lon="35.422602133"><ele>320.94</ele><time>2026-07-31T05:42:12Z</time></trkpt><trkpt lat="32.905832367" lon="35.422641867"><ele>320.11</ele><time>2026-07-31T05:42:16Z</time></trkpt><trkpt lat="32.905956683" lon="35.422827017"><ele>318.66</ele><time>2026-07-31T05:42:21Z</time></trkpt><trkpt lat="32.906044883" lon="35.423041333"><ele>320.06</ele><time>2026-07-31T05:42:27Z</time></trkpt><trkpt lat="32.906111283" lon="35.423264700"><ele>324.53</ele><time>2026-07-31T05:43:05Z</time></trkpt><trkpt lat="32.906155550" lon="35.423482867"><ele>325.00</ele><time>2026-07-31T05:43:13Z</time></trkpt><trkpt lat="32.906196567" lon="35.423696367"><ele>327.42</ele><time>2026-07-31T05:43:20Z</time></trkpt><trkpt lat="32.906194600" lon="35.423912767"><ele>326.84</ele><time>2026-07-31T05:43:26Z</time></trkpt><trkpt lat="32.906169183" lon="35.424147800"><ele>327.07</ele><time>2026-07-31T05:43:33Z</time></trkpt><trkpt lat="32.906141450" lon="35.424378833"><ele>327.36</ele><time>2026-07-31T05:43:41Z</time></trkpt><trkpt lat="32.906113583" lon="35.424599033"><ele>329.28</ele><time>2026-07-31T05:43:49Z</time></trkpt><trkpt lat="32.906113983" lon="35.424821400"><ele>329.57</ele><time>2026-07-31T05:43:56Z</time></trkpt><trkpt lat="32.906166367" lon="35.425062583"><ele>331.26</ele><time>2026-07-31T05:44:03Z</time></trkpt><trkpt lat="32.906275333" lon="35.425234700"><ele>330.74</ele><time>2026-07-31T05:44:09Z</time></trkpt><trkpt lat="32.906425867" lon="35.425424367"><ele>329.16</ele><time>2026-07-31T05:44:15Z</time></trkpt><trkpt lat="32.906597533" lon="35.425521450"><ele>326.82</ele><time>2026-07-31T05:44:19Z</time></trkpt><trkpt lat="32.906813683" lon="35.425589583"><ele>326.86</ele><time>2026-07-31T05:44:23Z</time></trkpt><trkpt lat="32.906980133" lon="35.425672350"><ele>326.14</ele><time>2026-07-31T05:44:26Z</time></trkpt><trkpt lat="32.907196250" lon="35.425750517"><ele>324.13</ele><time>2026-07-31T05:44:30Z</time></trkpt><trkpt lat="32.907376650" lon="35.425827433"><ele>322.25</ele><time>2026-07-31T05:44:34Z</time></trkpt><trkpt lat="32.907536683" lon="35.425934067"><ele>320.09</ele><time>2026-07-31T05:44:39Z</time></trkpt><trkpt lat="32.907730150" lon="35.426030317"><ele>314.94</ele><time>2026-07-31T05:44:45Z</time></trkpt><trkpt lat="32.907945217" lon="35.426071350"><ele>314.85</ele><time>2026-07-31T05:44:51Z</time></trkpt><trkpt lat="32.908088767" lon="35.426213517"><ele>313.30</ele><time>2026-07-31T05:44:54Z</time></trkpt><trkpt lat="32.908252050" lon="35.426341167"><ele>311.97</ele><time>2026-07-31T05:44:57Z</time></trkpt><trkpt lat="32.908406067" lon="35.426474217"><ele>310.54</ele><time>2026-07-31T05:45:00Z</time></trkpt><trkpt lat="32.908556950" lon="35.426619800"><ele>310.70</ele><time>2026-07-31T05:45:03Z</time></trkpt><trkpt lat="32.908712267" lon="35.426779400"><ele>310.27</ele><time>2026-07-31T05:45:07Z</time></trkpt><trkpt lat="32.908845033" lon="35.426929650"><ele>312.22</ele><time>2026-07-31T05:45:11Z</time></trkpt><trkpt lat="32.908988700" lon="35.427120067"><ele>311.68</ele><time>2026-07-31T05:45:15Z</time></trkpt><trkpt lat="32.909136817" lon="35.427304717"><ele>312.08</ele><time>2026-07-31T05:45:19Z</time></trkpt><trkpt lat="32.909296800" lon="35.427443217"><ele>311.80</ele><time>2026-07-31T05:45:23Z</time></trkpt><trkpt lat="32.909451183" lon="35.427613317"><ele>312.12</ele><time>2026-07-31T05:45:27Z</time></trkpt><trkpt lat="32.909609150" lon="35.427754250"><ele>312.91</ele><time>2026-07-31T05:45:31Z</time></trkpt><trkpt lat="32.909796583" lon="35.427913183"><ele>313.09</ele><time>2026-07-31T05:45:35Z</time></trkpt><trkpt lat="32.909984783" lon="35.428056233"><ele>311.57</ele><time>2026-07-31T05:45:39Z</time></trkpt><trkpt lat="32.910166817" lon="35.428185783"><ele>312.39</ele><time>2026-07-31T05:45:43Z</time></trkpt><trkpt lat="32.910322100" lon="35.428332117"><ele>312.55</ele><time>2026-07-31T05:45:47Z</time></trkpt><trkpt lat="32.910460800" lon="35.428482033"><ele>313.97</ele><time>2026-07-31T05:45:51Z</time></trkpt><trkpt lat="32.910623617" lon="35.428598433"><ele>314.84</ele><time>2026-07-31T05:45:56Z</time></trkpt><trkpt lat="32.910803583" lon="35.428613417"><ele>315.93</ele><time>2026-07-31T05:46:03Z</time></trkpt><trkpt lat="32.910917083" lon="35.428435600"><ele>318.78</ele><time>2026-07-31T05:46:13Z</time></trkpt><trkpt lat="32.911003117" lon="35.428246833"><ele>319.22</ele><time>2026-07-31T05:46:24Z</time></trkpt><trkpt lat="32.911017167" lon="35.428017167"><ele>321.59</ele><time>2026-07-31T05:46:37Z</time></trkpt><trkpt lat="32.910973533" lon="35.427807650"><ele>321.24</ele><time>2026-07-31T05:46:46Z</time></trkpt><trkpt lat="32.910935983" lon="35.427596267"><ele>321.55</ele><time>2026-07-31T05:46:53Z</time></trkpt><trkpt lat="32.910885567" lon="35.427360817"><ele>321.12</ele><time>2026-07-31T05:47:00Z</time></trkpt><trkpt lat="32.910833750" lon="35.427128117"><ele>322.18</ele><time>2026-07-31T05:47:07Z</time></trkpt><trkpt lat="32.910776867" lon="35.426920200"><ele>323.61</ele><time>2026-07-31T05:47:14Z</time></trkpt><trkpt lat="32.910710683" lon="35.426695750"><ele>324.03</ele><time>2026-07-31T05:47:21Z</time></trkpt><trkpt lat="32.910644350" lon="35.426495750"><ele>324.07</ele><time>2026-07-31T05:47:27Z</time></trkpt><trkpt lat="32.910590717" lon="35.426280733"><ele>325.91</ele><time>2026-07-31T05:47:34Z</time></trkpt><trkpt lat="32.910525533" lon="35.426050050"><ele>324.05</ele><time>2026-07-31T05:47:41Z</time></trkpt><trkpt lat="32.910459283" lon="35.425836400"><ele>325.38</ele><time>2026-07-31T05:47:47Z</time></trkpt><trkpt lat="32.910425383" lon="35.425605183"><ele>324.50</ele><time>2026-07-31T05:47:53Z</time></trkpt><trkpt lat="32.910387217" lon="35.425389950"><ele>325.95</ele><time>2026-07-31T05:47:58Z</time></trkpt><trkpt lat="32.910327383" lon="35.425148033"><ele>325.70</ele><time>2026-07-31T05:48:04Z</time></trkpt><trkpt lat="32.910272233" lon="35.424905567"><ele>323.94</ele><time>2026-07-31T05:48:10Z</time></trkpt><trkpt lat="32.910195433" lon="35.424703017"><ele>325.67</ele><time>2026-07-31T05:48:15Z</time></trkpt><trkpt lat="32.910084650" lon="35.424503783"><ele>324.17</ele><time>2026-07-31T05:48:20Z</time></trkpt><trkpt lat="32.909956017" lon="35.424335433"><ele>325.36</ele><time>2026-07-31T05:48:24Z</time></trkpt><trkpt lat="32.909812783" lon="35.424146850"><ele>324.93</ele><time>2026-07-31T05:48:28Z</time></trkpt><trkpt lat="32.909682033" lon="35.423944250"><ele>323.65</ele><time>2026-07-31T05:48:32Z</time></trkpt><trkpt lat="32.909557100" lon="35.423733750"><ele>323.48</ele><time>2026-07-31T05:48:36Z</time></trkpt><trkpt lat="32.909461083" lon="35.423510517"><ele>323.25</ele><time>2026-07-31T05:48:40Z</time></trkpt><trkpt lat="32.909372633" lon="35.423273617"><ele>322.04</ele><time>2026-07-31T05:48:44Z</time></trkpt><trkpt lat="32.909290417" lon="35.423045017"><ele>324.02</ele><time>2026-07-31T05:48:48Z</time></trkpt><trkpt lat="32.909210583" lon="35.422830567"><ele>323.84</ele><time>2026-07-31T05:48:53Z</time></trkpt>
  </trkseg>
  </trk>
  </gpx>