<?xml version="1.0" encoding="UTF-8" standalone="yes"?>
<gpx version="1.1" creator="IsraelHikingMap" xmlns:xsi="http://www.w3.org/2001/XMLSchema-instance" xsi:schemaLocation="http://www.topografix.com/GPX/1/1 http://www.topografix.com/GPX/1/1/gpx.xsd">
  <metadata>
    <bounds maxlat="32.127529" maxlon="34.914629" minlat="32.106352" minlon="34.846668"></bounds>
  </metadata>
  <trk>
    <name>עתידים - פרק אפק מקורות הירקון</name>
    <desc>שביל ישראח 2024-05</desc>
    <extensions>
      <Color xmlns="">#0000FF</Color>
      <Opacity xmlns="">0.4</Opacity>
      <Weight xmlns="">9</Weight>
    </extensions>
    <trkseg>
      <trkpt lat="32.11059510974039" lon="34.84669013922033">
        <ele>11.084000000008473</ele>
      </trkpt>
      <trkpt lat="32.11059510974039" lon="34.84669013922033">
        <ele>11.084000000008473</ele>
      </trkpt>
      <extensions>
        <RoutingType xmlns="">Hike</RoutingType>
      </extensions>
    </trkseg>
    <trkseg>
      <trkpt lat="32.110592" lon="34.846668">
        <ele>11.5</ele>
      </trkpt>
      <trkpt lat="32.10969" lon="34.846849">
        <ele>10</ele>
      </trkpt>
      <trkpt lat="32.10873" lon="34.846952">
        <ele>9</ele>
      </trkpt>
      <trkpt lat="32.108517" lon="34.84699">
        <ele>9</ele>
      </trkpt>
      <trkpt lat="32.108282" lon="34.847047">
        <ele>10</ele>
      </trkpt>
      <trkpt lat="32.107978" lon="34.847146">
        <ele>9.5</ele>
      </trkpt>
      <extensions>
        <RoutingType xmlns="">Hike</RoutingType>
      </extensions>
    </trkseg>
    <trkseg>
      <trkpt lat="32.107978" lon="34.847146">
        <ele>9.5</ele>
      </trkpt>
      <trkpt lat="32.107682" lon="34.847243">
        <ele>9</ele>
      </trkpt>
      <trkpt lat="32.107475" lon="34.847246">
        <ele>9</ele>
      </trkpt>
      <trkpt lat="32.106932" lon="34.847012">
        <ele>8</ele>
      </trkpt>
      <trkpt lat="32.106852" lon="34.847014">
        <ele>7.5</ele>
      </trkpt>
      <extensions>
        <RoutingType xmlns="">Hike</RoutingType>
      </extensions>
    </trkseg>
    <trkseg>
      <trkpt lat="32.106852" lon="34.847014">
        <ele>7.5</ele>
      </trkpt>
      <trkpt lat="32.106786" lon="34.847015">
        <ele>7</ele>
      </trkpt>
      <trkpt lat="32.106746" lon="34.847235">
        <ele>7</ele>
      </trkpt>
      <trkpt lat="32.106755" lon="34.847357">
        <ele>7</ele>
      </trkpt>
      <trkpt lat="32.106844" lon="34.847711">
        <ele>7</ele>
      </trkpt>
      <trkpt lat="32.10695" lon="34.847982">
        <ele>7</ele>
      </trkpt>
      <trkpt lat="32.107194" lon="34.848497">
        <ele>7</ele>
      </trkpt>
      <trkpt lat="32.107222" lon="34.848635">
        <ele>6.5</ele>
      </trkpt>
      <extensions>
        <RoutingType xmlns="">Hike</RoutingType>
      </extensions>
    </trkseg>
    <trkseg>
      <trkpt lat="32.107222" lon="34.848635">
        <ele>6.5</ele>
      </trkpt>
      <trkpt lat="32.107227" lon="34.848795">
        <ele>6</ele>
      </trkpt>
      <trkpt lat="32.107206" lon="34.84903">
        <ele>8</ele>
      </trkpt>
      <trkpt lat="32.107113" lon="34.849573">
        <ele>8</ele>
      </trkpt>
      <trkpt lat="32.107097" lon="34.849832">
        <ele>9</ele>
      </trkpt>
      <trkpt lat="32.107073" lon="34.849969">
        <ele>9</ele>
      </trkpt>
      <trkpt lat="32.107011" lon="34.850097">
        <ele>9</ele>
      </trkpt>
      <extensions>
        <RoutingType xmlns="">Hike</RoutingType>
      </extensions>
    </trkseg>
    <trkseg>
      <trkpt lat="32.107011" lon="34.850097">
        <ele>9</ele>
      </trkpt>
      <trkpt lat="32.106979" lon="34.850162">
        <ele>9</ele>
      </trkpt>
      <trkpt lat="32.106733" lon="34.850428">
        <ele>8</ele>
      </trkpt>
      <trkpt lat="32.106703" lon="34.850484">
        <ele>8</ele>
      </trkpt>
      <trkpt lat="32.106687" lon="34.850543">
        <ele>8</ele>
      </trkpt>
      <trkpt lat="32.10672" lon="34.850803">
        <ele>8</ele>
      </trkpt>
      <trkpt lat="32.107263" lon="34.850873">
        <ele>8</ele>
      </trkpt>
      <trkpt lat="32.10733" lon="34.850907">
        <ele>8</ele>
      </trkpt>
      <trkpt lat="32.107605" lon="34.851183">
        <ele>8</ele>
      </trkpt>
      <trkpt lat="32.107728" lon="34.851271">
        <ele>8</ele>
      </trkpt>
      <trkpt lat="32.108085" lon="34.851476">
        <ele>8</ele>
      </trkpt>
      <trkpt lat="32.108359" lon="34.85167">
        <ele>9</ele>
      </trkpt>
      <trkpt lat="32.108425" lon="34.851716">
        <ele>9</ele>
      </trkpt>
      <trkpt lat="32.108532" lon="34.85186">
        <ele>9.5</ele>
      </trkpt>
      <extensions>
        <RoutingType xmlns="">Hike</RoutingType>
      </extensions>
    </trkseg>
    <trkseg>
      <trkpt lat="32.108532" lon="34.85186">
        <ele>9.5</ele>
      </trkpt>
      <trkpt lat="32.108596" lon="34.852034">
        <ele>9</ele>
      </trkpt>
      <trkpt lat="32.108608" lon="34.852161">
        <ele>11</ele>
      </trkpt>
      <trkpt lat="32.10859" lon="34.852415">
        <ele>11</ele>
      </trkpt>
      <trkpt lat="32.108558" lon="34.852537">
        <ele>11</ele>
      </trkpt>
      <trkpt lat="32.10851" lon="34.852599">
        <ele>11</ele>
      </trkpt>
      <trkpt lat="32.107998" lon="34.852828">
        <ele>10</ele>
      </trkpt>
      <trkpt lat="32.107582" lon="34.852913">
        <ele>9</ele>
      </trkpt>
      <trkpt lat="32.107238" lon="34.853035">
        <ele>9</ele>
      </trkpt>
      <extensions>
        <RoutingType xmlns="">Hike</RoutingType>
      </extensions>
    </trkseg>
    <trkseg>
      <trkpt lat="32.107238" lon="34.853035">
        <ele>9</ele>
      </trkpt>
      <trkpt lat="32.106893" lon="34.853157">
        <ele>9</ele>
      </trkpt>
      <trkpt lat="32.106635" lon="34.85331">
        <ele>10</ele>
      </trkpt>
      <trkpt lat="32.106514" lon="34.853403">
        <ele>10</ele>
      </trkpt>
      <trkpt lat="32.10641" lon="34.85352">
        <ele>10</ele>
      </trkpt>
      <trkpt lat="32.106372" lon="34.853593">
        <ele>10</ele>
      </trkpt>
      <trkpt lat="32.106352" lon="34.853674">
        <ele>10</ele>
      </trkpt>
      <trkpt lat="32.106352" lon="34.853759">
        <ele>9</ele>
      </trkpt>
      <trkpt lat="32.106379" lon="34.853837">
        <ele>9</ele>
      </trkpt>
      <trkpt lat="32.106468" lon="34.853906">
        <ele>8</ele>
      </trkpt>
      <trkpt lat="32.106572" lon="34.853942">
        <ele>9</ele>
      </trkpt>
      <trkpt lat="32.106999" lon="34.854015">
        <ele>8</ele>
      </trkpt>
      <trkpt lat="32.107263" lon="34.85411">
        <ele>8</ele>
      </trkpt>
      <extensions>
        <RoutingType xmlns="">Hike</RoutingType>
      </extensions>
    </trkseg>
    <trkseg>
      <trkpt lat="32.107263" lon="34.85411">
        <ele>8</ele>
      </trkpt>
      <trkpt lat="32.107378" lon="34.854151">
        <ele>8</ele>
      </trkpt>
      <trkpt lat="32.107744" lon="34.854332">
        <ele>9</ele>
      </trkpt>
      <trkpt lat="32.107869" lon="34.854418">
        <ele>9</ele>
      </trkpt>
      <trkpt lat="32.108184" lon="34.854702">
        <ele>9</ele>
      </trkpt>
      <trkpt lat="32.108281" lon="34.854828">
        <ele>9</ele>
      </trkpt>
      <trkpt lat="32.108355" lon="34.854974">
        <ele>10</ele>
      </trkpt>
      <trkpt lat="32.108386" lon="34.855096">
        <ele>9</ele>
      </trkpt>
      <trkpt lat="32.108387" lon="34.855182">
        <ele>9</ele>
      </trkpt>
      <extensions>
        <RoutingType xmlns="">Hike</RoutingType>
      </extensions>
    </trkseg>
    <trkseg>
      <trkpt lat="32.108387" lon="34.855182">
        <ele>9</ele>
      </trkpt>
      <trkpt lat="32.108387" lon="34.855267">
        <ele>9</ele>
      </trkpt>
      <trkpt lat="32.108361" lon="34.855434">
        <ele>9</ele>
      </trkpt>
      <trkpt lat="32.108316" lon="34.855565">
        <ele>9</ele>
      </trkpt>
      <trkpt lat="32.108213" lon="34.855721">
        <ele>9</ele>
      </trkpt>
      <trkpt lat="32.108071" lon="34.855852">
        <ele>9</ele>
      </trkpt>
      <trkpt lat="32.10773" lon="34.856091">
        <ele>8</ele>
      </trkpt>
      <trkpt lat="32.107684" lon="34.856156">
        <ele>8</ele>
      </trkpt>
      <trkpt lat="32.107663" lon="34.856237">
        <ele>8</ele>
      </trkpt>
      <trkpt lat="32.107664" lon="34.856364">
        <ele>8</ele>
      </trkpt>
      <trkpt lat="32.107692" lon="34.856488">
        <ele>8</ele>
      </trkpt>
      <trkpt lat="32.107804" lon="34.856755">
        <ele>9</ele>
      </trkpt>
      <trkpt lat="32.107917" lon="34.857115">
        <ele>9</ele>
      </trkpt>
      <trkpt lat="32.107925" lon="34.857213">
        <ele>9</ele>
      </trkpt>
      <extensions>
        <RoutingType xmlns="">Hike</RoutingType>
      </extensions>
    </trkseg>
    <trkseg>
      <trkpt lat="32.107925" lon="34.857213">
        <ele>9</ele>
      </trkpt>
      <trkpt lat="32.10793" lon="34.857284">
        <ele>9</ele>
      </trkpt>
      <trkpt lat="32.107875" lon="34.857575">
        <ele>8</ele>
      </trkpt>
      <trkpt lat="32.107868" lon="34.857702">
        <ele>8</ele>
      </trkpt>
      <trkpt lat="32.107912" lon="34.857864">
        <ele>8</ele>
      </trkpt>
      <trkpt lat="32.108002" lon="34.858048">
        <ele>8</ele>
      </trkpt>
      <trkpt lat="32.108093" lon="34.858111">
        <ele>8</ele>
      </trkpt>
      <trkpt lat="32.108164" lon="34.858098">
        <ele>8</ele>
      </trkpt>
      <trkpt lat="32.108462" lon="34.857862">
        <ele>9</ele>
      </trkpt>
      <trkpt lat="32.108844" lon="34.857743">
        <ele>9</ele>
      </trkpt>
      <trkpt lat="32.109418" lon="34.857444">
        <ele>8.5</ele>
      </trkpt>
      <extensions>
        <RoutingType xmlns="">Hike</RoutingType>
      </extensions>
    </trkseg>
    <trkseg>
      <trkpt lat="32.109418" lon="34.857444">
        <ele>8.5</ele>
      </trkpt>
      <trkpt lat="32.109905" lon="34.857191">
        <ele>8</ele>
      </trkpt>
      <trkpt lat="32.110188" lon="34.857159">
        <ele>8</ele>
      </trkpt>
      <trkpt lat="32.110575" lon="34.857198">
        <ele>8</ele>
      </trkpt>
      <trkpt lat="32.110663" lon="34.857215">
        <ele>9</ele>
      </trkpt>
      <trkpt lat="32.110798" lon="34.857273">
        <ele>9</ele>
      </trkpt>
      <trkpt lat="32.110908" lon="34.857382">
        <ele>9</ele>
      </trkpt>
      <trkpt lat="32.111" lon="34.857564">
        <ele>9</ele>
      </trkpt>
      <trkpt lat="32.11117" lon="34.858349">
        <ele>9</ele>
      </trkpt>
      <trkpt lat="32.11117" lon="34.858599">
        <ele>9.5</ele>
      </trkpt>
      <extensions>
        <RoutingType xmlns="">Hike</RoutingType>
      </extensions>
    </trkseg>
    <trkseg>
      <trkpt lat="32.11117" lon="34.858599">
        <ele>9.5</ele>
      </trkpt>
      <trkpt lat="32.111044" lon="34.859104">
        <ele>10</ele>
      </trkpt>
      <trkpt lat="32.110663" lon="34.859228">
        <ele>9.5</ele>
      </trkpt>
      <extensions>
        <RoutingType xmlns="">Hike</RoutingType>
      </extensions>
    </trkseg>
    <trkseg>
      <trkpt lat="32.110663" lon="34.859228">
        <ele>9.5</ele>
      </trkpt>
      <trkpt lat="32.110584" lon="34.859253">
        <ele>9</ele>
      </trkpt>
      <trkpt lat="32.110071" lon="34.859092">
        <ele>8</ele>
      </trkpt>
      <trkpt lat="32.109848" lon="34.859065">
        <ele>9</ele>
      </trkpt>
      <trkpt lat="32.109653" lon="34.859065">
        <ele>9</ele>
      </trkpt>
      <trkpt lat="32.109512" lon="34.859119">
        <ele>9</ele>
      </trkpt>
      <trkpt lat="32.109294" lon="34.859296">
        <ele>9</ele>
      </trkpt>
      <trkpt lat="32.109244" lon="34.859425">
        <ele>9</ele>
      </trkpt>
      <trkpt lat="32.10923" lon="34.85957">
        <ele>9</ele>
      </trkpt>
      <trkpt lat="32.109238" lon="34.859618">
        <ele>8.5</ele>
      </trkpt>
      <extensions>
        <RoutingType xmlns="">Hike</RoutingType>
      </extensions>
    </trkseg>
    <trkseg>
      <trkpt lat="32.109238" lon="34.859618">
        <ele>8.5</ele>
      </trkpt>
      <trkpt lat="32.10928" lon="34.859854">
        <ele>8</ele>
      </trkpt>
      <trkpt lat="32.109389" lon="34.860138">
        <ele>8</ele>
      </trkpt>
      <trkpt lat="32.10968" lon="34.860675">
        <ele>9</ele>
      </trkpt>
      <trkpt lat="32.109848" lon="34.860841">
        <ele>8</ele>
      </trkpt>
      <trkpt lat="32.109916" lon="34.860857">
        <ele>9</ele>
      </trkpt>
      <trkpt lat="32.109989" lon="34.86082">
        <ele>9</ele>
      </trkpt>
      <trkpt lat="32.110175" lon="34.860578">
        <ele>9</ele>
      </trkpt>
      <trkpt lat="32.110352" lon="34.860181">
        <ele>9</ele>
      </trkpt>
      <trkpt lat="32.110384" lon="34.859983">
        <ele>9</ele>
      </trkpt>
      <trkpt lat="32.110474" lon="34.859779">
        <ele>9</ele>
      </trkpt>
      <extensions>
        <RoutingType xmlns="">Hike</RoutingType>
      </extensions>
    </trkseg>
    <trkseg>
      <trkpt lat="32.110474" lon="34.859779">
        <ele>9</ele>
      </trkpt>
      <trkpt lat="32.110639" lon="34.859511">
        <ele>9</ele>
      </trkpt>
      <trkpt lat="32.110852" lon="34.859323">
        <ele>9</ele>
      </trkpt>
      <trkpt lat="32.111074" lon="34.859188">
        <ele>10</ele>
      </trkpt>
      <trkpt lat="32.111109" lon="34.859308">
        <ele>9</ele>
      </trkpt>
      <trkpt lat="32.111294" lon="34.859569">
        <ele>9</ele>
      </trkpt>
      <trkpt lat="32.111323" lon="34.859646">
        <ele>9</ele>
      </trkpt>
      <trkpt lat="32.11133" lon="34.85973">
        <ele>10</ele>
      </trkpt>
      <trkpt lat="32.111308" lon="34.859855">
        <ele>10</ele>
      </trkpt>
      <trkpt lat="32.111215" lon="34.859993">
        <ele>9.5</ele>
      </trkpt>
      <extensions>
        <RoutingType xmlns="">Hike</RoutingType>
      </extensions>
    </trkseg>
    <trkseg>
      <trkpt lat="32.111215" lon="34.859993">
        <ele>9.5</ele>
      </trkpt>
      <trkpt lat="32.11113" lon="34.86012">
        <ele>9</ele>
      </trkpt>
      <trkpt lat="32.111091" lon="34.860215">
        <ele>9</ele>
      </trkpt>
      <trkpt lat="32.11131" lon="34.860823">
        <ele>8</ele>
      </trkpt>
      <trkpt lat="32.111358" lon="34.860886">
        <ele>8</ele>
      </trkpt>
      <trkpt lat="32.111516" lon="34.860986">
        <ele>8</ele>
      </trkpt>
      <trkpt lat="32.111624" lon="34.860987">
        <ele>9</ele>
      </trkpt>
      <trkpt lat="32.111759" lon="34.860929">
        <ele>8</ele>
      </trkpt>
      <trkpt lat="32.112108" lon="34.860707">
        <ele>9</ele>
      </trkpt>
      <trkpt lat="32.112277" lon="34.860631">
        <ele>9</ele>
      </trkpt>
      <trkpt lat="32.112457" lon="34.860628">
        <ele>9</ele>
      </trkpt>
      <trkpt lat="32.112742" lon="34.86068">
        <ele>10</ele>
      </trkpt>
      <trkpt lat="32.113135" lon="34.860688">
        <ele>9</ele>
      </trkpt>
      <trkpt lat="32.113479" lon="34.860727">
        <ele>9</ele>
      </trkpt>
      <trkpt lat="32.113702" lon="34.860851">
        <ele>9</ele>
      </trkpt>
      <trkpt lat="32.113826" lon="34.861074">
        <ele>9</ele>
      </trkpt>
      <trkpt lat="32.113919" lon="34.861512">
        <ele>9</ele>
      </trkpt>
      <trkpt lat="32.114002" lon="34.86165">
        <ele>9</ele>
      </trkpt>
      <trkpt lat="32.114059" lon="34.861703">
        <ele>8</ele>
      </trkpt>
      <trkpt lat="32.114388" lon="34.861879">
        <ele>9</ele>
      </trkpt>
      <trkpt lat="32.114599" lon="34.86204">
        <ele>9</ele>
      </trkpt>
      <extensions>
        <RoutingType xmlns="">Hike</RoutingType>
      </extensions>
    </trkseg>
    <trkseg>
      <trkpt lat="32.114599" lon="34.86204">
        <ele>9</ele>
      </trkpt>
      <trkpt lat="32.114661" lon="34.862087">
        <ele>9</ele>
      </trkpt>
      <trkpt lat="32.115042" lon="34.862288">
        <ele>9</ele>
      </trkpt>
      <trkpt lat="32.115263" lon="34.862282">
        <ele>9</ele>
      </trkpt>
      <trkpt lat="32.115382" lon="34.862181">
        <ele>10</ele>
      </trkpt>
      <trkpt lat="32.115433" lon="34.862027">
        <ele>10</ele>
      </trkpt>
      <trkpt lat="32.1156" lon="34.861716">
        <ele>10</ele>
      </trkpt>
      <trkpt lat="32.115774" lon="34.861499">
        <ele>9</ele>
      </trkpt>
      <trkpt lat="32.115833" lon="34.861451">
        <ele>9</ele>
      </trkpt>
      <trkpt lat="32.116144" lon="34.861345">
        <ele>8</ele>
      </trkpt>
      <trkpt lat="32.116278" lon="34.861334">
        <ele>8</ele>
      </trkpt>
      <trkpt lat="32.116492" lon="34.861504">
        <ele>9</ele>
      </trkpt>
      <trkpt lat="32.116711" lon="34.861805">
        <ele>9</ele>
      </trkpt>
      <trkpt lat="32.11699" lon="34.862303">
        <ele>8</ele>
      </trkpt>
      <trkpt lat="32.117255" lon="34.862708">
        <ele>9</ele>
      </trkpt>
      <trkpt lat="32.117346" lon="34.862939">
        <ele>10</ele>
      </trkpt>
      <trkpt lat="32.117357" lon="34.86315">
        <ele>10</ele>
      </trkpt>
      <trkpt lat="32.117325" lon="34.863286">
        <ele>10</ele>
      </trkpt>
      <extensions>
        <RoutingType xmlns="">Hike</RoutingType>
      </extensions>
    </trkseg>
    <trkseg>
      <trkpt lat="32.117325" lon="34.863286">
        <ele>10</ele>
      </trkpt>
      <trkpt lat="32.11726" lon="34.863561">
        <ele>10</ele>
      </trkpt>
      <trkpt lat="32.117204" lon="34.863718">
        <ele>9</ele>
      </trkpt>
      <trkpt lat="32.117004" lon="34.864124">
        <ele>9</ele>
      </trkpt>
      <trkpt lat="32.116934" lon="34.86432">
        <ele>8</ele>
      </trkpt>
      <trkpt lat="32.116916" lon="34.864446">
        <ele>8</ele>
      </trkpt>
      <trkpt lat="32.11695" lon="34.864564">
        <ele>8</ele>
      </trkpt>
      <trkpt lat="32.117005" lon="34.864618">
        <ele>8</ele>
      </trkpt>
      <trkpt lat="32.117105" lon="34.864665">
        <ele>9</ele>
      </trkpt>
      <trkpt lat="32.117449" lon="34.864678">
        <ele>8</ele>
      </trkpt>
      <trkpt lat="32.117887" lon="34.864958">
        <ele>8</ele>
      </trkpt>
      <trkpt lat="32.118013" lon="34.86509">
        <ele>8</ele>
      </trkpt>
      <trkpt lat="32.118186" lon="34.865444">
        <ele>8</ele>
      </trkpt>
      <trkpt lat="32.118289" lon="34.865716">
        <ele>10</ele>
      </trkpt>
      <trkpt lat="32.118378" lon="34.86585">
        <ele>9</ele>
      </trkpt>
      <trkpt lat="32.118523" lon="34.865975">
        <ele>9</ele>
      </trkpt>
      <trkpt lat="32.118967" lon="34.866233">
        <ele>8.5</ele>
      </trkpt>
      <extensions>
        <RoutingType xmlns="">Hike</RoutingType>
      </extensions>
    </trkseg>
    <trkseg>
      <trkpt lat="32.118967" lon="34.866233">
        <ele>8.5</ele>
      </trkpt>
      <trkpt lat="32.119039" lon="34.866282">
        <ele>9</ele>
      </trkpt>
      <trkpt lat="32.119352" lon="34.866635">
        <ele>9</ele>
      </trkpt>
      <trkpt lat="32.11944" lon="34.866709">
        <ele>9</ele>
      </trkpt>
      <trkpt lat="32.119941" lon="34.866952">
        <ele>8</ele>
      </trkpt>
      <trkpt lat="32.120119" lon="34.866975">
        <ele>8</ele>
      </trkpt>
      <trkpt lat="32.120282" lon="34.866957">
        <ele>8.5</ele>
      </trkpt>
      <extensions>
        <RoutingType xmlns="">Hike</RoutingType>
      </extensions>
    </trkseg>
    <trkseg>
      <trkpt lat="32.120282" lon="34.866957">
        <ele>8.5</ele>
      </trkpt>
      <trkpt lat="32.120404" lon="34.866944">
        <ele>9</ele>
      </trkpt>
      <trkpt lat="32.121176" lon="34.867247">
        <ele>9</ele>
      </trkpt>
      <trkpt lat="32.121234" lon="34.867304">
        <ele>9</ele>
      </trkpt>
      <trkpt lat="32.121569" lon="34.867741">
        <ele>9</ele>
      </trkpt>
      <trkpt lat="32.121639" lon="34.867766">
        <ele>9</ele>
      </trkpt>
      <trkpt lat="32.121711" lon="34.867764">
        <ele>9</ele>
      </trkpt>
      <trkpt lat="32.121776" lon="34.867728">
        <ele>9</ele>
      </trkpt>
      <trkpt lat="32.121824" lon="34.867665">
        <ele>9</ele>
      </trkpt>
      <trkpt lat="32.121855" lon="34.867542">
        <ele>9</ele>
      </trkpt>
      <trkpt lat="32.121917" lon="34.866988">
        <ele>9</ele>
      </trkpt>
      <trkpt lat="32.121962" lon="34.866872">
        <ele>10</ele>
      </trkpt>
      <trkpt lat="32.12211" lon="34.866627">
        <ele>9</ele>
      </trkpt>
      <trkpt lat="32.122134" lon="34.866502">
        <ele>10</ele>
      </trkpt>
      <trkpt lat="32.122118" lon="34.866375">
        <ele>10</ele>
      </trkpt>
      <trkpt lat="32.122014" lon="34.866101">
        <ele>10</ele>
      </trkpt>
      <trkpt lat="32.121941" lon="34.865813">
        <ele>11</ele>
      </trkpt>
      <trkpt lat="32.121929" lon="34.865728">
        <ele>11</ele>
      </trkpt>
      <trkpt lat="32.121938" lon="34.8656">
        <ele>11</ele>
      </trkpt>
      <trkpt lat="32.12197" lon="34.865477">
        <ele>11</ele>
      </trkpt>
      <trkpt lat="32.122028" lon="34.865368">
        <ele>11</ele>
      </trkpt>
      <trkpt lat="32.12208" lon="34.865309">
        <ele>11</ele>
      </trkpt>
      <trkpt lat="32.122205" lon="34.865228">
        <ele>11</ele>
      </trkpt>
      <trkpt lat="32.122614" lon="34.865165">
        <ele>10</ele>
      </trkpt>
      <trkpt lat="32.12314" lon="34.865236">
        <ele>10</ele>
      </trkpt>
      <trkpt lat="32.12343" lon="34.865293">
        <ele>10</ele>
      </trkpt>
      <trkpt lat="32.123565" lon="34.865406">
        <ele>10</ele>
      </trkpt>
      <trkpt lat="32.123792" lon="34.865709">
        <ele>11</ele>
      </trkpt>
      <trkpt lat="32.123823" lon="34.866053">
        <ele>11.5</ele>
      </trkpt>
      <extensions>
        <RoutingType xmlns="">Hike</RoutingType>
      </extensions>
    </trkseg>
    <trkseg>
      <trkpt lat="32.123823" lon="34.866053">
        <ele>11.5</ele>
      </trkpt>
      <trkpt lat="32.123799" lon="34.866248">
        <ele>12</ele>
      </trkpt>
      <trkpt lat="32.123742" lon="34.866495">
        <ele>11</ele>
      </trkpt>
      <trkpt lat="32.123548" lon="34.866803">
        <ele>10</ele>
      </trkpt>
      <trkpt lat="32.123496" lon="34.866962">
        <ele>10</ele>
      </trkpt>
      <trkpt lat="32.123485" lon="34.867174">
        <ele>10</ele>
      </trkpt>
      <trkpt lat="32.123537" lon="34.867553">
        <ele>11</ele>
      </trkpt>
      <trkpt lat="32.123527" lon="34.867638">
        <ele>11</ele>
      </trkpt>
      <trkpt lat="32.123498" lon="34.867715">
        <ele>11</ele>
      </trkpt>
      <trkpt lat="32.12342" lon="34.867804">
        <ele>11</ele>
      </trkpt>
      <trkpt lat="32.12329" lon="34.867879">
        <ele>11</ele>
      </trkpt>
      <trkpt lat="32.123186" lon="34.867912">
        <ele>11</ele>
      </trkpt>
      <trkpt lat="32.122759" lon="34.867989">
        <ele>10</ele>
      </trkpt>
      <trkpt lat="32.122589" lon="34.868063">
        <ele>10</ele>
      </trkpt>
      <trkpt lat="32.122501" lon="34.868139">
        <ele>9</ele>
      </trkpt>
      <trkpt lat="32.12235" lon="34.868322">
        <ele>10</ele>
      </trkpt>
      <trkpt lat="32.122143" lon="34.86862">
        <ele>10</ele>
      </trkpt>
      <trkpt lat="32.121968" lon="34.869088">
        <ele>10</ele>
      </trkpt>
      <trkpt lat="32.121686" lon="34.869419">
        <ele>9</ele>
      </trkpt>
      <trkpt lat="32.121656" lon="34.86954">
        <ele>8</ele>
      </trkpt>
      <trkpt lat="32.121679" lon="34.869621">
        <ele>8</ele>
      </trkpt>
      <trkpt lat="32.121725" lon="34.869687">
        <ele>8</ele>
      </trkpt>
      <trkpt lat="32.121841" lon="34.869789">
        <ele>8</ele>
      </trkpt>
      <trkpt lat="32.122112" lon="34.869907">
        <ele>9</ele>
      </trkpt>
      <trkpt lat="32.122326" lon="34.86995">
        <ele>9</ele>
      </trkpt>
      <trkpt lat="32.122499" lon="34.869891">
        <ele>9</ele>
      </trkpt>
      <trkpt lat="32.122978" lon="34.869589">
        <ele>9</ele>
      </trkpt>
      <trkpt lat="32.123435" lon="34.869244">
        <ele>10</ele>
      </trkpt>
      <trkpt lat="32.123589" lon="34.869064">
        <ele>11</ele>
      </trkpt>
      <trkpt lat="32.123683" lon="34.868912">
        <ele>11</ele>
      </trkpt>
      <extensions>
        <RoutingType xmlns="">Hike</RoutingType>
      </extensions>
    </trkseg>
    <trkseg>
      <trkpt lat="32.123683" lon="34.868912">
        <ele>11</ele>
      </trkpt>
      <trkpt lat="32.123844" lon="34.868649">
        <ele>11</ele>
      </trkpt>
      <trkpt lat="32.12393" lon="34.868571">
        <ele>11</ele>
      </trkpt>
      <trkpt lat="32.12403" lon="34.868521">
        <ele>11</ele>
      </trkpt>
      <trkpt lat="32.124211" lon="34.868516">
        <ele>11</ele>
      </trkpt>
      <trkpt lat="32.124562" lon="34.868609">
        <ele>11</ele>
      </trkpt>
      <trkpt lat="32.125122" lon="34.868911">
        <ele>12</ele>
      </trkpt>
      <trkpt lat="32.125279" lon="34.868959">
        <ele>12</ele>
      </trkpt>
      <trkpt lat="32.125437" lon="34.869198">
        <ele>12</ele>
      </trkpt>
      <trkpt lat="32.125517" lon="34.869381">
        <ele>12</ele>
      </trkpt>
      <trkpt lat="32.125595" lon="34.869809">
        <ele>12</ele>
      </trkpt>
      <trkpt lat="32.125619" lon="34.87029">
        <ele>12</ele>
      </trkpt>
      <trkpt lat="32.125651" lon="34.87046">
        <ele>12</ele>
      </trkpt>
      <trkpt lat="32.125752" lon="34.870584">
        <ele>13</ele>
      </trkpt>
      <trkpt lat="32.126024" lon="34.87072">
        <ele>15</ele>
      </trkpt>
      <trkpt lat="32.126151" lon="34.870812">
        <ele>14</ele>
      </trkpt>
      <trkpt lat="32.126463" lon="34.871096">
        <ele>14</ele>
      </trkpt>
      <trkpt lat="32.126593" lon="34.87135">
        <ele>13</ele>
      </trkpt>
      <trkpt lat="32.126633" lon="34.871514">
        <ele>12</ele>
      </trkpt>
      <trkpt lat="32.126635" lon="34.871684">
        <ele>13</ele>
      </trkpt>
      <trkpt lat="32.126605" lon="34.871806">
        <ele>13</ele>
      </trkpt>
      <trkpt lat="32.12653" lon="34.871894">
        <ele>14</ele>
      </trkpt>
      <trkpt lat="32.126396" lon="34.871958">
        <ele>16</ele>
      </trkpt>
      <trkpt lat="32.126221" lon="34.872004">
        <ele>16</ele>
      </trkpt>
      <trkpt lat="32.125861" lon="34.872029">
        <ele>14</ele>
      </trkpt>
      <trkpt lat="32.125557" lon="34.872029">
        <ele>13.5</ele>
      </trkpt>
      <extensions>
        <RoutingType xmlns="">Hike</RoutingType>
      </extensions>
    </trkseg>
    <trkseg>
      <trkpt lat="32.125557" lon="34.872029">
        <ele>13.5</ele>
      </trkpt>
      <trkpt lat="32.125284" lon="34.872029">
        <ele>13</ele>
      </trkpt>
      <trkpt lat="32.125144" lon="34.872064">
        <ele>13</ele>
      </trkpt>
      <trkpt lat="32.125015" lon="34.87214">
        <ele>13</ele>
      </trkpt>
      <trkpt lat="32.124646" lon="34.872408">
        <ele>13</ele>
      </trkpt>
      <trkpt lat="32.124415" lon="34.872609">
        <ele>13</ele>
      </trkpt>
      <trkpt lat="32.12426" lon="34.872945">
        <ele>13</ele>
      </trkpt>
      <trkpt lat="32.124117" lon="34.873381">
        <ele>12</ele>
      </trkpt>
      <trkpt lat="32.123982" lon="34.873581">
        <ele>13</ele>
      </trkpt>
      <trkpt lat="32.123783" lon="34.873763">
        <ele>12</ele>
      </trkpt>
      <trkpt lat="32.123619" lon="34.873849">
        <ele>12</ele>
      </trkpt>
      <trkpt lat="32.12348" lon="34.873893">
        <ele>12</ele>
      </trkpt>
      <trkpt lat="32.123337" lon="34.873906">
        <ele>12</ele>
      </trkpt>
      <trkpt lat="32.123167" lon="34.873978">
        <ele>12</ele>
      </trkpt>
      <trkpt lat="32.122801" lon="34.874323">
        <ele>13</ele>
      </trkpt>
      <trkpt lat="32.122565" lon="34.874519">
        <ele>14</ele>
      </trkpt>
      <trkpt lat="32.122449" lon="34.874579">
        <ele>14</ele>
      </trkpt>
      <trkpt lat="32.122398" lon="34.874583">
        <ele>14</ele>
      </trkpt>
      <trkpt lat="32.122259" lon="34.874539">
        <ele>14</ele>
      </trkpt>
      <trkpt lat="32.122175" lon="34.874492">
        <ele>13</ele>
      </trkpt>
      <extensions>
        <RoutingType xmlns="">Hike</RoutingType>
      </extensions>
    </trkseg>
    <trkseg>
      <trkpt lat="32.122175" lon="34.874492">
        <ele>13</ele>
      </trkpt>
      <trkpt lat="32.121973" lon="34.874358">
        <ele>12</ele>
      </trkpt>
      <trkpt lat="32.12188" lon="34.874229">
        <ele>12</ele>
      </trkpt>
      <trkpt lat="32.121741" lon="34.873884">
        <ele>11</ele>
      </trkpt>
      <trkpt lat="32.121684" lon="34.873834">
        <ele>12</ele>
      </trkpt>
      <trkpt lat="32.121648" lon="34.873836">
        <ele>12</ele>
      </trkpt>
      <trkpt lat="32.121582" lon="34.873868">
        <ele>12</ele>
      </trkpt>
      <trkpt lat="32.121344" lon="34.874062">
        <ele>11</ele>
      </trkpt>
      <trkpt lat="32.121247" lon="34.874117">
        <ele>11</ele>
      </trkpt>
      <trkpt lat="32.12111" lon="34.874171">
        <ele>11</ele>
      </trkpt>
      <trkpt lat="32.120724" lon="34.874265">
        <ele>11</ele>
      </trkpt>
      <trkpt lat="32.120489" lon="34.874376">
        <ele>11</ele>
      </trkpt>
      <trkpt lat="32.120432" lon="34.874427">
        <ele>10</ele>
      </trkpt>
      <trkpt lat="32.120353" lon="34.874569">
        <ele>10</ele>
      </trkpt>
      <trkpt lat="32.120313" lon="34.874732">
        <ele>10</ele>
      </trkpt>
      <trkpt lat="32.120307" lon="34.87486">
        <ele>10</ele>
      </trkpt>
      <trkpt lat="32.120331" lon="34.874984">
        <ele>11</ele>
      </trkpt>
      <trkpt lat="32.120409" lon="34.875125">
        <ele>11</ele>
      </trkpt>
      <trkpt lat="32.120494" lon="34.875203">
        <ele>11</ele>
      </trkpt>
      <trkpt lat="32.120595" lon="34.87525">
        <ele>11</ele>
      </trkpt>
      <trkpt lat="32.120702" lon="34.875269">
        <ele>11</ele>
      </trkpt>
      <trkpt lat="32.120845" lon="34.875247">
        <ele>11</ele>
      </trkpt>
      <trkpt lat="32.120974" lon="34.875173">
        <ele>10</ele>
      </trkpt>
      <trkpt lat="32.121043" lon="34.875077">
        <ele>11</ele>
      </trkpt>
      <trkpt lat="32.121068" lon="34.874953">
        <ele>11</ele>
      </trkpt>
      <trkpt lat="32.121066" lon="34.87474">
        <ele>12</ele>
      </trkpt>
      <trkpt lat="32.121079" lon="34.874628">
        <ele>12</ele>
      </trkpt>
      <extensions>
        <RoutingType xmlns="">Hike</RoutingType>
      </extensions>
    </trkseg>
    <trkseg>
      <trkpt lat="32.121079" lon="34.874628">
        <ele>12</ele>
      </trkpt>
      <trkpt lat="32.121124" lon="34.874497">
        <ele>11</ele>
      </trkpt>
      <trkpt lat="32.121195" lon="34.874401">
        <ele>11</ele>
      </trkpt>
      <trkpt lat="32.121254" lon="34.874353">
        <ele>11</ele>
      </trkpt>
      <trkpt lat="32.121322" lon="34.874326">
        <ele>11</ele>
      </trkpt>
      <trkpt lat="32.12143" lon="34.874322">
        <ele>10</ele>
      </trkpt>
      <trkpt lat="32.121535" lon="34.874349">
        <ele>11</ele>
      </trkpt>
      <trkpt lat="32.121663" lon="34.874428">
        <ele>11</ele>
      </trkpt>
      <trkpt lat="32.121829" lon="34.874651">
        <ele>11</ele>
      </trkpt>
      <trkpt lat="32.121973" lon="34.874946">
        <ele>11</ele>
      </trkpt>
      <trkpt lat="32.122114" lon="34.875338">
        <ele>11</ele>
      </trkpt>
      <trkpt lat="32.122186" lon="34.875755">
        <ele>11</ele>
      </trkpt>
      <trkpt lat="32.1224" lon="34.876478">
        <ele>10</ele>
      </trkpt>
      <trkpt lat="32.122471" lon="34.876626">
        <ele>10</ele>
      </trkpt>
      <trkpt lat="32.122555" lon="34.876706">
        <ele>9</ele>
      </trkpt>
      <trkpt lat="32.122662" lon="34.876718">
        <ele>9</ele>
      </trkpt>
      <trkpt lat="32.122731" lon="34.876695">
        <ele>9</ele>
      </trkpt>
      <trkpt lat="32.122973" lon="34.87651">
        <ele>10</ele>
      </trkpt>
      <trkpt lat="32.12307" lon="34.876455">
        <ele>10</ele>
      </trkpt>
      <trkpt lat="32.123366" lon="34.876395">
        <ele>10</ele>
      </trkpt>
      <extensions>
        <RoutingType xmlns="">Hike</RoutingType>
      </extensions>
    </trkseg>
    <trkseg>
      <trkpt lat="32.123366" lon="34.876395">
        <ele>10</ele>
      </trkpt>
      <trkpt lat="32.12353" lon="34.876362">
        <ele>10</ele>
      </trkpt>
      <trkpt lat="32.123664" lon="34.8763">
        <ele>10</ele>
      </trkpt>
      <trkpt lat="32.123818" lon="34.87619">
        <ele>11</ele>
      </trkpt>
      <trkpt lat="32.124016" lon="34.875943">
        <ele>11</ele>
      </trkpt>
      <trkpt lat="32.124101" lon="34.875864">
        <ele>11</ele>
      </trkpt>
      <trkpt lat="32.124235" lon="34.875807">
        <ele>10</ele>
      </trkpt>
      <trkpt lat="32.124343" lon="34.875809">
        <ele>10</ele>
      </trkpt>
      <trkpt lat="32.124443" lon="34.875855">
        <ele>11</ele>
      </trkpt>
      <trkpt lat="32.124563" lon="34.876012">
        <ele>10</ele>
      </trkpt>
      <trkpt lat="32.124635" lon="34.87616">
        <ele>10</ele>
      </trkpt>
      <trkpt lat="32.124682" lon="34.876321">
        <ele>11</ele>
      </trkpt>
      <trkpt lat="32.124715" lon="34.876573">
        <ele>12</ele>
      </trkpt>
      <trkpt lat="32.124686" lon="34.876739">
        <ele>13</ele>
      </trkpt>
      <trkpt lat="32.124627" lon="34.876845">
        <ele>13</ele>
      </trkpt>
      <trkpt lat="32.124539" lon="34.876917">
        <ele>13</ele>
      </trkpt>
      <trkpt lat="32.12408" lon="34.877019">
        <ele>12</ele>
      </trkpt>
      <trkpt lat="32.123911" lon="34.877091">
        <ele>11</ele>
      </trkpt>
      <trkpt lat="32.123786" lon="34.877175">
        <ele>11</ele>
      </trkpt>
      <trkpt lat="32.123738" lon="34.877239">
        <ele>10</ele>
      </trkpt>
      <trkpt lat="32.123714" lon="34.877318">
        <ele>10</ele>
      </trkpt>
      <trkpt lat="32.12372" lon="34.877349">
        <ele>10</ele>
      </trkpt>
      <extensions>
        <RoutingType xmlns="">Hike</RoutingType>
      </extensions>
    </trkseg>
    <trkseg>
      <trkpt lat="32.12372" lon="34.877349">
        <ele>10</ele>
      </trkpt>
      <trkpt lat="32.123736" lon="34.877441">
        <ele>10</ele>
      </trkpt>
      <trkpt lat="32.123777" lon="34.877511">
        <ele>10</ele>
      </trkpt>
      <trkpt lat="32.124141" lon="34.877859">
        <ele>10</ele>
      </trkpt>
      <trkpt lat="32.124263" lon="34.87795">
        <ele>11</ele>
      </trkpt>
      <trkpt lat="32.12489" lon="34.878277">
        <ele>10</ele>
      </trkpt>
      <trkpt lat="32.12508" lon="34.878399">
        <ele>10</ele>
      </trkpt>
      <trkpt lat="32.125228" lon="34.878575">
        <ele>11</ele>
      </trkpt>
      <trkpt lat="32.125279" lon="34.878814">
        <ele>11</ele>
      </trkpt>
      <trkpt lat="32.125198" lon="34.879222">
        <ele>11</ele>
      </trkpt>
      <trkpt lat="32.125198" lon="34.879307">
        <ele>11</ele>
      </trkpt>
      <trkpt lat="32.125216" lon="34.879389">
        <ele>11</ele>
      </trkpt>
      <trkpt lat="32.125272" lon="34.879469">
        <ele>11</ele>
      </trkpt>
      <extensions>
        <RoutingType xmlns="">Hike</RoutingType>
      </extensions>
    </trkseg>
    <trkseg>
      <trkpt lat="32.125272" lon="34.879469">
        <ele>11</ele>
      </trkpt>
      <trkpt lat="32.125306" lon="34.879519">
        <ele>11</ele>
      </trkpt>
      <trkpt lat="32.12545" lon="34.879646">
        <ele>11</ele>
      </trkpt>
      <trkpt lat="32.125903" lon="34.879908">
        <ele>12</ele>
      </trkpt>
      <trkpt lat="32.125973" lon="34.87993">
        <ele>11</ele>
      </trkpt>
      <trkpt lat="32.126045" lon="34.87993">
        <ele>11</ele>
      </trkpt>
      <trkpt lat="32.126464" lon="34.879813">
        <ele>12</ele>
      </trkpt>
      <trkpt lat="32.126977" lon="34.879611">
        <ele>14</ele>
      </trkpt>
      <trkpt lat="32.127083" lon="34.87959">
        <ele>14</ele>
      </trkpt>
      <trkpt lat="32.127226" lon="34.879608">
        <ele>14</ele>
      </trkpt>
      <trkpt lat="32.127517" lon="34.879836">
        <ele>12</ele>
      </trkpt>
      <trkpt lat="32.127491" lon="34.880026">
        <ele>10</ele>
      </trkpt>
      <trkpt lat="32.127529" lon="34.880223">
        <ele>11</ele>
      </trkpt>
      <trkpt lat="32.127495" lon="34.880344">
        <ele>12</ele>
      </trkpt>
      <trkpt lat="32.12735" lon="34.88059">
        <ele>11</ele>
      </trkpt>
      <trkpt lat="32.127139" lon="34.880883">
        <ele>10</ele>
      </trkpt>
      <trkpt lat="32.127103" lon="34.880958">
        <ele>11</ele>
      </trkpt>
      <trkpt lat="32.127085" lon="34.88104">
        <ele>10</ele>
      </trkpt>
      <trkpt lat="32.127082" lon="34.881268">
        <ele>10.5</ele>
      </trkpt>
      <extensions>
        <RoutingType xmlns="">Hike</RoutingType>
      </extensions>
    </trkseg>
    <trkseg>
      <trkpt lat="32.127082" lon="34.881268">
        <ele>10.5</ele>
      </trkpt>
      <trkpt lat="32.127118" lon="34.881593">
        <ele>11</ele>
      </trkpt>
      <trkpt lat="32.127151" lon="34.881715">
        <ele>10</ele>
      </trkpt>
      <trkpt lat="32.127263" lon="34.881934">
        <ele>12</ele>
      </trkpt>
      <trkpt lat="32.127271" lon="34.882018">
        <ele>13</ele>
      </trkpt>
      <trkpt lat="32.127261" lon="34.882058">
        <ele>13</ele>
      </trkpt>
      <trkpt lat="32.127186" lon="34.882149">
        <ele>12</ele>
      </trkpt>
      <trkpt lat="32.126951" lon="34.882259">
        <ele>14</ele>
      </trkpt>
      <trkpt lat="32.126663" lon="34.882284">
        <ele>14</ele>
      </trkpt>
      <trkpt lat="32.126599" lon="34.882245">
        <ele>15</ele>
      </trkpt>
      <trkpt lat="32.126524" lon="34.8821">
        <ele>14</ele>
      </trkpt>
      <trkpt lat="32.126438" lon="34.881818">
        <ele>14</ele>
      </trkpt>
      <trkpt lat="32.12643" lon="34.881735">
        <ele>13.5</ele>
      </trkpt>
      <extensions>
        <RoutingType xmlns="">Hike</RoutingType>
      </extensions>
    </trkseg>
    <trkseg>
      <trkpt lat="32.12643" lon="34.881735">
        <ele>13.5</ele>
      </trkpt>
      <trkpt lat="32.126421" lon="34.881649">
        <ele>13</ele>
      </trkpt>
      <trkpt lat="32.126444" lon="34.881394">
        <ele>13</ele>
      </trkpt>
      <trkpt lat="32.126431" lon="34.881309">
        <ele>13</ele>
      </trkpt>
      <trkpt lat="32.126389" lon="34.881241">
        <ele>12</ele>
      </trkpt>
      <trkpt lat="32.126322" lon="34.881215">
        <ele>13</ele>
      </trkpt>
      <trkpt lat="32.12629" lon="34.881233">
        <ele>12</ele>
      </trkpt>
      <trkpt lat="32.126252" lon="34.881305">
        <ele>12</ele>
      </trkpt>
      <trkpt lat="32.126244" lon="34.88139">
        <ele>12</ele>
      </trkpt>
      <trkpt lat="32.126274" lon="34.88173">
        <ele>12</ele>
      </trkpt>
      <trkpt lat="32.126272" lon="34.881944">
        <ele>13</ele>
      </trkpt>
      <trkpt lat="32.126219" lon="34.882117">
        <ele>13</ele>
      </trkpt>
      <extensions>
        <RoutingType xmlns="">Hike</RoutingType>
      </extensions>
    </trkseg>
    <trkseg>
      <trkpt lat="32.126219" lon="34.882117">
        <ele>13</ele>
      </trkpt>
      <trkpt lat="32.12612" lon="34.882329">
        <ele>13</ele>
      </trkpt>
      <trkpt lat="32.12603" lon="34.882699">
        <ele>13</ele>
      </trkpt>
      <trkpt lat="32.125885" lon="34.883091">
        <ele>12</ele>
      </trkpt>
      <trkpt lat="32.125877" lon="34.883175">
        <ele>12</ele>
      </trkpt>
      <trkpt lat="32.125914" lon="34.883471">
        <ele>12</ele>
      </trkpt>
      <trkpt lat="32.125871" lon="34.883765">
        <ele>13</ele>
      </trkpt>
      <trkpt lat="32.125789" lon="34.883954">
        <ele>13</ele>
      </trkpt>
      <trkpt lat="32.125372" lon="34.884487">
        <ele>12</ele>
      </trkpt>
      <trkpt lat="32.125344" lon="34.884566">
        <ele>12</ele>
      </trkpt>
      <trkpt lat="32.125306" lon="34.884775">
        <ele>13</ele>
      </trkpt>
      <trkpt lat="32.125231" lon="34.884969">
        <ele>13</ele>
      </trkpt>
      <trkpt lat="32.125206" lon="34.885309">
        <ele>12</ele>
      </trkpt>
      <trkpt lat="32.125162" lon="34.88556">
        <ele>12</ele>
      </trkpt>
      <trkpt lat="32.125161" lon="34.885688">
        <ele>12</ele>
      </trkpt>
      <trkpt lat="32.125193" lon="34.88581">
        <ele>13</ele>
      </trkpt>
      <trkpt lat="32.125304" lon="34.885988">
        <ele>15</ele>
      </trkpt>
      <trkpt lat="32.125297" lon="34.885882">
        <ele>14</ele>
      </trkpt>
      <extensions>
        <RoutingType xmlns="">Hike</RoutingType>
      </extensions>
    </trkseg>
    <trkseg>
      <trkpt lat="32.125297" lon="34.885882">
        <ele>14</ele>
      </trkpt>
      <trkpt lat="32.125311" lon="34.886161">
        <ele>15</ele>
      </trkpt>
      <trkpt lat="32.125276" lon="34.886276">
        <ele>15</ele>
      </trkpt>
      <trkpt lat="32.125347" lon="34.886575">
        <ele>16</ele>
      </trkpt>
      <trkpt lat="32.125346" lon="34.886709">
        <ele>16</ele>
      </trkpt>
      <trkpt lat="32.125323" lon="34.886782">
        <ele>15.5</ele>
      </trkpt>
      <extensions>
        <RoutingType xmlns="">Hike</RoutingType>
      </extensions>
    </trkseg>
    <trkseg>
      <trkpt lat="32.125323" lon="34.886782">
        <ele>15.5</ele>
      </trkpt>
      <trkpt lat="32.125292" lon="34.886879">
        <ele>15</ele>
      </trkpt>
      <trkpt lat="32.125213" lon="34.886999">
        <ele>14</ele>
      </trkpt>
      <trkpt lat="32.125227" lon="34.88703">
        <ele>14</ele>
      </trkpt>
      <trkpt lat="32.125036" lon="34.887497">
        <ele>17</ele>
      </trkpt>
      <trkpt lat="32.125012" lon="34.887486">
        <ele>17</ele>
      </trkpt>
      <trkpt lat="32.125011" lon="34.887539">
        <ele>17</ele>
      </trkpt>
      <trkpt lat="32.124907" lon="34.887473">
        <ele>17</ele>
      </trkpt>
      <trkpt lat="32.124799" lon="34.887124">
        <ele>16</ele>
      </trkpt>
      <trkpt lat="32.12476" lon="34.886943">
        <ele>16</ele>
      </trkpt>
      <trkpt lat="32.124698" lon="34.886846">
        <ele>15</ele>
      </trkpt>
      <trkpt lat="32.124665" lon="34.886833">
        <ele>15</ele>
      </trkpt>
      <trkpt lat="32.124527" lon="34.886879">
        <ele>15</ele>
      </trkpt>
      <trkpt lat="32.124281" lon="34.887054">
        <ele>15</ele>
      </trkpt>
      <trkpt lat="32.12421" lon="34.887065">
        <ele>14</ele>
      </trkpt>
      <trkpt lat="32.124031" lon="34.887051">
        <ele>12</ele>
      </trkpt>
      <trkpt lat="32.123928" lon="34.887091">
        <ele>11</ele>
      </trkpt>
      <trkpt lat="32.123873" lon="34.887142">
        <ele>11</ele>
      </trkpt>
      <trkpt lat="32.123865" lon="34.887226">
        <ele>12</ele>
      </trkpt>
      <trkpt lat="32.12388" lon="34.887438">
        <ele>13</ele>
      </trkpt>
      <trkpt lat="32.123866" lon="34.887521">
        <ele>13</ele>
      </trkpt>
      <trkpt lat="32.123693" lon="34.887895">
        <ele>12</ele>
      </trkpt>
      <trkpt lat="32.123594" lon="34.88826">
        <ele>12</ele>
      </trkpt>
      <trkpt lat="32.123492" lon="34.888532">
        <ele>12</ele>
      </trkpt>
      <trkpt lat="32.123443" lon="34.889082">
        <ele>14</ele>
      </trkpt>
      <trkpt lat="32.123359" lon="34.889407">
        <ele>13</ele>
      </trkpt>
      <trkpt lat="32.12339" lon="34.889616">
        <ele>13</ele>
      </trkpt>
      <trkpt lat="32.123568" lon="34.889986">
        <ele>14</ele>
      </trkpt>
      <trkpt lat="32.123625" lon="34.890143">
        <ele>15</ele>
      </trkpt>
      <trkpt lat="32.123666" lon="34.89035">
        <ele>14</ele>
      </trkpt>
      <trkpt lat="32.123669" lon="34.890563">
        <ele>14</ele>
      </trkpt>
      <trkpt lat="32.123641" lon="34.89064">
        <ele>14</ele>
      </trkpt>
      <trkpt lat="32.123566" lon="34.890731">
        <ele>13</ele>
      </trkpt>
      <trkpt lat="32.123372" lon="34.890646">
        <ele>13</ele>
      </trkpt>
      <trkpt lat="32.12332" lon="34.89073">
        <ele>13.5</ele>
      </trkpt>
      <extensions>
        <RoutingType xmlns="">Hike</RoutingType>
      </extensions>
    </trkseg>
    <trkseg>
      <trkpt lat="32.12332" lon="34.89073">
        <ele>13.5</ele>
      </trkpt>
      <trkpt lat="32.123203" lon="34.890866">
        <ele>13</ele>
      </trkpt>
      <trkpt lat="32.123107" lon="34.89092">
        <ele>14</ele>
      </trkpt>
      <trkpt lat="32.122893" lon="34.890957">
        <ele>16</ele>
      </trkpt>
      <trkpt lat="32.1228" lon="34.891018">
        <ele>17</ele>
      </trkpt>
      <trkpt lat="32.12273" lon="34.891133">
        <ele>18</ele>
      </trkpt>
      <trkpt lat="32.122641" lon="34.8912">
        <ele>19</ele>
      </trkpt>
      <trkpt lat="32.122642" lon="34.891658">
        <ele>19</ele>
      </trkpt>
      <trkpt lat="32.122736" lon="34.892244">
        <ele>20</ele>
      </trkpt>
      <trkpt lat="32.122764" lon="34.892571">
        <ele>20.5</ele>
      </trkpt>
      <extensions>
        <RoutingType xmlns="">Hike</RoutingType>
      </extensions>
    </trkseg>
    <trkseg>
      <trkpt lat="32.122764" lon="34.892571">
        <ele>20.5</ele>
      </trkpt>
      <trkpt lat="32.122846" lon="34.894498">
        <ele>21</ele>
      </trkpt>
      <trkpt lat="32.122799" lon="34.895263">
        <ele>20</ele>
      </trkpt>
      <trkpt lat="32.122524" lon="34.897824">
        <ele>21.5</ele>
      </trkpt>
      <extensions>
        <RoutingType xmlns="">Hike</RoutingType>
      </extensions>
    </trkseg>
    <trkseg>
      <trkpt lat="32.122524" lon="34.897824">
        <ele>21.5</ele>
      </trkpt>
      <trkpt lat="32.122491" lon="34.898018">
        <ele>22</ele>
      </trkpt>
      <trkpt lat="32.122707" lon="34.898057">
        <ele>19</ele>
      </trkpt>
      <trkpt lat="32.123114" lon="34.898183">
        <ele>17</ele>
      </trkpt>
      <trkpt lat="32.123102" lon="34.898316">
        <ele>17</ele>
      </trkpt>
      <trkpt lat="32.123139" lon="34.898519">
        <ele>17</ele>
      </trkpt>
      <extensions>
        <RoutingType xmlns="">Hike</RoutingType>
      </extensions>
    </trkseg>
    <trkseg>
      <trkpt lat="32.123139" lon="34.898519">
        <ele>17</ele>
      </trkpt>
      <trkpt lat="32.123225" lon="34.898736">
        <ele>17</ele>
      </trkpt>
      <trkpt lat="32.123272" lon="34.898796">
        <ele>17</ele>
      </trkpt>
      <trkpt lat="32.123511" lon="34.899005">
        <ele>16</ele>
      </trkpt>
      <trkpt lat="32.123781" lon="34.899128">
        <ele>15</ele>
      </trkpt>
      <trkpt lat="32.12391" lon="34.899149">
        <ele>15</ele>
      </trkpt>
      <trkpt lat="32.124081" lon="34.898888">
        <ele>14</ele>
      </trkpt>
      <trkpt lat="32.124144" lon="34.898952">
        <ele>14</ele>
      </trkpt>
      <trkpt lat="32.124291" lon="34.899445">
        <ele>14</ele>
      </trkpt>
      <trkpt lat="32.124321" lon="34.899587">
        <ele>16</ele>
      </trkpt>
      <trkpt lat="32.124122" lon="34.89972">
        <ele>15</ele>
      </trkpt>
      <trkpt lat="32.123981" lon="34.899852">
        <ele>16</ele>
      </trkpt>
      <trkpt lat="32.123856" lon="34.899937">
        <ele>16</ele>
      </trkpt>
      <trkpt lat="32.123755" lon="34.899984">
        <ele>16</ele>
      </trkpt>
      <trkpt lat="32.123577" lon="34.900012">
        <ele>16</ele>
      </trkpt>
      <trkpt lat="32.123507" lon="34.899995">
        <ele>16</ele>
      </trkpt>
      <trkpt lat="32.123413" lon="34.899933">
        <ele>15</ele>
      </trkpt>
      <trkpt lat="32.123126" lon="34.899608">
        <ele>15</ele>
      </trkpt>
      <trkpt lat="32.122993" lon="34.899544">
        <ele>15</ele>
      </trkpt>
      <trkpt lat="32.122886" lon="34.899555">
        <ele>15</ele>
      </trkpt>
      <trkpt lat="32.122825" lon="34.899599">
        <ele>15</ele>
      </trkpt>
      <trkpt lat="32.122776" lon="34.899662">
        <ele>15</ele>
      </trkpt>
      <trkpt lat="32.122685" lon="34.899845">
        <ele>15</ele>
      </trkpt>
      <trkpt lat="32.122673" lon="34.899972">
        <ele>14</ele>
      </trkpt>
      <trkpt lat="32.122688" lon="34.900356">
        <ele>14</ele>
      </trkpt>
      <trkpt lat="32.122713" lon="34.90048">
        <ele>15</ele>
      </trkpt>
      <trkpt lat="32.122745" lon="34.900557">
        <ele>15</ele>
      </trkpt>
      <trkpt lat="32.122796" lon="34.900616">
        <ele>14</ele>
      </trkpt>
      <trkpt lat="32.12283" lon="34.900632">
        <ele>14</ele>
      </trkpt>
      <trkpt lat="32.122974" lon="34.900635">
        <ele>14</ele>
      </trkpt>
      <trkpt lat="32.123113" lon="34.900594">
        <ele>14</ele>
      </trkpt>
      <trkpt lat="32.123327" lon="34.900584">
        <ele>13</ele>
      </trkpt>
      <trkpt lat="32.123517" lon="34.900657">
        <ele>13</ele>
      </trkpt>
      <extensions>
        <RoutingType xmlns="">Hike</RoutingType>
      </extensions>
    </trkseg>
    <trkseg>
      <trkpt lat="32.123517" lon="34.900657">
        <ele>13</ele>
      </trkpt>
      <trkpt lat="32.123628" lon="34.900726">
        <ele>14</ele>
      </trkpt>
      <trkpt lat="32.123699" lon="34.900822">
        <ele>14</ele>
      </trkpt>
      <trkpt lat="32.123755" lon="34.900932">
        <ele>14</ele>
      </trkpt>
      <trkpt lat="32.123848" lon="34.90121">
        <ele>15</ele>
      </trkpt>
      <trkpt lat="32.123982" lon="34.901513">
        <ele>15</ele>
      </trkpt>
      <trkpt lat="32.124059" lon="34.901797">
        <ele>15</ele>
      </trkpt>
      <trkpt lat="32.124109" lon="34.902177">
        <ele>14</ele>
      </trkpt>
      <trkpt lat="32.124064" lon="34.9026">
        <ele>16</ele>
      </trkpt>
      <trkpt lat="32.124085" lon="34.902724">
        <ele>16</ele>
      </trkpt>
      <trkpt lat="32.124111" lon="34.902754">
        <ele>16</ele>
      </trkpt>
      <trkpt lat="32.124222" lon="34.902758">
        <ele>15</ele>
      </trkpt>
      <trkpt lat="32.124497" lon="34.902682">
        <ele>15</ele>
      </trkpt>
      <trkpt lat="32.124603" lon="34.902706">
        <ele>15</ele>
      </trkpt>
      <trkpt lat="32.12473" lon="34.902787">
        <ele>15</ele>
      </trkpt>
      <trkpt lat="32.124829" lon="34.902878">
        <ele>15.5</ele>
      </trkpt>
      <extensions>
        <RoutingType xmlns="">Hike</RoutingType>
      </extensions>
    </trkseg>
    <trkseg>
      <trkpt lat="32.124829" lon="34.902878">
        <ele>15.5</ele>
      </trkpt>
      <trkpt lat="32.124958" lon="34.902997">
        <ele>16</ele>
      </trkpt>
      <trkpt lat="32.124998" lon="34.90312">
        <ele>16</ele>
      </trkpt>
      <trkpt lat="32.124982" lon="34.903271">
        <ele>16</ele>
      </trkpt>
      <trkpt lat="32.124936" lon="34.903384">
        <ele>16</ele>
      </trkpt>
      <trkpt lat="32.124915" lon="34.903482">
        <ele>16</ele>
      </trkpt>
      <trkpt lat="32.124725" lon="34.903746">
        <ele>17</ele>
      </trkpt>
      <trkpt lat="32.124684" lon="34.90408">
        <ele>15</ele>
      </trkpt>
      <trkpt lat="32.124727" lon="34.90422">
        <ele>15</ele>
      </trkpt>
      <trkpt lat="32.124813" lon="34.904561">
        <ele>16</ele>
      </trkpt>
      <trkpt lat="32.124848" lon="34.904643">
        <ele>16</ele>
      </trkpt>
      <trkpt lat="32.124989" lon="34.904864">
        <ele>18</ele>
      </trkpt>
      <trkpt lat="32.125005" lon="34.90492">
        <ele>17</ele>
      </trkpt>
      <trkpt lat="32.124981" lon="34.905002">
        <ele>17</ele>
      </trkpt>
      <trkpt lat="32.124899" lon="34.905094">
        <ele>17</ele>
      </trkpt>
      <trkpt lat="32.124837" lon="34.905197">
        <ele>17</ele>
      </trkpt>
      <trkpt lat="32.124675" lon="34.905578">
        <ele>17</ele>
      </trkpt>
      <extensions>
        <RoutingType xmlns="">Hike</RoutingType>
      </extensions>
    </trkseg>
    <trkseg>
      <trkpt lat="32.124675" lon="34.905578">
        <ele>17</ele>
      </trkpt>
      <trkpt lat="32.124601" lon="34.905753">
        <ele>17</ele>
      </trkpt>
      <trkpt lat="32.124509" lon="34.905895">
        <ele>17</ele>
      </trkpt>
      <trkpt lat="32.124341" lon="34.9061">
        <ele>17</ele>
      </trkpt>
      <trkpt lat="32.124078" lon="34.906349">
        <ele>17</ele>
      </trkpt>
      <trkpt lat="32.123929" lon="34.906428">
        <ele>17</ele>
      </trkpt>
      <trkpt lat="32.123664" lon="34.906503">
        <ele>16</ele>
      </trkpt>
      <trkpt lat="32.123551" lon="34.906562">
        <ele>16</ele>
      </trkpt>
      <trkpt lat="32.123123" lon="34.906872">
        <ele>16</ele>
      </trkpt>
      <trkpt lat="32.123101" lon="34.906936">
        <ele>16</ele>
      </trkpt>
      <trkpt lat="32.123123" lon="34.907002">
        <ele>16</ele>
      </trkpt>
      <trkpt lat="32.123189" lon="34.907068">
        <ele>16</ele>
      </trkpt>
      <extensions>
        <RoutingType xmlns="">Hike</RoutingType>
      </extensions>
    </trkseg>
    <trkseg>
      <trkpt lat="32.123189" lon="34.907068">
        <ele>16</ele>
      </trkpt>
      <trkpt lat="32.123284" lon="34.907163">
        <ele>16</ele>
      </trkpt>
      <trkpt lat="32.123367" lon="34.907202">
        <ele>16</ele>
      </trkpt>
      <trkpt lat="32.123515" lon="34.907214">
        <ele>16</ele>
      </trkpt>
      <trkpt lat="32.1236" lon="34.907188">
        <ele>16</ele>
      </trkpt>
      <trkpt lat="32.123786" lon="34.907093">
        <ele>16</ele>
      </trkpt>
      <trkpt lat="32.123907" lon="34.907061">
        <ele>16</ele>
      </trkpt>
      <trkpt lat="32.124038" lon="34.90708">
        <ele>16</ele>
      </trkpt>
      <trkpt lat="32.124154" lon="34.907153">
        <ele>16</ele>
      </trkpt>
      <trkpt lat="32.124208" lon="34.90722">
        <ele>16</ele>
      </trkpt>
      <trkpt lat="32.124317" lon="34.90741">
        <ele>17</ele>
      </trkpt>
      <trkpt lat="32.12437" lon="34.907537">
        <ele>16</ele>
      </trkpt>
      <trkpt lat="32.12437" lon="34.907693">
        <ele>16</ele>
      </trkpt>
      <trkpt lat="32.124337" lon="34.907774">
        <ele>16</ele>
      </trkpt>
      <trkpt lat="32.124296" lon="34.907826">
        <ele>16</ele>
      </trkpt>
      <trkpt lat="32.124205" lon="34.907887">
        <ele>16</ele>
      </trkpt>
      <trkpt lat="32.124068" lon="34.907936">
        <ele>16</ele>
      </trkpt>
      <trkpt lat="32.124007" lon="34.907978">
        <ele>16</ele>
      </trkpt>
      <trkpt lat="32.123972" lon="34.908032">
        <ele>16</ele>
      </trkpt>
      <trkpt lat="32.123958" lon="34.908096">
        <ele>16</ele>
      </trkpt>
      <trkpt lat="32.123966" lon="34.908196">
        <ele>16</ele>
      </trkpt>
      <trkpt lat="32.124018" lon="34.908353">
        <ele>16</ele>
      </trkpt>
      <trkpt lat="32.124094" lon="34.908437">
        <ele>16</ele>
      </trkpt>
      <trkpt lat="32.124212" lon="34.908456">
        <ele>16</ele>
      </trkpt>
      <trkpt lat="32.124305" lon="34.908426">
        <ele>16</ele>
      </trkpt>
      <trkpt lat="32.124538" lon="34.908182">
        <ele>16</ele>
      </trkpt>
      <trkpt lat="32.12459" lon="34.908146">
        <ele>16</ele>
      </trkpt>
      <trkpt lat="32.124958" lon="34.908067">
        <ele>16</ele>
      </trkpt>
      <trkpt lat="32.125394" lon="34.907815">
        <ele>17</ele>
      </trkpt>
      <trkpt lat="32.125693" lon="34.907685">
        <ele>16</ele>
      </trkpt>
      <trkpt lat="32.125859" lon="34.907593">
        <ele>16.5</ele>
      </trkpt>
      <extensions>
        <RoutingType xmlns="">Hike</RoutingType>
      </extensions>
    </trkseg>
    <trkseg>
      <trkpt lat="32.125859" lon="34.907593">
        <ele>16.5</ele>
      </trkpt>
      <trkpt lat="32.125975" lon="34.907528">
        <ele>17</ele>
      </trkpt>
      <trkpt lat="32.126104" lon="34.907485">
        <ele>17</ele>
      </trkpt>
      <trkpt lat="32.126215" lon="34.907494">
        <ele>16</ele>
      </trkpt>
      <trkpt lat="32.126319" lon="34.907549">
        <ele>16</ele>
      </trkpt>
      <trkpt lat="32.126433" lon="34.907666">
        <ele>15</ele>
      </trkpt>
      <trkpt lat="32.126569" lon="34.907949">
        <ele>16</ele>
      </trkpt>
      <trkpt lat="32.127024" lon="34.908679">
        <ele>17</ele>
      </trkpt>
      <trkpt lat="32.127068" lon="34.908802">
        <ele>16</ele>
      </trkpt>
      <trkpt lat="32.127071" lon="34.908936">
        <ele>16</ele>
      </trkpt>
      <trkpt lat="32.127046" lon="34.909088">
        <ele>17</ele>
      </trkpt>
      <trkpt lat="32.126955" lon="34.909279">
        <ele>17</ele>
      </trkpt>
      <trkpt lat="32.126857" lon="34.909401">
        <ele>17</ele>
      </trkpt>
      <trkpt lat="32.126784" lon="34.909456">
        <ele>16</ele>
      </trkpt>
      <trkpt lat="32.126527" lon="34.909564">
        <ele>16</ele>
      </trkpt>
      <trkpt lat="32.126195" lon="34.909607">
        <ele>15</ele>
      </trkpt>
      <trkpt lat="32.126146" lon="34.909645">
        <ele>15</ele>
      </trkpt>
      <trkpt lat="32.126077" lon="34.909745">
        <ele>15</ele>
      </trkpt>
      <trkpt lat="32.12605" lon="34.909827">
        <ele>15</ele>
      </trkpt>
      <trkpt lat="32.126061" lon="34.909885">
        <ele>15</ele>
      </trkpt>
      <trkpt lat="32.126087" lon="34.909919">
        <ele>16</ele>
      </trkpt>
      <trkpt lat="32.12634" lon="34.910098">
        <ele>16</ele>
      </trkpt>
      <extensions>
        <RoutingType xmlns="">Hike</RoutingType>
      </extensions>
    </trkseg>
    <trkseg>
      <trkpt lat="32.12634" lon="34.910098">
        <ele>16</ele>
      </trkpt>
      <trkpt lat="32.126459" lon="34.910203">
        <ele>16</ele>
      </trkpt>
      <trkpt lat="32.12679" lon="34.910673">
        <ele>17</ele>
      </trkpt>
      <trkpt lat="32.127025" lon="34.911057">
        <ele>16</ele>
      </trkpt>
      <trkpt lat="32.127198" lon="34.911296">
        <ele>17</ele>
      </trkpt>
      <trkpt lat="32.127236" lon="34.911473">
        <ele>17</ele>
      </trkpt>
      <trkpt lat="32.127172" lon="34.911749">
        <ele>17</ele>
      </trkpt>
      <trkpt lat="32.127014" lon="34.911935">
        <ele>19</ele>
      </trkpt>
      <trkpt lat="32.126899" lon="34.911993">
        <ele>18.5</ele>
      </trkpt>
      <extensions>
        <RoutingType xmlns="">Hike</RoutingType>
      </extensions>
    </trkseg>
    <trkseg>
      <trkpt lat="32.126899" lon="34.911993">
        <ele>18.5</ele>
      </trkpt>
      <trkpt lat="32.126689" lon="34.912071">
        <ele>18</ele>
      </trkpt>
      <trkpt lat="32.126435" lon="34.912037">
        <ele>17</ele>
      </trkpt>
      <trkpt lat="32.12586" lon="34.911775">
        <ele>16</ele>
      </trkpt>
      <trkpt lat="32.125762" lon="34.91195">
        <ele>17</ele>
      </trkpt>
      <trkpt lat="32.125812" lon="34.91213">
        <ele>17</ele>
      </trkpt>
      <trkpt lat="32.125734" lon="34.912459">
        <ele>17</ele>
      </trkpt>
      <trkpt lat="32.125554" lon="34.912785">
        <ele>17</ele>
      </trkpt>
      <trkpt lat="32.12542" lon="34.912917">
        <ele>18</ele>
      </trkpt>
      <trkpt lat="32.125163" lon="34.913108">
        <ele>16</ele>
      </trkpt>
      <trkpt lat="32.125182" lon="34.913219">
        <ele>16</ele>
      </trkpt>
      <trkpt lat="32.125238" lon="34.913373">
        <ele>17</ele>
      </trkpt>
      <extensions>
        <RoutingType xmlns="">Hike</RoutingType>
      </extensions>
    </trkseg>
    <trkseg>
      <trkpt lat="32.125238" lon="34.913373">
        <ele>17</ele>
      </trkpt>
      <trkpt lat="32.12533" lon="34.913621">
        <ele>18</ele>
      </trkpt>
      <trkpt lat="32.12525" lon="34.913896">
        <ele>17</ele>
      </trkpt>
      <trkpt lat="32.125077" lon="34.914234">
        <ele>17</ele>
      </trkpt>
      <trkpt lat="32.12497" lon="34.914336">
        <ele>16</ele>
      </trkpt>
      <trkpt lat="32.12488" lon="34.914329">
        <ele>16</ele>
      </trkpt>
      <trkpt lat="32.124821" lon="34.91425">
        <ele>16</ele>
      </trkpt>
      <trkpt lat="32.124812" lon="34.913946">
        <ele>16</ele>
      </trkpt>
      <trkpt lat="32.124943" lon="34.913756">
        <ele>16</ele>
      </trkpt>
      <trkpt lat="32.124938" lon="34.913434">
        <ele>18</ele>
      </trkpt>
      <trkpt lat="32.124793" lon="34.913304">
        <ele>17</ele>
      </trkpt>
      <trkpt lat="32.124495" lon="34.913208">
        <ele>17</ele>
      </trkpt>
      <trkpt lat="32.124265" lon="34.913207">
        <ele>16</ele>
      </trkpt>
      <trkpt lat="32.124171" lon="34.913339">
        <ele>17</ele>
      </trkpt>
      <trkpt lat="32.124076" lon="34.9134">
        <ele>17</ele>
      </trkpt>
      <trkpt lat="32.123919" lon="34.913576">
        <ele>18</ele>
      </trkpt>
      <trkpt lat="32.12383" lon="34.913648">
        <ele>18</ele>
      </trkpt>
      <trkpt lat="32.123428" lon="34.913832">
        <ele>19</ele>
      </trkpt>
      <trkpt lat="32.123079" lon="34.913937">
        <ele>20</ele>
      </trkpt>
      <trkpt lat="32.122915" lon="34.914027">
        <ele>21</ele>
      </trkpt>
      <trkpt lat="32.122819" lon="34.913862">
        <ele>20</ele>
      </trkpt>
      <trkpt lat="32.122567" lon="34.9137">
        <ele>19</ele>
      </trkpt>
      <trkpt lat="32.122508" lon="34.913553">
        <ele>19</ele>
      </trkpt>
      <extensions>
        <RoutingType xmlns="">Hike</RoutingType>
      </extensions>
    </trkseg>
    <trkseg>
      <trkpt lat="32.122508" lon="34.913553">
        <ele>19</ele>
      </trkpt>
      <trkpt lat="32.122427" lon="34.913353">
        <ele>19</ele>
      </trkpt>
      <trkpt lat="32.122322" lon="34.91299">
        <ele>19</ele>
      </trkpt>
      <trkpt lat="32.122285" lon="34.912917">
        <ele>19</ele>
      </trkpt>
      <trkpt lat="32.122196" lon="34.912845">
        <ele>19</ele>
      </trkpt>
      <trkpt lat="32.121983" lon="34.912802">
        <ele>19</ele>
      </trkpt>
      <trkpt lat="32.121731" lon="34.912818">
        <ele>19</ele>
      </trkpt>
      <trkpt lat="32.121638" lon="34.912691">
        <ele>18</ele>
      </trkpt>
      <trkpt lat="32.121307" lon="34.912455">
        <ele>19</ele>
      </trkpt>
      <trkpt lat="32.12106" lon="34.912361">
        <ele>19</ele>
      </trkpt>
      <trkpt lat="32.120927" lon="34.912338">
        <ele>20</ele>
      </trkpt>
      <trkpt lat="32.12071" lon="34.91233">
        <ele>19</ele>
      </trkpt>
      <trkpt lat="32.120602" lon="34.912362">
        <ele>20</ele>
      </trkpt>
      <trkpt lat="32.120546" lon="34.912412">
        <ele>20</ele>
      </trkpt>
      <trkpt lat="32.120514" lon="34.912417">
        <ele>20</ele>
      </trkpt>
      <trkpt lat="32.120467" lon="34.912395">
        <ele>20</ele>
      </trkpt>
      <trkpt lat="32.120429" lon="34.912356">
        <ele>21</ele>
      </trkpt>
      <trkpt lat="32.120398" lon="34.912286">
        <ele>20</ele>
      </trkpt>
      <trkpt lat="32.120335" lon="34.91224">
        <ele>20</ele>
      </trkpt>
      <trkpt lat="32.119927" lon="34.912215">
        <ele>20</ele>
      </trkpt>
      <trkpt lat="32.119809" lon="34.912249">
        <ele>19</ele>
      </trkpt>
      <trkpt lat="32.119715" lon="34.912305">
        <ele>19</ele>
      </trkpt>
      <trkpt lat="32.119652" lon="34.912412">
        <ele>20</ele>
      </trkpt>
      <trkpt lat="32.119433" lon="34.913232">
        <ele>20</ele>
      </trkpt>
      <trkpt lat="32.119347" lon="34.913429">
        <ele>21</ele>
      </trkpt>
      <trkpt lat="32.119277" lon="34.913485">
        <ele>20</ele>
      </trkpt>
      <trkpt lat="32.119196" lon="34.913515">
        <ele>20</ele>
      </trkpt>
      <trkpt lat="32.119112" lon="34.913525">
        <ele>20</ele>
      </trkpt>
      <trkpt lat="32.118974" lon="34.9135">
        <ele>19</ele>
      </trkpt>
      <trkpt lat="32.118854" lon="34.913426">
        <ele>19</ele>
      </trkpt>
      <trkpt lat="32.118791" lon="34.913423">
        <ele>19</ele>
      </trkpt>
      <trkpt lat="32.118729" lon="34.913548">
        <ele>18</ele>
      </trkpt>
      <trkpt lat="32.118479" lon="34.913759">
        <ele>17</ele>
      </trkpt>
      <trkpt lat="32.118533" lon="34.91385">
        <ele>17</ele>
      </trkpt>
      <trkpt lat="32.118831" lon="34.914224">
        <ele>17</ele>
      </trkpt>
      <trkpt lat="32.118863" lon="34.914345">
        <ele>16</ele>
      </trkpt>
      <trkpt lat="32.118842" lon="34.914471">
        <ele>17</ele>
      </trkpt>
      <trkpt lat="32.118777" lon="34.914573">
        <ele>17</ele>
      </trkpt>
      <trkpt lat="32.118718" lon="34.914619">
        <ele>17</ele>
      </trkpt>
      <trkpt lat="32.118611" lon="34.914629">
        <ele>17</ele>
      </trkpt>
      <trkpt lat="32.118362" lon="34.914591">
        <ele>17</ele>
      </trkpt>
      <trkpt lat="32.117987" lon="34.914191">
        <ele>17</ele>
      </trkpt>
      <trkpt lat="32.117888" lon="34.914137">
        <ele>17</ele>
      </trkpt>
      <trkpt lat="32.117782" lon="34.914116">
        <ele>18</ele>
      </trkpt>
      <trkpt lat="32.117712" lon="34.914129">
        <ele>18</ele>
      </trkpt>
      <trkpt lat="32.117652" lon="34.914176">
        <ele>18</ele>
      </trkpt>
      <trkpt lat="32.117543" lon="34.91441">
        <ele>17.5</ele>
      </trkpt>
      <extensions>
        <RoutingType xmlns="">Hike</RoutingType>
      </extensions>
    </trkseg>
    <trkseg>
      <trkpt lat="32.117543" lon="34.91441">
        <ele>17.5</ele>
      </trkpt>
      <trkpt lat="32.117516" lon="34.914476">
        <ele>17</ele>
      </trkpt>
      <trkpt lat="32.11744" lon="34.914563">
        <ele>17</ele>
      </trkpt>
      <trkpt lat="32.117373" lon="34.914547">
        <ele>17</ele>
      </trkpt>
      <trkpt lat="32.11732" lon="34.914488">
        <ele>17</ele>
      </trkpt>
      <trkpt lat="32.117201" lon="34.914274">
        <ele>17</ele>
      </trkpt>
      <trkpt lat="32.117104" lon="34.914147">
        <ele>17</ele>
      </trkpt>
      <trkpt lat="32.117067" lon="34.914074">
        <ele>18</ele>
      </trkpt>
      <trkpt lat="32.11704" lon="34.913907">
        <ele>18</ele>
      </trkpt>
      <trkpt lat="32.117056" lon="34.913652">
        <ele>18</ele>
      </trkpt>
      <trkpt lat="32.11696" lon="34.91324">
        <ele>18</ele>
      </trkpt>
      <trkpt lat="32.11693" lon="34.913162">
        <ele>18</ele>
      </trkpt>
      <trkpt lat="32.116737" lon="34.91282">
        <ele>18</ele>
      </trkpt>
      <trkpt lat="32.116678" lon="34.912777">
        <ele>19</ele>
      </trkpt>
      <trkpt lat="32.116557" lon="34.91281">
        <ele>18</ele>
      </trkpt>
      <trkpt lat="32.116313" lon="34.913047">
        <ele>19</ele>
      </trkpt>
      <trkpt lat="32.116202" lon="34.913215">
        <ele>18</ele>
      </trkpt>
      <trkpt lat="32.116077" lon="34.913275">
        <ele>17</ele>
      </trkpt>
      <trkpt lat="32.115892" lon="34.913257">
        <ele>17</ele>
      </trkpt>
      <trkpt lat="32.115715" lon="34.913294">
        <ele>17</ele>
      </trkpt>
      <trkpt lat="32.115606" lon="34.913298">
        <ele>17</ele>
      </trkpt>
      <trkpt lat="32.115536" lon="34.913286">
        <ele>18</ele>
      </trkpt>
      <trkpt lat="32.115506" lon="34.913263">
        <ele>19</ele>
      </trkpt>
      <trkpt lat="32.115463" lon="34.913196">
        <ele>20</ele>
      </trkpt>
      <trkpt lat="32.115296" lon="34.911734">
        <ele>21</ele>
      </trkpt>
      <extensions>
        <RoutingType xmlns="">Hike</RoutingType>
      </extensions>
    </trkseg>
    <trkseg>
      <trkpt lat="32.115296" lon="34.911734">
        <ele>21</ele>
      </trkpt>
      <trkpt lat="32.115255" lon="34.911372">
        <ele>22</ele>
      </trkpt>
      <trkpt lat="32.113735" lon="34.911645">
        <ele>23</ele>
      </trkpt>
      <trkpt lat="32.113468" lon="34.91167">
        <ele>23</ele>
      </trkpt>
      <trkpt lat="32.112862" lon="34.911605">
        <ele>24</ele>
      </trkpt>
      <trkpt lat="32.112456" lon="34.91154">
        <ele>24</ele>
      </trkpt>
      <trkpt lat="32.112335" lon="34.911561">
        <ele>24</ele>
      </trkpt>
      <trkpt lat="32.112195" lon="34.911638">
        <ele>24</ele>
      </trkpt>
      <trkpt lat="32.112166" lon="34.911904">
        <ele>24</ele>
      </trkpt>
      <trkpt lat="32.112005" lon="34.912276">
        <ele>24</ele>
      </trkpt>
      <extensions>
        <RoutingType xmlns="">Hike</RoutingType>
      </extensions>
    </trkseg>
    <trkseg>
      <trkpt lat="32.112005" lon="34.912276">
        <ele>24</ele>
      </trkpt>
      <trkpt lat="32.111936" lon="34.91243">
        <ele>24</ele>
      </trkpt>
      <trkpt lat="32.111918" lon="34.912789">
        <ele>23</ele>
      </trkpt>
      <trkpt lat="32.111791" lon="34.913315">
        <ele>23</ele>
      </trkpt>
      <trkpt lat="32.111896" lon="34.913724">
        <ele>19</ele>
      </trkpt>
      <trkpt lat="32.112198" lon="34.914035">
        <ele>20</ele>
      </trkpt>
      <trkpt lat="32.112441" lon="34.91419">
        <ele>20.5</ele>
      </trkpt>
      <extensions>
        <RoutingType xmlns="">Hike</RoutingType>
      </extensions>
    </trkseg>
  </trk>
</gpx>
