<?xml version="1.0" encoding="UTF-8" standalone="yes"?>
<gpx version="1.1" creator="IsraelHikingMap" xmlns:xsi="http://www.w3.org/2001/XMLSchema-instance" xsi:schemaLocation="http://www.topografix.com/GPX/1/1 http://www.topografix.com/GPX/1/1/gpx.xsd">
  <metadata>
    <bounds maxlat="33.200168" maxlon="35.566032" minlat="33.191744" minlon="35.546556"></bounds>
  </metadata>
  <trk>
    <name>מסלול 1</name>
    <desc></desc>
    <extensions>
      <Color xmlns="">#0000FF</Color>
      <Opacity xmlns="">0.4</Opacity>
      <Weight xmlns="">9</Weight>
    </extensions>
    <trkseg>
      <trkpt lat="33.191916" lon="35.566032">
        <ele>86.5</ele>
      </trkpt>
      <trkpt lat="33.191916" lon="35.566032">
        <ele>86.5</ele>
      </trkpt>
      <extensions>
        <RoutingType xmlns="">Hike</RoutingType>
      </extensions>
    </trkseg>
    <trkseg>
      <trkpt lat="33.191916" lon="35.566032">
        <ele>86.5</ele>
      </trkpt>
      <trkpt lat="33.191902" lon="35.566001">
        <ele>87</ele>
      </trkpt>
      <trkpt lat="33.191808" lon="35.565922">
        <ele>87</ele>
      </trkpt>
      <trkpt lat="33.191744" lon="35.565905">
        <ele>87</ele>
      </trkpt>
      <trkpt lat="33.191797" lon="35.56569">
        <ele>88</ele>
      </trkpt>
      <trkpt lat="33.191787" lon="35.565607">
        <ele>89</ele>
      </trkpt>
      <trkpt lat="33.191758" lon="35.56553">
        <ele>89</ele>
      </trkpt>
      <trkpt lat="33.192133" lon="35.565145">
        <ele>97</ele>
      </trkpt>
      <trkpt lat="33.192527" lon="35.564602">
        <ele>114</ele>
      </trkpt>
      <trkpt lat="33.192605" lon="35.564449">
        <ele>117</ele>
      </trkpt>
      <trkpt lat="33.192678" lon="35.564157">
        <ele>129</ele>
      </trkpt>
      <trkpt lat="33.192747" lon="35.56402">
        <ele>131</ele>
      </trkpt>
      <trkpt lat="33.19311" lon="35.563677">
        <ele>147</ele>
      </trkpt>
      <trkpt lat="33.193185" lon="35.563506">
        <ele>152</ele>
      </trkpt>
      <trkpt lat="33.193212" lon="35.563374">
        <ele>155</ele>
      </trkpt>
      <trkpt lat="33.193207" lon="35.56306">
        <ele>164</ele>
      </trkpt>
      <trkpt lat="33.193166" lon="35.562748">
        <ele>173</ele>
      </trkpt>
      <trkpt lat="33.193115" lon="35.562592">
        <ele>179</ele>
      </trkpt>
      <trkpt lat="33.193093" lon="35.562424">
        <ele>186</ele>
      </trkpt>
      <trkpt lat="33.193047" lon="35.562278">
        <ele>193</ele>
      </trkpt>
      <trkpt lat="33.192888" lon="35.561944">
        <ele>202</ele>
      </trkpt>
      <trkpt lat="33.192884" lon="35.561875">
        <ele>205</ele>
      </trkpt>
      <trkpt lat="33.192914" lon="35.561781">
        <ele>207</ele>
      </trkpt>
      <trkpt lat="33.192951" lon="35.561728">
        <ele>214</ele>
      </trkpt>
      <extensions>
        <RoutingType xmlns="">Hike</RoutingType>
      </extensions>
    </trkseg>
    <trkseg>
      <trkpt lat="33.192951" lon="35.561728">
        <ele>214</ele>
      </trkpt>
      <trkpt lat="33.193294" lon="35.561245">
        <ele>221</ele>
      </trkpt>
      <trkpt lat="33.193336" lon="35.561105">
        <ele>225</ele>
      </trkpt>
      <trkpt lat="33.193341" lon="35.56101">
        <ele>226</ele>
      </trkpt>
      <trkpt lat="33.193296" lon="35.56074">
        <ele>232</ele>
      </trkpt>
      <trkpt lat="33.193137" lon="35.560367">
        <ele>239</ele>
      </trkpt>
      <trkpt lat="33.193026" lon="35.560003">
        <ele>248</ele>
      </trkpt>
      <trkpt lat="33.193011" lon="35.559889">
        <ele>251</ele>
      </trkpt>
      <trkpt lat="33.193083" lon="35.559515">
        <ele>262</ele>
      </trkpt>
      <trkpt lat="33.193073" lon="35.559389">
        <ele>269</ele>
      </trkpt>
      <trkpt lat="33.192994" lon="35.559091">
        <ele>279</ele>
      </trkpt>
      <trkpt lat="33.192962" lon="35.559044">
        <ele>282</ele>
      </trkpt>
      <trkpt lat="33.192818" lon="35.558924">
        <ele>286</ele>
      </trkpt>
      <trkpt lat="33.192736" lon="35.558886">
        <ele>287</ele>
      </trkpt>
      <trkpt lat="33.192629" lon="35.558882">
        <ele>288</ele>
      </trkpt>
      <trkpt lat="33.192514" lon="35.558901">
        <ele>289</ele>
      </trkpt>
      <trkpt lat="33.192517" lon="35.558503">
        <ele>302</ele>
      </trkpt>
      <trkpt lat="33.192436" lon="35.558264">
        <ele>307</ele>
      </trkpt>
      <trkpt lat="33.192384" lon="35.558027">
        <ele>315</ele>
      </trkpt>
      <trkpt lat="33.192336" lon="35.557691">
        <ele>325</ele>
      </trkpt>
      <trkpt lat="33.192245" lon="35.557482">
        <ele>332</ele>
      </trkpt>
      <trkpt lat="33.192231" lon="35.557402">
        <ele>337</ele>
      </trkpt>
      <trkpt lat="33.192275" lon="35.557317">
        <ele>341</ele>
      </trkpt>
      <trkpt lat="33.192472" lon="35.557224">
        <ele>347</ele>
      </trkpt>
      <trkpt lat="33.192617" lon="35.557124">
        <ele>352</ele>
      </trkpt>
      <trkpt lat="33.192754" lon="35.557072">
        <ele>355</ele>
      </trkpt>
      <trkpt lat="33.192822" lon="35.556975">
        <ele>359</ele>
      </trkpt>
      <trkpt lat="33.192822" lon="35.556837">
        <ele>361</ele>
      </trkpt>
      <trkpt lat="33.192773" lon="35.556716">
        <ele>363</ele>
      </trkpt>
      <trkpt lat="33.192607" lon="35.556448">
        <ele>365</ele>
      </trkpt>
      <trkpt lat="33.192577" lon="35.556372">
        <ele>364</ele>
      </trkpt>
      <trkpt lat="33.19256" lon="35.556228">
        <ele>367</ele>
      </trkpt>
      <trkpt lat="33.192581" lon="35.555729">
        <ele>378</ele>
      </trkpt>
      <trkpt lat="33.192922" lon="35.555795">
        <ele>382</ele>
      </trkpt>
      <trkpt lat="33.193307" lon="35.555652">
        <ele>389</ele>
      </trkpt>
      <trkpt lat="33.193599" lon="35.555858">
        <ele>394</ele>
      </trkpt>
      <trkpt lat="33.19397" lon="35.556183">
        <ele>402</ele>
      </trkpt>
      <trkpt lat="33.194064" lon="35.556073">
        <ele>406</ele>
      </trkpt>
      <trkpt lat="33.194206" lon="35.556193">
        <ele>409</ele>
      </trkpt>
      <trkpt lat="33.194677" lon="35.55612">
        <ele>423</ele>
      </trkpt>
      <trkpt lat="33.194704" lon="35.555868">
        <ele>431</ele>
      </trkpt>
      <trkpt lat="33.19515" lon="35.555992">
        <ele>439</ele>
      </trkpt>
      <trkpt lat="33.195617" lon="35.556176">
        <ele>440</ele>
      </trkpt>
      <trkpt lat="33.19636" lon="35.556179">
        <ele>446</ele>
      </trkpt>
      <trkpt lat="33.196855" lon="35.556234">
        <ele>450</ele>
      </trkpt>
      <trkpt lat="33.197314" lon="35.556243">
        <ele>454</ele>
      </trkpt>
      <trkpt lat="33.197702" lon="35.556122">
        <ele>460</ele>
      </trkpt>
      <trkpt lat="33.198052" lon="35.55596">
        <ele>468</ele>
      </trkpt>
      <trkpt lat="33.198972" lon="35.555957">
        <ele>467</ele>
      </trkpt>
      <trkpt lat="33.199204" lon="35.555721">
        <ele>475</ele>
      </trkpt>
      <trkpt lat="33.199295" lon="35.555652">
        <ele>475</ele>
      </trkpt>
      <trkpt lat="33.199413" lon="35.555489">
        <ele>480</ele>
      </trkpt>
      <trkpt lat="33.199448" lon="35.555413">
        <ele>483</ele>
      </trkpt>
      <trkpt lat="33.199965" lon="35.554754">
        <ele>498</ele>
      </trkpt>
      <trkpt lat="33.200148" lon="35.554401">
        <ele>507.5</ele>
      </trkpt>
      <extensions>
        <RoutingType xmlns="">Hike</RoutingType>
      </extensions>
    </trkseg>
    <trkseg>
      <trkpt lat="33.200148" lon="35.554401">
        <ele>507.5</ele>
      </trkpt>
      <trkpt lat="33.200168" lon="35.554252">
        <ele>509</ele>
      </trkpt>
      <trkpt lat="33.199918" lon="35.554229">
        <ele>514</ele>
      </trkpt>
      <trkpt lat="33.199696" lon="35.554339">
        <ele>518</ele>
      </trkpt>
      <trkpt lat="33.199585" lon="35.554307">
        <ele>522</ele>
      </trkpt>
      <trkpt lat="33.199417" lon="35.554191">
        <ele>526</ele>
      </trkpt>
      <trkpt lat="33.199328" lon="35.553988">
        <ele>532</ele>
      </trkpt>
      <trkpt lat="33.19913" lon="35.553802">
        <ele>539</ele>
      </trkpt>
      <trkpt lat="33.19877" lon="35.553597">
        <ele>544</ele>
      </trkpt>
      <trkpt lat="33.198695" lon="35.553309">
        <ele>554</ele>
      </trkpt>
      <trkpt lat="33.198656" lon="35.553238">
        <ele>554</ele>
      </trkpt>
      <trkpt lat="33.198387" lon="35.552951">
        <ele>563</ele>
      </trkpt>
      <trkpt lat="33.198322" lon="35.552914">
        <ele>565</ele>
      </trkpt>
      <trkpt lat="33.198216" lon="35.552902">
        <ele>565.5</ele>
      </trkpt>
      <extensions>
        <RoutingType xmlns="">Hike</RoutingType>
      </extensions>
    </trkseg>
    <trkseg>
      <trkpt lat="33.198216" lon="35.552902">
        <ele>565.5</ele>
      </trkpt>
      <trkpt lat="33.19812" lon="35.552844">
        <ele>568</ele>
      </trkpt>
      <trkpt lat="33.198094" lon="35.552766">
        <ele>571</ele>
      </trkpt>
      <trkpt lat="33.198188" lon="35.552586">
        <ele>575</ele>
      </trkpt>
      <trkpt lat="33.198216" lon="35.552462">
        <ele>577</ele>
      </trkpt>
      <trkpt lat="33.198145" lon="35.552316">
        <ele>583</ele>
      </trkpt>
      <trkpt lat="33.198045" lon="35.552015">
        <ele>588</ele>
      </trkpt>
      <trkpt lat="33.198" lon="35.551804">
        <ele>592</ele>
      </trkpt>
      <trkpt lat="33.197554" lon="35.551634">
        <ele>603</ele>
      </trkpt>
      <trkpt lat="33.197532" lon="35.5516">
        <ele>606</ele>
      </trkpt>
      <trkpt lat="33.197559" lon="35.551484">
        <ele>610</ele>
      </trkpt>
      <trkpt lat="33.197637" lon="35.551418">
        <ele>612</ele>
      </trkpt>
      <trkpt lat="33.197519" lon="35.551366">
        <ele>614</ele>
      </trkpt>
      <trkpt lat="33.197341" lon="35.551219">
        <ele>623</ele>
      </trkpt>
      <trkpt lat="33.197079" lon="35.551076">
        <ele>627</ele>
      </trkpt>
      <trkpt lat="33.196727" lon="35.550999">
        <ele>632</ele>
      </trkpt>
      <trkpt lat="33.196608" lon="35.550904">
        <ele>636</ele>
      </trkpt>
      <trkpt lat="33.196383" lon="35.550795">
        <ele>641</ele>
      </trkpt>
      <extensions>
        <RoutingType xmlns="">Hike</RoutingType>
      </extensions>
    </trkseg>
    <trkseg>
      <trkpt lat="33.196383" lon="35.550795">
        <ele>641</ele>
      </trkpt>
      <trkpt lat="33.196083" lon="35.550621">
        <ele>649</ele>
      </trkpt>
      <trkpt lat="33.195914" lon="35.550543">
        <ele>653</ele>
      </trkpt>
      <trkpt lat="33.195821" lon="35.550476">
        <ele>658</ele>
      </trkpt>
      <trkpt lat="33.195448" lon="35.550321">
        <ele>663</ele>
      </trkpt>
      <trkpt lat="33.195365" lon="35.550239">
        <ele>669</ele>
      </trkpt>
      <trkpt lat="33.195252" lon="35.550071">
        <ele>681</ele>
      </trkpt>
      <trkpt lat="33.194977" lon="35.549971">
        <ele>682</ele>
      </trkpt>
      <trkpt lat="33.19487" lon="35.54995">
        <ele>681</ele>
      </trkpt>
      <trkpt lat="33.194638" lon="35.549832">
        <ele>682</ele>
      </trkpt>
      <trkpt lat="33.194395" lon="35.549574">
        <ele>695</ele>
      </trkpt>
      <trkpt lat="33.194282" lon="35.549343">
        <ele>709</ele>
      </trkpt>
      <trkpt lat="33.194336" lon="35.549251">
        <ele>716</ele>
      </trkpt>
      <trkpt lat="33.194269" lon="35.549139">
        <ele>720</ele>
      </trkpt>
      <trkpt lat="33.194131" lon="35.54924">
        <ele>714</ele>
      </trkpt>
      <trkpt lat="33.194155" lon="35.549095">
        <ele>720</ele>
      </trkpt>
      <trkpt lat="33.194054" lon="35.549075">
        <ele>725</ele>
      </trkpt>
      <trkpt lat="33.193883" lon="35.549254">
        <ele>715</ele>
      </trkpt>
      <trkpt lat="33.193814" lon="35.549204">
        <ele>715</ele>
      </trkpt>
      <trkpt lat="33.193828" lon="35.548867">
        <ele>733</ele>
      </trkpt>
      <trkpt lat="33.193805" lon="35.54874">
        <ele>737</ele>
      </trkpt>
      <trkpt lat="33.19365" lon="35.548257">
        <ele>751</ele>
      </trkpt>
      <trkpt lat="33.193608" lon="35.548187">
        <ele>755</ele>
      </trkpt>
      <trkpt lat="33.193439" lon="35.548028">
        <ele>753</ele>
      </trkpt>
      <trkpt lat="33.193395" lon="35.547959">
        <ele>756</ele>
      </trkpt>
      <trkpt lat="33.193362" lon="35.547836">
        <ele>756</ele>
      </trkpt>
      <trkpt lat="33.193359" lon="35.547707">
        <ele>762</ele>
      </trkpt>
      <trkpt lat="33.193502" lon="35.547617">
        <ele>769</ele>
      </trkpt>
      <trkpt lat="33.193803" lon="35.547723">
        <ele>775</ele>
      </trkpt>
      <trkpt lat="33.193864" lon="35.547679">
        <ele>780</ele>
      </trkpt>
      <trkpt lat="33.1936" lon="35.547123">
        <ele>784</ele>
      </trkpt>
      <trkpt lat="33.193247" lon="35.546646">
        <ele>790</ele>
      </trkpt>
      <trkpt lat="33.193233" lon="35.546593">
        <ele>790</ele>
      </trkpt>
      <trkpt lat="33.193431" lon="35.546556">
        <ele>797</ele>
      </trkpt>
      <trkpt lat="33.19354" lon="35.546567">
        <ele>799</ele>
      </trkpt>
      <trkpt lat="33.193811" lon="35.546694">
        <ele>802</ele>
      </trkpt>
      <trkpt lat="33.193925" lon="35.546799">
        <ele>802</ele>
      </trkpt>
      <trkpt lat="33.194059" lon="35.546869">
        <ele>807</ele>
      </trkpt>
      <trkpt lat="33.19438" lon="35.547154">
        <ele>815</ele>
      </trkpt>
      <trkpt lat="33.194484" lon="35.547192">
        <ele>818</ele>
      </trkpt>
      <trkpt lat="33.19469" lon="35.547325">
        <ele>821</ele>
      </trkpt>
      <trkpt lat="33.194844" lon="35.547391">
        <ele>827</ele>
      </trkpt>
      <trkpt lat="33.195001" lon="35.547502">
        <ele>829</ele>
      </trkpt>
      <trkpt lat="33.195369" lon="35.547712">
        <ele>839</ele>
      </trkpt>
      <trkpt lat="33.195463" lon="35.547623">
        <ele>843</ele>
      </trkpt>
      <trkpt lat="33.195562" lon="35.547491">
        <ele>846</ele>
      </trkpt>
      <trkpt lat="33.195622" lon="35.547513">
        <ele>846</ele>
      </trkpt>
      <trkpt lat="33.195743" lon="35.547479">
        <ele>845</ele>
      </trkpt>
      <trkpt lat="33.195461" lon="35.547323">
        <ele>847</ele>
      </trkpt>
      <trkpt lat="33.19538" lon="35.547252">
        <ele>846</ele>
      </trkpt>
      <extensions>
        <RoutingType xmlns="">Hike</RoutingType>
      </extensions>
    </trkseg>
  </trk>
</gpx>
