<?xml version="1.0" encoding="UTF-8" standalone="yes"?>
<gpx xmlns="http://www.topografix.com/GPX/1/1" xmlns:xsi="http://www.w3.org/2001/XMLSchema-instance" version="1.1" creator="IsraelHikingMap" xsi:schemaLocation="http://www.topografix.com/GPX/1/1 http://www.topografix.com/GPX/1/1/gpx.xsd">
  <metadata>
    <bounds maxlat="32.980155" maxlon="35.485069" minlat="32.91236" minlon="35.44247"></bounds>
  </metadata>
  <trk>
    <name>מסלול 1</name>
    <desc></desc>
    <extensions>
      <Color xmlns="">#0000FF</Color>
      <Opacity xmlns="">0.4</Opacity>
      <Weight xmlns="">9</Weight>
    </extensions>
    <trkseg>
      <trkpt lat="32.97906135938351" lon="35.44247449997292">
        <ele>646.4928202661998</ele>
      </trkpt>
      <trkpt lat="32.97906135938351" lon="35.44247449997292">
        <ele>646.4928202661998</ele>
      </trkpt>
      <extensions>
        <RoutingType xmlns="">Hike</RoutingType>
      </extensions>
    </trkseg>
    <trkseg>
      <trkpt lat="32.979072" lon="35.44247">
        <ele>646</ele>
      </trkpt>
      <trkpt lat="32.979094" lon="35.442546">
        <ele>646</ele>
      </trkpt>
      <trkpt lat="32.979201" lon="35.442778">
        <ele>644</ele>
      </trkpt>
      <trkpt lat="32.979082" lon="35.442849">
        <ele>643</ele>
      </trkpt>
      <trkpt lat="32.979113" lon="35.442979">
        <ele>644</ele>
      </trkpt>
      <trkpt lat="32.979212" lon="35.44314">
        <ele>642</ele>
      </trkpt>
      <trkpt lat="32.979446" lon="35.443366">
        <ele>640</ele>
      </trkpt>
      <trkpt lat="32.979797" lon="35.443674">
        <ele>640</ele>
      </trkpt>
      <trkpt lat="32.980002" lon="35.444088">
        <ele>637</ele>
      </trkpt>
      <trkpt lat="32.980022" lon="35.444322">
        <ele>635</ele>
      </trkpt>
      <trkpt lat="32.980051" lon="35.44443">
        <ele>634</ele>
      </trkpt>
      <trkpt lat="32.980105" lon="35.444523">
        <ele>635</ele>
      </trkpt>
      <trkpt lat="32.980116" lon="35.444721">
        <ele>632</ele>
      </trkpt>
      <trkpt lat="32.980149" lon="35.444836">
        <ele>633</ele>
      </trkpt>
      <trkpt lat="32.980147" lon="35.444854">
        <ele>631.5</ele>
      </trkpt>
      <extensions>
        <RoutingType xmlns="">Hike</RoutingType>
      </extensions>
    </trkseg>
    <trkseg>
      <trkpt lat="32.980147" lon="35.444854">
        <ele>631.5</ele>
      </trkpt>
      <trkpt lat="32.980134" lon="35.444941">
        <ele>630</ele>
      </trkpt>
      <trkpt lat="32.980155" lon="35.44505">
        <ele>631</ele>
      </trkpt>
      <trkpt lat="32.980141" lon="35.445175">
        <ele>629</ele>
      </trkpt>
      <trkpt lat="32.980045" lon="35.445611">
        <ele>627</ele>
      </trkpt>
      <trkpt lat="32.979956" lon="35.445804">
        <ele>626</ele>
      </trkpt>
      <trkpt lat="32.979622" lon="35.446241">
        <ele>623</ele>
      </trkpt>
      <trkpt lat="32.979302" lon="35.446536">
        <ele>618</ele>
      </trkpt>
      <trkpt lat="32.979156" lon="35.446708">
        <ele>617</ele>
      </trkpt>
      <trkpt lat="32.979003" lon="35.446841">
        <ele>617</ele>
      </trkpt>
      <trkpt lat="32.978747" lon="35.447013">
        <ele>615</ele>
      </trkpt>
      <trkpt lat="32.978592" lon="35.447138">
        <ele>613</ele>
      </trkpt>
      <trkpt lat="32.978143" lon="35.44755">
        <ele>610</ele>
      </trkpt>
      <trkpt lat="32.977981" lon="35.447667">
        <ele>608</ele>
      </trkpt>
      <trkpt lat="32.977751" lon="35.447879">
        <ele>608</ele>
      </trkpt>
      <trkpt lat="32.977628" lon="35.448043">
        <ele>606</ele>
      </trkpt>
      <trkpt lat="32.977597" lon="35.448112">
        <ele>606</ele>
      </trkpt>
      <extensions>
        <RoutingType xmlns="">Hike</RoutingType>
      </extensions>
    </trkseg>
    <trkseg>
      <trkpt lat="32.977597" lon="35.448112">
        <ele>606</ele>
      </trkpt>
      <trkpt lat="32.977492" lon="35.448346">
        <ele>606</ele>
      </trkpt>
      <trkpt lat="32.977472" lon="35.448456">
        <ele>606</ele>
      </trkpt>
      <trkpt lat="32.977486" lon="35.44857">
        <ele>607</ele>
      </trkpt>
      <trkpt lat="32.977569" lon="35.448739">
        <ele>611</ele>
      </trkpt>
      <trkpt lat="32.977517" lon="35.448825">
        <ele>607</ele>
      </trkpt>
      <trkpt lat="32.97748" lon="35.448926">
        <ele>606</ele>
      </trkpt>
      <trkpt lat="32.977481" lon="35.449038">
        <ele>605</ele>
      </trkpt>
      <trkpt lat="32.977521" lon="35.449147">
        <ele>604</ele>
      </trkpt>
      <trkpt lat="32.977514" lon="35.449261">
        <ele>603</ele>
      </trkpt>
      <trkpt lat="32.977579" lon="35.449478">
        <ele>603</ele>
      </trkpt>
      <trkpt lat="32.977604" lon="35.449694">
        <ele>601</ele>
      </trkpt>
      <trkpt lat="32.977701" lon="35.449757">
        <ele>603</ele>
      </trkpt>
      <trkpt lat="32.977728" lon="35.449865">
        <ele>604</ele>
      </trkpt>
      <trkpt lat="32.977779" lon="35.449957">
        <ele>602</ele>
      </trkpt>
      <trkpt lat="32.977804" lon="35.45006">
        <ele>600</ele>
      </trkpt>
      <trkpt lat="32.978019" lon="35.450556">
        <ele>599</ele>
      </trkpt>
      <trkpt lat="32.978038" lon="35.450653">
        <ele>598</ele>
      </trkpt>
      <trkpt lat="32.978126" lon="35.450864">
        <ele>598</ele>
      </trkpt>
      <trkpt lat="32.978119" lon="35.45096">
        <ele>596</ele>
      </trkpt>
      <trkpt lat="32.978148" lon="35.451065">
        <ele>595</ele>
      </trkpt>
      <trkpt lat="32.978246" lon="35.451274">
        <ele>592</ele>
      </trkpt>
      <trkpt lat="32.978349" lon="35.451465">
        <ele>591</ele>
      </trkpt>
      <trkpt lat="32.978483" lon="35.451638">
        <ele>591</ele>
      </trkpt>
      <trkpt lat="32.978724" lon="35.451993">
        <ele>589</ele>
      </trkpt>
      <trkpt lat="32.978775" lon="35.452087">
        <ele>588</ele>
      </trkpt>
      <trkpt lat="32.978959" lon="35.452353">
        <ele>589</ele>
      </trkpt>
      <trkpt lat="32.979002" lon="35.452449">
        <ele>591</ele>
      </trkpt>
      <trkpt lat="32.978996" lon="35.452555">
        <ele>590</ele>
      </trkpt>
      <trkpt lat="32.979012" lon="35.452662">
        <ele>588</ele>
      </trkpt>
      <trkpt lat="32.978999" lon="35.452892">
        <ele>586</ele>
      </trkpt>
      <trkpt lat="32.979018" lon="35.453119">
        <ele>586</ele>
      </trkpt>
      <trkpt lat="32.979014" lon="35.453347">
        <ele>586</ele>
      </trkpt>
      <trkpt lat="32.978987" lon="35.453453">
        <ele>586</ele>
      </trkpt>
      <trkpt lat="32.97898" lon="35.453669">
        <ele>583</ele>
      </trkpt>
      <trkpt lat="32.978936" lon="35.453768">
        <ele>583</ele>
      </trkpt>
      <trkpt lat="32.978852" lon="35.454102">
        <ele>581</ele>
      </trkpt>
      <trkpt lat="32.978782" lon="35.454312">
        <ele>579</ele>
      </trkpt>
      <trkpt lat="32.978761" lon="35.454417">
        <ele>578</ele>
      </trkpt>
      <trkpt lat="32.978765" lon="35.45453">
        <ele>578</ele>
      </trkpt>
      <trkpt lat="32.978522" lon="35.454874">
        <ele>575</ele>
      </trkpt>
      <trkpt lat="32.97847" lon="35.454973">
        <ele>575</ele>
      </trkpt>
      <trkpt lat="32.978408" lon="35.45505">
        <ele>574</ele>
      </trkpt>
      <trkpt lat="32.978264" lon="35.45518">
        <ele>573</ele>
      </trkpt>
      <trkpt lat="32.978255" lon="35.455199">
        <ele>572.5</ele>
      </trkpt>
      <extensions>
        <RoutingType xmlns="">Hike</RoutingType>
      </extensions>
    </trkseg>
    <trkseg>
      <trkpt lat="32.978255" lon="35.455199">
        <ele>572.5</ele>
      </trkpt>
      <trkpt lat="32.97822" lon="35.455269">
        <ele>572</ele>
      </trkpt>
      <trkpt lat="32.978186" lon="35.455381">
        <ele>572</ele>
      </trkpt>
      <trkpt lat="32.978178" lon="35.455502">
        <ele>571</ele>
      </trkpt>
      <trkpt lat="32.978225" lon="35.455605">
        <ele>571</ele>
      </trkpt>
      <trkpt lat="32.978312" lon="35.45593">
        <ele>573</ele>
      </trkpt>
      <trkpt lat="32.978188" lon="35.456087">
        <ele>571</ele>
      </trkpt>
      <trkpt lat="32.978142" lon="35.456193">
        <ele>570</ele>
      </trkpt>
      <trkpt lat="32.978129" lon="35.456314">
        <ele>572</ele>
      </trkpt>
      <trkpt lat="32.978049" lon="35.456362">
        <ele>570</ele>
      </trkpt>
      <trkpt lat="32.977979" lon="35.456434">
        <ele>570</ele>
      </trkpt>
      <trkpt lat="32.977813" lon="35.456715">
        <ele>569</ele>
      </trkpt>
      <trkpt lat="32.977726" lon="35.457004">
        <ele>569</ele>
      </trkpt>
      <trkpt lat="32.977662" lon="35.457049">
        <ele>568</ele>
      </trkpt>
      <trkpt lat="32.977621" lon="35.457128">
        <ele>567</ele>
      </trkpt>
      <trkpt lat="32.977436" lon="35.457352">
        <ele>566</ele>
      </trkpt>
      <trkpt lat="32.97734" lon="35.45741">
        <ele>566</ele>
      </trkpt>
      <trkpt lat="32.977284" lon="35.457476">
        <ele>563</ele>
      </trkpt>
      <trkpt lat="32.9772" lon="35.457513">
        <ele>565</ele>
      </trkpt>
      <trkpt lat="32.977137" lon="35.457568">
        <ele>564</ele>
      </trkpt>
      <trkpt lat="32.976954" lon="35.457641">
        <ele>569</ele>
      </trkpt>
      <trkpt lat="32.976891" lon="35.457728">
        <ele>567</ele>
      </trkpt>
      <trkpt lat="32.976809" lon="35.457762">
        <ele>565</ele>
      </trkpt>
      <trkpt lat="32.976777" lon="35.457839">
        <ele>562</ele>
      </trkpt>
      <trkpt lat="32.976637" lon="35.457998">
        <ele>563</ele>
      </trkpt>
      <trkpt lat="32.976489" lon="35.458126">
        <ele>559</ele>
      </trkpt>
      <trkpt lat="32.97644" lon="35.45822">
        <ele>559</ele>
      </trkpt>
      <trkpt lat="32.976363" lon="35.458287">
        <ele>559</ele>
      </trkpt>
      <trkpt lat="32.976335" lon="35.458395">
        <ele>557</ele>
      </trkpt>
      <trkpt lat="32.976269" lon="35.458474">
        <ele>558</ele>
      </trkpt>
      <trkpt lat="32.976158" lon="35.458793">
        <ele>558</ele>
      </trkpt>
      <trkpt lat="32.976138" lon="35.458908">
        <ele>558</ele>
      </trkpt>
      <extensions>
        <RoutingType xmlns="">Hike</RoutingType>
      </extensions>
    </trkseg>
    <trkseg>
      <trkpt lat="32.976138" lon="35.458908">
        <ele>558</ele>
      </trkpt>
      <trkpt lat="32.976106" lon="35.459093">
        <ele>558</ele>
      </trkpt>
      <trkpt lat="32.976103" lon="35.459304">
        <ele>557</ele>
      </trkpt>
      <trkpt lat="32.976128" lon="35.459381">
        <ele>553</ele>
      </trkpt>
      <trkpt lat="32.976192" lon="35.459473">
        <ele>553</ele>
      </trkpt>
      <trkpt lat="32.976214" lon="35.459573">
        <ele>552</ele>
      </trkpt>
      <trkpt lat="32.976255" lon="35.459659">
        <ele>552</ele>
      </trkpt>
      <trkpt lat="32.976257" lon="35.459765">
        <ele>554</ele>
      </trkpt>
      <trkpt lat="32.976341" lon="35.459969">
        <ele>553</ele>
      </trkpt>
      <trkpt lat="32.976304" lon="35.460051">
        <ele>553</ele>
      </trkpt>
      <trkpt lat="32.976389" lon="35.460391">
        <ele>549</ele>
      </trkpt>
      <trkpt lat="32.976394" lon="35.460604">
        <ele>548</ele>
      </trkpt>
      <trkpt lat="32.976425" lon="35.460711">
        <ele>548</ele>
      </trkpt>
      <trkpt lat="32.976449" lon="35.460955">
        <ele>547</ele>
      </trkpt>
      <trkpt lat="32.97643" lon="35.461056">
        <ele>546</ele>
      </trkpt>
      <trkpt lat="32.976486" lon="35.461154">
        <ele>547</ele>
      </trkpt>
      <trkpt lat="32.976497" lon="35.461241">
        <ele>547</ele>
      </trkpt>
      <trkpt lat="32.976479" lon="35.461343">
        <ele>544</ele>
      </trkpt>
      <trkpt lat="32.976531" lon="35.461549">
        <ele>542</ele>
      </trkpt>
      <trkpt lat="32.976541" lon="35.461709">
        <ele>540</ele>
      </trkpt>
      <trkpt lat="32.976585" lon="35.461802">
        <ele>543</ele>
      </trkpt>
      <trkpt lat="32.976687" lon="35.46233">
        <ele>540</ele>
      </trkpt>
      <trkpt lat="32.976734" lon="35.46239">
        <ele>540</ele>
      </trkpt>
      <trkpt lat="32.976698" lon="35.462465">
        <ele>538</ele>
      </trkpt>
      <trkpt lat="32.976751" lon="35.462673">
        <ele>540</ele>
      </trkpt>
      <trkpt lat="32.976745" lon="35.463">
        <ele>537</ele>
      </trkpt>
      <trkpt lat="32.976769" lon="35.463121">
        <ele>537</ele>
      </trkpt>
      <trkpt lat="32.976816" lon="35.463212">
        <ele>536</ele>
      </trkpt>
      <trkpt lat="32.9768" lon="35.463316">
        <ele>535</ele>
      </trkpt>
      <trkpt lat="32.976826" lon="35.463535">
        <ele>536.5</ele>
      </trkpt>
      <extensions>
        <RoutingType xmlns="">Hike</RoutingType>
      </extensions>
    </trkseg>
    <trkseg>
      <trkpt lat="32.976826" lon="35.463535">
        <ele>536.5</ele>
      </trkpt>
      <trkpt lat="32.976846" lon="35.463704">
        <ele>538</ele>
      </trkpt>
      <trkpt lat="32.976785" lon="35.463864">
        <ele>533</ele>
      </trkpt>
      <trkpt lat="32.976777" lon="35.463975">
        <ele>533</ele>
      </trkpt>
      <trkpt lat="32.976669" lon="35.46408">
        <ele>530</ele>
      </trkpt>
      <trkpt lat="32.97657" lon="35.464217">
        <ele>527</ele>
      </trkpt>
      <trkpt lat="32.976537" lon="35.464236">
        <ele>527</ele>
      </trkpt>
      <trkpt lat="32.976445" lon="35.464421">
        <ele>527</ele>
      </trkpt>
      <trkpt lat="32.976351" lon="35.464661">
        <ele>529</ele>
      </trkpt>
      <trkpt lat="32.976279" lon="35.464769">
        <ele>532</ele>
      </trkpt>
      <trkpt lat="32.976008" lon="35.465123">
        <ele>526</ele>
      </trkpt>
      <trkpt lat="32.975921" lon="35.465087">
        <ele>534</ele>
      </trkpt>
      <trkpt lat="32.975758" lon="35.465201">
        <ele>528</ele>
      </trkpt>
      <trkpt lat="32.975729" lon="35.465313">
        <ele>528</ele>
      </trkpt>
      <trkpt lat="32.975665" lon="35.4654">
        <ele>525</ele>
      </trkpt>
      <trkpt lat="32.975646" lon="35.465732">
        <ele>523</ele>
      </trkpt>
      <trkpt lat="32.975652" lon="35.465759">
        <ele>519.5</ele>
      </trkpt>
      <extensions>
        <RoutingType xmlns="">Hike</RoutingType>
      </extensions>
    </trkseg>
    <trkseg>
      <trkpt lat="32.975652" lon="35.465759">
        <ele>519.5</ele>
      </trkpt>
      <trkpt lat="32.975699" lon="35.465969">
        <ele>516</ele>
      </trkpt>
      <trkpt lat="32.975708" lon="35.466086">
        <ele>515</ele>
      </trkpt>
      <trkpt lat="32.975738" lon="35.466172">
        <ele>515</ele>
      </trkpt>
      <trkpt lat="32.975726" lon="35.466236">
        <ele>516</ele>
      </trkpt>
      <trkpt lat="32.97562" lon="35.46651">
        <ele>519</ele>
      </trkpt>
      <trkpt lat="32.975608" lon="35.466623">
        <ele>518</ele>
      </trkpt>
      <trkpt lat="32.975625" lon="35.466746">
        <ele>516</ele>
      </trkpt>
      <trkpt lat="32.975535" lon="35.466952">
        <ele>522</ele>
      </trkpt>
      <trkpt lat="32.975524" lon="35.467282">
        <ele>518</ele>
      </trkpt>
      <trkpt lat="32.975494" lon="35.467395">
        <ele>517</ele>
      </trkpt>
      <trkpt lat="32.975442" lon="35.467513">
        <ele>524</ele>
      </trkpt>
      <trkpt lat="32.975424" lon="35.467616">
        <ele>522</ele>
      </trkpt>
      <trkpt lat="32.975363" lon="35.467718">
        <ele>526</ele>
      </trkpt>
      <trkpt lat="32.975346" lon="35.467816">
        <ele>524</ele>
      </trkpt>
      <trkpt lat="32.975349" lon="35.467878">
        <ele>522.5</ele>
      </trkpt>
      <extensions>
        <RoutingType xmlns="">Hike</RoutingType>
      </extensions>
    </trkseg>
    <trkseg>
      <trkpt lat="32.975349" lon="35.467878">
        <ele>522.5</ele>
      </trkpt>
      <trkpt lat="32.97535" lon="35.467928">
        <ele>521</ele>
      </trkpt>
      <trkpt lat="32.975397" lon="35.468018">
        <ele>512</ele>
      </trkpt>
      <trkpt lat="32.975497" lon="35.468045">
        <ele>506</ele>
      </trkpt>
      <trkpt lat="32.975574" lon="35.468033">
        <ele>504</ele>
      </trkpt>
      <trkpt lat="32.975582" lon="35.468049">
        <ele>504</ele>
      </trkpt>
      <trkpt lat="32.97562" lon="35.468315">
        <ele>501</ele>
      </trkpt>
      <trkpt lat="32.975603" lon="35.46845">
        <ele>501</ele>
      </trkpt>
      <trkpt lat="32.975555" lon="35.46857">
        <ele>498</ele>
      </trkpt>
      <trkpt lat="32.975487" lon="35.468682">
        <ele>498</ele>
      </trkpt>
      <trkpt lat="32.975412" lon="35.469">
        <ele>495</ele>
      </trkpt>
      <trkpt lat="32.975362" lon="35.469133">
        <ele>493</ele>
      </trkpt>
      <trkpt lat="32.975285" lon="35.469219">
        <ele>492</ele>
      </trkpt>
      <trkpt lat="32.975225" lon="35.469327">
        <ele>490</ele>
      </trkpt>
      <trkpt lat="32.975185" lon="35.469487">
        <ele>489</ele>
      </trkpt>
      <trkpt lat="32.975072" lon="35.4697">
        <ele>488</ele>
      </trkpt>
      <trkpt lat="32.974916" lon="35.469878">
        <ele>488</ele>
      </trkpt>
      <trkpt lat="32.974622" lon="35.470059">
        <ele>487</ele>
      </trkpt>
      <trkpt lat="32.974406" lon="35.47024">
        <ele>482.5</ele>
      </trkpt>
      <extensions>
        <RoutingType xmlns="">Hike</RoutingType>
      </extensions>
    </trkseg>
    <trkseg>
      <trkpt lat="32.974406" lon="35.47024">
        <ele>482.5</ele>
      </trkpt>
      <trkpt lat="32.974373" lon="35.470268">
        <ele>478</ele>
      </trkpt>
      <trkpt lat="32.974307" lon="35.470546">
        <ele>476</ele>
      </trkpt>
      <trkpt lat="32.973977" lon="35.471137">
        <ele>474</ele>
      </trkpt>
      <trkpt lat="32.97393" lon="35.471285">
        <ele>477</ele>
      </trkpt>
      <trkpt lat="32.97389" lon="35.471574">
        <ele>472</ele>
      </trkpt>
      <trkpt lat="32.973899" lon="35.47162">
        <ele>471</ele>
      </trkpt>
      <extensions>
        <RoutingType xmlns="">Hike</RoutingType>
      </extensions>
    </trkseg>
    <trkseg>
      <trkpt lat="32.973899" lon="35.47162">
        <ele>471</ele>
      </trkpt>
      <trkpt lat="32.973913" lon="35.471693">
        <ele>470</ele>
      </trkpt>
      <trkpt lat="32.973981" lon="35.471776">
        <ele>465</ele>
      </trkpt>
      <trkpt lat="32.973938" lon="35.471911">
        <ele>465</ele>
      </trkpt>
      <trkpt lat="32.973987" lon="35.471979">
        <ele>465</ele>
      </trkpt>
      <trkpt lat="32.973688" lon="35.472131">
        <ele>469</ele>
      </trkpt>
      <trkpt lat="32.973577" lon="35.472165">
        <ele>465</ele>
      </trkpt>
      <trkpt lat="32.973479" lon="35.472165">
        <ele>463</ele>
      </trkpt>
      <trkpt lat="32.973264" lon="35.4722">
        <ele>460</ele>
      </trkpt>
      <trkpt lat="32.973071" lon="35.472278">
        <ele>459</ele>
      </trkpt>
      <trkpt lat="32.972981" lon="35.472329">
        <ele>460</ele>
      </trkpt>
      <trkpt lat="32.972915" lon="35.472424">
        <ele>460</ele>
      </trkpt>
      <trkpt lat="32.972701" lon="35.472658">
        <ele>465</ele>
      </trkpt>
      <trkpt lat="32.972609" lon="35.472726">
        <ele>463</ele>
      </trkpt>
      <trkpt lat="32.972418" lon="35.472708">
        <ele>461.5</ele>
      </trkpt>
      <extensions>
        <RoutingType xmlns="">Hike</RoutingType>
      </extensions>
    </trkseg>
    <trkseg>
      <trkpt lat="32.972418" lon="35.472708">
        <ele>461.5</ele>
      </trkpt>
      <trkpt lat="32.972315" lon="35.472683">
        <ele>460</ele>
      </trkpt>
      <trkpt lat="32.972219" lon="35.472631">
        <ele>456</ele>
      </trkpt>
      <trkpt lat="32.972112" lon="35.472632">
        <ele>455</ele>
      </trkpt>
      <trkpt lat="32.972013" lon="35.472688">
        <ele>457</ele>
      </trkpt>
      <trkpt lat="32.971912" lon="35.472648">
        <ele>453</ele>
      </trkpt>
      <trkpt lat="32.971785" lon="35.472718">
        <ele>450</ele>
      </trkpt>
      <trkpt lat="32.971726" lon="35.472807">
        <ele>450</ele>
      </trkpt>
      <trkpt lat="32.971675" lon="35.472929">
        <ele>449</ele>
      </trkpt>
      <trkpt lat="32.971671" lon="35.473045">
        <ele>449</ele>
      </trkpt>
      <trkpt lat="32.971571" lon="35.47302">
        <ele>448</ele>
      </trkpt>
      <trkpt lat="32.971255" lon="35.473407">
        <ele>445.5</ele>
      </trkpt>
      <extensions>
        <RoutingType xmlns="">Hike</RoutingType>
      </extensions>
    </trkseg>
    <trkseg>
      <trkpt lat="32.971255" lon="35.473407">
        <ele>445.5</ele>
      </trkpt>
      <trkpt lat="32.970983" lon="35.473739">
        <ele>443</ele>
      </trkpt>
      <trkpt lat="32.970983" lon="35.473861">
        <ele>440</ele>
      </trkpt>
      <trkpt lat="32.970252" lon="35.474588">
        <ele>432</ele>
      </trkpt>
      <trkpt lat="32.970087" lon="35.474885">
        <ele>429.5</ele>
      </trkpt>
      <extensions>
        <RoutingType xmlns="">Hike</RoutingType>
      </extensions>
    </trkseg>
    <trkseg>
      <trkpt lat="32.970087" lon="35.474885">
        <ele>429.5</ele>
      </trkpt>
      <trkpt lat="32.970022" lon="35.475003">
        <ele>427</ele>
      </trkpt>
      <trkpt lat="32.970034" lon="35.475127">
        <ele>427</ele>
      </trkpt>
      <trkpt lat="32.969774" lon="35.475326">
        <ele>430</ele>
      </trkpt>
      <trkpt lat="32.969657" lon="35.475368">
        <ele>434</ele>
      </trkpt>
      <trkpt lat="32.969452" lon="35.475383">
        <ele>433</ele>
      </trkpt>
      <trkpt lat="32.969347" lon="35.475413">
        <ele>432</ele>
      </trkpt>
      <trkpt lat="32.96896" lon="35.475468">
        <ele>430</ele>
      </trkpt>
      <trkpt lat="32.968681" lon="35.475611">
        <ele>426</ele>
      </trkpt>
      <trkpt lat="32.968504" lon="35.475652">
        <ele>425</ele>
      </trkpt>
      <trkpt lat="32.968382" lon="35.475713">
        <ele>423</ele>
      </trkpt>
      <extensions>
        <RoutingType xmlns="">Hike</RoutingType>
      </extensions>
    </trkseg>
    <trkseg>
      <trkpt lat="32.968382" lon="35.475713">
        <ele>423</ele>
      </trkpt>
      <trkpt lat="32.96833" lon="35.475745">
        <ele>424</ele>
      </trkpt>
      <trkpt lat="32.968146" lon="35.475819">
        <ele>424</ele>
      </trkpt>
      <trkpt lat="32.968063" lon="35.47588">
        <ele>422</ele>
      </trkpt>
      <trkpt lat="32.967872" lon="35.475946">
        <ele>421</ele>
      </trkpt>
      <trkpt lat="32.967483" lon="35.476047">
        <ele>420</ele>
      </trkpt>
      <trkpt lat="32.96691" lon="35.47607">
        <ele>421</ele>
      </trkpt>
      <trkpt lat="32.966817" lon="35.476047">
        <ele>415</ele>
      </trkpt>
      <trkpt lat="32.966732" lon="35.475992">
        <ele>414</ele>
      </trkpt>
      <trkpt lat="32.966584" lon="35.475981">
        <ele>411.5</ele>
      </trkpt>
      <extensions>
        <RoutingType xmlns="">Hike</RoutingType>
      </extensions>
    </trkseg>
    <trkseg>
      <trkpt lat="32.966584" lon="35.475981">
        <ele>411.5</ele>
      </trkpt>
      <trkpt lat="32.96646" lon="35.475971">
        <ele>409</ele>
      </trkpt>
      <trkpt lat="32.96628" lon="35.475898">
        <ele>410</ele>
      </trkpt>
      <trkpt lat="32.966182" lon="35.475968">
        <ele>409</ele>
      </trkpt>
      <trkpt lat="32.966005" lon="35.475892">
        <ele>405</ele>
      </trkpt>
      <trkpt lat="32.965828" lon="35.475961">
        <ele>402</ele>
      </trkpt>
      <trkpt lat="32.965632" lon="35.475939">
        <ele>401</ele>
      </trkpt>
      <trkpt lat="32.965433" lon="35.475951">
        <ele>401</ele>
      </trkpt>
      <trkpt lat="32.965348" lon="35.475924">
        <ele>401</ele>
      </trkpt>
      <trkpt lat="32.965167" lon="35.475945">
        <ele>400</ele>
      </trkpt>
      <trkpt lat="32.965074" lon="35.475929">
        <ele>400</ele>
      </trkpt>
      <trkpt lat="32.964891" lon="35.475939">
        <ele>401</ele>
      </trkpt>
      <trkpt lat="32.964708" lon="35.476056">
        <ele>401</ele>
      </trkpt>
      <trkpt lat="32.964617" lon="35.476092">
        <ele>400</ele>
      </trkpt>
      <trkpt lat="32.964495" lon="35.476287">
        <ele>397</ele>
      </trkpt>
      <trkpt lat="32.964339" lon="35.476418">
        <ele>398</ele>
      </trkpt>
      <trkpt lat="32.964295" lon="35.476516">
        <ele>392</ele>
      </trkpt>
      <trkpt lat="32.964237" lon="35.476592">
        <ele>393</ele>
      </trkpt>
      <trkpt lat="32.963949" lon="35.476624">
        <ele>390</ele>
      </trkpt>
      <trkpt lat="32.963778" lon="35.476715">
        <ele>387</ele>
      </trkpt>
      <trkpt lat="32.963648" lon="35.476766">
        <ele>386</ele>
      </trkpt>
      <extensions>
        <RoutingType xmlns="">Hike</RoutingType>
      </extensions>
    </trkseg>
    <trkseg>
      <trkpt lat="32.963648" lon="35.476766">
        <ele>386</ele>
      </trkpt>
      <trkpt lat="32.96361" lon="35.476781">
        <ele>385</ele>
      </trkpt>
      <trkpt lat="32.963603" lon="35.476894">
        <ele>386</ele>
      </trkpt>
      <trkpt lat="32.963554" lon="35.476994">
        <ele>389</ele>
      </trkpt>
      <trkpt lat="32.963495" lon="35.477069">
        <ele>394</ele>
      </trkpt>
      <trkpt lat="32.963386" lon="35.477061">
        <ele>393</ele>
      </trkpt>
      <trkpt lat="32.96329" lon="35.477104">
        <ele>392</ele>
      </trkpt>
      <trkpt lat="32.963129" lon="35.47721">
        <ele>395</ele>
      </trkpt>
      <trkpt lat="32.963035" lon="35.477222">
        <ele>393</ele>
      </trkpt>
      <trkpt lat="32.962933" lon="35.477194">
        <ele>392</ele>
      </trkpt>
      <trkpt lat="32.962838" lon="35.477201">
        <ele>390</ele>
      </trkpt>
      <trkpt lat="32.962516" lon="35.477499">
        <ele>390</ele>
      </trkpt>
      <trkpt lat="32.962334" lon="35.47753">
        <ele>391</ele>
      </trkpt>
      <trkpt lat="32.962139" lon="35.477518">
        <ele>389</ele>
      </trkpt>
      <trkpt lat="32.96205" lon="35.477504">
        <ele>389</ele>
      </trkpt>
      <trkpt lat="32.96169" lon="35.477352">
        <ele>382</ele>
      </trkpt>
      <trkpt lat="32.961515" lon="35.477322">
        <ele>383</ele>
      </trkpt>
      <trkpt lat="32.961253" lon="35.477326">
        <ele>381</ele>
      </trkpt>
      <trkpt lat="32.961156" lon="35.477272">
        <ele>378</ele>
      </trkpt>
      <extensions>
        <RoutingType xmlns="">Hike</RoutingType>
      </extensions>
    </trkseg>
    <trkseg>
      <trkpt lat="32.961156" lon="35.477272">
        <ele>378</ele>
      </trkpt>
      <trkpt lat="32.961088" lon="35.477234">
        <ele>375</ele>
      </trkpt>
      <trkpt lat="32.960905" lon="35.477232">
        <ele>375</ele>
      </trkpt>
      <trkpt lat="32.960714" lon="35.477178">
        <ele>369</ele>
      </trkpt>
      <trkpt lat="32.960486" lon="35.477205">
        <ele>367</ele>
      </trkpt>
      <trkpt lat="32.960394" lon="35.47726">
        <ele>368</ele>
      </trkpt>
      <trkpt lat="32.960305" lon="35.477279">
        <ele>364</ele>
      </trkpt>
      <trkpt lat="32.960216" lon="35.477351">
        <ele>363</ele>
      </trkpt>
      <trkpt lat="32.960016" lon="35.477752">
        <ele>361</ele>
      </trkpt>
      <trkpt lat="32.95994" lon="35.477816">
        <ele>364</ele>
      </trkpt>
      <trkpt lat="32.959759" lon="35.477831">
        <ele>357</ele>
      </trkpt>
      <trkpt lat="32.959558" lon="35.477926">
        <ele>356</ele>
      </trkpt>
      <trkpt lat="32.959264" lon="35.478029">
        <ele>353</ele>
      </trkpt>
      <trkpt lat="32.959175" lon="35.478085">
        <ele>351</ele>
      </trkpt>
      <trkpt lat="32.958973" lon="35.478154">
        <ele>349</ele>
      </trkpt>
      <trkpt lat="32.958501" lon="35.478226">
        <ele>347</ele>
      </trkpt>
      <trkpt lat="32.958402" lon="35.478249">
        <ele>350</ele>
      </trkpt>
      <extensions>
        <RoutingType xmlns="">Hike</RoutingType>
      </extensions>
    </trkseg>
    <trkseg>
      <trkpt lat="32.958402" lon="35.478249">
        <ele>350</ele>
      </trkpt>
      <trkpt lat="32.958214" lon="35.478292">
        <ele>353</ele>
      </trkpt>
      <trkpt lat="32.958098" lon="35.478501">
        <ele>345</ele>
      </trkpt>
      <trkpt lat="32.958036" lon="35.478579">
        <ele>345</ele>
      </trkpt>
      <trkpt lat="32.957875" lon="35.478658">
        <ele>348</ele>
      </trkpt>
      <trkpt lat="32.957721" lon="35.478798">
        <ele>345</ele>
      </trkpt>
      <trkpt lat="32.957721" lon="35.478905">
        <ele>342</ele>
      </trkpt>
      <trkpt lat="32.957672" lon="35.478974">
        <ele>343</ele>
      </trkpt>
      <trkpt lat="32.957271" lon="35.478985">
        <ele>341</ele>
      </trkpt>
      <trkpt lat="32.957178" lon="35.479014">
        <ele>341</ele>
      </trkpt>
      <trkpt lat="32.957068" lon="35.478981">
        <ele>340</ele>
      </trkpt>
      <trkpt lat="32.956969" lon="35.47899">
        <ele>339</ele>
      </trkpt>
      <trkpt lat="32.956791" lon="35.479073">
        <ele>340</ele>
      </trkpt>
      <trkpt lat="32.956584" lon="35.479058">
        <ele>340</ele>
      </trkpt>
      <trkpt lat="32.956492" lon="35.479074">
        <ele>340</ele>
      </trkpt>
      <trkpt lat="32.956274" lon="35.479063">
        <ele>342</ele>
      </trkpt>
      <trkpt lat="32.956177" lon="35.47904">
        <ele>344</ele>
      </trkpt>
      <trkpt lat="32.956081" lon="35.478995">
        <ele>340</ele>
      </trkpt>
      <trkpt lat="32.955982" lon="35.479014">
        <ele>346</ele>
      </trkpt>
      <trkpt lat="32.955895" lon="35.478988">
        <ele>352</ele>
      </trkpt>
      <trkpt lat="32.955828" lon="35.478889">
        <ele>349</ele>
      </trkpt>
      <trkpt lat="32.955624" lon="35.478695">
        <ele>349</ele>
      </trkpt>
      <extensions>
        <RoutingType xmlns="">Hike</RoutingType>
      </extensions>
    </trkseg>
    <trkseg>
      <trkpt lat="32.955624" lon="35.478695">
        <ele>349</ele>
      </trkpt>
      <trkpt lat="32.95542" lon="35.478501">
        <ele>349</ele>
      </trkpt>
      <trkpt lat="32.955199" lon="35.478266">
        <ele>339</ele>
      </trkpt>
      <trkpt lat="32.955003" lon="35.478152">
        <ele>337</ele>
      </trkpt>
      <trkpt lat="32.954925" lon="35.47807">
        <ele>334</ele>
      </trkpt>
      <trkpt lat="32.954836" lon="35.478012">
        <ele>332</ele>
      </trkpt>
      <trkpt lat="32.954731" lon="35.477979">
        <ele>332</ele>
      </trkpt>
      <trkpt lat="32.954616" lon="35.477983">
        <ele>333</ele>
      </trkpt>
      <trkpt lat="32.954499" lon="35.477967">
        <ele>334</ele>
      </trkpt>
      <trkpt lat="32.954149" lon="35.477844">
        <ele>331</ele>
      </trkpt>
      <trkpt lat="32.953974" lon="35.477699">
        <ele>332</ele>
      </trkpt>
      <trkpt lat="32.953879" lon="35.477722">
        <ele>331</ele>
      </trkpt>
      <trkpt lat="32.953543" lon="35.477737">
        <ele>326</ele>
      </trkpt>
      <trkpt lat="32.953439" lon="35.477766">
        <ele>325</ele>
      </trkpt>
      <trkpt lat="32.953403" lon="35.477715">
        <ele>324.5</ele>
      </trkpt>
      <extensions>
        <RoutingType xmlns="">Hike</RoutingType>
      </extensions>
    </trkseg>
    <trkseg>
      <trkpt lat="32.953403" lon="35.477715">
        <ele>324.5</ele>
      </trkpt>
      <trkpt lat="32.953378" lon="35.477679">
        <ele>324</ele>
      </trkpt>
      <trkpt lat="32.953181" lon="35.477625">
        <ele>321</ele>
      </trkpt>
      <trkpt lat="32.95309" lon="35.477547">
        <ele>320</ele>
      </trkpt>
      <trkpt lat="32.953005" lon="35.4776">
        <ele>320</ele>
      </trkpt>
      <trkpt lat="32.952764" lon="35.477649">
        <ele>318</ele>
      </trkpt>
      <trkpt lat="32.952639" lon="35.477627">
        <ele>318</ele>
      </trkpt>
      <trkpt lat="32.952522" lon="35.477642">
        <ele>320</ele>
      </trkpt>
      <trkpt lat="32.952395" lon="35.477563">
        <ele>321</ele>
      </trkpt>
      <trkpt lat="32.952286" lon="35.477518">
        <ele>328</ele>
      </trkpt>
      <trkpt lat="32.952211" lon="35.477421">
        <ele>325</ele>
      </trkpt>
      <trkpt lat="32.95199" lon="35.477266">
        <ele>316</ele>
      </trkpt>
      <trkpt lat="32.951783" lon="35.477089">
        <ele>311</ele>
      </trkpt>
      <trkpt lat="32.951581" lon="35.476977">
        <ele>312</ele>
      </trkpt>
      <trkpt lat="32.951515" lon="35.476878">
        <ele>310</ele>
      </trkpt>
      <trkpt lat="32.9514" lon="35.476836">
        <ele>311</ele>
      </trkpt>
      <trkpt lat="32.951278" lon="35.47686">
        <ele>312</ele>
      </trkpt>
      <trkpt lat="32.951189" lon="35.476779">
        <ele>310</ele>
      </trkpt>
      <trkpt lat="32.951072" lon="35.476736">
        <ele>310</ele>
      </trkpt>
      <trkpt lat="32.950778" lon="35.4765">
        <ele>306</ele>
      </trkpt>
      <trkpt lat="32.950721" lon="35.476424">
        <ele>305.5</ele>
      </trkpt>
      <extensions>
        <RoutingType xmlns="">Hike</RoutingType>
      </extensions>
    </trkseg>
    <trkseg>
      <trkpt lat="32.950721" lon="35.476424">
        <ele>305.5</ele>
      </trkpt>
      <trkpt lat="32.950695" lon="35.47639">
        <ele>305</ele>
      </trkpt>
      <trkpt lat="32.950617" lon="35.476433">
        <ele>309</ele>
      </trkpt>
      <trkpt lat="32.950528" lon="35.476379">
        <ele>308</ele>
      </trkpt>
      <trkpt lat="32.950326" lon="35.476174">
        <ele>305</ele>
      </trkpt>
      <trkpt lat="32.950215" lon="35.47616">
        <ele>304</ele>
      </trkpt>
      <trkpt lat="32.95011" lon="35.476113">
        <ele>301</ele>
      </trkpt>
      <trkpt lat="32.950002" lon="35.476045">
        <ele>300</ele>
      </trkpt>
      <trkpt lat="32.949922" lon="35.475954">
        <ele>299</ele>
      </trkpt>
      <trkpt lat="32.949829" lon="35.475878">
        <ele>298</ele>
      </trkpt>
      <trkpt lat="32.949487" lon="35.475757">
        <ele>297</ele>
      </trkpt>
      <trkpt lat="32.949257" lon="35.47574">
        <ele>295</ele>
      </trkpt>
      <trkpt lat="32.949044" lon="35.47581">
        <ele>295</ele>
      </trkpt>
      <trkpt lat="32.948931" lon="35.475822">
        <ele>295</ele>
      </trkpt>
      <trkpt lat="32.948815" lon="35.475793">
        <ele>295</ele>
      </trkpt>
      <trkpt lat="32.948324" lon="35.475804">
        <ele>293</ele>
      </trkpt>
      <trkpt lat="32.948136" lon="35.475712">
        <ele>290.5</ele>
      </trkpt>
      <extensions>
        <RoutingType xmlns="">Hike</RoutingType>
      </extensions>
    </trkseg>
    <trkseg>
      <trkpt lat="32.948136" lon="35.475712">
        <ele>290.5</ele>
      </trkpt>
      <trkpt lat="32.948001" lon="35.475646">
        <ele>288</ele>
      </trkpt>
      <trkpt lat="32.947877" lon="35.475604">
        <ele>285</ele>
      </trkpt>
      <trkpt lat="32.947634" lon="35.475585">
        <ele>287</ele>
      </trkpt>
      <trkpt lat="32.947216" lon="35.475453">
        <ele>289</ele>
      </trkpt>
      <trkpt lat="32.947113" lon="35.47545">
        <ele>292</ele>
      </trkpt>
      <trkpt lat="32.946927" lon="35.475499">
        <ele>298</ele>
      </trkpt>
      <trkpt lat="32.946818" lon="35.475497">
        <ele>302</ele>
      </trkpt>
      <trkpt lat="32.946599" lon="35.475531">
        <ele>302</ele>
      </trkpt>
      <trkpt lat="32.946164" lon="35.475457">
        <ele>286</ele>
      </trkpt>
      <trkpt lat="32.946006" lon="35.475393">
        <ele>283.5</ele>
      </trkpt>
      <extensions>
        <RoutingType xmlns="">Hike</RoutingType>
      </extensions>
    </trkseg>
    <trkseg>
      <trkpt lat="32.946006" lon="35.475393">
        <ele>283.5</ele>
      </trkpt>
      <trkpt lat="32.945959" lon="35.475374">
        <ele>281</ele>
      </trkpt>
      <trkpt lat="32.945742" lon="35.47541">
        <ele>278</ele>
      </trkpt>
      <trkpt lat="32.945649" lon="35.475461">
        <ele>281</ele>
      </trkpt>
      <trkpt lat="32.945303" lon="35.47543">
        <ele>274</ele>
      </trkpt>
      <trkpt lat="32.944943" lon="35.47534">
        <ele>270</ele>
      </trkpt>
      <trkpt lat="32.944708" lon="35.475362">
        <ele>271</ele>
      </trkpt>
      <trkpt lat="32.944616" lon="35.475356">
        <ele>270</ele>
      </trkpt>
      <trkpt lat="32.944412" lon="35.47545">
        <ele>272</ele>
      </trkpt>
      <trkpt lat="32.9443" lon="35.475484">
        <ele>268</ele>
      </trkpt>
      <trkpt lat="32.944128" lon="35.475495">
        <ele>268</ele>
      </trkpt>
      <trkpt lat="32.943941" lon="35.475549">
        <ele>276</ele>
      </trkpt>
      <trkpt lat="32.943899" lon="35.475479">
        <ele>270</ele>
      </trkpt>
      <trkpt lat="32.943756" lon="35.475384">
        <ele>268.5</ele>
      </trkpt>
      <extensions>
        <RoutingType xmlns="">Hike</RoutingType>
      </extensions>
    </trkseg>
    <trkseg>
      <trkpt lat="32.943756" lon="35.475385">
        <ele>268.5</ele>
      </trkpt>
      <trkpt lat="32.943564" lon="35.475257">
        <ele>267</ele>
      </trkpt>
      <trkpt lat="32.943441" lon="35.4752">
        <ele>261</ele>
      </trkpt>
      <trkpt lat="32.943208" lon="35.475176">
        <ele>268</ele>
      </trkpt>
      <trkpt lat="32.943091" lon="35.475129">
        <ele>263</ele>
      </trkpt>
      <trkpt lat="32.942966" lon="35.475113">
        <ele>263</ele>
      </trkpt>
      <trkpt lat="32.94278" lon="35.474963">
        <ele>256</ele>
      </trkpt>
      <trkpt lat="32.942645" lon="35.474772">
        <ele>253</ele>
      </trkpt>
      <trkpt lat="32.942622" lon="35.474429">
        <ele>254</ele>
      </trkpt>
      <trkpt lat="32.942538" lon="35.474357">
        <ele>250</ele>
      </trkpt>
      <trkpt lat="32.942489" lon="35.474272">
        <ele>251</ele>
      </trkpt>
      <trkpt lat="32.942467" lon="35.474144">
        <ele>248</ele>
      </trkpt>
      <trkpt lat="32.942501" lon="35.474111">
        <ele>248</ele>
      </trkpt>
      <trkpt lat="32.942471" lon="35.473975">
        <ele>251</ele>
      </trkpt>
      <trkpt lat="32.942329" lon="35.473793">
        <ele>249</ele>
      </trkpt>
      <trkpt lat="32.942244" lon="35.473738">
        <ele>245</ele>
      </trkpt>
      <trkpt lat="32.942198" lon="35.473586">
        <ele>256</ele>
      </trkpt>
      <trkpt lat="32.942023" lon="35.473319">
        <ele>256</ele>
      </trkpt>
      <trkpt lat="32.941954" lon="35.473242">
        <ele>254</ele>
      </trkpt>
      <trkpt lat="32.941898" lon="35.473143">
        <ele>258</ele>
      </trkpt>
      <trkpt lat="32.941811" lon="35.473108">
        <ele>253</ele>
      </trkpt>
      <trkpt lat="32.941624" lon="35.473146">
        <ele>246</ele>
      </trkpt>
      <trkpt lat="32.941552" lon="35.473215">
        <ele>237</ele>
      </trkpt>
      <trkpt lat="32.941509" lon="35.4732">
        <ele>237</ele>
      </trkpt>
      <extensions>
        <RoutingType xmlns="">Hike</RoutingType>
      </extensions>
    </trkseg>
    <trkseg>
      <trkpt lat="32.941509" lon="35.473201">
        <ele>237</ele>
      </trkpt>
      <trkpt lat="32.941391" lon="35.473162">
        <ele>237</ele>
      </trkpt>
      <trkpt lat="32.941292" lon="35.473169">
        <ele>235</ele>
      </trkpt>
      <trkpt lat="32.941062" lon="35.473256">
        <ele>228</ele>
      </trkpt>
      <trkpt lat="32.941004" lon="35.473344">
        <ele>226</ele>
      </trkpt>
      <trkpt lat="32.940905" lon="35.473365">
        <ele>226</ele>
      </trkpt>
      <trkpt lat="32.940811" lon="35.473358">
        <ele>226</ele>
      </trkpt>
      <trkpt lat="32.940756" lon="35.473387">
        <ele>223</ele>
      </trkpt>
      <trkpt lat="32.940731" lon="35.473368">
        <ele>223</ele>
      </trkpt>
      <trkpt lat="32.940674" lon="35.473425">
        <ele>221</ele>
      </trkpt>
      <trkpt lat="32.940638" lon="35.473517">
        <ele>223</ele>
      </trkpt>
      <trkpt lat="32.940549" lon="35.473544">
        <ele>220</ele>
      </trkpt>
      <trkpt lat="32.940478" lon="35.473595">
        <ele>222</ele>
      </trkpt>
      <trkpt lat="32.94043" lon="35.473644">
        <ele>226</ele>
      </trkpt>
      <trkpt lat="32.940369" lon="35.473663">
        <ele>226</ele>
      </trkpt>
      <trkpt lat="32.940295" lon="35.473661">
        <ele>224</ele>
      </trkpt>
      <trkpt lat="32.940174" lon="35.473702">
        <ele>222</ele>
      </trkpt>
      <trkpt lat="32.940106" lon="35.473794">
        <ele>228</ele>
      </trkpt>
      <trkpt lat="32.940109" lon="35.473878">
        <ele>234</ele>
      </trkpt>
      <trkpt lat="32.939727" lon="35.473823">
        <ele>236</ele>
      </trkpt>
      <trkpt lat="32.939537" lon="35.473834">
        <ele>236</ele>
      </trkpt>
      <trkpt lat="32.939413" lon="35.473824">
        <ele>231</ele>
      </trkpt>
      <extensions>
        <RoutingType xmlns="">Hike</RoutingType>
      </extensions>
    </trkseg>
    <trkseg>
      <trkpt lat="32.939413" lon="35.473824">
        <ele>231</ele>
      </trkpt>
      <trkpt lat="32.939276" lon="35.473813">
        <ele>226</ele>
      </trkpt>
      <trkpt lat="32.939203" lon="35.473791">
        <ele>226</ele>
      </trkpt>
      <trkpt lat="32.939121" lon="35.473811">
        <ele>224</ele>
      </trkpt>
      <trkpt lat="32.939041" lon="35.473862">
        <ele>225</ele>
      </trkpt>
      <trkpt lat="32.938987" lon="35.473939">
        <ele>225</ele>
      </trkpt>
      <trkpt lat="32.938913" lon="35.474009">
        <ele>223</ele>
      </trkpt>
      <trkpt lat="32.938797" lon="35.474192">
        <ele>228</ele>
      </trkpt>
      <trkpt lat="32.93865" lon="35.474292">
        <ele>221</ele>
      </trkpt>
      <trkpt lat="32.938585" lon="35.47442">
        <ele>227</ele>
      </trkpt>
      <trkpt lat="32.9385" lon="35.47449">
        <ele>226</ele>
      </trkpt>
      <trkpt lat="32.938435" lon="35.474586">
        <ele>226</ele>
      </trkpt>
      <trkpt lat="32.938212" lon="35.47474">
        <ele>229</ele>
      </trkpt>
      <trkpt lat="32.938139" lon="35.474727">
        <ele>225</ele>
      </trkpt>
      <trkpt lat="32.937769" lon="35.474778">
        <ele>216</ele>
      </trkpt>
      <trkpt lat="32.937617" lon="35.474875">
        <ele>218</ele>
      </trkpt>
      <trkpt lat="32.937364" lon="35.474955">
        <ele>215</ele>
      </trkpt>
      <trkpt lat="32.937284" lon="35.474997">
        <ele>217</ele>
      </trkpt>
      <trkpt lat="32.937026" lon="35.474991">
        <ele>207</ele>
      </trkpt>
      <trkpt lat="32.936968" lon="35.475054">
        <ele>207</ele>
      </trkpt>
      <trkpt lat="32.936936" lon="35.475122">
        <ele>205</ele>
      </trkpt>
      <trkpt lat="32.936799" lon="35.47525">
        <ele>201</ele>
      </trkpt>
      <trkpt lat="32.936752" lon="35.475312">
        <ele>195</ele>
      </trkpt>
      <trkpt lat="32.936728" lon="35.475399">
        <ele>197</ele>
      </trkpt>
      <trkpt lat="32.936684" lon="35.47549">
        <ele>200</ele>
      </trkpt>
      <trkpt lat="32.936679" lon="35.475514">
        <ele>200.5</ele>
      </trkpt>
      <extensions>
        <RoutingType xmlns="">Hike</RoutingType>
      </extensions>
    </trkseg>
    <trkseg>
      <trkpt lat="32.936679" lon="35.475514">
        <ele>200.5</ele>
      </trkpt>
      <trkpt lat="32.936623" lon="35.475802">
        <ele>201</ele>
      </trkpt>
      <trkpt lat="32.936589" lon="35.476082">
        <ele>204</ele>
      </trkpt>
      <trkpt lat="32.936524" lon="35.47623">
        <ele>196</ele>
      </trkpt>
      <trkpt lat="32.936439" lon="35.476339">
        <ele>191</ele>
      </trkpt>
      <trkpt lat="32.936335" lon="35.476371">
        <ele>186</ele>
      </trkpt>
      <trkpt lat="32.936224" lon="35.476465">
        <ele>181</ele>
      </trkpt>
      <trkpt lat="32.936158" lon="35.476452">
        <ele>181</ele>
      </trkpt>
      <trkpt lat="32.93602" lon="35.476527">
        <ele>183</ele>
      </trkpt>
      <trkpt lat="32.935771" lon="35.476594">
        <ele>171</ele>
      </trkpt>
      <trkpt lat="32.935696" lon="35.476658">
        <ele>178</ele>
      </trkpt>
      <trkpt lat="32.935348" lon="35.476624">
        <ele>173</ele>
      </trkpt>
      <trkpt lat="32.93517" lon="35.476662">
        <ele>168</ele>
      </trkpt>
      <trkpt lat="32.93491" lon="35.476799">
        <ele>171</ele>
      </trkpt>
      <trkpt lat="32.934864" lon="35.476855">
        <ele>168</ele>
      </trkpt>
      <trkpt lat="32.934657" lon="35.476886">
        <ele>169</ele>
      </trkpt>
      <trkpt lat="32.934582" lon="35.476885">
        <ele>166</ele>
      </trkpt>
      <trkpt lat="32.934379" lon="35.476836">
        <ele>157</ele>
      </trkpt>
      <trkpt lat="32.934179" lon="35.476826">
        <ele>164</ele>
      </trkpt>
      <trkpt lat="32.934127" lon="35.476804">
        <ele>163</ele>
      </trkpt>
      <extensions>
        <RoutingType xmlns="">Hike</RoutingType>
      </extensions>
    </trkseg>
    <trkseg>
      <trkpt lat="32.934127" lon="35.476804">
        <ele>163</ele>
      </trkpt>
      <trkpt lat="32.933988" lon="35.476746">
        <ele>162</ele>
      </trkpt>
      <trkpt lat="32.933921" lon="35.476752">
        <ele>163</ele>
      </trkpt>
      <trkpt lat="32.933737" lon="35.476664">
        <ele>161</ele>
      </trkpt>
      <trkpt lat="32.933636" lon="35.476645">
        <ele>162</ele>
      </trkpt>
      <trkpt lat="32.933538" lon="35.476634">
        <ele>163</ele>
      </trkpt>
      <trkpt lat="32.933278" lon="35.476652">
        <ele>163</ele>
      </trkpt>
      <trkpt lat="32.933195" lon="35.476725">
        <ele>165</ele>
      </trkpt>
      <trkpt lat="32.93284" lon="35.476819">
        <ele>155</ele>
      </trkpt>
      <trkpt lat="32.93276" lon="35.476864">
        <ele>150</ele>
      </trkpt>
      <trkpt lat="32.932688" lon="35.476932">
        <ele>151</ele>
      </trkpt>
      <trkpt lat="32.932598" lon="35.476933">
        <ele>147</ele>
      </trkpt>
      <trkpt lat="32.932512" lon="35.476995">
        <ele>148</ele>
      </trkpt>
      <trkpt lat="32.932488" lon="35.477075">
        <ele>155</ele>
      </trkpt>
      <trkpt lat="32.932418" lon="35.477104">
        <ele>150</ele>
      </trkpt>
      <trkpt lat="32.932124" lon="35.477126">
        <ele>138</ele>
      </trkpt>
      <trkpt lat="32.931951" lon="35.477158">
        <ele>140</ele>
      </trkpt>
      <trkpt lat="32.93192" lon="35.477185">
        <ele>140</ele>
      </trkpt>
      <trkpt lat="32.93169" lon="35.477215">
        <ele>132</ele>
      </trkpt>
      <trkpt lat="32.931647" lon="35.477148">
        <ele>132</ele>
      </trkpt>
      <trkpt lat="32.931577" lon="35.47709">
        <ele>125</ele>
      </trkpt>
      <trkpt lat="32.931489" lon="35.477085">
        <ele>123</ele>
      </trkpt>
      <trkpt lat="32.931452" lon="35.477029">
        <ele>118</ele>
      </trkpt>
      <trkpt lat="32.931366" lon="35.47698">
        <ele>116</ele>
      </trkpt>
      <trkpt lat="32.931349" lon="35.476982">
        <ele>115.5</ele>
      </trkpt>
      <extensions>
        <RoutingType xmlns="">Hike</RoutingType>
      </extensions>
    </trkseg>
    <trkseg>
      <trkpt lat="32.931349" lon="35.476982">
        <ele>115.5</ele>
      </trkpt>
      <trkpt lat="32.931276" lon="35.476991">
        <ele>115</ele>
      </trkpt>
      <trkpt lat="32.931222" lon="35.477049">
        <ele>115</ele>
      </trkpt>
      <trkpt lat="32.931033" lon="35.477074">
        <ele>114</ele>
      </trkpt>
      <trkpt lat="32.930904" lon="35.477174">
        <ele>114</ele>
      </trkpt>
      <trkpt lat="32.930694" lon="35.477233">
        <ele>117</ele>
      </trkpt>
      <trkpt lat="32.930607" lon="35.477211">
        <ele>112</ele>
      </trkpt>
      <trkpt lat="32.930543" lon="35.477172">
        <ele>113</ele>
      </trkpt>
      <trkpt lat="32.930317" lon="35.476991">
        <ele>111</ele>
      </trkpt>
      <trkpt lat="32.930281" lon="35.476912">
        <ele>113</ele>
      </trkpt>
      <trkpt lat="32.930089" lon="35.476713">
        <ele>115</ele>
      </trkpt>
      <trkpt lat="32.929988" lon="35.476518">
        <ele>112</ele>
      </trkpt>
      <trkpt lat="32.92991" lon="35.476443">
        <ele>112</ele>
      </trkpt>
      <trkpt lat="32.929858" lon="35.476345">
        <ele>109</ele>
      </trkpt>
      <trkpt lat="32.929844" lon="35.47626">
        <ele>109</ele>
      </trkpt>
      <trkpt lat="32.929768" lon="35.476197">
        <ele>107</ele>
      </trkpt>
      <trkpt lat="32.929671" lon="35.476176">
        <ele>108</ele>
      </trkpt>
      <trkpt lat="32.929606" lon="35.476139">
        <ele>105</ele>
      </trkpt>
      <trkpt lat="32.929557" lon="35.475984">
        <ele>102</ele>
      </trkpt>
      <trkpt lat="32.929496" lon="35.475888">
        <ele>99</ele>
      </trkpt>
      <trkpt lat="32.929307" lon="35.475826">
        <ele>100</ele>
      </trkpt>
      <trkpt lat="32.929154" lon="35.475854">
        <ele>100</ele>
      </trkpt>
      <trkpt lat="32.929069" lon="35.475792">
        <ele>98</ele>
      </trkpt>
      <trkpt lat="32.92888" lon="35.475737">
        <ele>100</ele>
      </trkpt>
      <trkpt lat="32.928742" lon="35.475725">
        <ele>101</ele>
      </trkpt>
      <extensions>
        <RoutingType xmlns="">Hike</RoutingType>
      </extensions>
    </trkseg>
    <trkseg>
      <trkpt lat="32.928742" lon="35.475725">
        <ele>101</ele>
      </trkpt>
      <trkpt lat="32.928467" lon="35.475572">
        <ele>95</ele>
      </trkpt>
      <trkpt lat="32.928349" lon="35.475575">
        <ele>95</ele>
      </trkpt>
      <trkpt lat="32.928261" lon="35.47554">
        <ele>95</ele>
      </trkpt>
      <trkpt lat="32.928075" lon="35.475501">
        <ele>93</ele>
      </trkpt>
      <trkpt lat="32.927794" lon="35.475484">
        <ele>91</ele>
      </trkpt>
      <trkpt lat="32.927614" lon="35.475511">
        <ele>90</ele>
      </trkpt>
      <trkpt lat="32.927436" lon="35.475508">
        <ele>87</ele>
      </trkpt>
      <trkpt lat="32.927249" lon="35.475448">
        <ele>86</ele>
      </trkpt>
      <trkpt lat="32.92719" lon="35.4754">
        <ele>85</ele>
      </trkpt>
      <trkpt lat="32.927074" lon="35.47522">
        <ele>85</ele>
      </trkpt>
      <trkpt lat="32.926918" lon="35.475081">
        <ele>84</ele>
      </trkpt>
      <trkpt lat="32.926859" lon="35.474992">
        <ele>84</ele>
      </trkpt>
      <trkpt lat="32.926809" lon="35.474902">
        <ele>84</ele>
      </trkpt>
      <trkpt lat="32.926696" lon="35.474575">
        <ele>83</ele>
      </trkpt>
      <trkpt lat="32.926547" lon="35.474481">
        <ele>81</ele>
      </trkpt>
      <trkpt lat="32.926489" lon="35.474403">
        <ele>81</ele>
      </trkpt>
      <trkpt lat="32.926381" lon="35.474196">
        <ele>80</ele>
      </trkpt>
      <trkpt lat="32.926255" lon="35.47403">
        <ele>80</ele>
      </trkpt>
      <trkpt lat="32.926079" lon="35.473744">
        <ele>77</ele>
      </trkpt>
      <trkpt lat="32.926041" lon="35.473642">
        <ele>77</ele>
      </trkpt>
      <trkpt lat="32.926036" lon="35.473529">
        <ele>77</ele>
      </trkpt>
      <trkpt lat="32.926058" lon="35.4734">
        <ele>77</ele>
      </trkpt>
      <trkpt lat="32.926024" lon="35.473289">
        <ele>77</ele>
      </trkpt>
      <trkpt lat="32.925924" lon="35.47309">
        <ele>77</ele>
      </trkpt>
      <extensions>
        <RoutingType xmlns="">Hike</RoutingType>
      </extensions>
    </trkseg>
    <trkseg>
      <trkpt lat="32.925924" lon="35.47309">
        <ele>77</ele>
      </trkpt>
      <trkpt lat="32.925765" lon="35.472776">
        <ele>77</ele>
      </trkpt>
      <trkpt lat="32.925708" lon="35.472696">
        <ele>76</ele>
      </trkpt>
      <trkpt lat="32.925552" lon="35.472555">
        <ele>77</ele>
      </trkpt>
      <trkpt lat="32.925206" lon="35.472353">
        <ele>73</ele>
      </trkpt>
      <trkpt lat="32.924973" lon="35.472157">
        <ele>72</ele>
      </trkpt>
      <trkpt lat="32.92453" lon="35.47194">
        <ele>69</ele>
      </trkpt>
      <trkpt lat="32.924457" lon="35.471879">
        <ele>68</ele>
      </trkpt>
      <trkpt lat="32.924403" lon="35.471776">
        <ele>69</ele>
      </trkpt>
      <trkpt lat="32.924301" lon="35.471737">
        <ele>69</ele>
      </trkpt>
      <trkpt lat="32.924111" lon="35.471712">
        <ele>67</ele>
      </trkpt>
      <trkpt lat="32.923925" lon="35.471633">
        <ele>67</ele>
      </trkpt>
      <trkpt lat="32.923637" lon="35.471565">
        <ele>68</ele>
      </trkpt>
      <trkpt lat="32.923349" lon="35.471514">
        <ele>65</ele>
      </trkpt>
      <trkpt lat="32.923252" lon="35.471529">
        <ele>65</ele>
      </trkpt>
      <trkpt lat="32.922982" lon="35.471671">
        <ele>61</ele>
      </trkpt>
      <trkpt lat="32.922672" lon="35.471955">
        <ele>60</ele>
      </trkpt>
      <trkpt lat="32.922395" lon="35.472101">
        <ele>57</ele>
      </trkpt>
      <trkpt lat="32.922222" lon="35.472218">
        <ele>57</ele>
      </trkpt>
      <trkpt lat="32.92214" lon="35.472283">
        <ele>56</ele>
      </trkpt>
      <trkpt lat="32.922087" lon="35.472375">
        <ele>56</ele>
      </trkpt>
      <trkpt lat="32.922044" lon="35.472483">
        <ele>59</ele>
      </trkpt>
      <trkpt lat="32.921925" lon="35.472645">
        <ele>56</ele>
      </trkpt>
      <trkpt lat="32.92172" lon="35.473045">
        <ele>56</ele>
      </trkpt>
      <trkpt lat="32.921674" lon="35.473398">
        <ele>55</ele>
      </trkpt>
      <trkpt lat="32.92133" lon="35.474466">
        <ele>59</ele>
      </trkpt>
      <trkpt lat="32.921231" lon="35.474663">
        <ele>59</ele>
      </trkpt>
      <trkpt lat="32.921123" lon="35.47484">
        <ele>57</ele>
      </trkpt>
      <trkpt lat="32.921055" lon="35.474916">
        <ele>60</ele>
      </trkpt>
      <trkpt lat="32.920812" lon="35.475125">
        <ele>55</ele>
      </trkpt>
      <trkpt lat="32.920559" lon="35.475305">
        <ele>52</ele>
      </trkpt>
      <trkpt lat="32.920464" lon="35.475342">
        <ele>50</ele>
      </trkpt>
      <trkpt lat="32.920375" lon="35.475361">
        <ele>51</ele>
      </trkpt>
      <trkpt lat="32.920176" lon="35.475371">
        <ele>50</ele>
      </trkpt>
      <trkpt lat="32.919682" lon="35.475474">
        <ele>49</ele>
      </trkpt>
      <trkpt lat="32.919487" lon="35.475481">
        <ele>49</ele>
      </trkpt>
      <trkpt lat="32.919289" lon="35.475436">
        <ele>50</ele>
      </trkpt>
      <trkpt lat="32.919114" lon="35.475344">
        <ele>47</ele>
      </trkpt>
      <trkpt lat="32.918827" lon="35.47524">
        <ele>43</ele>
      </trkpt>
      <trkpt lat="32.918797" lon="35.475249">
        <ele>42.5</ele>
      </trkpt>
      <extensions>
        <RoutingType xmlns="">Hike</RoutingType>
      </extensions>
    </trkseg>
    <trkseg>
      <trkpt lat="32.918797" lon="35.475249">
        <ele>42.5</ele>
      </trkpt>
      <trkpt lat="32.918349" lon="35.475397">
        <ele>42</ele>
      </trkpt>
      <trkpt lat="32.91827" lon="35.475458">
        <ele>44</ele>
      </trkpt>
      <trkpt lat="32.918054" lon="35.475689">
        <ele>40</ele>
      </trkpt>
      <trkpt lat="32.917944" lon="35.475881">
        <ele>40</ele>
      </trkpt>
      <trkpt lat="32.917793" lon="35.476192">
        <ele>40</ele>
      </trkpt>
      <trkpt lat="32.917672" lon="35.476367">
        <ele>40</ele>
      </trkpt>
      <trkpt lat="32.917602" lon="35.476508">
        <ele>39</ele>
      </trkpt>
      <trkpt lat="32.917511" lon="35.476571">
        <ele>38</ele>
      </trkpt>
      <trkpt lat="32.917367" lon="35.47671">
        <ele>40</ele>
      </trkpt>
      <trkpt lat="32.91716" lon="35.476965">
        <ele>38</ele>
      </trkpt>
      <trkpt lat="32.916923" lon="35.477176">
        <ele>38</ele>
      </trkpt>
      <trkpt lat="32.916571" lon="35.477563">
        <ele>38</ele>
      </trkpt>
      <trkpt lat="32.916413" lon="35.477695">
        <ele>38</ele>
      </trkpt>
      <trkpt lat="32.91635" lon="35.477769">
        <ele>38</ele>
      </trkpt>
      <trkpt lat="32.916148" lon="35.478156">
        <ele>38</ele>
      </trkpt>
      <trkpt lat="32.91594" lon="35.478381">
        <ele>38</ele>
      </trkpt>
      <trkpt lat="32.915835" lon="35.478567">
        <ele>37</ele>
      </trkpt>
      <trkpt lat="32.915768" lon="35.478655">
        <ele>39</ele>
      </trkpt>
      <trkpt lat="32.915582" lon="35.478781">
        <ele>38</ele>
      </trkpt>
      <trkpt lat="32.915504" lon="35.478868">
        <ele>37</ele>
      </trkpt>
      <trkpt lat="32.915399" lon="35.479056">
        <ele>37</ele>
      </trkpt>
      <trkpt lat="32.91536" lon="35.479157">
        <ele>35</ele>
      </trkpt>
      <trkpt lat="32.915291" lon="35.479239">
        <ele>35</ele>
      </trkpt>
      <trkpt lat="32.915199" lon="35.47929">
        <ele>34</ele>
      </trkpt>
      <trkpt lat="32.915014" lon="35.479334">
        <ele>34</ele>
      </trkpt>
      <trkpt lat="32.91483" lon="35.479338">
        <ele>33</ele>
      </trkpt>
      <trkpt lat="32.914547" lon="35.47939">
        <ele>34</ele>
      </trkpt>
      <trkpt lat="32.91434" lon="35.479392">
        <ele>32</ele>
      </trkpt>
      <trkpt lat="32.914052" lon="35.479371">
        <ele>29</ele>
      </trkpt>
      <trkpt lat="32.913952" lon="35.479384">
        <ele>28</ele>
      </trkpt>
      <trkpt lat="32.913873" lon="35.479422">
        <ele>28</ele>
      </trkpt>
      <trkpt lat="32.913782" lon="35.479427">
        <ele>27</ele>
      </trkpt>
      <trkpt lat="32.913698" lon="35.479614">
        <ele>28</ele>
      </trkpt>
      <trkpt lat="32.913582" lon="35.479794">
        <ele>29</ele>
      </trkpt>
      <trkpt lat="32.913375" lon="35.480044">
        <ele>32</ele>
      </trkpt>
      <trkpt lat="32.91308" lon="35.480345">
        <ele>36</ele>
      </trkpt>
      <trkpt lat="32.91296" lon="35.480532">
        <ele>38</ele>
      </trkpt>
      <trkpt lat="32.912636" lon="35.481104">
        <ele>46</ele>
      </trkpt>
      <trkpt lat="32.912537" lon="35.481311">
        <ele>47</ele>
      </trkpt>
      <trkpt lat="32.912459" lon="35.481525">
        <ele>48</ele>
      </trkpt>
      <trkpt lat="32.91236" lon="35.481963">
        <ele>52</ele>
      </trkpt>
      <trkpt lat="32.91236" lon="35.482152">
        <ele>53</ele>
      </trkpt>
      <extensions>
        <RoutingType xmlns="">Hike</RoutingType>
      </extensions>
    </trkseg>
    <trkseg>
      <trkpt lat="32.91236" lon="35.482152">
        <ele>53</ele>
      </trkpt>
      <trkpt lat="32.91238" lon="35.482429">
        <ele>55</ele>
      </trkpt>
      <trkpt lat="32.912508" lon="35.483214">
        <ele>62</ele>
      </trkpt>
      <trkpt lat="32.912551" lon="35.483326">
        <ele>63</ele>
      </trkpt>
      <trkpt lat="32.912623" lon="35.483402">
        <ele>64</ele>
      </trkpt>
      <trkpt lat="32.912795" lon="35.483514">
        <ele>65</ele>
      </trkpt>
      <trkpt lat="32.913033" lon="35.483707">
        <ele>63</ele>
      </trkpt>
      <trkpt lat="32.913111" lon="35.483912">
        <ele>60</ele>
      </trkpt>
      <trkpt lat="32.913211" lon="35.48408">
        <ele>58</ele>
      </trkpt>
      <trkpt lat="32.913226" lon="35.484181">
        <ele>57</ele>
      </trkpt>
      <trkpt lat="32.913279" lon="35.484301">
        <ele>56</ele>
      </trkpt>
      <trkpt lat="32.913398" lon="35.484394">
        <ele>55</ele>
      </trkpt>
      <trkpt lat="32.913454" lon="35.484462">
        <ele>54</ele>
      </trkpt>
      <trkpt lat="32.913524" lon="35.484639">
        <ele>56</ele>
      </trkpt>
      <trkpt lat="32.913407" lon="35.484722">
        <ele>54</ele>
      </trkpt>
      <trkpt lat="32.913313" lon="35.484771">
        <ele>52</ele>
      </trkpt>
      <trkpt lat="32.913113" lon="35.484843">
        <ele>49</ele>
      </trkpt>
      <trkpt lat="32.912716" lon="35.485069">
        <ele>45</ele>
      </trkpt>
      <extensions>
        <RoutingType xmlns="">Hike</RoutingType>
      </extensions>
    </trkseg>
  </trk>
</gpx>
