<?xml version="1.0" encoding="UTF-8"?>
<gpx creator="Patrick Hooper" version="1.1" xmlns="http://www.topografix.com/GPX/1/1" xmlns:xsi="http://www.w3.org/2001/XMLSchema-instance" xsi:schemaLocation="http://www.topografix.com/GPX/1/1 http://www.topografix.com/GPX/1/1/gpx.xsd http://www.garmin.com/xmlschemas/GpxExtensions/v3 http://www.garmin.com/xmlschemas/GpxExtensionsv3.xsd http://www.garmin.com/xmlschemas/TrackPointExtension/v1 http://www.garmin.com/xmlschemas/TrackPointExtensionv1.xsd">
  <metadata>
    <name>Activity</name>
  </metadata>
  <trk>
    <name>a</name>
    <trkseg>
      <trkpt lat="33.241960000000006" lon="35.65668">
        <ele>0</ele>
        <time>2020-09-30T12:43:04.382Z</time>
      </trkpt>
      <trkpt lat="33.241960000000006" lon="35.65668">
        <ele>183</ele>
        <time>2020-09-30T12:43:05.382Z</time>
      </trkpt>
      <trkpt lat="33.243190000000006" lon="35.65738">
        <ele>194</ele>
        <time>2020-09-30T12:43:06.382Z</time>
      </trkpt>
      <trkpt lat="33.24676" lon="35.65449">
        <ele>195</ele>
        <time>2020-09-30T12:43:07.382Z</time>
      </trkpt>
      <trkpt lat="33.24685" lon="35.6544">
        <ele>194</ele>
        <time>2020-09-30T12:43:08.382Z</time>
      </trkpt>
      <trkpt lat="33.24685" lon="35.6544">
        <ele>194</ele>
        <time>2020-09-30T12:43:09.382Z</time>
      </trkpt>
      <trkpt lat="33.24685" lon="35.6544">
        <ele>0</ele>
        <time>2020-09-30T12:43:10.382Z</time>
      </trkpt>
      <trkpt lat="33.24698" lon="35.65428">
        <ele>193</ele>
        <time>2020-09-30T12:43:11.382Z</time>
      </trkpt>
      <trkpt lat="33.247240000000005" lon="35.655010000000004">
        <ele>195</ele>
        <time>2020-09-30T12:43:12.382Z</time>
      </trkpt>
      <trkpt lat="33.247400000000006" lon="35.65522">
        <ele>197</ele>
        <time>2020-09-30T12:43:13.382Z</time>
      </trkpt>
      <trkpt lat="33.24747" lon="35.65527">
        <ele>197</ele>
        <time>2020-09-30T12:43:14.382Z</time>
      </trkpt>
      <trkpt lat="33.24826" lon="35.65543">
        <ele>195</ele>
        <time>2020-09-30T12:43:15.382Z</time>
      </trkpt>
      <trkpt lat="33.24826" lon="35.65543">
        <ele>0</ele>
        <time>2020-09-30T12:43:16.382Z</time>
      </trkpt>
      <trkpt lat="33.24855" lon="35.65554">
        <ele>195</ele>
        <time>2020-09-30T12:43:17.382Z</time>
      </trkpt>
      <trkpt lat="33.24973" lon="35.65523">
        <ele>202</ele>
        <time>2020-09-30T12:43:18.382Z</time>
      </trkpt>
      <trkpt lat="33.24991" lon="35.654880000000006">
        <ele>198</ele>
        <time>2020-09-30T12:43:19.382Z</time>
      </trkpt>
      <trkpt lat="33.2502" lon="35.65453">
        <ele>198</ele>
        <time>2020-09-30T12:43:20.382Z</time>
      </trkpt>
      <trkpt lat="33.250370000000004" lon="35.654180000000004">
        <ele>205</ele>
        <time>2020-09-30T12:43:21.382Z</time>
      </trkpt>
      <trkpt lat="33.250370000000004" lon="35.654180000000004">
        <ele>0</ele>
        <time>2020-09-30T12:43:22.382Z</time>
      </trkpt>
      <trkpt lat="33.250400000000006" lon="35.653180000000006">
        <ele>208</ele>
        <time>2020-09-30T12:43:23.382Z</time>
      </trkpt>
      <trkpt lat="33.25038" lon="35.65193">
        <ele>200</ele>
        <time>2020-09-30T12:43:24.382Z</time>
      </trkpt>
      <trkpt lat="33.25048" lon="35.651700000000005">
        <ele>200</ele>
        <time>2020-09-30T12:43:25.382Z</time>
      </trkpt>
      <trkpt lat="33.25048" lon="35.651700000000005">
        <ele>200</ele>
        <time>2020-09-30T12:43:26.382Z</time>
      </trkpt>
      <trkpt lat="33.25057" lon="35.65151">
        <ele>200</ele>
        <time>2020-09-30T12:43:27.382Z</time>
      </trkpt>
      <trkpt lat="33.25057" lon="35.65151">
        <ele>0</ele>
        <time>2020-09-30T12:43:28.382Z</time>
      </trkpt>
      <trkpt lat="33.250620000000005" lon="35.651050000000005">
        <ele>193</ele>
        <time>2020-09-30T12:43:29.382Z</time>
      </trkpt>
      <trkpt lat="33.25058" lon="35.65028">
        <ele>188</ele>
        <time>2020-09-30T12:43:30.382Z</time>
      </trkpt>
      <trkpt lat="33.250240000000005" lon="35.649170000000005">
        <ele>190</ele>
        <time>2020-09-30T12:43:31.382Z</time>
      </trkpt>
      <trkpt lat="33.25023" lon="35.64831">
        <ele>191</ele>
        <time>2020-09-30T12:43:32.382Z</time>
      </trkpt>
      <trkpt lat="33.250040000000006" lon="35.64746">
        <ele>191</ele>
        <time>2020-09-30T12:43:33.382Z</time>
      </trkpt>
      <trkpt lat="33.250040000000006" lon="35.64746">
        <ele>0</ele>
        <time>2020-09-30T12:43:34.382Z</time>
      </trkpt>
      <trkpt lat="33.24991" lon="35.647130000000004">
        <ele>191</ele>
        <time>2020-09-30T12:43:35.382Z</time>
      </trkpt>
      <trkpt lat="33.24964" lon="35.64678">
        <ele>190</ele>
        <time>2020-09-30T12:43:36.382Z</time>
      </trkpt>
      <trkpt lat="33.249280000000006" lon="35.646530000000006">
        <ele>190</ele>
        <time>2020-09-30T12:43:37.382Z</time>
      </trkpt>
      <trkpt lat="33.24859" lon="35.645680000000006">
        <ele>188</ele>
        <time>2020-09-30T12:43:38.382Z</time>
      </trkpt>
      <trkpt lat="33.24814" lon="35.644980000000004">
        <ele>189</ele>
        <time>2020-09-30T12:43:39.382Z</time>
      </trkpt>
      <trkpt lat="33.24814" lon="35.644980000000004">
        <ele>0</ele>
        <time>2020-09-30T12:43:40.382Z</time>
      </trkpt>
      <trkpt lat="33.24808" lon="35.644830000000006">
        <ele>186</ele>
        <time>2020-09-30T12:43:41.382Z</time>
      </trkpt>
      <trkpt lat="33.248020000000004" lon="35.644870000000004">
        <ele>186</ele>
        <time>2020-09-30T12:43:42.382Z</time>
      </trkpt>
      <trkpt lat="33.248020000000004" lon="35.644870000000004">
        <ele>186</ele>
        <time>2020-09-30T12:43:43.382Z</time>
      </trkpt>
      <trkpt lat="33.24808" lon="35.644830000000006">
        <ele>186</ele>
        <time>2020-09-30T12:43:44.382Z</time>
      </trkpt>
      <trkpt lat="33.24799" lon="35.64464">
        <ele>186</ele>
        <time>2020-09-30T12:43:45.382Z</time>
      </trkpt>
      <trkpt lat="33.24799" lon="35.64464">
        <ele>0</ele>
        <time>2020-09-30T12:43:46.382Z</time>
      </trkpt>
      <trkpt lat="33.24806" lon="35.64354">
        <ele>189</ele>
        <time>2020-09-30T12:43:47.382Z</time>
      </trkpt>
      <trkpt lat="33.24748" lon="35.64226">
        <ele>191</ele>
        <time>2020-09-30T12:43:48.382Z</time>
      </trkpt>
      <trkpt lat="33.24701" lon="35.64153">
        <ele>187</ele>
        <time>2020-09-30T12:43:49.382Z</time>
      </trkpt>
      <trkpt lat="33.246480000000005" lon="35.64031">
        <ele>190</ele>
        <time>2020-09-30T12:43:50.382Z</time>
      </trkpt>
      <trkpt lat="33.246280000000006" lon="35.63843">
        <ele>184</ele>
        <time>2020-09-30T12:43:51.382Z</time>
      </trkpt>
      <trkpt lat="33.246280000000006" lon="35.63843">
        <ele>0</ele>
        <time>2020-09-30T12:43:52.382Z</time>
      </trkpt>
      <trkpt lat="33.24638" lon="35.637980000000006">
        <ele>184</ele>
        <time>2020-09-30T12:43:53.382Z</time>
      </trkpt>
      <trkpt lat="33.246340000000004" lon="35.63756">
        <ele>183</ele>
        <time>2020-09-30T12:43:54.382Z</time>
      </trkpt>
      <trkpt lat="33.24611" lon="35.63703">
        <ele>183</ele>
        <time>2020-09-30T12:43:55.382Z</time>
      </trkpt>
      <trkpt lat="33.24615" lon="35.63638">
        <ele>183.5</ele>
        <time>2020-09-30T12:43:56.382Z</time>
      </trkpt>
      <trkpt lat="33.24615" lon="35.63638">
        <ele>183.5</ele>
        <time>2020-09-30T12:43:57.382Z</time>
      </trkpt>
      <trkpt lat="33.24615" lon="35.63638">
        <ele>0</ele>
        <time>2020-09-30T12:43:58.382Z</time>
      </trkpt>
      <trkpt lat="33.24616" lon="35.636230000000005">
        <ele>184</ele>
        <time>2020-09-30T12:43:59.382Z</time>
      </trkpt>
      <trkpt lat="33.245830000000005" lon="35.63533">
        <ele>183</ele>
        <time>2020-09-30T12:44:00.382Z</time>
      </trkpt>
      <trkpt lat="33.24559" lon="35.63514">
        <ele>179</ele>
        <time>2020-09-30T12:44:01.382Z</time>
      </trkpt>
      <trkpt lat="33.24539" lon="35.634840000000004">
        <ele>179</ele>
        <time>2020-09-30T12:44:02.382Z</time>
      </trkpt>
      <trkpt lat="33.24423" lon="35.63271">
        <ele>181</ele>
        <time>2020-09-30T12:44:03.382Z</time>
      </trkpt>
      <trkpt lat="33.24423" lon="35.63271">
        <ele>0</ele>
        <time>2020-09-30T12:44:04.382Z</time>
      </trkpt>
      <trkpt lat="33.24396" lon="35.631930000000004">
        <ele>181</ele>
        <time>2020-09-30T12:44:05.382Z</time>
      </trkpt>
      <trkpt lat="33.24271" lon="35.629540000000006">
        <ele>172</ele>
        <time>2020-09-30T12:44:06.382Z</time>
      </trkpt>
      <trkpt lat="33.242380000000004" lon="35.62908">
        <ele>174</ele>
        <time>2020-09-30T12:44:07.382Z</time>
      </trkpt>
      <trkpt lat="33.24213" lon="35.628840000000004">
        <ele>168</ele>
        <time>2020-09-30T12:44:08.382Z</time>
      </trkpt>
      <trkpt lat="33.24159" lon="35.627700000000004">
        <ele>173</ele>
        <time>2020-09-30T12:44:09.382Z</time>
      </trkpt>
      <trkpt lat="33.24159" lon="35.627700000000004">
        <ele>0</ele>
        <time>2020-09-30T12:44:10.382Z</time>
      </trkpt>
      <trkpt lat="33.241350000000004" lon="35.62776">
        <ele>168.5</ele>
        <time>2020-09-30T12:44:11.382Z</time>
      </trkpt>
      <trkpt lat="33.241350000000004" lon="35.62776">
        <ele>168.5</ele>
        <time>2020-09-30T12:44:12.382Z</time>
      </trkpt>
      <trkpt lat="33.240080000000006" lon="35.628080000000004">
        <ele>164</ele>
        <time>2020-09-30T12:44:13.382Z</time>
      </trkpt>
      <trkpt lat="33.23941" lon="35.62829">
        <ele>161</ele>
        <time>2020-09-30T12:44:14.382Z</time>
      </trkpt>
      <trkpt lat="33.237230000000004" lon="35.62876">
        <ele>154</ele>
        <time>2020-09-30T12:44:15.382Z</time>
      </trkpt>
      <trkpt lat="33.237230000000004" lon="35.62876">
        <ele>0</ele>
        <time>2020-09-30T12:44:16.382Z</time>
      </trkpt>
      <trkpt lat="33.23664" lon="35.629160000000006">
        <ele>154</ele>
        <time>2020-09-30T12:44:17.382Z</time>
      </trkpt>
      <trkpt lat="33.236450000000005" lon="35.629220000000004">
        <ele>151</ele>
        <time>2020-09-30T12:44:18.382Z</time>
      </trkpt>
      <trkpt lat="33.236090000000004" lon="35.629110000000004">
        <ele>151</ele>
        <time>2020-09-30T12:44:19.382Z</time>
      </trkpt>
      <trkpt lat="33.23507" lon="35.628710000000005">
        <ele>150</ele>
        <time>2020-09-30T12:44:20.382Z</time>
      </trkpt>
      <trkpt lat="33.234790000000004" lon="35.628490000000006">
        <ele>144</ele>
        <time>2020-09-30T12:44:21.382Z</time>
      </trkpt>
      <trkpt lat="33.234790000000004" lon="35.628490000000006">
        <ele>0</ele>
        <time>2020-09-30T12:44:22.382Z</time>
      </trkpt>
      <trkpt lat="33.234480000000005" lon="35.628220000000006">
        <ele>144</ele>
        <time>2020-09-30T12:44:23.382Z</time>
      </trkpt>
      <trkpt lat="33.23357" lon="35.627190000000006">
        <ele>142</ele>
        <time>2020-09-30T12:44:24.382Z</time>
      </trkpt>
      <trkpt lat="33.23344" lon="35.627140000000004">
        <ele>142</ele>
        <time>2020-09-30T12:44:25.382Z</time>
      </trkpt>
      <trkpt lat="33.23331" lon="35.627190000000006">
        <ele>140.5</ele>
        <time>2020-09-30T12:44:26.382Z</time>
      </trkpt>
      <trkpt lat="33.23331" lon="35.627190000000006">
        <ele>140.5</ele>
        <time>2020-09-30T12:44:27.382Z</time>
      </trkpt>
      <trkpt lat="33.23331" lon="35.627190000000006">
        <ele>0</ele>
        <time>2020-09-30T12:44:28.382Z</time>
      </trkpt>
      <trkpt lat="33.23223" lon="35.62764">
        <ele>139</ele>
        <time>2020-09-30T12:44:29.382Z</time>
      </trkpt>
      <trkpt lat="33.231860000000005" lon="35.62774">
        <ele>139</ele>
        <time>2020-09-30T12:44:30.382Z</time>
      </trkpt>
      <trkpt lat="33.23178" lon="35.62773">
        <ele>139</ele>
        <time>2020-09-30T12:44:31.382Z</time>
      </trkpt>
      <trkpt lat="33.23169" lon="35.627610000000004">
        <ele>139</ele>
        <time>2020-09-30T12:44:32.382Z</time>
      </trkpt>
      <trkpt lat="33.23151" lon="35.626940000000005">
        <ele>137</ele>
        <time>2020-09-30T12:44:33.382Z</time>
      </trkpt>
      <trkpt lat="33.23151" lon="35.626940000000005">
        <ele>0</ele>
        <time>2020-09-30T12:44:34.382Z</time>
      </trkpt>
      <trkpt lat="33.23142" lon="35.62655">
        <ele>138</ele>
        <time>2020-09-30T12:44:35.382Z</time>
      </trkpt>
      <trkpt lat="33.23138" lon="35.62628">
        <ele>138</ele>
        <time>2020-09-30T12:44:36.382Z</time>
      </trkpt>
      <trkpt lat="33.23127" lon="35.62576">
        <ele>136</ele>
        <time>2020-09-30T12:44:37.382Z</time>
      </trkpt>
      <trkpt lat="33.23127" lon="35.62576">
        <ele>136</ele>
        <time>2020-09-30T12:44:38.382Z</time>
      </trkpt>
      <trkpt lat="33.23122" lon="35.625550000000004">
        <ele>136</ele>
        <time>2020-09-30T12:44:39.382Z</time>
      </trkpt>
      <trkpt lat="33.23122" lon="35.625550000000004">
        <ele>0</ele>
        <time>2020-09-30T12:44:40.382Z</time>
      </trkpt>
      <trkpt lat="33.231550000000006" lon="35.6255">
        <ele>135</ele>
        <time>2020-09-30T12:44:41.382Z</time>
      </trkpt>
      <trkpt lat="33.23162" lon="35.62547">
        <ele>135</ele>
        <time>2020-09-30T12:44:42.382Z</time>
      </trkpt>
      <trkpt lat="33.231640000000006" lon="35.625400000000006">
        <ele>135</ele>
        <time>2020-09-30T12:44:43.382Z</time>
      </trkpt>
      <trkpt lat="33.23163" lon="35.625350000000005">
        <ele>135</ele>
        <time>2020-09-30T12:44:44.382Z</time>
      </trkpt>
      <trkpt lat="33.23156" lon="35.625240000000005">
        <ele>133</ele>
        <time>2020-09-30T12:44:45.382Z</time>
      </trkpt>
      <trkpt lat="33.23156" lon="35.625240000000005">
        <ele>0</ele>
        <time>2020-09-30T12:44:46.382Z</time>
      </trkpt>
      <trkpt lat="33.231550000000006" lon="35.62514">
        <ele>133</ele>
        <time>2020-09-30T12:44:47.382Z</time>
      </trkpt>
      <trkpt lat="33.23152" lon="35.625020000000006">
        <ele>133</ele>
        <time>2020-09-30T12:44:48.382Z</time>
      </trkpt>
      <trkpt lat="33.23145" lon="35.624950000000005">
        <ele>134</ele>
        <time>2020-09-30T12:44:49.382Z</time>
      </trkpt>
      <trkpt lat="33.23144" lon="35.62492">
        <ele>134</ele>
        <time>2020-09-30T12:44:50.382Z</time>
      </trkpt>
      <trkpt lat="33.23138" lon="35.62485">
        <ele>134</ele>
        <time>2020-09-30T12:44:51.382Z</time>
      </trkpt>
      <trkpt lat="33.23138" lon="35.62485">
        <ele>0</ele>
        <time>2020-09-30T12:44:52.382Z</time>
      </trkpt>
      <trkpt lat="33.231300000000005" lon="35.624660000000006">
        <ele>134</ele>
        <time>2020-09-30T12:44:53.382Z</time>
      </trkpt>
      <trkpt lat="33.231280000000005" lon="35.62436">
        <ele>129</ele>
        <time>2020-09-30T12:44:54.382Z</time>
      </trkpt>
      <trkpt lat="33.23152" lon="35.62417">
        <ele>131</ele>
        <time>2020-09-30T12:44:55.382Z</time>
      </trkpt>
      <trkpt lat="33.231770000000004" lon="35.62417">
        <ele>131</ele>
        <time>2020-09-30T12:44:56.382Z</time>
      </trkpt>
      <trkpt lat="33.23192" lon="35.624190000000006">
        <ele>131</ele>
        <time>2020-09-30T12:44:57.382Z</time>
      </trkpt>
      <trkpt lat="33.23192" lon="35.624190000000006">
        <ele>0</ele>
        <time>2020-09-30T12:44:58.382Z</time>
      </trkpt>
      <trkpt lat="33.23209" lon="35.624230000000004">
        <ele>131</ele>
        <time>2020-09-30T12:44:59.382Z</time>
      </trkpt>
      <trkpt lat="33.2323" lon="35.62425">
        <ele>131</ele>
        <time>2020-09-30T12:45:00.382Z</time>
      </trkpt>
      <trkpt lat="33.23248" lon="35.62431">
        <ele>133</ele>
        <time>2020-09-30T12:45:01.382Z</time>
      </trkpt>
      <trkpt lat="33.23252" lon="35.624340000000004">
        <ele>133</ele>
        <time>2020-09-30T12:45:02.382Z</time>
      </trkpt>
      <trkpt lat="33.23265" lon="35.624500000000005">
        <ele>135</ele>
        <time>2020-09-30T12:45:03.382Z</time>
      </trkpt>
      <trkpt lat="33.23265" lon="35.624500000000005">
        <ele>0</ele>
        <time>2020-09-30T12:45:04.382Z</time>
      </trkpt>
      <trkpt lat="33.23272" lon="35.62445">
        <ele>133</ele>
        <time>2020-09-30T12:45:05.382Z</time>
      </trkpt>
      <trkpt lat="33.232760000000006" lon="35.62427">
        <ele>133</ele>
        <time>2020-09-30T12:45:06.382Z</time>
      </trkpt>
      <trkpt lat="33.232850000000006" lon="35.62416">
        <ele>133</ele>
        <time>2020-09-30T12:45:07.382Z</time>
      </trkpt>
      <trkpt lat="33.232910000000004" lon="35.62406">
        <ele>133</ele>
        <time>2020-09-30T12:45:08.382Z</time>
      </trkpt>
      <trkpt lat="33.2329" lon="35.62393">
        <ele>133</ele>
        <time>2020-09-30T12:45:09.382Z</time>
      </trkpt>
      <trkpt lat="33.2329" lon="35.62393">
        <ele>0</ele>
        <time>2020-09-30T12:45:10.382Z</time>
      </trkpt>
      <trkpt lat="33.2329" lon="35.62393">
        <ele>133</ele>
        <time>2020-09-30T12:45:11.382Z</time>
      </trkpt>
      <trkpt lat="33.23286" lon="35.623810000000006">
        <ele>133</ele>
        <time>2020-09-30T12:45:12.382Z</time>
      </trkpt>
      <trkpt lat="33.23283" lon="35.623780000000004">
        <ele>133</ele>
        <time>2020-09-30T12:45:13.382Z</time>
      </trkpt>
      <trkpt lat="33.23277" lon="35.62362">
        <ele>130</ele>
        <time>2020-09-30T12:45:14.382Z</time>
      </trkpt>
      <trkpt lat="33.23272" lon="35.62335">
        <ele>130</ele>
        <time>2020-09-30T12:45:15.382Z</time>
      </trkpt>
      <trkpt lat="33.23272" lon="35.62335">
        <ele>0</ele>
        <time>2020-09-30T12:45:16.382Z</time>
      </trkpt>
      <trkpt lat="33.232800000000005" lon="35.623290000000004">
        <ele>130</ele>
        <time>2020-09-30T12:45:17.382Z</time>
      </trkpt>
      <trkpt lat="33.232870000000005" lon="35.62315">
        <ele>130</ele>
        <time>2020-09-30T12:45:18.382Z</time>
      </trkpt>
      <trkpt lat="33.232910000000004" lon="35.62294">
        <ele>130</ele>
        <time>2020-09-30T12:45:19.382Z</time>
      </trkpt>
      <trkpt lat="33.23302" lon="35.622780000000006">
        <ele>126</ele>
        <time>2020-09-30T12:45:20.382Z</time>
      </trkpt>
      <trkpt lat="33.23312" lon="35.62266">
        <ele>126</ele>
        <time>2020-09-30T12:45:21.382Z</time>
      </trkpt>
      <trkpt lat="33.23312" lon="35.62266">
        <ele>0</ele>
        <time>2020-09-30T12:45:22.382Z</time>
      </trkpt>
      <trkpt lat="33.23313" lon="35.62257">
        <ele>126</ele>
        <time>2020-09-30T12:45:23.382Z</time>
      </trkpt>
      <trkpt lat="33.23311" lon="35.62252">
        <ele>126</ele>
        <time>2020-09-30T12:45:24.382Z</time>
      </trkpt>
      <trkpt lat="33.2331" lon="35.6225">
        <ele>126</ele>
        <time>2020-09-30T12:45:25.382Z</time>
      </trkpt>
      <trkpt lat="33.23304" lon="35.622510000000005">
        <ele>126</ele>
        <time>2020-09-30T12:45:26.382Z</time>
      </trkpt>
      <trkpt lat="33.23294" lon="35.62254">
        <ele>126</ele>
        <time>2020-09-30T12:45:27.382Z</time>
      </trkpt>
      <trkpt lat="33.23294" lon="35.62254">
        <ele>0</ele>
        <time>2020-09-30T12:45:28.382Z</time>
      </trkpt>
      <trkpt lat="33.232800000000005" lon="35.62252">
        <ele>126</ele>
        <time>2020-09-30T12:45:29.382Z</time>
      </trkpt>
      <trkpt lat="33.23268" lon="35.62256">
        <ele>126</ele>
        <time>2020-09-30T12:45:30.382Z</time>
      </trkpt>
      <trkpt lat="33.23256" lon="35.622510000000005">
        <ele>126</ele>
        <time>2020-09-30T12:45:31.382Z</time>
      </trkpt>
      <trkpt lat="33.232400000000005" lon="35.622490000000006">
        <ele>126</ele>
        <time>2020-09-30T12:45:32.382Z</time>
      </trkpt>
      <trkpt lat="33.23201" lon="35.62221">
        <ele>124</ele>
        <time>2020-09-30T12:45:33.382Z</time>
      </trkpt>
      <trkpt lat="33.23201" lon="35.62221">
        <ele>0</ele>
        <time>2020-09-30T12:45:34.382Z</time>
      </trkpt>
      <trkpt lat="33.23189" lon="35.622220000000006">
        <ele>124</ele>
        <time>2020-09-30T12:45:35.382Z</time>
      </trkpt>
      <trkpt lat="33.23178" lon="35.622170000000004">
        <ele>124</ele>
        <time>2020-09-30T12:45:36.382Z</time>
      </trkpt>
      <trkpt lat="33.231680000000004" lon="35.62205">
        <ele>124</ele>
        <time>2020-09-30T12:45:37.382Z</time>
      </trkpt>
      <trkpt lat="33.231500000000004" lon="35.62189">
        <ele>121</ele>
        <time>2020-09-30T12:45:38.382Z</time>
      </trkpt>
      <trkpt lat="33.23149" lon="35.621770000000005">
        <ele>121</ele>
        <time>2020-09-30T12:45:39.382Z</time>
      </trkpt>
      <trkpt lat="33.23149" lon="35.621770000000005">
        <ele>0</ele>
        <time>2020-09-30T12:45:40.382Z</time>
      </trkpt>
      <trkpt lat="33.231460000000006" lon="35.62167">
        <ele>122</ele>
        <time>2020-09-30T12:45:41.382Z</time>
      </trkpt>
      <trkpt lat="33.231460000000006" lon="35.62167">
        <ele>122</ele>
        <time>2020-09-30T12:45:42.382Z</time>
      </trkpt>
      <trkpt lat="33.231370000000005" lon="35.62156">
        <ele>122</ele>
        <time>2020-09-30T12:45:43.382Z</time>
      </trkpt>
      <trkpt lat="33.23127" lon="35.62151">
        <ele>122</ele>
        <time>2020-09-30T12:45:44.382Z</time>
      </trkpt>
      <trkpt lat="33.23125" lon="35.621480000000005">
        <ele>122</ele>
        <time>2020-09-30T12:45:45.382Z</time>
      </trkpt>
      <trkpt lat="33.23125" lon="35.621480000000005">
        <ele>0</ele>
        <time>2020-09-30T12:45:46.382Z</time>
      </trkpt>
      <trkpt lat="33.231170000000006" lon="35.621460000000006">
        <ele>122</ele>
        <time>2020-09-30T12:45:47.382Z</time>
      </trkpt>
      <trkpt lat="33.23102" lon="35.62135">
        <ele>122</ele>
        <time>2020-09-30T12:45:48.382Z</time>
      </trkpt>
      <trkpt lat="33.230920000000005" lon="35.62124">
        <ele>122</ele>
        <time>2020-09-30T12:45:49.382Z</time>
      </trkpt>
      <trkpt lat="33.230850000000004" lon="35.621210000000005">
        <ele>122</ele>
        <time>2020-09-30T12:45:50.382Z</time>
      </trkpt>
      <trkpt lat="33.23073" lon="35.62111">
        <ele>118</ele>
        <time>2020-09-30T12:45:51.382Z</time>
      </trkpt>
      <trkpt lat="33.23073" lon="35.62111">
        <ele>0</ele>
        <time>2020-09-30T12:45:52.382Z</time>
      </trkpt>
      <trkpt lat="33.230520000000006" lon="35.62086">
        <ele>120</ele>
        <time>2020-09-30T12:45:53.382Z</time>
      </trkpt>
      <trkpt lat="33.230410000000006" lon="35.62077">
        <ele>120</ele>
        <time>2020-09-30T12:45:54.382Z</time>
      </trkpt>
      <trkpt lat="33.230340000000005" lon="35.62066">
        <ele>120</ele>
        <time>2020-09-30T12:45:55.382Z</time>
      </trkpt>
      <trkpt lat="33.230250000000005" lon="35.6206">
        <ele>120</ele>
        <time>2020-09-30T12:45:56.382Z</time>
      </trkpt>
      <trkpt lat="33.23012" lon="35.620470000000005">
        <ele>120</ele>
        <time>2020-09-30T12:45:57.382Z</time>
      </trkpt>
      <trkpt lat="33.23012" lon="35.620470000000005">
        <ele>0</ele>
        <time>2020-09-30T12:45:58.382Z</time>
      </trkpt>
      <trkpt lat="33.23008" lon="35.62033">
        <ele>120</ele>
        <time>2020-09-30T12:45:59.382Z</time>
      </trkpt>
      <trkpt lat="33.23006" lon="35.62015">
        <ele>119</ele>
        <time>2020-09-30T12:46:00.382Z</time>
      </trkpt>
      <trkpt lat="33.2301" lon="35.61999">
        <ele>119</ele>
        <time>2020-09-30T12:46:01.382Z</time>
      </trkpt>
      <trkpt lat="33.230090000000004" lon="35.619930000000004">
        <ele>119</ele>
        <time>2020-09-30T12:46:02.382Z</time>
      </trkpt>
      <trkpt lat="33.23011" lon="35.61983">
        <ele>119</ele>
        <time>2020-09-30T12:46:03.382Z</time>
      </trkpt>
      <trkpt lat="33.23011" lon="35.61983">
        <ele>0</ele>
        <time>2020-09-30T12:46:04.382Z</time>
      </trkpt>
      <trkpt lat="33.23013" lon="35.61983">
        <ele>119</ele>
        <time>2020-09-30T12:46:05.382Z</time>
      </trkpt>
      <trkpt lat="33.23006" lon="35.61974">
        <ele>119</ele>
        <time>2020-09-30T12:46:06.382Z</time>
      </trkpt>
      <trkpt lat="33.23008" lon="35.61972">
        <ele>119</ele>
        <time>2020-09-30T12:46:07.382Z</time>
      </trkpt>
      <trkpt lat="33.23002" lon="35.61965">
        <ele>119</ele>
        <time>2020-09-30T12:46:08.382Z</time>
      </trkpt>
      <trkpt lat="33.23001" lon="35.61956">
        <ele>119</ele>
        <time>2020-09-30T12:46:09.382Z</time>
      </trkpt>
      <trkpt lat="33.23001" lon="35.61956">
        <ele>0</ele>
        <time>2020-09-30T12:46:10.382Z</time>
      </trkpt>
      <trkpt lat="33.23003" lon="35.6195">
        <ele>119</ele>
        <time>2020-09-30T12:46:11.382Z</time>
      </trkpt>
      <trkpt lat="33.23004" lon="35.619400000000006">
        <ele>115</ele>
        <time>2020-09-30T12:46:12.382Z</time>
      </trkpt>
      <trkpt lat="33.23002" lon="35.619310000000006">
        <ele>115</ele>
        <time>2020-09-30T12:46:13.382Z</time>
      </trkpt>
      <trkpt lat="33.22999" lon="35.619310000000006">
        <ele>115</ele>
        <time>2020-09-30T12:46:14.382Z</time>
      </trkpt>
      <trkpt lat="33.230000000000004" lon="35.61927">
        <ele>115</ele>
        <time>2020-09-30T12:46:15.382Z</time>
      </trkpt>
      <trkpt lat="33.230000000000004" lon="35.61927">
        <ele>0</ele>
        <time>2020-09-30T12:46:16.382Z</time>
      </trkpt>
      <trkpt lat="33.229980000000005" lon="35.61921">
        <ele>115</ele>
        <time>2020-09-30T12:46:17.382Z</time>
      </trkpt>
      <trkpt lat="33.23001" lon="35.6191">
        <ele>115</ele>
        <time>2020-09-30T12:46:18.382Z</time>
      </trkpt>
      <trkpt lat="33.230050000000006" lon="35.61903">
        <ele>115</ele>
        <time>2020-09-30T12:46:19.382Z</time>
      </trkpt>
      <trkpt lat="33.23008" lon="35.618930000000006">
        <ele>115</ele>
        <time>2020-09-30T12:46:20.382Z</time>
      </trkpt>
      <trkpt lat="33.23008" lon="35.618930000000006">
        <ele>115</ele>
        <time>2020-09-30T12:46:21.382Z</time>
      </trkpt>
      <trkpt lat="33.23008" lon="35.618930000000006">
        <ele>0</ele>
        <time>2020-09-30T12:46:22.382Z</time>
      </trkpt>
      <trkpt lat="33.23008" lon="35.61878">
        <ele>115</ele>
        <time>2020-09-30T12:46:23.382Z</time>
      </trkpt>
      <trkpt lat="33.23006" lon="35.61872">
        <ele>115</ele>
        <time>2020-09-30T12:46:24.382Z</time>
      </trkpt>
      <trkpt lat="33.22995" lon="35.61845">
        <ele>113</ele>
        <time>2020-09-30T12:46:25.382Z</time>
      </trkpt>
      <trkpt lat="33.229870000000005" lon="35.61834">
        <ele>113</ele>
        <time>2020-09-30T12:46:26.382Z</time>
      </trkpt>
      <trkpt lat="33.229760000000006" lon="35.61807">
        <ele>113</ele>
        <time>2020-09-30T12:46:27.382Z</time>
      </trkpt>
      <trkpt lat="33.229760000000006" lon="35.61807">
        <ele>0</ele>
        <time>2020-09-30T12:46:28.382Z</time>
      </trkpt>
      <trkpt lat="33.22965" lon="35.61787">
        <ele>113</ele>
        <time>2020-09-30T12:46:29.382Z</time>
      </trkpt>
      <trkpt lat="33.229490000000006" lon="35.61777">
        <ele>111</ele>
        <time>2020-09-30T12:46:30.382Z</time>
      </trkpt>
      <trkpt lat="33.22939" lon="35.617810000000006">
        <ele>111</ele>
        <time>2020-09-30T12:46:31.382Z</time>
      </trkpt>
      <trkpt lat="33.2293" lon="35.61777">
        <ele>111</ele>
        <time>2020-09-30T12:46:32.382Z</time>
      </trkpt>
      <trkpt lat="33.22927" lon="35.61768">
        <ele>111</ele>
        <time>2020-09-30T12:46:33.382Z</time>
      </trkpt>
      <trkpt lat="33.22927" lon="35.61768">
        <ele>0</ele>
        <time>2020-09-30T12:46:34.382Z</time>
      </trkpt>
      <trkpt lat="33.229220000000005" lon="35.61762">
        <ele>111</ele>
        <time>2020-09-30T12:46:35.382Z</time>
      </trkpt>
      <trkpt lat="33.228880000000004" lon="35.61737">
        <ele>109</ele>
        <time>2020-09-30T12:46:36.382Z</time>
      </trkpt>
      <trkpt lat="33.22865" lon="35.617270000000005">
        <ele>109</ele>
        <time>2020-09-30T12:46:37.382Z</time>
      </trkpt>
      <trkpt lat="33.22847" lon="35.6173">
        <ele>109</ele>
        <time>2020-09-30T12:46:38.382Z</time>
      </trkpt>
      <trkpt lat="33.22829" lon="35.61728">
        <ele>109</ele>
        <time>2020-09-30T12:46:39.382Z</time>
      </trkpt>
      <trkpt lat="33.22829" lon="35.61728">
        <ele>0</ele>
        <time>2020-09-30T12:46:40.382Z</time>
      </trkpt>
      <trkpt lat="33.22825" lon="35.617230000000006">
        <ele>109</ele>
        <time>2020-09-30T12:46:41.382Z</time>
      </trkpt>
      <trkpt lat="33.22793" lon="35.61703">
        <ele>110</ele>
        <time>2020-09-30T12:46:42.382Z</time>
      </trkpt>
      <trkpt lat="33.227810000000005" lon="35.616890000000005">
        <ele>110</ele>
        <time>2020-09-30T12:46:43.382Z</time>
      </trkpt>
      <trkpt lat="33.227630000000005" lon="35.61684">
        <ele>110</ele>
        <time>2020-09-30T12:46:44.382Z</time>
      </trkpt>
      <trkpt lat="33.22755" lon="35.61686">
        <ele>110</ele>
        <time>2020-09-30T12:46:45.382Z</time>
      </trkpt>
      <trkpt lat="33.22755" lon="35.61686">
        <ele>0</ele>
        <time>2020-09-30T12:46:46.382Z</time>
      </trkpt>
      <trkpt lat="33.227450000000005" lon="35.616760000000006">
        <ele>110</ele>
        <time>2020-09-30T12:46:47.382Z</time>
      </trkpt>
      <trkpt lat="33.227320000000006" lon="35.616620000000005">
        <ele>110</ele>
        <time>2020-09-30T12:46:48.382Z</time>
      </trkpt>
      <trkpt lat="33.22726" lon="35.616460000000004">
        <ele>110</ele>
        <time>2020-09-30T12:46:49.382Z</time>
      </trkpt>
      <trkpt lat="33.22719" lon="35.61647">
        <ele>110</ele>
        <time>2020-09-30T12:46:50.382Z</time>
      </trkpt>
      <trkpt lat="33.227180000000004" lon="35.616490000000006">
        <ele>110</ele>
        <time>2020-09-30T12:46:51.382Z</time>
      </trkpt>
      <trkpt lat="33.227180000000004" lon="35.616490000000006">
        <ele>0</ele>
        <time>2020-09-30T12:46:52.382Z</time>
      </trkpt>
      <trkpt lat="33.22713" lon="35.6165">
        <ele>110</ele>
        <time>2020-09-30T12:46:53.382Z</time>
      </trkpt>
      <trkpt lat="33.227090000000004" lon="35.616420000000005">
        <ele>110</ele>
        <time>2020-09-30T12:46:54.382Z</time>
      </trkpt>
      <trkpt lat="33.227090000000004" lon="35.61639">
        <ele>110</ele>
        <time>2020-09-30T12:46:55.382Z</time>
      </trkpt>
      <trkpt lat="33.226960000000005" lon="35.61636">
        <ele>110</ele>
        <time>2020-09-30T12:46:56.382Z</time>
      </trkpt>
      <trkpt lat="33.226910000000004" lon="35.616420000000005">
        <ele>110</ele>
        <time>2020-09-30T12:46:57.382Z</time>
      </trkpt>
      <trkpt lat="33.226910000000004" lon="35.616420000000005">
        <ele>0</ele>
        <time>2020-09-30T12:46:58.382Z</time>
      </trkpt>
      <trkpt lat="33.226910000000004" lon="35.616420000000005">
        <ele>110</ele>
        <time>2020-09-30T12:46:59.382Z</time>
      </trkpt>
      <trkpt lat="33.226760000000006" lon="35.616620000000005">
        <ele>110</ele>
        <time>2020-09-30T12:47:00.382Z</time>
      </trkpt>
      <trkpt lat="33.22664" lon="35.61674">
        <ele>110</ele>
        <time>2020-09-30T12:47:01.382Z</time>
      </trkpt>
      <trkpt lat="33.226510000000005" lon="35.616730000000004">
        <ele>110</ele>
        <time>2020-09-30T12:47:02.382Z</time>
      </trkpt>
      <trkpt lat="33.226470000000006" lon="35.61675">
        <ele>106</ele>
        <time>2020-09-30T12:47:03.382Z</time>
      </trkpt>
      <trkpt lat="33.226470000000006" lon="35.61675">
        <ele>0</ele>
        <time>2020-09-30T12:47:04.382Z</time>
      </trkpt>
      <trkpt lat="33.225950000000005" lon="35.616330000000005">
        <ele>106</ele>
        <time>2020-09-30T12:47:05.382Z</time>
      </trkpt>
      <trkpt lat="33.22442" lon="35.61583">
        <ele>103.5</ele>
        <time>2020-09-30T12:47:06.382Z</time>
      </trkpt>
      <trkpt lat="33.22442" lon="35.61583">
        <ele>103.5</ele>
        <time>2020-09-30T12:47:07.382Z</time>
      </trkpt>
      <trkpt lat="33.224270000000004" lon="35.61578">
        <ele>101</ele>
        <time>2020-09-30T12:47:08.382Z</time>
      </trkpt>
      <trkpt lat="33.22451" lon="35.615300000000005">
        <ele>102</ele>
        <time>2020-09-30T12:47:09.382Z</time>
      </trkpt>
      <trkpt lat="33.22451" lon="35.615300000000005">
        <ele>0</ele>
        <time>2020-09-30T12:47:10.382Z</time>
      </trkpt>
      <trkpt lat="33.224410000000006" lon="35.61506">
        <ele>102</ele>
        <time>2020-09-30T12:47:11.382Z</time>
      </trkpt>
      <trkpt lat="33.22453" lon="35.61475">
        <ele>102</ele>
        <time>2020-09-30T12:47:12.382Z</time>
      </trkpt>
      <trkpt lat="33.22467" lon="35.614560000000004">
        <ele>102</ele>
        <time>2020-09-30T12:47:13.382Z</time>
      </trkpt>
      <trkpt lat="33.22477" lon="35.614360000000005">
        <ele>102</ele>
        <time>2020-09-30T12:47:14.382Z</time>
      </trkpt>
      <trkpt lat="33.225" lon="35.61354">
        <ele>105</ele>
        <time>2020-09-30T12:47:15.382Z</time>
      </trkpt>
      <trkpt lat="33.225" lon="35.61354">
        <ele>0</ele>
        <time>2020-09-30T12:47:16.382Z</time>
      </trkpt>
      <trkpt lat="33.225060000000006" lon="35.61314">
        <ele>105</ele>
        <time>2020-09-30T12:47:17.382Z</time>
      </trkpt>
      <trkpt lat="33.22507" lon="35.61314">
        <ele>106</ele>
        <time>2020-09-30T12:47:18.382Z</time>
      </trkpt>
      <trkpt lat="33.22507" lon="35.61314">
        <ele>106</ele>
        <time>2020-09-30T12:47:19.382Z</time>
      </trkpt>
      <trkpt lat="33.22578" lon="35.613130000000005">
        <ele>107</ele>
        <time>2020-09-30T12:47:20.382Z</time>
      </trkpt>
      <trkpt lat="33.22811" lon="35.61301">
        <ele>114</ele>
        <time>2020-09-30T12:47:21.382Z</time>
      </trkpt>
      <trkpt lat="33.22811" lon="35.61301">
        <ele>0</ele>
        <time>2020-09-30T12:47:22.382Z</time>
      </trkpt>
      <trkpt lat="33.230270000000004" lon="35.612840000000006">
        <ele>124</ele>
        <time>2020-09-30T12:47:23.382Z</time>
      </trkpt>
      <trkpt lat="33.23127" lon="35.612610000000004">
        <ele>130</ele>
        <time>2020-09-30T12:47:24.382Z</time>
      </trkpt>
      <trkpt lat="33.231660000000005" lon="35.61247">
        <ele>134</ele>
        <time>2020-09-30T12:47:25.382Z</time>
      </trkpt>
      <trkpt lat="33.23214" lon="35.61233">
        <ele>135.5</ele>
        <time>2020-09-30T12:47:26.382Z</time>
      </trkpt>
      <trkpt lat="33.23214" lon="35.61233">
        <ele>135.5</ele>
        <time>2020-09-30T12:47:27.382Z</time>
      </trkpt>
      <trkpt lat="33.23214" lon="35.61233">
        <ele>0</ele>
        <time>2020-09-30T12:47:28.382Z</time>
      </trkpt>
      <trkpt lat="33.232420000000005" lon="35.61225">
        <ele>137</ele>
        <time>2020-09-30T12:47:29.382Z</time>
      </trkpt>
      <trkpt lat="33.23346" lon="35.612230000000004">
        <ele>142</ele>
        <time>2020-09-30T12:47:30.382Z</time>
      </trkpt>
      <trkpt lat="33.23366" lon="35.612190000000005">
        <ele>142</ele>
        <time>2020-09-30T12:47:31.382Z</time>
      </trkpt>
      <trkpt lat="33.233850000000004" lon="35.612080000000006">
        <ele>142</ele>
        <time>2020-09-30T12:47:32.382Z</time>
      </trkpt>
      <trkpt lat="33.23639" lon="35.610200000000006">
        <ele>161</ele>
        <time>2020-09-30T12:47:33.382Z</time>
      </trkpt>
      <trkpt lat="33.23639" lon="35.610200000000006">
        <ele>0</ele>
        <time>2020-09-30T12:47:34.382Z</time>
      </trkpt>
      <trkpt lat="33.23659" lon="35.61007">
        <ele>164</ele>
        <time>2020-09-30T12:47:35.382Z</time>
      </trkpt>
      <trkpt lat="33.23659" lon="35.61007">
        <ele>164</ele>
        <time>2020-09-30T12:47:36.382Z</time>
      </trkpt>
      <trkpt lat="33.23639" lon="35.610200000000006">
        <ele>161</ele>
        <time>2020-09-30T12:47:37.382Z</time>
      </trkpt>
      <trkpt lat="33.23639" lon="35.609790000000004">
        <ele>161</ele>
        <time>2020-09-30T12:47:38.382Z</time>
      </trkpt>
      <trkpt lat="33.23635" lon="35.6092">
        <ele>163</ele>
        <time>2020-09-30T12:47:39.382Z</time>
      </trkpt>
      <trkpt lat="33.23635" lon="35.6092">
        <ele>0</ele>
        <time>2020-09-30T12:47:40.382Z</time>
      </trkpt>
      <trkpt lat="33.23642" lon="35.608670000000004">
        <ele>163</ele>
        <time>2020-09-30T12:47:41.382Z</time>
      </trkpt>
      <trkpt lat="33.236700000000006" lon="35.608180000000004">
        <ele>167</ele>
        <time>2020-09-30T12:47:42.382Z</time>
      </trkpt>
      <trkpt lat="33.236810000000006" lon="35.60783">
        <ele>167</ele>
        <time>2020-09-30T12:47:43.382Z</time>
      </trkpt>
      <trkpt lat="33.23664" lon="35.60676">
        <ele>171</ele>
        <time>2020-09-30T12:47:44.382Z</time>
      </trkpt>
      <trkpt lat="33.23653" lon="35.6062">
        <ele>171</ele>
        <time>2020-09-30T12:47:45.382Z</time>
      </trkpt>
      <trkpt lat="33.23653" lon="35.6062">
        <ele>0</ele>
        <time>2020-09-30T12:47:46.382Z</time>
      </trkpt>
      <trkpt lat="33.236450000000005" lon="35.60488">
        <ele>167</ele>
        <time>2020-09-30T12:47:47.382Z</time>
      </trkpt>
      <trkpt lat="33.23644" lon="35.60436">
        <ele>165</ele>
        <time>2020-09-30T12:47:48.382Z</time>
      </trkpt>
      <trkpt lat="33.236700000000006" lon="35.603730000000006">
        <ele>171</ele>
        <time>2020-09-30T12:47:49.382Z</time>
      </trkpt>
      <trkpt lat="33.2368" lon="35.60275">
        <ele>171</ele>
        <time>2020-09-30T12:47:50.382Z</time>
      </trkpt>
      <trkpt lat="33.23691" lon="35.60249">
        <ele>171</ele>
        <time>2020-09-30T12:47:51.382Z</time>
      </trkpt>
      <trkpt lat="33.23691" lon="35.60249">
        <ele>0</ele>
        <time>2020-09-30T12:47:52.382Z</time>
      </trkpt>
      <trkpt lat="33.237" lon="35.601960000000005">
        <ele>183</ele>
        <time>2020-09-30T12:47:53.382Z</time>
      </trkpt>
      <trkpt lat="33.237190000000005" lon="35.601870000000005">
        <ele>183</ele>
        <time>2020-09-30T12:47:54.382Z</time>
      </trkpt>
      <trkpt lat="33.23725" lon="35.601760000000006">
        <ele>183</ele>
        <time>2020-09-30T12:47:55.382Z</time>
      </trkpt>
      <trkpt lat="33.23724" lon="35.60159">
        <ele>183</ele>
        <time>2020-09-30T12:47:56.382Z</time>
      </trkpt>
      <trkpt lat="33.23711" lon="35.60112">
        <ele>192</ele>
        <time>2020-09-30T12:47:57.382Z</time>
      </trkpt>
      <trkpt lat="33.23711" lon="35.60112">
        <ele>0</ele>
        <time>2020-09-30T12:47:58.382Z</time>
      </trkpt>
      <trkpt lat="33.23689" lon="35.600640000000006">
        <ele>192</ele>
        <time>2020-09-30T12:47:59.382Z</time>
      </trkpt>
      <trkpt lat="33.236850000000004" lon="35.600260000000006">
        <ele>196</ele>
        <time>2020-09-30T12:48:00.382Z</time>
      </trkpt>
      <trkpt lat="33.23727" lon="35.599340000000005">
        <ele>199</ele>
        <time>2020-09-30T12:48:01.382Z</time>
      </trkpt>
      <trkpt lat="33.23686" lon="35.597620000000006">
        <ele>201</ele>
        <time>2020-09-30T12:48:02.382Z</time>
      </trkpt>
      <trkpt lat="33.23684" lon="35.59763">
        <ele>196.5</ele>
        <time>2020-09-30T12:48:03.382Z</time>
      </trkpt>
      <trkpt lat="33.23684" lon="35.59763">
        <ele>0</ele>
        <time>2020-09-30T12:48:04.382Z</time>
      </trkpt>
      <trkpt lat="33.23684" lon="35.59763">
        <ele>196.5</ele>
        <time>2020-09-30T12:48:05.382Z</time>
      </trkpt>
      <trkpt lat="33.23781" lon="35.596680000000006">
        <ele>207</ele>
        <time>2020-09-30T12:48:06.382Z</time>
      </trkpt>
      <trkpt lat="33.238490000000006" lon="35.59639">
        <ele>213</ele>
        <time>2020-09-30T12:48:07.382Z</time>
      </trkpt>
      <trkpt lat="33.239630000000005" lon="35.59638">
        <ele>219</ele>
        <time>2020-09-30T12:48:08.382Z</time>
      </trkpt>
      <trkpt lat="33.24015" lon="35.596270000000004">
        <ele>223</ele>
        <time>2020-09-30T12:48:09.382Z</time>
      </trkpt>
      <trkpt lat="33.24015" lon="35.596270000000004">
        <ele>0</ele>
        <time>2020-09-30T12:48:10.382Z</time>
      </trkpt>
      <trkpt lat="33.24031" lon="35.59575">
        <ele>221</ele>
        <time>2020-09-30T12:48:11.382Z</time>
      </trkpt>
      <trkpt lat="33.24053" lon="35.59465">
        <ele>225</ele>
        <time>2020-09-30T12:48:12.382Z</time>
      </trkpt>
      <trkpt lat="33.240860000000005" lon="35.59375">
        <ele>231</ele>
        <time>2020-09-30T12:48:13.382Z</time>
      </trkpt>
      <trkpt lat="33.24123" lon="35.59322">
        <ele>234</ele>
        <time>2020-09-30T12:48:14.382Z</time>
      </trkpt>
      <trkpt lat="33.241780000000006" lon="35.592670000000005">
        <ele>242</ele>
        <time>2020-09-30T12:48:15.382Z</time>
      </trkpt>
      <trkpt lat="33.241780000000006" lon="35.592670000000005">
        <ele>0</ele>
        <time>2020-09-30T12:48:16.382Z</time>
      </trkpt>
      <trkpt lat="33.242180000000005" lon="35.59246">
        <ele>242</ele>
        <time>2020-09-30T12:48:17.382Z</time>
      </trkpt>
      <trkpt lat="33.24284" lon="35.592290000000006">
        <ele>248</ele>
        <time>2020-09-30T12:48:18.382Z</time>
      </trkpt>
      <trkpt lat="33.244" lon="35.592240000000004">
        <ele>253</ele>
        <time>2020-09-30T12:48:19.382Z</time>
      </trkpt>
      <trkpt lat="33.244" lon="35.59214">
        <ele>252.5</ele>
        <time>2020-09-30T12:48:20.382Z</time>
      </trkpt>
      <trkpt lat="33.244" lon="35.59214">
        <ele>252.5</ele>
        <time>2020-09-30T12:48:21.382Z</time>
      </trkpt>
      <trkpt lat="33.244" lon="35.59214">
        <ele>0</ele>
        <time>2020-09-30T12:48:22.382Z</time>
      </trkpt>
      <trkpt lat="33.24401" lon="35.590860000000006">
        <ele>248</ele>
        <time>2020-09-30T12:48:23.382Z</time>
      </trkpt>
      <trkpt lat="33.24438" lon="35.58802">
        <ele>255</ele>
        <time>2020-09-30T12:48:24.382Z</time>
      </trkpt>
      <trkpt lat="33.244330000000005" lon="35.586670000000005">
        <ele>264</ele>
        <time>2020-09-30T12:48:25.382Z</time>
      </trkpt>
      <trkpt lat="33.24428" lon="35.58616">
        <ele>267</ele>
        <time>2020-09-30T12:48:26.382Z</time>
      </trkpt>
      <trkpt lat="33.24392" lon="35.584050000000005">
        <ele>273</ele>
        <time>2020-09-30T12:48:27.382Z</time>
      </trkpt>
      <trkpt lat="33.24392" lon="35.584050000000005">
        <ele>0</ele>
        <time>2020-09-30T12:48:28.382Z</time>
      </trkpt>
      <trkpt lat="33.24416" lon="35.5827">
        <ele>281</ele>
        <time>2020-09-30T12:48:29.382Z</time>
      </trkpt>
      <trkpt lat="33.24416" lon="35.5827">
        <ele>281</ele>
        <time>2020-09-30T12:48:30.382Z</time>
      </trkpt>
      <trkpt lat="33.244170000000004" lon="35.582660000000004">
        <ele>283</ele>
        <time>2020-09-30T12:48:31.382Z</time>
      </trkpt>
      <trkpt lat="33.24363" lon="35.5827">
        <ele>279</ele>
        <time>2020-09-30T12:48:32.382Z</time>
      </trkpt>
      <trkpt lat="33.24335" lon="35.582750000000004">
        <ele>279</ele>
        <time>2020-09-30T12:48:33.382Z</time>
      </trkpt>
      <trkpt lat="33.24335" lon="35.582750000000004">
        <ele>0</ele>
        <time>2020-09-30T12:48:34.382Z</time>
      </trkpt>
      <trkpt lat="33.24315" lon="35.58254">
        <ele>279</ele>
        <time>2020-09-30T12:48:35.382Z</time>
      </trkpt>
      <trkpt lat="33.24317" lon="35.58222">
        <ele>279</ele>
        <time>2020-09-30T12:48:36.382Z</time>
      </trkpt>
      <trkpt lat="33.24176" lon="35.58209">
        <ele>278</ele>
        <time>2020-09-30T12:48:37.382Z</time>
      </trkpt>
      <trkpt lat="33.24148" lon="35.58178">
        <ele>287</ele>
        <time>2020-09-30T12:48:38.382Z</time>
      </trkpt>
      <trkpt lat="33.24148" lon="35.58174">
        <ele>287</ele>
        <time>2020-09-30T12:48:39.382Z</time>
      </trkpt>
      <trkpt lat="33.24148" lon="35.58174">
        <ele>0</ele>
        <time>2020-09-30T12:48:40.382Z</time>
      </trkpt>
      <trkpt lat="33.24148" lon="35.58174">
        <ele>287</ele>
        <time>2020-09-30T12:48:41.382Z</time>
      </trkpt>
      <trkpt lat="33.241510000000005" lon="35.58158">
        <ele>287</ele>
        <time>2020-09-30T12:48:42.382Z</time>
      </trkpt>
      <trkpt lat="33.24175" lon="35.580920000000006">
        <ele>299</ele>
        <time>2020-09-30T12:48:43.382Z</time>
      </trkpt>
      <trkpt lat="33.241580000000006" lon="35.58057">
        <ele>299</ele>
        <time>2020-09-30T12:48:44.382Z</time>
      </trkpt>
      <trkpt lat="33.241220000000006" lon="35.580400000000004">
        <ele>302</ele>
        <time>2020-09-30T12:48:45.382Z</time>
      </trkpt>
      <trkpt lat="33.241220000000006" lon="35.580400000000004">
        <ele>0</ele>
        <time>2020-09-30T12:48:46.382Z</time>
      </trkpt>
      <trkpt lat="33.24098" lon="35.58052">
        <ele>296.5</ele>
        <time>2020-09-30T12:48:47.382Z</time>
      </trkpt>
      <trkpt lat="33.24098" lon="35.58052">
        <ele>296.5</ele>
        <time>2020-09-30T12:48:48.382Z</time>
      </trkpt>
      <trkpt lat="33.240320000000004" lon="35.580850000000005">
        <ele>291</ele>
        <time>2020-09-30T12:48:49.382Z</time>
      </trkpt>
      <trkpt lat="33.240050000000004" lon="35.58075">
        <ele>291</ele>
        <time>2020-09-30T12:48:50.382Z</time>
      </trkpt>
      <trkpt lat="33.239920000000005" lon="35.580040000000004">
        <ele>299</ele>
        <time>2020-09-30T12:48:51.382Z</time>
      </trkpt>
      <trkpt lat="33.239920000000005" lon="35.580040000000004">
        <ele>0</ele>
        <time>2020-09-30T12:48:52.382Z</time>
      </trkpt>
      <trkpt lat="33.24013" lon="35.57923">
        <ele>301</ele>
        <time>2020-09-30T12:48:53.382Z</time>
      </trkpt>
      <trkpt lat="33.24007" lon="35.57891">
        <ele>301</ele>
        <time>2020-09-30T12:48:54.382Z</time>
      </trkpt>
      <trkpt lat="33.2395" lon="35.57835">
        <ele>293</ele>
        <time>2020-09-30T12:48:55.382Z</time>
      </trkpt>
      <trkpt lat="33.239520000000006" lon="35.57811">
        <ele>293</ele>
        <time>2020-09-30T12:48:56.382Z</time>
      </trkpt>
      <trkpt lat="33.239520000000006" lon="35.57811">
        <ele>293</ele>
        <time>2020-09-30T12:48:57.382Z</time>
      </trkpt>
      <trkpt lat="33.239520000000006" lon="35.57811">
        <ele>0</ele>
        <time>2020-09-30T12:48:58.382Z</time>
      </trkpt>
      <trkpt lat="33.239540000000005" lon="35.5779">
        <ele>293</ele>
        <time>2020-09-30T12:48:59.382Z</time>
      </trkpt>
      <trkpt lat="33.239740000000005" lon="35.57692">
        <ele>316</ele>
        <time>2020-09-30T12:49:00.382Z</time>
      </trkpt>
      <trkpt lat="33.2398" lon="35.57672">
        <ele>320</ele>
        <time>2020-09-30T12:49:01.382Z</time>
      </trkpt>
      <trkpt lat="33.23984" lon="35.57645">
        <ele>320</ele>
        <time>2020-09-30T12:49:02.382Z</time>
      </trkpt>
      <trkpt lat="33.23979" lon="35.57621">
        <ele>316</ele>
        <time>2020-09-30T12:49:03.382Z</time>
      </trkpt>
      <trkpt lat="33.23979" lon="35.57621">
        <ele>0</ele>
        <time>2020-09-30T12:49:04.382Z</time>
      </trkpt>
      <trkpt lat="33.239340000000006" lon="35.576710000000006">
        <ele>316</ele>
        <time>2020-09-30T12:49:05.382Z</time>
      </trkpt>
      <trkpt lat="33.23892" lon="35.576820000000005">
        <ele>317</ele>
        <time>2020-09-30T12:49:06.382Z</time>
      </trkpt>
      <trkpt lat="33.23783" lon="35.576750000000004">
        <ele>302</ele>
        <time>2020-09-30T12:49:07.382Z</time>
      </trkpt>
      <trkpt lat="33.23769" lon="35.57663">
        <ele>302</ele>
        <time>2020-09-30T12:49:08.382Z</time>
      </trkpt>
      <trkpt lat="33.2376" lon="35.57652">
        <ele>302</ele>
        <time>2020-09-30T12:49:09.382Z</time>
      </trkpt>
      <trkpt lat="33.2376" lon="35.57652">
        <ele>0</ele>
        <time>2020-09-30T12:49:10.382Z</time>
      </trkpt>
      <trkpt lat="33.23762" lon="35.57629">
        <ele>302</ele>
        <time>2020-09-30T12:49:11.382Z</time>
      </trkpt>
      <trkpt lat="33.237680000000005" lon="35.57627">
        <ele>302</ele>
        <time>2020-09-30T12:49:12.382Z</time>
      </trkpt>
      <trkpt lat="33.237730000000006" lon="35.576220000000006">
        <ele>302</ele>
        <time>2020-09-30T12:49:13.382Z</time>
      </trkpt>
      <trkpt lat="33.23781" lon="35.576100000000004">
        <ele>300</ele>
        <time>2020-09-30T12:49:14.382Z</time>
      </trkpt>
      <trkpt lat="33.237930000000006" lon="35.575860000000006">
        <ele>300</ele>
        <time>2020-09-30T12:49:15.382Z</time>
      </trkpt>
      <trkpt lat="33.237930000000006" lon="35.575860000000006">
        <ele>0</ele>
        <time>2020-09-30T12:49:16.382Z</time>
      </trkpt>
      <trkpt lat="33.238040000000005" lon="35.57574">
        <ele>300</ele>
        <time>2020-09-30T12:49:17.382Z</time>
      </trkpt>
      <trkpt lat="33.23812" lon="35.57571">
        <ele>300</ele>
        <time>2020-09-30T12:49:18.382Z</time>
      </trkpt>
      <trkpt lat="33.23821" lon="35.575700000000005">
        <ele>318</ele>
        <time>2020-09-30T12:49:19.382Z</time>
      </trkpt>
      <trkpt lat="33.23848" lon="35.575720000000004">
        <ele>318</ele>
        <time>2020-09-30T12:49:20.382Z</time>
      </trkpt>
      <trkpt lat="33.238490000000006" lon="35.57582">
        <ele>318</ele>
        <time>2020-09-30T12:49:21.382Z</time>
      </trkpt>
      <trkpt lat="33.238490000000006" lon="35.57582">
        <ele>0</ele>
        <time>2020-09-30T12:49:22.382Z</time>
      </trkpt>
      <trkpt lat="33.238530000000004" lon="35.57585">
        <ele>318</ele>
        <time>2020-09-30T12:49:23.382Z</time>
      </trkpt>
      <trkpt lat="33.23861" lon="35.57587">
        <ele>318</ele>
        <time>2020-09-30T12:49:24.382Z</time>
      </trkpt>
      <trkpt lat="33.23915" lon="35.575880000000005">
        <ele>321</ele>
        <time>2020-09-30T12:49:25.382Z</time>
      </trkpt>
    </trkseg>
  </trk>
</gpx>